{
  "type": "FeatureCollection",
  "name": "territory-1",
  "features": [
    {
      "type": "Feature",
      "properties": {
        "Name": "Sumerian City-States",
        "FromYear": -2500,
        "ToYear": -2301,
        "Area": 106576.07060876074,
        "Type": "POLITY",
        "Wikipedia": "History of Sumer",
        "Wikidata": "Q2345840",
        "SeshatID": "",
        "Components": "",
        "MemberOf": ""
      },
      "geometry": {
        "type": "Polygon",
        "coordinates": [
          [
            [
              42.97563934326172,
              34.48630142211914
            ],
            [
              42.967430114746094,
              34.42197799682617
            ],
            [
              43.26723861694336,
              34.3576545715332
            ],
            [
              43.32773971557617,
              34.22901916503906
            ],
            [
              43.841468811035156,
              34.03607940673828
            ],
            [
              44.26115036010742,
              33.71455001831055
            ],
            [
              44.499916076660156,
              33.77885055541992
            ],
            [
              44.59535598754883,
              33.32876968383789
            ],
            [
              44.74873733520508,
              33.32876968383789
            ],
            [
              45.02235794067383,
              33.07160949707031
            ],
            [
              45.550323486328125,
              33.00732421875
            ],
            [
              45.73723220825195,
              33.26447677612305
            ],
            [
              46.14643478393555,
              33.45735549926758
            ],
            [
              46.16311264038086,
              33.00732421875
            ],
            [
              46.75869369506836,
              32.878753662109375
            ],
            [
              47.02205276489258,
              32.557350158691406
            ],
            [
              47.69301223754883,
              32.428794860839844
            ],
            [
              47.85454559326172,
              32.493072509765625
            ],
            [
              48.57517623901367,
              32.171695709228516
            ],
            [
              48.87158966064453,
              30.950578689575195
            ],
            [
              48.9476318359375,
              30.950578689575195
            ],
            [
              48.914974212646484,
              30.69350814819336
            ],
            [
              48.25519561767578,
              30.886310577392578
            ],
            [
              47.799049377441406,
              30.886310577392578
            ],
            [
              47.25126266479492,
              30.757776260375977
            ],
            [
              47.235774993896484,
              30.629240036010742
            ],
            [
              46.696475982666016,
              30.564971923828125
            ],
            [
              46.590572357177734,
              30.307893753051758
            ],
            [
              46.294429779052734,
              30.372163772583008
            ],
            [
              45.67786407470703,
              30.950578689575195
            ],
            [
              45.44972610473633,
              31.593257904052734
            ],
            [
              45.30503845214844,
              31.65752601623535
            ],
            [
              45.39683532714844,
              31.78606605529785
            ],
            [
              45.18363952636719,
              31.91460609436035
            ],
            [
              45.19933319091797,
              32.043148040771484
            ],
            [
              45.062408447265625,
              32.171695709228516
            ],
            [
              44.833316802978516,
              32.171695709228516
            ],
            [
              44.71202850341797,
              32.428794860839844
            ],
            [
              44.32204055786133,
              32.36451721191406
            ],
            [
              44.10295486450195,
              33.07160949707031
            ],
            [
              43.9497184753418,
              33.07160949707031
            ],
            [
              43.82041549682617,
              33.26447677612305
            ],
            [
              43.52167892456055,
              33.32876968383789
            ],
            [
              43.46092987060547,
              33.45735549926758
            ],
            [
              43.307472229003906,
              33.45735549926758
            ],
            [
              43.24666976928711,
              33.5859489440918
            ],
            [
              42.94752883911133,
              33.65024948120117
            ],
            [
              42.88662338256836,
              33.77885055541992
            ],
            [
              42.380367279052734,
              34.03607940673828
            ],
            [
              40.788108825683594,
              34.22901916503906
            ],
            [
              40.51805877685547,
              34.55062484741211
            ],
            [
              40.61809539794922,
              34.743614196777344
            ],
            [
              40.85720443725586,
              34.80794906616211
            ],
            [
              40.99589538574219,
              34.679283142089844
            ],
            [
              41.235023498535156,
              34.743614196777344
            ],
            [
              41.835975646972656,
              34.614952087402344
            ],
            [
              42.53782272338867,
              34.679283142089844
            ],
            [
              42.52153015136719,
              34.55062484741211
            ],
            [
              42.73638153076172,
              34.42197799682617
            ],
            [
              42.97563934326172,
              34.48630142211914
            ]
          ]
        ]
      }
    }
  ]
}