{
  "type": "FeatureCollection",
  "name": "territory-10",
  "features": [
    {
      "type": "Feature",
      "properties": {
        "Name": "Assyria",
        "FromYear": -1220,
        "ToYear": -1201,
        "Area": 599270.3168224652,
        "Type": "POLITY",
        "Wikipedia": "Assyria",
        "Wikidata": "Q41137",
        "SeshatID": "iq_middle_assyrian_emp",
        "Components": "",
        "MemberOf": ""
      },
      "geometry": {
        "type": "Polygon",
        "coordinates": [
          [
            [
              42.98398208618164,
              39.9670295715332
            ],
            [
              43.22083282470703,
              39.9670295715332
            ],
            [
              43.27845764160156,
              39.8376350402832
            ],
            [
              43.436256408691406,
              39.8376350402832
            ],
            [
              43.41499328613281,
              39.70827102661133
            ],
            [
              44.51885986328125,
              39.70827102661133
            ],
            [
              44.486209869384766,
              39.51427459716797
            ],
            [
              44.06045150756836,
              39.320335388183594
            ],
            [
              44.1391487121582,
              39.320335388183594
            ],
            [
              44.17567443847656,
              39.06184005737305
            ],
            [
              44.32237243652344,
              38.997230529785156
            ],
            [
              44.31817626953125,
              38.48057174682617
            ],
            [
              44.53285217285156,
              38.351463317871094
            ],
            [
              44.34591293334961,
              38.157840728759766
            ],
            [
              44.30603790283203,
              37.89975357055664
            ],
            [
              44.462371826171875,
              37.89975357055664
            ],
            [
              44.598793029785156,
              37.7707405090332
            ],
            [
              44.63739776611328,
              37.51277160644531
            ],
            [
              44.8517951965332,
              37.38381576538086
            ],
            [
              44.86170959472656,
              36.932613372802734
            ],
            [
              45.0662956237793,
              36.73930740356445
            ],
            [
              45.10586166381836,
              36.48161697387695
            ],
            [
              45.387969970703125,
              36.28839111328125
            ],
            [
              45.369049072265625,
              36.15959167480469
            ],
            [
              45.44662094116211,
              36.15959167480469
            ],
            [
              45.350242614746094,
              36.03080368041992
            ],
            [
              46.32926940917969,
              35.837650299072266
            ],
            [
              46.0684928894043,
              35.644527435302734
            ],
            [
              46.040348052978516,
              35.45143127441406
            ],
            [
              46.2442741394043,
              35.258358001708984
            ],
            [
              46.22567367553711,
              35.12965774536133
            ],
            [
              45.89838409423828,
              35.00096893310547
            ],
            [
              45.86199951171875,
              34.743614196777344
            ],
            [
              46.175201416015625,
              34.22901916503906
            ],
            [
              46.14847946166992,
              34.03607940673828
            ],
            [
              46.379180908203125,
              34.03607940673828
            ],
            [
              46.284515380859375,
              33.90746307373047
            ],
            [
              46.78679656982422,
              33.65024948120117
            ],
            [
              46.69233322143555,
              33.52165222167969
            ],
            [
              46.75147247314453,
              33.393062591552734
            ],
            [
              47.559574127197266,
              33.13589859008789
            ],
            [
              47.636207580566406,
              33.13589859008789
            ],
            [
              47.61848449707031,
              33.00732421875
            ],
            [
              47.966007232666016,
              32.75019073486328
            ],
            [
              47.93099594116211,
              32.493072509765625
            ],
            [
              48.15162658691406,
              32.428794860839844
            ],
            [
              48.252750396728516,
              31.464719772338867
            ],
            [
              49.28668975830078,
              30.629240036010742
            ],
            [
              49.27046203613281,
              30.500701904296875
            ],
            [
              49.11860656738281,
              30.500701904296875
            ],
            [
              49.04267883300781,
              30.500701904296875
            ],
            [
              48.942848205566406,
              30.307893753051758
            ],
            [
              48.987266540527344,
              30.050809860229492
            ],
            [
              48.36544418334961,
              29.922264099121094
            ],
            [
              48.40353012084961,
              29.600887298583984
            ],
            [
              47.8662223815918,
              29.536611557006836
            ],
            [
              47.28971481323242,
              29.79371452331543
            ],
            [
              46.97944259643555,
              29.729440689086914
            ],
            [
              46.99397659301758,
              29.857990264892578
            ],
            [
              46.84971618652344,
              29.922264099121094
            ],
            [
              46.61511993408203,
              29.857990264892578
            ],
            [
              46.590572357177734,
              30.307893753051758
            ],
            [
              45.77046203613281,
              30.436433792114258
            ],
            [
              44.95460891723633,
              31.271915435791016
            ],
            [
              44.5814208984375,
              31.336183547973633
            ],
            [
              44.459014892578125,
              31.593257904052734
            ],
            [
              43.152584075927734,
              32.81447219848633
            ],
            [
              42.708534240722656,
              32.94303894042969
            ],
            [
              42.578269958496094,
              33.13589859008789
            ],
            [
              41.48860549926758,
              33.65024948120117
            ],
            [
              41.211639404296875,
              33.90746307373047
            ],
            [
              40.91171646118164,
              33.971771240234375
            ],
            [
              40.84990692138672,
              34.10039138793945
            ],
            [
              40.472782135009766,
              34.164703369140625
            ],
            [
              40.41832733154297,
              34.3576545715332
            ],
            [
              40.117794036865234,
              34.42197799682617
            ],
            [
              40.05571746826172,
              34.55062484741211
            ],
            [
              38.80360794067383,
              35.065311431884766
            ],
            [
              38.17873764038086,
              35.00096893310547
            ],
            [
              38.00316619873047,
              34.80794906616211
            ],
            [
              37.72257614135742,
              35.065311431884766
            ],
            [
              37.56814193725586,
              35.065311431884766
            ],
            [
              37.47011184692383,
              34.87228775024414
            ],
            [
              37.24550247192383,
              34.93662643432617
            ],
            [
              37.154666900634766,
              34.80794906616211
            ],
            [
              36.84612274169922,
              34.80794906616211
            ],
            [
              36.768985748291016,
              34.80794906616211
            ],
            [
              36.628089904785156,
              34.93662643432617
            ],
            [
              36.648292541503906,
              35.12965774536133
            ],
            [
              36.83700180053711,
              35.45143127441406
            ],
            [
              37.223697662353516,
              35.45143127441406
            ],
            [
              37.29466247558594,
              36.09519577026367
            ],
            [
              37.37221145629883,
              36.09519577026367
            ],
            [
              37.515846252441406,
              36.67487716674805
            ],
            [
              37.197532653808594,
              36.61045455932617
            ],
            [
              36.908504486083984,
              36.80373764038086
            ],
            [
              36.67515182495117,
              36.80373764038086
            ],
            [
              36.611873626708984,
              36.932613372802734
            ],
            [
              36.3856086730957,
              36.9970588684082
            ],
            [
              36.40012741088867,
              37.12596130371094
            ],
            [
              36.66340255737305,
              37.38381576538086
            ],
            [
              36.90488052368164,
              37.44829177856445
            ],
            [
              37.2796630859375,
              37.3193473815918
            ],
            [
              37.59921646118164,
              37.38381576538086
            ],
            [
              37.78644943237305,
              37.641746520996094
            ],
            [
              38.39500427246094,
              37.51277160644531
            ],
            [
              38.809608459472656,
              37.706241607666016
            ],
            [
              38.9015007019043,
              38.416015625
            ],
            [
              38.823143005371094,
              38.416015625
            ],
            [
              38.77892303466797,
              38.67427444458008
            ],
            [
              38.62202072143555,
              38.67427444458008
            ],
            [
              38.761260986328125,
              39.1264533996582
            ],
            [
              38.542911529541016,
              39.25570297241211
            ],
            [
              38.551719665527344,
              39.320335388183594
            ],
            [
              38.35090637207031,
              39.57893371582031
            ],
            [
              38.41397476196289,
              40.031734466552734
            ],
            [
              38.2651252746582,
              40.0964469909668
            ],
            [
              38.60896682739258,
              40.29063034057617
            ],
            [
              38.688045501708984,
              40.29063034057617
            ],
            [
              39.766170501708984,
              40.0964469909668
            ],
            [
              40.12135314941406,
              40.355369567871094
            ],
            [
              40.58599090576172,
              40.29063034057617
            ],
            [
              40.863807678222656,
              40.54964065551758
            ],
            [
              41.861717224121094,
              40.355369567871094
            ],
            [
              42.346988677978516,
              40.42012023925781
            ],
            [
              42.73662567138672,
              39.90232849121094
            ],
            [
              42.905029296875,
              39.9670295715332
            ],
            [
              42.98398208618164,
              39.9670295715332
            ]
          ]
        ]
      }
    }
  ]
}