{
  "type": "FeatureCollection",
  "name": "territory-100",
  "features": [
    {
      "type": "Feature",
      "properties": {
        "Name": "Liaodong",
        "FromYear": -206,
        "ToYear": -204,
        "Area": 70288.22422842834,
        "Type": "POLITY",
        "Wikipedia": "Eighteen Kingdoms",
        "Wikidata": "Q5349053",
        "SeshatID": "",
        "Components": "",
        "MemberOf": "(Eighteen Kingdoms)"
      },
      "geometry": {
        "type": "Polygon",
        "coordinates": [
          [
            [
              124.83663940429688,
              41.132843017578125
            ],
            [
              124.7970962524414,
              41.06801223754883
            ],
            [
              124.41182708740234,
              40.29063034057617
            ],
            [
              123.87106323242188,
              39.90232849121094
            ],
            [
              123.876220703125,
              39.77294921875
            ],
            [
              123.59744262695312,
              39.8376350402832
            ],
            [
              122.93595886230469,
              39.64360046386719
            ],
            [
              122.17044830322266,
              39.25570297241211
            ],
            [
              121.95193481445312,
              38.997230529785156
            ],
            [
              121.71622467041016,
              38.997230529785156
            ],
            [
              121.42170715332031,
              38.738853454589844
            ],
            [
              121.02933502197266,
              38.738853454589844
            ],
            [
              121.20073699951172,
              39.06184005737305
            ],
            [
              121.51512908935547,
              39.06184005737305
            ],
            [
              121.69013214111328,
              39.38497543334961
            ],
            [
              121.2965316772461,
              39.38497543334961
            ],
            [
              121.20963287353516,
              39.51427459716797
            ],
            [
              121.28069305419922,
              39.64360046386719
            ],
            [
              121.43833923339844,
              39.64360046386719
            ],
            [
              121.50332641601562,
              39.90232849121094
            ],
            [
              121.7764663696289,
              39.9670295715332
            ],
            [
              122.11848449707031,
              40.29063034057617
            ],
            [
              122.23056030273438,
              40.4848747253418
            ],
            [
              122.10609436035156,
              40.6791877746582
            ],
            [
              121.82695770263672,
              40.74397277832031
            ],
            [
              121.82366180419922,
              40.873565673828125
            ],
            [
              121.1097640991211,
              40.873565673828125
            ],
            [
              120.9967269897461,
              40.6791877746582
            ],
            [
              120.64734649658203,
              40.4848747253418
            ],
            [
              120.50029754638672,
              40.225894927978516
            ],
            [
              119.88165283203125,
              39.9670295715332
            ],
            [
              119.80270385742188,
              39.9670295715332
            ],
            [
              119.25907135009766,
              40.54964065551758
            ],
            [
              119.3696517944336,
              40.74397277832031
            ],
            [
              119.52332305908203,
              40.873565673828125
            ],
            [
              120.42989349365234,
              41.06801223754883
            ],
            [
              122.92768859863281,
              41.911441802978516
            ],
            [
              123.1669921875,
              41.911441802978516
            ],
            [
              123.12676239013672,
              41.84651184082031
            ],
            [
              123.40548706054688,
              41.781593322753906
            ],
            [
              123.36537170410156,
              41.71668243408203
            ],
            [
              123.60441589355469,
              41.71668243408203
            ],
            [
              123.56433868408203,
              41.65177917480469
            ],
            [
              123.84288024902344,
              41.586883544921875
            ],
            [
              123.80292510986328,
              41.521995544433594
            ],
            [
              124.04171752929688,
              41.521995544433594
            ],
            [
              124.00180053710938,
              41.45711898803711
            ],
            [
              124.28016662597656,
              41.39224624633789
            ],
            [
              124.2403793334961,
              41.32738494873047
            ],
            [
              124.47891998291016,
              41.32738494873047
            ],
            [
              124.43917083740234,
              41.26253128051758
            ],
            [
              124.83663940429688,
              41.132843017578125
            ]
          ]
        ]
      }
    }
  ]
}