{
  "type": "FeatureCollection",
  "name": "territory-101",
  "features": [
    {
      "type": "Feature",
      "properties": {
        "Name": "Jiaodong",
        "FromYear": -206,
        "ToYear": -204,
        "Area": 50776.77422050472,
        "Type": "POLITY",
        "Wikipedia": "Eighteen Kingdoms",
        "Wikidata": "Q5349053",
        "SeshatID": "",
        "Components": "",
        "MemberOf": "(Eighteen Kingdoms)"
      },
      "geometry": {
        "type": "Polygon",
        "coordinates": [
          [
            [
              122.58405303955078,
              37.1904182434082
            ],
            [
              122.55210876464844,
              37.12596130371094
            ],
            [
              122.44239044189453,
              37.06150817871094
            ],
            [
              122.56636810302734,
              36.9970588684082
            ],
            [
              122.39389038085938,
              36.80373764038086
            ],
            [
              121.91207885742188,
              36.932613372802734
            ],
            [
              121.21208190917969,
              36.61045455932617
            ],
            [
              120.97892761230469,
              36.61045455932617
            ],
            [
              120.96481323242188,
              36.417205810546875
            ],
            [
              120.73184967041016,
              36.417205810546875
            ],
            [
              120.65852355957031,
              36.09519577026367
            ],
            [
              120.31848907470703,
              36.03080368041992
            ],
            [
              119.98648071289062,
              35.644527435302734
            ],
            [
              119.69609832763672,
              35.51579284667969
            ],
            [
              119.61874389648438,
              35.51579284667969
            ],
            [
              119.01932525634766,
              35.902034759521484
            ],
            [
              118.8643569946289,
              35.902034759521484
            ],
            [
              118.55752563476562,
              36.417205810546875
            ],
            [
              118.22882843017578,
              36.5460319519043
            ],
            [
              118.21102905273438,
              36.67487716674805
            ],
            [
              118.05554962158203,
              36.67487716674805
            ],
            [
              118.03794860839844,
              36.80373764038086
            ],
            [
              119.10881805419922,
              37.254878997802734
            ],
            [
              119.18675231933594,
              37.254878997802734
            ],
            [
              119.15568542480469,
              37.1904182434082
            ],
            [
              119.70111083984375,
              37.1904182434082
            ],
            [
              119.82661437988281,
              37.44829177856445
            ],
            [
              120.20220184326172,
              37.5772590637207
            ],
            [
              120.18807220458984,
              37.706241607666016
            ],
            [
              120.91011047363281,
              37.89975357055664
            ],
            [
              120.8775863647461,
              37.835243225097656
            ],
            [
              121.11202239990234,
              37.835243225097656
            ],
            [
              121.17103576660156,
              37.641746520996094
            ],
            [
              121.48333740234375,
              37.641746520996094
            ],
            [
              121.49687957763672,
              37.51277160644531
            ],
            [
              122.58929443359375,
              37.51277160644531
            ],
            [
              122.55686950683594,
              37.44829177856445
            ],
            [
              122.71288299560547,
              37.44829177856445
            ],
            [
              122.58405303955078,
              37.1904182434082
            ]
          ]
        ]
      }
    }
  ]
}