{
  "type": "FeatureCollection",
  "name": "territory-102",
  "features": [
    {
      "type": "Feature",
      "properties": {
        "Name": "Yong",
        "FromYear": -206,
        "ToYear": -204,
        "Area": 61875.868363506255,
        "Type": "POLITY",
        "Wikipedia": "Eighteen Kingdoms",
        "Wikidata": "Q5349053",
        "SeshatID": "",
        "Components": "",
        "MemberOf": "(Eighteen Kingdoms)"
      },
      "geometry": {
        "type": "Polygon",
        "coordinates": [
          [
            [
              110.53790283203125,
              35.065311431884766
            ],
            [
              110.6662368774414,
              35.00096893310547
            ],
            [
              110.5883560180664,
              34.80794906616211
            ],
            [
              110.74234008789062,
              34.614952087402344
            ],
            [
              110.53777313232422,
              34.2933349609375
            ],
            [
              110.61475372314453,
              34.2933349609375
            ],
            [
              110.51604461669922,
              33.84315490722656
            ],
            [
              110.49124145507812,
              33.77885055541992
            ],
            [
              110.41442108154297,
              33.77885055541992
            ],
            [
              110.38970947265625,
              33.71455001831055
            ],
            [
              110.31290435791016,
              33.71455001831055
            ],
            [
              110.28829193115234,
              33.65024948120117
            ],
            [
              109.1084213256836,
              33.77885055541992
            ],
            [
              108.97599029541016,
              34.03607940673828
            ],
            [
              108.99821472167969,
              34.2933349609375
            ],
            [
              108.4099349975586,
              34.164703369140625
            ],
            [
              108.15821075439453,
              33.90746307373047
            ],
            [
              107.69703674316406,
              33.90746307373047
            ],
            [
              107.66868591308594,
              34.03607940673828
            ],
            [
              107.38536834716797,
              34.10039138793945
            ],
            [
              107.43415832519531,
              34.22901916503906
            ],
            [
              106.94424438476562,
              34.3576545715332
            ],
            [
              106.96874237060547,
              34.42197799682617
            ],
            [
              107.65557098388672,
              35.00096893310547
            ],
            [
              107.67997741699219,
              35.258358001708984
            ],
            [
              107.9115982055664,
              35.45143127441406
            ],
            [
              108.38179016113281,
              36.2239875793457
            ],
            [
              108.45938110351562,
              36.2239875793457
            ],
            [
              109.3365478515625,
              36.09519577026367
            ],
            [
              109.4379653930664,
              35.9664192199707
            ],
            [
              109.38460540771484,
              35.837650299072266
            ],
            [
              109.6412353515625,
              35.708900451660156
            ],
            [
              110.5435562133789,
              35.644527435302734
            ],
            [
              110.54113006591797,
              35.45143127441406
            ],
            [
              110.61846160888672,
              35.45143127441406
            ],
            [
              110.53790283203125,
              35.065311431884766
            ]
          ]
        ]
      }
    }
  ]
}