{
  "type": "FeatureCollection",
  "name": "territory-103",
  "features": [
    {
      "type": "Feature",
      "properties": {
        "Name": "(Allegiance of Seleucid Empire to Roman Republic)",
        "FromYear": -202,
        "ToYear": -198,
        "Area": 2869787.7733525243,
        "Type": "RELATION",
        "Wikipedia": "Seleucid dynasty",
        "Wikidata": "Q705904",
        "SeshatID": "ir_seleucid_emp;it_roman_rep_2",
        "Components": "Roman Republic;Seleucid Empire",
        "MemberOf": ""
      },
      "geometry": {
        "type": "MultiPolygon",
        "coordinates": [
          [
            [
              [
                2.608296155929565,
                34.48630142211914
              ],
              [
                2.610407114028931,
                34.42197799682617
              ],
              [
                2.533390045166016,
                34.42197799682617
              ],
              [
                2.531259059906006,
                34.48630142211914
              ],
              [
                2.608296155929565,
                34.48630142211914
              ]
            ]
          ],
          [
            [
              [
                8.768534660339355,
                34.80794906616211
              ],
              [
                8.923820495605469,
                34.679283142089844
              ],
              [
                8.927783012390137,
                34.164703369140625
              ],
              [
                8.850844383239746,
                34.164703369140625
              ],
              [
                8.310981750488281,
                34.2933349609375
              ],
              [
                8.0807523727417,
                34.22901916503906
              ],
              [
                8.001612663269043,
                34.42197799682617
              ],
              [
                7.614861011505127,
                34.55062484741211
              ],
              [
                7.153473854064941,
                34.48630142211914
              ],
              [
                6.920335292816162,
                34.614952087402344
              ],
              [
                6.459011077880859,
                34.55062484741211
              ],
              [
                6.14835262298584,
                34.679283142089844
              ],
              [
                5.377389430999756,
                34.679283142089844
              ],
              [
                5.1490478515625,
                34.55062484741211
              ],
              [
                4.453888416290283,
                34.614952087402344
              ],
              [
                3.842682838439941,
                34.42197799682617
              ],
              [
                3.455702066421509,
                34.48630142211914
              ],
              [
                3.15149450302124,
                34.3576545715332
              ],
              [
                2.920501947402954,
                34.3576545715332
              ],
              [
                2.449900150299072,
                34.614952087402344
              ],
              [
                1.293753147125244,
                34.614952087402344
              ],
              [
                0.684976637363434,
                34.42197799682617
              ],
              [
                0.451262414455414,
                34.48630142211914
              ],
              [
                0.302583903074265,
                34.3576545715332
              ],
              [
                -1.237367868423462,
                34.3576545715332
              ],
              [
                -1.305106520652771,
                34.164703369140625
              ],
              [
                -1.539058566093445,
                34.22901916503906
              ],
              [
                -1.609718084335327,
                34.10039138793945
              ],
              [
                -1.692975521087646,
                34.22901916503906
              ],
              [
                -2.38225269317627,
                34.164703369140625
              ],
              [
                -2.459191799163818,
                34.164703369140625
              ],
              [
                -2.854317188262939,
                34.3576545715332
              ],
              [
                -2.78778862953186,
                34.55062484741211
              ],
              [
                -2.945452690124512,
                34.614952087402344
              ],
              [
                -2.886195421218872,
                34.93662643432617
              ],
              [
                -2.809019088745117,
                34.93662643432617
              ],
              [
                -2.742544174194336,
                35.12965774536133
              ],
              [
                -1.661227107048035,
                35.12965774536133
              ],
              [
                -1.590568661689758,
                35.258358001708984
              ],
              [
                -1.358735799789429,
                35.258358001708984
              ],
              [
                -1.136477708816528,
                35.45143127441406
              ],
              [
                -1.223541498184204,
                35.644527435302734
              ],
              [
                -1.065529465675354,
                35.58015823364258
              ],
              [
                -0.917115688323975,
                35.708900451660156
              ],
              [
                -0.530006587505341,
                35.708900451660156
              ],
              [
                -0.458719998598099,
                35.837650299072266
              ],
              [
                -0.145877093076706,
                35.77327346801758
              ],
              [
                0.080589987337589,
                35.902034759521484
              ],
              [
                0.158074513077736,
                35.902034759521484
              ],
              [
                0.387668311595917,
                35.9664192199707
              ],
              [
                0.453732490539551,
                36.2239875793457
              ],
              [
                0.531322777271271,
                36.2239875793457
              ],
              [
                0.683685302734375,
                36.28839111328125
              ],
              [
                0.678023815155029,
                36.417205810546875
              ],
              [
                0.913757801055908,
                36.3527946472168
              ],
              [
                1.216211557388306,
                36.5460319519043
              ],
              [
                1.529616475105286,
                36.48161697387695
              ],
              [
                1.835257053375244,
                36.61045455932617
              ],
              [
                1.912976264953613,
                36.61045455932617
              ],
              [
                1.917996525764465,
                36.48161697387695
              ],
              [
                2.772432804107666,
                36.48161697387695
              ],
              [
                3.156484842300415,
                36.61045455932617
              ],
              [
                4.86630916595459,
                36.61045455932617
              ],
              [
                5.258065223693848,
                36.48161697387695
              ],
              [
                5.410344123840332,
                36.61045455932617
              ],
              [
                5.644976139068604,
                36.5460319519043
              ],
              [
                5.951593399047852,
                36.73930740356445
              ],
              [
                6.340407371520996,
                36.73930740356445
              ],
              [
                6.725671291351318,
                36.932613372802734
              ],
              [
                6.803499698638916,
                36.932613372802734
              ],
              [
                6.804664611816406,
                36.8681755065918
              ],
              [
                6.882471084594727,
                36.8681755065918
              ],
              [
                6.960278034210205,
                36.8681755065918
              ],
              [
                7.120168685913086,
                36.61045455932617
              ],
              [
                7.664203643798828,
                36.61045455932617
              ],
              [
                7.666021823883057,
                36.48161697387695
              ],
              [
                7.822236061096191,
                36.417205810546875
              ],
              [
                7.990309238433838,
                35.38706970214844
              ],
              [
                7.99108362197876,
                35.32271194458008
              ],
              [
                7.994152545928955,
                35.065311431884766
              ],
              [
                8.150734901428223,
                34.87228775024414
              ],
              [
                8.768534660339355,
                34.80794906616211
              ]
            ]
          ],
          [
            [
              [
                14.33681869506836,
                35.837650299072266
              ],
              [
                14.339592933654785,
                36.03080368041992
              ],
              [
                14.417119026184082,
                36.03080368041992
              ],
              [
                14.571182250976562,
                35.9664192199707
              ],
              [
                14.568227767944336,
                35.77327346801758
              ],
              [
                14.33681869506836,
                35.837650299072266
              ]
            ]
          ],
          [
            [
              [
                9.525522232055664,
                37.254878997802734
              ],
              [
                10.226980209350586,
                37.254878997802734
              ],
              [
                10.305615425109863,
                36.9970588684082
              ],
              [
                10.30578899383545,
                36.932613372802734
              ],
              [
                10.07230281829834,
                36.932613372802734
              ],
              [
                10.072783470153809,
                36.80373764038086
              ],
              [
                10.38422679901123,
                36.67487716674805
              ],
              [
                10.3070068359375,
                36.48161697387695
              ],
              [
                10.073978424072266,
                36.48161697387695
              ],
              [
                9.995521545410156,
                36.67487716674805
              ],
              [
                9.840039253234863,
                36.67487716674805
              ],
              [
                9.762298583984375,
                36.67487716674805
              ],
              [
                9.528290748596191,
                36.80373764038086
              ],
              [
                9.604584693908691,
                37.06150817871094
              ],
              [
                9.447582244873047,
                37.254878997802734
              ],
              [
                9.525522232055664,
                37.254878997802734
              ]
            ]
          ],
          [
            [
              [
                1.238392949104309,
                41.19768524169922
              ],
              [
                0.695793092250824,
                40.93837356567383
              ],
              [
                0.709256291389465,
                40.6791877746582
              ],
              [
                0.247769102454185,
                40.42012023925781
              ],
              [
                0.182543575763702,
                40.16116714477539
              ],
              [
                -0.126465529203415,
                40.031734466552734
              ],
              [
                -0.345421016216278,
                39.70827102661133
              ],
              [
                -0.313707679510117,
                39.1264533996582
              ],
              [
                0.099359586834908,
                38.738853454589844
              ],
              [
                -0.660861134529114,
                38.28691864013672
              ],
              [
                -0.803495347499847,
                38.028785705566406
              ],
              [
                -0.704753637313843,
                37.641746520996094
              ],
              [
                -1.708719491958618,
                37.44829177856445
              ],
              [
                -1.623468399047852,
                37.3193473815918
              ],
              [
                -1.857354998588562,
                37.3193473815918
              ],
              [
                -2.061630010604858,
                36.80373764038086
              ],
              [
                -2.532132625579834,
                36.8681755065918
              ],
              [
                -2.680080890655518,
                36.73930740356445
              ],
              [
                -4.468626022338867,
                36.73930740356445
              ],
              [
                -4.688807487487793,
                36.5460319519043
              ],
              [
                -5.22819709777832,
                36.48161697387695
              ],
              [
                -5.287947177886963,
                36.2239875793457
              ],
              [
                -5.662277221679688,
                36.03080368041992
              ],
              [
                -5.831079006195068,
                36.2239875793457
              ],
              [
                -6.063849925994873,
                36.2239875793457
              ],
              [
                -6.432291984558105,
                36.9970588684082
              ],
              [
                -6.587993621826172,
                36.9970588684082
              ],
              [
                -6.84182596206665,
                37.254878997802734
              ],
              [
                -7.465344429016113,
                37.254878997802734
              ],
              [
                -7.553921699523926,
                37.38381576538086
              ],
              [
                -7.575394153594971,
                37.641746520996094
              ],
              [
                -7.284461975097656,
                37.89975357055664
              ],
              [
                -7.222425937652588,
                38.09331130981445
              ],
              [
                -6.0113525390625,
                38.60969924926758
              ],
              [
                -5.869884490966797,
                38.80344009399414
              ],
              [
                -5.48242712020874,
                38.8680305480957
              ],
              [
                -5.340442657470703,
                39.06184005737305
              ],
              [
                -4.942544460296631,
                38.997230529785156
              ],
              [
                -4.854238986968994,
                38.8680305480957
              ],
              [
                -4.702002048492432,
                38.93262481689453
              ],
              [
                -4.69239616394043,
                38.80344009399414
              ],
              [
                -4.202942848205566,
                38.54513168334961
              ],
              [
                -2.238890647888184,
                38.48057174682617
              ],
              [
                -1.940990328788757,
                38.738853454589844
              ],
              [
                -1.630926251411438,
                38.80344009399414
              ],
              [
                -1.418241024017334,
                39.19107437133789
              ],
              [
                -1.429798364639282,
                39.38497543334961
              ],
              [
                -1.351077198982239,
                39.38497543334961
              ],
              [
                -1.449287414550781,
                39.70827102661133
              ],
              [
                -1.220466613769531,
                39.8376350402832
              ],
              [
                -1.232133865356445,
                40.031734466552734
              ],
              [
                -1.002883315086365,
                40.16116714477539
              ],
              [
                -1.010605931282043,
                40.29063034057617
              ],
              [
                -0.411333322525024,
                40.873565673828125
              ],
              [
                -0.418865203857422,
                41.00318908691406
              ],
              [
                -0.184435620903969,
                41.06801223754883
              ],
              [
                -0.047710131853819,
                41.45711898803711
              ],
              [
                0.180073261260986,
                41.65177917480469
              ],
              [
                0.299170136451721,
                42.36617660522461
              ],
              [
                0.771893441677094,
                42.496177673339844
              ],
              [
                0.858954727649689,
                42.36617660522461
              ],
              [
                1.422038435935974,
                42.30118942260742
              ],
              [
                1.996972918510437,
                41.97637939453125
              ],
              [
                2.717926979064941,
                41.911441802978516
              ],
              [
                2.712342262268066,
                42.041324615478516
              ],
              [
                2.869245767593384,
                42.10627746582031
              ],
              [
                2.874730825424194,
                41.97637939453125
              ],
              [
                2.954526901245117,
                41.97637939453125
              ],
              [
                2.885612010955811,
                41.71668243408203
              ],
              [
                2.333626985549927,
                41.586883544921875
              ],
              [
                2.106574535369873,
                41.32738494873047
              ],
              [
                1.238392949104309,
                41.19768524169922
              ]
            ]
          ],
          [
            [
              [
                9.823226928710938,
                40.355369567871094
              ],
              [
                9.665326118469238,
                40.29063034057617
              ],
              [
                9.74737548828125,
                39.64360046386719
              ],
              [
                9.668553352355957,
                39.64360046386719
              ],
              [
                9.592622756958008,
                39.1264533996582
              ],
              [
                9.120378494262695,
                39.19107437133789
              ],
              [
                8.96590518951416,
                38.8680305480957
              ],
              [
                8.730334281921387,
                38.8680305480957
              ],
              [
                8.336196899414062,
                38.997230529785156
              ],
              [
                8.411824226379395,
                39.25570297241211
              ],
              [
                8.333152770996094,
                39.25570297241211
              ],
              [
                8.330102920532227,
                39.51427459716797
              ],
              [
                8.40887451171875,
                39.51427459716797
              ],
              [
                8.48337459564209,
                39.90232849121094
              ],
              [
                8.324762344360352,
                39.9670295715332
              ],
              [
                8.400031089782715,
                40.29063034057617
              ],
              [
                8.32094955444336,
                40.29063034057617
              ],
              [
                8.318660736083984,
                40.4848747253418
              ],
              [
                8.159523010253906,
                40.54964065551758
              ],
              [
                8.154606819152832,
                40.93837356567383
              ],
              [
                8.552037239074707,
                40.873565673828125
              ],
              [
                9.024832725524902,
                41.26253128051758
              ],
              [
                9.10431957244873,
                41.26253128051758
              ],
              [
                9.50210952758789,
                41.19768524169922
              ],
              [
                9.821690559387207,
                40.74397277832031
              ],
              [
                9.823226928710938,
                40.355369567871094
              ]
            ]
          ],
          [
            [
              [
                12.312999725341797,
                44.18956756591797
              ],
              [
                12.873446464538574,
                43.79821014404297
              ],
              [
                13.035634994506836,
                43.86341094970703
              ],
              [
                13.033763885498047,
                43.73301696777344
              ],
              [
                13.355091094970703,
                43.6678352355957
              ],
              [
                13.672640800476074,
                43.407203674316406
              ],
              [
                13.747068405151367,
                43.08163070678711
              ],
              [
                13.98537540435791,
                42.95146560668945
              ],
              [
                13.901384353637695,
                42.75628662109375
              ],
              [
                14.056464195251465,
                42.496177673339844
              ],
              [
                14.370945930480957,
                42.236209869384766
              ],
              [
                14.530768394470215,
                42.236209869384766
              ],
              [
                14.607714653015137,
                42.10627746582031
              ],
              [
                14.768959999084473,
                42.17123794555664
              ],
              [
                14.765887260437012,
                42.041324615478516
              ],
              [
                14.9239501953125,
                41.97637939453125
              ],
              [
                15.165011405944824,
                42.041324615478516
              ],
              [
                15.241438865661621,
                41.911441802978516
              ],
              [
                16.11888313293457,
                41.911441802978516
              ],
              [
                16.114879608154297,
                41.781593322753906
              ],
              [
                15.87384033203125,
                41.71668243408203
              ],
              [
                15.943941116333008,
                41.39224624633789
              ],
              [
                17.20269203186035,
                41.00318908691406
              ],
              [
                17.510658264160156,
                40.74397277832031
              ],
              [
                17.981229782104492,
                40.614410400390625
              ],
              [
                18.43811798095703,
                40.16116714477539
              ],
              [
                18.34894371032715,
                39.90232849121094
              ],
              [
                18.11216926574707,
                39.90232849121094
              ],
              [
                17.813072204589844,
                40.355369567871094
              ],
              [
                17.41753578186035,
                40.355369567871094
              ],
              [
                17.345230102539062,
                40.54964065551758
              ],
              [
                17.02848243713379,
                40.54964065551758
              ],
              [
                16.867990493774414,
                40.4848747253418
              ],
              [
                16.945016860961914,
                40.42012023925781
              ],
              [
                16.861696243286133,
                40.29063034057617
              ],
              [
                16.624452590942383,
                40.29063034057617
              ],
              [
                16.697484970092773,
                40.0964469909668
              ],
              [
                16.45665168762207,
                39.9670295715332
              ],
              [
                16.44725799560547,
                39.64360046386719
              ],
              [
                16.916194915771484,
                39.51427459716797
              ],
              [
                17.069679260253906,
                39.38497543334961
              ],
              [
                17.138301849365234,
                39.06184005737305
              ],
              [
                16.502395629882812,
                38.80344009399414
              ],
              [
                16.491945266723633,
                38.416015625
              ],
              [
                15.932764053344727,
                37.96426773071289
              ],
              [
                15.698192596435547,
                37.96426773071289
              ],
              [
                15.62426471710205,
                38.157840728759766
              ],
              [
                15.389483451843262,
                38.157840728759766
              ],
              [
                15.066489219665527,
                37.641746520996094
              ],
              [
                15.059245109558105,
                37.254878997802734
              ],
              [
                15.213889122009277,
                37.1904182434082
              ],
              [
                15.049844741821289,
                36.73930740356445
              ],
              [
                14.661029815673828,
                36.73930740356445
              ],
              [
                14.27791690826416,
                37.12596130371094
              ],
              [
                13.578389167785645,
                37.254878997802734
              ],
              [
                13.192005157470703,
                37.5772590637207
              ],
              [
                12.490468978881836,
                37.706241607666016
              ],
              [
                12.49189567565918,
                37.89975357055664
              ],
              [
                12.649824142456055,
                38.09331130981445
              ],
              [
                13.040358543395996,
                38.028785705566406
              ],
              [
                13.119925498962402,
                38.157840728759766
              ],
              [
                13.354706764221191,
                38.157840728759766
              ],
              [
                13.665236473083496,
                37.96426773071289
              ],
              [
                14.05618953704834,
                37.96426773071289
              ],
              [
                15.862062454223633,
                38.28691864013672
              ],
              [
                15.949724197387695,
                38.67427444458008
              ],
              [
                16.265209197998047,
                38.738853454589844
              ],
              [
                16.270299911499023,
                38.93262481689453
              ],
              [
                16.116540908813477,
                39.06184005737305
              ],
              [
                15.898874282836914,
                39.77294921875
              ],
              [
                15.665508270263672,
                39.90232849121094
              ],
              [
                15.747773170471191,
                40.031734466552734
              ],
              [
                15.431868553161621,
                40.031734466552734
              ],
              [
                15.199469566345215,
                40.225894927978516
              ],
              [
                15.041359901428223,
                40.225894927978516
              ],
              [
                14.893351554870605,
                40.6791877746582
              ],
              [
                14.417906761169434,
                40.6791877746582
              ],
              [
                14.421854972839355,
                40.873565673828125
              ],
              [
                14.104567527770996,
                40.873565673828125
              ],
              [
                13.950616836547852,
                41.132843017578125
              ],
              [
                13.791753768920898,
                41.132843017578125
              ],
              [
                13.714534759521484,
                41.26253128051758
              ],
              [
                13.000019073486328,
                41.32738494873047
              ],
              [
                12.130502700805664,
                41.911441802978516
              ],
              [
                12.131669044494629,
                42.041324615478516
              ],
              [
                11.812841415405273,
                42.10627746582031
              ],
              [
                11.654799461364746,
                42.36617660522461
              ],
              [
                11.494501113891602,
                42.30118942260742
              ],
              [
                11.415224075317383,
                42.43117141723633
              ],
              [
                11.255227088928223,
                42.43117141723633
              ],
              [
                11.175962448120117,
                42.62621307373047
              ],
              [
                11.015789985656738,
                42.62621307373047
              ],
              [
                11.01634693145752,
                42.82133865356445
              ],
              [
                10.535322189331055,
                43.08163070678711
              ],
              [
                10.374164581298828,
                43.6678352355957
              ],
              [
                10.212624549865723,
                43.86341094970703
              ],
              [
                10.21219253540039,
                44.05907440185547
              ],
              [
                10.373605728149414,
                44.12431716918945
              ],
              [
                10.373421669006348,
                44.25482940673828
              ],
              [
                10.535107612609863,
                44.25482940673828
              ],
              [
                10.535037994384766,
                44.38538360595703
              ],
              [
                10.696870803833008,
                44.45067596435547
              ],
              [
                10.615870475769043,
                44.71194839477539
              ],
              [
                10.209808349609375,
                44.973392486572266
              ],
              [
                8.909372329711914,
                45.10417556762695
              ],
              [
                8.580960273742676,
                45.36587905883789
              ],
              [
                8.579230308532715,
                45.496795654296875
              ],
              [
                8.903517723083496,
                45.62776184082031
              ],
              [
                10.533697128295898,
                45.62776184082031
              ],
              [
                10.859674453735352,
                45.496795654296875
              ],
              [
                11.511229515075684,
                45.496795654296875
              ],
              [
                12.082368850708008,
                45.62776184082031
              ],
              [
                12.740585327148438,
                46.1520881652832
              ],
              [
                13.15036678314209,
                46.21768569946289
              ],
              [
                13.389599800109863,
                45.82429504394531
              ],
              [
                13.144780158996582,
                45.82429504394531
              ],
              [
                13.060476303100586,
                45.62776184082031
              ],
              [
                12.816752433776855,
                45.693260192871094
              ],
              [
                12.652192115783691,
                45.56227111816406
              ],
              [
                12.162785530090332,
                45.496795654296875
              ],
              [
                12.160021781921387,
                45.169586181640625
              ],
              [
                12.40256118774414,
                45.03877639770508
              ],
              [
                12.399906158447266,
                44.77729415893555
              ],
              [
                12.318812370300293,
                44.77729415893555
              ],
              [
                12.23771858215332,
                44.77729415893555
              ],
              [
                12.157197952270508,
                44.842647552490234
              ],
              [
                12.153728485107422,
                44.45067596435547
              ],
              [
                12.312999725341797,
                44.18956756591797
              ]
            ]
          ],
          [
            [
              [
                9.5735502243042,
                42.75628662109375
              ],
              [
                9.577608108520508,
                41.97637939453125
              ],
              [
                9.497812271118164,
                41.97637939453125
              ],
              [
                9.49889087677002,
                41.781593322753906
              ],
              [
                9.262411117553711,
                41.39224624633789
              ],
              [
                9.1038236618042,
                41.32738494873047
              ],
              [
                8.783942222595215,
                41.521995544433594
              ],
              [
                8.782108306884766,
                41.71668243408203
              ],
              [
                8.622743606567383,
                41.71668243408203
              ],
              [
                8.700496673583984,
                41.911441802978516
              ],
              [
                8.538846015930176,
                42.10627746582031
              ],
              [
                8.534564018249512,
                42.496177673339844
              ],
              [
                8.772740364074707,
                42.691246032714844
              ],
              [
                9.17282485961914,
                42.75628662109375
              ],
              [
                9.251097679138184,
                43.016544342041016
              ],
              [
                9.331360816955566,
                43.016544342041016
              ],
              [
                9.491888999938965,
                43.016544342041016
              ],
              [
                9.49340534210205,
                42.75628662109375
              ],
              [
                9.5735502243042,
                42.75628662109375
              ]
            ]
          ],
          [
            [
              [
                10.134284973144531,
                42.88639831542969
              ],
              [
                10.214488983154297,
                42.88639831542969
              ],
              [
                10.45510196685791,
                42.88639831542969
              ],
              [
                10.455166816711426,
                42.691246032714844
              ],
              [
                10.21481990814209,
                42.691246032714844
              ],
              [
                10.134284973144531,
                42.88639831542969
              ]
            ]
          ],
          [
            [
              [
                17.119401931762695,
                43.08163070678711
              ],
              [
                17.199695587158203,
                43.08163070678711
              ],
              [
                17.192262649536133,
                42.88639831542969
              ],
              [
                16.791240692138672,
                42.88639831542969
              ],
              [
                16.795894622802734,
                43.016544342041016
              ],
              [
                17.119401931762695,
                43.08163070678711
              ]
            ]
          ],
          [
            [
              [
                45.6746711730957,
                40.873565673828125
              ],
              [
                45.492156982421875,
                40.74397277832031
              ],
              [
                45.52407455444336,
                40.4848747253418
              ],
              [
                46.493221282958984,
                40.16116714477539
              ],
              [
                46.536746978759766,
                39.9670295715332
              ],
              [
                46.773597717285156,
                39.9670295715332
              ],
              [
                47.053768157958984,
                39.77294921875
              ],
              [
                47.381195068359375,
                39.8376350402832
              ],
              [
                47.51506805419922,
                39.70827102661133
              ],
              [
                48.30354690551758,
                39.70827102661133
              ],
              [
                48.673282623291016,
                39.57893371582031
              ],
              [
                48.80645751953125,
                39.449623107910156
              ],
              [
                48.782222747802734,
                39.320335388183594
              ],
              [
                48.92751693725586,
                39.25570297241211
              ],
              [
                48.74217987060547,
                38.67427444458008
              ],
              [
                48.82062911987305,
                38.67427444458008
              ],
              [
                48.80677032470703,
                38.157840728759766
              ],
              [
                48.795413970947266,
                38.09331130981445
              ],
              [
                48.32598876953125,
                38.09331130981445
              ],
              [
                47.25161361694336,
                38.67427444458008
              ],
              [
                46.12089157104492,
                38.48057174682617
              ],
              [
                45.85390853881836,
                38.28691864013672
              ],
              [
                45.634883880615234,
                37.89975357055664
              ],
              [
                45.22376251220703,
                37.7707405090332
              ],
              [
                45.17365264892578,
                37.44829177856445
              ],
              [
                45.25165939331055,
                37.44829177856445
              ],
              [
                45.290000915527344,
                37.1904182434082
              ],
              [
                45.44583511352539,
                37.1904182434082
              ],
              [
                45.426109313964844,
                37.06150817871094
              ],
              [
                45.26059341430664,
                36.9970588684082
              ],
              [
                45.14886474609375,
                35.708900451660156
              ],
              [
                46.03102111816406,
                35.38706970214844
              ],
              [
                47.95417022705078,
                35.32271194458008
              ],
              [
                49.083438873291016,
                35.12965774536133
              ],
              [
                49.50012969970703,
                35.32271194458008
              ],
              [
                49.60824966430664,
                35.51579284667969
              ],
              [
                50.480350494384766,
                35.644527435302734
              ],
              [
                50.85463333129883,
                36.03080368041992
              ],
              [
                52.00763702392578,
                36.417205810546875
              ],
              [
                52.108154296875,
                36.5460319519043
              ],
              [
                52.18585205078125,
                36.5460319519043
              ],
              [
                53.08772277832031,
                36.80373764038086
              ],
              [
                53.95549011230469,
                36.8681755065918
              ],
              [
                54.033294677734375,
                36.8681755065918
              ],
              [
                54.77435302734375,
                36.67487716674805
              ],
              [
                55.78498458862305,
                36.67487716674805
              ],
              [
                56.211883544921875,
                36.8681755065918
              ],
              [
                56.83433532714844,
                36.8681755065918
              ],
              [
                57.443668365478516,
                36.80373764038086
              ],
              [
                57.7023811340332,
                36.5460319519043
              ],
              [
                58.45295715332031,
                36.417205810546875
              ],
              [
                59.07419204711914,
                36.417205810546875
              ],
              [
                60.04700469970703,
                36.61045455932617
              ],
              [
                61.21279525756836,
                36.61045455932617
              ],
              [
                61.15697479248047,
                36.3527946472168
              ],
              [
                61.2346076965332,
                36.3527946472168
              ],
              [
                61.303009033203125,
                35.58015823364258
              ],
              [
                61.80400085449219,
                35.38706970214844
              ],
              [
                62.190589904785156,
                35.38706970214844
              ],
              [
                62.623050689697266,
                34.87228775024414
              ],
              [
                63.149574279785156,
                34.80794906616211
              ],
              [
                63.2767333984375,
                34.679283142089844
              ],
              [
                63.83008575439453,
                34.743614196777344
              ],
              [
                63.95692443847656,
                34.614952087402344
              ],
              [
                64.18815612792969,
                34.614952087402344
              ],
              [
                64.36990356445312,
                34.743614196777344
              ],
              [
                64.75547790527344,
                34.743614196777344
              ],
              [
                65.41487121582031,
                34.93662643432617
              ],
              [
                65.61793518066406,
                34.80794906616211
              ],
              [
                66.14356994628906,
                34.743614196777344
              ],
              [
                66.5632095336914,
                34.55062484741211
              ],
              [
                66.53469848632812,
                34.42197799682617
              ],
              [
                66.45768737792969,
                34.42197799682617
              ],
              [
                66.35240173339844,
                34.2933349609375
              ],
              [
                65.75053405761719,
                34.3576545715332
              ],
              [
                65.38726043701172,
                34.10039138793945
              ],
              [
                65.24224090576172,
                33.77885055541992
              ],
              [
                65.06171417236328,
                33.65024948120117
              ],
              [
                65.03499603271484,
                33.52165222167969
              ],
              [
                65.11174011230469,
                33.52165222167969
              ],
              [
                64.98204040527344,
                33.26447677612305
              ],
              [
                64.82869720458984,
                33.26447677612305
              ],
              [
                64.68704223632812,
                32.94303894042969
              ],
              [
                64.35517120361328,
                32.81447219848633
              ],
              [
                64.40628814697266,
                32.685909271240234
              ],
              [
                63.87261962890625,
                32.30024337768555
              ],
              [
                63.6434211730957,
                32.30024337768555
              ],
              [
                63.44206619262695,
                32.043148040771484
              ],
              [
                63.301448822021484,
                32.107421875
              ],
              [
                62.12388229370117,
                30.629240036010742
              ],
              [
                61.68013381958008,
                30.243623733520508
              ],
              [
                61.37012481689453,
                29.729440689086914
              ],
              [
                61.027259826660156,
                29.472333908081055
              ],
              [
                60.24398422241211,
                28.25096321105957
              ],
              [
                59.39545822143555,
                27.54378890991211
              ],
              [
                58.994468688964844,
                27.35091781616211
              ],
              [
                58.978214263916016,
                27.222335815429688
              ],
              [
                58.83590316772461,
                27.2866268157959
              ],
              [
                58.744598388671875,
                27.158044815063477
              ],
              [
                58.59423065185547,
                27.158044815063477
              ],
              [
                58.42803192138672,
                27.029460906982422
              ],
              [
                58.40458679199219,
                26.836584091186523
              ],
              [
                58.2620964050293,
                26.900876998901367
              ],
              [
                57.773319244384766,
                26.57941436767578
              ],
              [
                57.48256301879883,
                26.000778198242188
              ],
              [
                57.52937316894531,
                25.743606567382812
              ],
              [
                57.37953567504883,
                25.743606567382812
              ],
              [
                57.175662994384766,
                25.936485290527344
              ],
              [
                57.05242156982422,
                26.836584091186523
              ],
              [
                56.714656829833984,
                27.158044815063477
              ],
              [
                56.188377380371094,
                27.158044815063477
              ],
              [
                56.098140716552734,
                27.029460906982422
              ],
              [
                56.32361602783203,
                27.029460906982422
              ],
              [
                56.30864334106445,
                26.900876998901367
              ],
              [
                56.06119155883789,
                26.70800018310547
              ],
              [
                55.28888702392578,
                26.515121459960938
              ],
              [
                55.31023025512695,
                26.70800018310547
              ],
              [
                55.542747497558594,
                26.772293090820312
              ],
              [
                55.242313385009766,
                26.772293090820312
              ],
              [
                54.9886474609375,
                26.515121459960938
              ],
              [
                54.68146514892578,
                26.450830459594727
              ],
              [
                54.25889205932617,
                26.70800018310547
              ],
              [
                53.65812301635742,
                26.70800018310547
              ],
              [
                53.46059036254883,
                26.96516990661621
              ],
              [
                52.736968994140625,
                27.222335815429688
              ],
              [
                52.478694915771484,
                27.608078002929688
              ],
              [
                52.04855728149414,
                27.800947189331055
              ],
              [
                51.45318603515625,
                27.865236282348633
              ],
              [
                51.06624984741211,
                28.44382095336914
              ],
              [
                51.028076171875,
                28.765243530273438
              ],
              [
                50.80903244018555,
                28.829526901245117
              ],
              [
                50.9150390625,
                29.08665657043457
              ],
              [
                50.620323181152344,
                29.150936126708984
              ],
              [
                50.65126037597656,
                29.40805435180664
              ],
              [
                50.23628234863281,
                29.729440689086914
              ],
              [
                50.0648078918457,
                30.179353713989258
              ],
              [
                49.585899353027344,
                29.986536026000977
              ],
              [
                48.942848205566406,
                30.307893753051758
              ],
              [
                48.987266540527344,
                30.050809860229492
              ],
              [
                48.36544418334961,
                29.922264099121094
              ],
              [
                48.40353012084961,
                29.600887298583984
              ],
              [
                48.09330749511719,
                29.536611557006836
              ],
              [
                47.646427154541016,
                29.600887298583984
              ],
              [
                47.28971481323242,
                29.79371452331543
              ],
              [
                46.97944259643555,
                29.729440689086914
              ],
              [
                46.99397659301758,
                29.857990264892578
              ],
              [
                46.84971618652344,
                29.922264099121094
              ],
              [
                46.61511993408203,
                29.857990264892578
              ],
              [
                46.590572357177734,
                30.307893753051758
              ],
              [
                45.77046203613281,
                30.436433792114258
              ],
              [
                44.95460891723633,
                31.271915435791016
              ],
              [
                44.5814208984375,
                31.336183547973633
              ],
              [
                44.459014892578125,
                31.593257904052734
              ],
              [
                43.152584075927734,
                32.81447219848633
              ],
              [
                42.708534240722656,
                32.94303894042969
              ],
              [
                42.578269958496094,
                33.13589859008789
              ],
              [
                42.064544677734375,
                33.32876968383789
              ],
              [
                42.003082275390625,
                33.45735549926758
              ],
              [
                41.48860549926758,
                33.65024948120117
              ],
              [
                41.426979064941406,
                33.77885055541992
              ],
              [
                41.27333068847656,
                33.77885055541992
              ],
              [
                41.211639404296875,
                33.90746307373047
              ],
              [
                40.91171646118164,
                33.971771240234375
              ],
              [
                40.70359802246094,
                34.164703369140625
              ],
              [
                40.31147003173828,
                34.10039138793945
              ],
              [
                40.403316497802734,
                34.22901916503906
              ],
              [
                40.25685501098633,
                34.2933349609375
              ],
              [
                39.12379455566406,
                34.48630142211914
              ],
              [
                37.990238189697266,
                33.971771240234375
              ],
              [
                37.73945236206055,
                33.77885055541992
              ],
              [
                37.72612380981445,
                33.65024948120117
              ],
              [
                37.64933776855469,
                33.65024948120117
              ],
              [
                37.59914016723633,
                33.90746307373047
              ],
              [
                37.38852310180664,
                34.10039138793945
              ],
              [
                37.00392532348633,
                34.10039138793945
              ],
              [
                36.86982345581055,
                34.2933349609375
              ],
              [
                36.56190872192383,
                34.2933349609375
              ],
              [
                36.44062423706055,
                34.614952087402344
              ],
              [
                36.29301834106445,
                34.679283142089844
              ],
              [
                36.312767028808594,
                34.87228775024414
              ],
              [
                36.165035247802734,
                34.93662643432617
              ],
              [
                36.268775939941406,
                35.194007873535156
              ],
              [
                35.88907241821289,
                35.258358001708984
              ],
              [
                35.89567565917969,
                35.32271194458008
              ],
              [
                35.99294662475586,
                35.51579284667969
              ],
              [
                35.84488296508789,
                35.58015823364258
              ],
              [
                35.87168884277344,
                35.837650299072266
              ],
              [
                35.990074157714844,
                36.2239875793457
              ],
              [
                35.84861373901367,
                36.3527946472168
              ],
              [
                36.26490020751953,
                36.61045455932617
              ],
              [
                36.28622817993164,
                36.80373764038086
              ],
              [
                36.144901275634766,
                36.932613372802734
              ],
              [
                35.911415100097656,
                36.932613372802734
              ],
              [
                35.833587646484375,
                36.932613372802734
              ],
              [
                35.288787841796875,
                36.932613372802734
              ],
              [
                35.03489303588867,
                36.73930740356445
              ],
              [
                34.957130432128906,
                36.73930740356445
              ],
              [
                34.892860412597656,
                36.8681755065918
              ],
              [
                34.581634521484375,
                36.8681755065918
              ],
              [
                34.41278839111328,
                36.73930740356445
              ],
              [
                34.335025787353516,
                36.73930740356445
              ],
              [
                34.21906280517578,
                37.12596130371094
              ],
              [
                33.673797607421875,
                37.12596130371094
              ],
              [
                33.60890579223633,
                37.254878997802734
              ],
              [
                33.37508773803711,
                37.254878997802734
              ],
              [
                32.06806182861328,
                36.61045455932617
              ],
              [
                31.990341186523438,
                36.61045455932617
              ],
              [
                31.391563415527344,
                36.8681755065918
              ],
              [
                30.696895599365234,
                36.932613372802734
              ],
              [
                30.619068145751953,
                36.932613372802734
              ],
              [
                29.44639778137207,
                36.8681755065918
              ],
              [
                29.36859130859375,
                36.8681755065918
              ],
              [
                28.30401039123535,
                37.1904182434082
              ],
              [
                28.241052627563477,
                37.38381576538086
              ],
              [
                27.61235237121582,
                37.3193473815918
              ],
              [
                27.53438949584961,
                37.3193473815918
              ],
              [
                27.22254180908203,
                37.3193473815918
              ],
              [
                27.309988021850586,
                37.44829177856445
              ],
              [
                27.172956466674805,
                37.706241607666016
              ],
              [
                27.251054763793945,
                37.706241607666016
              ],
              [
                27.192211151123047,
                37.96426773071289
              ],
              [
                27.270402908325195,
                37.96426773071289
              ],
              [
                27.27528190612793,
                38.028785705566406
              ],
              [
                27.509923934936523,
                38.028785705566406
              ],
              [
                27.500041961669922,
                37.89975357055664
              ],
              [
                27.72955894470215,
                37.835243225097656
              ],
              [
                27.969045639038086,
                37.89975357055664
              ],
              [
                28.140790939331055,
                38.09331130981445
              ],
              [
                28.526704788208008,
                38.028785705566406
              ],
              [
                28.86113929748535,
                38.28691864013672
              ],
              [
                28.961442947387695,
                38.54513168334961
              ],
              [
                29.207918167114258,
                38.67427444458008
              ],
              [
                29.236465454101562,
                38.997230529785156
              ],
              [
                29.31503677368164,
                38.997230529785156
              ],
              [
                29.3012752532959,
                39.70827102661133
              ],
              [
                28.839977264404297,
                39.8376350402832
              ],
              [
                27.972089767456055,
                39.8376350402832
              ],
              [
                27.408933639526367,
                39.70827102661133
              ],
              [
                27.235258102416992,
                39.51427459716797
              ],
              [
                26.841400146484375,
                39.51427459716797
              ],
              [
                26.84657859802246,
                39.57893371582031
              ],
              [
                26.132457733154297,
                39.51427459716797
              ],
              [
                26.251623153686523,
                40.031734466552734
              ],
              [
                26.25676918029785,
                40.0964469909668
              ],
              [
                26.673099517822266,
                40.355369567871094
              ],
              [
                26.752206802368164,
                40.355369567871094
              ],
              [
                27.46982192993164,
                40.42012023925781
              ],
              [
                27.616708755493164,
                40.29063034057617
              ],
              [
                27.695789337158203,
                40.29063034057617
              ],
              [
                28.170276641845703,
                40.29063034057617
              ],
              [
                28.182025909423828,
                40.42012023925781
              ],
              [
                28.261159896850586,
                40.42012023925781
              ],
              [
                28.340293884277344,
                40.42012023925781
              ],
              [
                28.334354400634766,
                40.355369567871094
              ],
              [
                28.413461685180664,
                40.355369567871094
              ],
              [
                28.492568969726562,
                40.355369567871094
              ],
              [
                28.57167625427246,
                40.355369567871094
              ],
              [
                28.65078353881836,
                40.355369567871094
              ],
              [
                28.729890823364258,
                40.355369567871094
              ],
              [
                28.95498275756836,
                40.225894927978516
              ],
              [
                29.350255966186523,
                40.225894927978516
              ],
              [
                29.45450210571289,
                40.4848747253418
              ],
              [
                29.935983657836914,
                40.54964065551758
              ],
              [
                29.922971725463867,
                40.42012023925781
              ],
              [
                30.068220138549805,
                40.29063034057617
              ],
              [
                30.457021713256836,
                40.225894927978516
              ],
              [
                30.601898193359375,
                40.0964469909668
              ],
              [
                30.588769912719727,
                39.9670295715332
              ],
              [
                31.29932403564453,
                39.9670295715332
              ],
              [
                31.37827491760254,
                39.9670295715332
              ],
              [
                31.23297691345215,
                39.320335388183594
              ],
              [
                31.442956924438477,
                39.06184005737305
              ],
              [
                31.42363929748535,
                38.8680305480957
              ],
              [
                31.737733840942383,
                38.8680305480957
              ],
              [
                31.803258895874023,
                38.738853454589844
              ],
              [
                32.189048767089844,
                38.67427444458008
              ],
              [
                33.58720779418945,
                38.54513168334961
              ],
              [
                33.66852951049805,
                37.835243225097656
              ],
              [
                35.67116928100586,
                37.5772590637207
              ],
              [
                35.998069763183594,
                37.706241607666016
              ],
              [
                36.34809112548828,
                38.028785705566406
              ],
              [
                37.1146354675293,
                37.89975357055664
              ],
              [
                37.3183708190918,
                38.28691864013672
              ],
              [
                38.126243591308594,
                38.48057174682617
              ],
              [
                38.813560485839844,
                38.93262481689453
              ],
              [
                39.110172271728516,
                38.80344009399414
              ],
              [
                39.24962615966797,
                38.67427444458008
              ],
              [
                39.232208251953125,
                38.54513168334961
              ],
              [
                39.389015197753906,
                38.54513168334961
              ],
              [
                39.44998550415039,
                38.416015625
              ],
              [
                40.520050048828125,
                38.22237777709961
              ],
              [
                40.51398468017578,
                38.738853454589844
              ],
              [
                40.6575927734375,
                39.19107437133789
              ],
              [
                40.50969314575195,
                39.25570297241211
              ],
              [
                40.478416442871094,
                39.57893371582031
              ],
              [
                39.848045349121094,
                39.57893371582031
              ],
              [
                39.750633239746094,
                39.449623107910156
              ],
              [
                39.20852279663086,
                39.51427459716797
              ],
              [
                38.95417022705078,
                39.38497543334961
              ],
              [
                38.74488830566406,
                39.57893371582031
              ],
              [
                38.92983627319336,
                39.77294921875
              ],
              [
                38.790401458740234,
                39.90232849121094
              ],
              [
                40.39818572998047,
                40.0964469909668
              ],
              [
                40.50690841674805,
                40.29063034057617
              ],
              [
                40.754215240478516,
                40.355369567871094
              ],
              [
                40.77444839477539,
                40.4848747253418
              ],
              [
                40.56735610961914,
                40.6791877746582
              ],
              [
                41.005123138427734,
                40.93837356567383
              ],
              [
                40.99467849731445,
                40.873565673828125
              ],
              [
                41.12204360961914,
                40.6791877746582
              ],
              [
                41.359764099121094,
                40.6791877746582
              ],
              [
                41.534793853759766,
                41.26253128051758
              ],
              [
                42.25017166137695,
                41.26253128051758
              ],
              [
                42.36305618286133,
                41.45711898803711
              ],
              [
                42.29466247558594,
                41.521995544433594
              ],
              [
                42.53345489501953,
                41.521995544433594
              ],
              [
                42.55607604980469,
                41.65177917480469
              ],
              [
                43.78364562988281,
                41.39224624633789
              ],
              [
                44.034027099609375,
                41.45711898803711
              ],
              [
                44.237335205078125,
                41.26253128051758
              ],
              [
                45.12375259399414,
                41.32738494873047
              ],
              [
                45.179115295410156,
                41.19768524169922
              ],
              [
                45.258575439453125,
                41.19768524169922
              ],
              [
                45.234519958496094,
                41.06801223754883
              ],
              [
                45.47273254394531,
                41.06801223754883
              ],
              [
                45.6746711730957,
                40.873565673828125
              ]
            ]
          ],
          [
            [
              [
                26.24588966369629,
                38.93262481689453
              ],
              [
                26.09356689453125,
                38.997230529785156
              ],
              [
                26.103172302246094,
                39.1264533996582
              ],
              [
                25.793418884277344,
                39.19107437133789
              ],
              [
                26.043895721435547,
                39.38497543334961
              ],
              [
                26.122615814208984,
                39.38497543334961
              ],
              [
                26.511207580566406,
                39.320335388183594
              ],
              [
                26.643573760986328,
                38.997230529785156
              ],
              [
                26.24588966369629,
                38.93262481689453
              ]
            ]
          ],
          [
            [
              [
                19.76365852355957,
                39.77294921875
              ],
              [
                19.921405792236328,
                39.77294921875
              ],
              [
                19.918411254882812,
                39.70827102661133
              ],
              [
                19.912464141845703,
                39.57893371582031
              ],
              [
                19.75778579711914,
                39.64360046386719
              ],
              [
                19.76365852355957,
                39.77294921875
              ]
            ]
          ],
          [
            [
              [
                47.156402587890625,
                39.90232849121094
              ],
              [
                47.144500732421875,
                39.8376350402832
              ],
              [
                47.06560134887695,
                39.8376350402832
              ],
              [
                47.077476501464844,
                39.90232849121094
              ],
              [
                47.156402587890625,
                39.90232849121094
              ]
            ]
          ],
          [
            [
              [
                46.99855422973633,
                39.90232849121094
              ],
              [
                46.91962814331055,
                39.90232849121094
              ],
              [
                46.93149948120117,
                39.9670295715332
              ],
              [
                47.01044845581055,
                39.9670295715332
              ],
              [
                46.99855422973633,
                39.90232849121094
              ]
            ]
          ],
          [
            [
              [
                19.523332595825195,
                41.39224624633789
              ],
              [
                19.443790435791016,
                41.39224624633789
              ],
              [
                19.529659271240234,
                41.521995544433594
              ],
              [
                19.450061798095703,
                41.521995544433594
              ],
              [
                19.54244041442871,
                41.781593322753906
              ],
              [
                19.46272850036621,
                41.781593322753906
              ],
              [
                19.465919494628906,
                41.84651184082031
              ],
              [
                19.784875869750977,
                41.84651184082031
              ],
              [
                20.0767822265625,
                41.32738494873047
              ],
              [
                19.977619171142578,
                40.93837356567383
              ],
              [
                19.81257438659668,
                40.80876541137695
              ],
              [
                19.733280181884766,
                40.80876541137695
              ],
              [
                19.574691772460938,
                40.80876541137695
              ],
              [
                19.562469482421875,
                40.54964065551758
              ],
              [
                19.41007423400879,
                40.6791877746582
              ],
              [
                19.327865600585938,
                40.614410400390625
              ],
              [
                19.2486515045166,
                40.614410400390625
              ],
              [
                19.254547119140625,
                40.74397277832031
              ],
              [
                19.498455047607422,
                40.873565673828125
              ],
              [
                19.437559127807617,
                41.26253128051758
              ],
              [
                19.523332595825195,
                41.39224624633789
              ]
            ]
          ]
        ]
      }
    }
  ]
}