{
  "type": "FeatureCollection",
  "name": "territory-105",
  "features": [
    {
      "type": "Feature",
      "properties": {
        "Name": "Gojoseon",
        "FromYear": -110,
        "ToYear": -92,
        "Area": 81320.22993811648,
        "Type": "POLITY",
        "Wikipedia": "Gojoseon",
        "Wikidata": "Q28405",
        "SeshatID": "",
        "Components": "",
        "MemberOf": ""
      },
      "geometry": {
        "type": "Polygon",
        "coordinates": [
          [
            [
              127.37569427490234,
              40.74397277832031
            ],
            [
              127.33598327636719,
              40.6791877746582
            ],
            [
              127.65294647216797,
              40.6791877746582
            ],
            [
              127.57417297363281,
              40.42012023925781
            ],
            [
              127.6541519165039,
              40.29063034057617
            ],
            [
              127.93143463134766,
              40.225894927978516
            ],
            [
              128.05209350585938,
              40.031734466552734
            ],
            [
              127.54537963867188,
              39.70827102661133
            ],
            [
              127.665283203125,
              39.64360046386719
            ],
            [
              127.44142150878906,
              39.25570297241211
            ],
            [
              127.79782104492188,
              39.19107437133789
            ],
            [
              127.760986328125,
              39.1264533996582
            ],
            [
              127.18000030517578,
              38.93262481689453
            ],
            [
              126.90237426757812,
              38.28691864013672
            ],
            [
              126.34768676757812,
              37.835243225097656
            ],
            [
              126.26954650878906,
              37.835243225097656
            ],
            [
              125.84493255615234,
              37.7707405090332
            ],
            [
              125.83466339111328,
              37.89975357055664
            ],
            [
              125.6783218383789,
              37.89975357055664
            ],
            [
              125.38711547851562,
              37.641746520996094
            ],
            [
              125.23096466064453,
              37.641746520996094
            ],
            [
              125.29808044433594,
              37.7707405090332
            ],
            [
              125.20932006835938,
              37.89975357055664
            ],
            [
              124.89665222167969,
              37.89975357055664
            ],
            [
              125.07669067382812,
              38.09331130981445
            ],
            [
              124.76374053955078,
              38.09331130981445
            ],
            [
              124.86637115478516,
              38.28691864013672
            ],
            [
              124.7880630493164,
              38.28691864013672
            ],
            [
              124.96138000488281,
              38.60969924926758
            ],
            [
              125.15330505371094,
              38.67427444458008
            ],
            [
              125.18850708007812,
              38.738853454589844
            ],
            [
              125.03155517578125,
              38.738853454589844
            ],
            [
              125.39002990722656,
              39.38497543334961
            ],
            [
              125.30574798583984,
              39.51427459716797
            ],
            [
              124.86974334716797,
              39.57893371582031
            ],
            [
              124.86456298828125,
              39.70827102661133
            ],
            [
              124.51239776611328,
              39.64360046386719
            ],
            [
              124.3446044921875,
              39.90232849121094
            ],
            [
              123.876220703125,
              39.77294921875
            ],
            [
              123.79734802246094,
              39.77294921875
            ],
            [
              124.41182708740234,
              40.29063034057617
            ],
            [
              124.83663940429688,
              41.132843017578125
            ],
            [
              124.91606903076172,
              41.132843017578125
            ],
            [
              125.55284118652344,
              41.39224624633789
            ],
            [
              125.51260375976562,
              41.32738494873047
            ],
            [
              126.10839080810547,
              41.26253128051758
            ],
            [
              126.06818389892578,
              41.19768524169922
            ],
            [
              126.34684753417969,
              41.26253128051758
            ],
            [
              126.26640319824219,
              41.132843017578125
            ],
            [
              126.42526245117188,
              41.132843017578125
            ],
            [
              126.38517761230469,
              41.06801223754883
            ],
            [
              126.90084838867188,
              41.00318908691406
            ],
            [
              126.86082458496094,
              40.93837356567383
            ],
            [
              127.29686737060547,
              40.873565673828125
            ],
            [
              127.37569427490234,
              40.74397277832031
            ]
          ]
        ]
      }
    }
  ]
}