{
  "type": "FeatureCollection",
  "name": "territory-109",
  "features": [
    {
      "type": "Feature",
      "properties": {
        "Name": "Mahameghavahana Dynasty",
        "FromYear": -170,
        "ToYear": -165,
        "Area": 1655395.3165280859,
        "Type": "POLITY",
        "Wikipedia": "Mahameghavahana dynasty",
        "Wikidata": "Q6733051",
        "SeshatID": "",
        "Components": "",
        "MemberOf": ""
      },
      "geometry": {
        "type": "Polygon",
        "coordinates": [
          [
            [
              89.83171081542969,
              24.97209930419922
            ],
            [
              89.94828033447266,
              24.779226303100586
            ],
            [
              89.93759155273438,
              24.264904022216797
            ],
            [
              90.225830078125,
              24.200613021850586
            ],
            [
              90.41866302490234,
              24.00774574279785
            ],
            [
              90.39815521240234,
              23.879167556762695
            ],
            [
              90.6661148071289,
              23.68630027770996
            ],
            [
              90.64187622070312,
              23.043420791625977
            ],
            [
              90.5385513305664,
              22.85055923461914
            ],
            [
              90.68748474121094,
              22.85055923461914
            ],
            [
              90.79834747314453,
              22.59341049194336
            ],
            [
              90.93775177001953,
              22.529123306274414
            ],
            [
              90.86321258544922,
              22.014829635620117
            ],
            [
              90.6309814453125,
              21.950544357299805
            ],
            [
              90.64935302734375,
              22.079116821289062
            ],
            [
              90.42626953125,
              22.079116821289062
            ],
            [
              90.23202514648438,
              21.7576847076416
            ],
            [
              89.89663696289062,
              22.014829635620117
            ],
            [
              89.86945343017578,
              21.821969985961914
            ],
            [
              89.71179962158203,
              21.7576847076416
            ],
            [
              89.11725616455078,
              21.7576847076416
            ],
            [
              89.09945678710938,
              21.629112243652344
            ],
            [
              88.72795104980469,
              21.629112243652344
            ],
            [
              88.71597290039062,
              22.079116821289062
            ],
            [
              88.64161682128906,
              22.079116821289062
            ],
            [
              88.51387023925781,
              21.693397521972656
            ],
            [
              88.3652572631836,
              21.693397521972656
            ],
            [
              88.34766387939453,
              21.5648250579834
            ],
            [
              88.133544921875,
              21.629112243652344
            ],
            [
              88.17765045166016,
              21.950544357299805
            ],
            [
              88.10330963134766,
              21.950544357299805
            ],
            [
              87.76203918457031,
              21.629112243652344
            ],
            [
              87.06745910644531,
              21.43625259399414
            ],
            [
              86.89323425292969,
              21.24339485168457
            ],
            [
              86.97366333007812,
              20.72910499572754
            ],
            [
              87.04784393310547,
              20.72910499572754
            ],
            [
              87.03089904785156,
              20.60053253173828
            ],
            [
              86.7915267944336,
              20.471960067749023
            ],
            [
              86.84036254882812,
              20.279102325439453
            ],
            [
              86.43616485595703,
              20.021955490112305
            ],
            [
              86.41937255859375,
              19.893383026123047
            ],
            [
              86.10633087158203,
              19.764808654785156
            ],
            [
              85.49723052978516,
              19.6362361907959
            ],
            [
              85.52213287353516,
              19.8290958404541
            ],
            [
              85.37399291992188,
              19.8290958404541
            ],
            [
              85.4148941040039,
              19.571949005126953
            ],
            [
              84.74866485595703,
              18.993366241455078
            ],
            [
              84.37962341308594,
              18.414779663085938
            ],
            [
              84.0519027709961,
              18.157629013061523
            ],
            [
              83.66666412353516,
              18.029054641723633
            ],
            [
              83.5611572265625,
              17.77190399169922
            ],
            [
              83.15304565429688,
              17.450464248657227
            ],
            [
              82.4507827758789,
              17.129026412963867
            ],
            [
              82.34681701660156,
              16.87187385559082
            ],
            [
              82.42052459716797,
              16.87187385559082
            ],
            [
              82.3832015991211,
              16.550434112548828
            ],
            [
              82.06647491455078,
              16.35757064819336
            ],
            [
              81.32273864746094,
              16.293283462524414
            ],
            [
              81.11875915527344,
              15.77897834777832
            ],
            [
              80.61058044433594,
              15.843266487121582
            ],
            [
              80.37598419189453,
              15.714691162109375
            ],
            [
              80.0882339477539,
              15.07181167602539
            ],
            [
              80.21576690673828,
              14.878947257995605
            ],
            [
              80.24491882324219,
              14.428933143615723
            ],
            [
              79.25975036621094,
              14.107494354248047
            ],
            [
              79.27176666259766,
              14.236069679260254
            ],
            [
              78.781982421875,
              14.493220329284668
            ],
            [
              78.9919662475586,
              15.136098861694336
            ],
            [
              76.69036865234375,
              15.650403022766113
            ],
            [
              76.42880249023438,
              15.971842765808105
            ],
            [
              76.28157806396484,
              15.971842765808105
            ],
            [
              76.01362609863281,
              16.228994369506836
            ],
            [
              76.08145141601562,
              16.87187385559082
            ],
            [
              75.72663879394531,
              17.000450134277344
            ],
            [
              75.45931243896484,
              17.257600784301758
            ],
            [
              75.47319793701172,
              17.38617706298828
            ],
            [
              75.06533813476562,
              17.707616806030273
            ],
            [
              75.07933807373047,
              17.836191177368164
            ],
            [
              74.87889099121094,
              18.029054641723633
            ],
            [
              74.4288330078125,
              17.964767456054688
            ],
            [
              73.87754821777344,
              17.643327713012695
            ],
            [
              73.07251739501953,
              17.707616806030273
            ],
            [
              72.94672393798828,
              18.607641220092773
            ],
            [
              72.87281036376953,
              18.607641220092773
            ],
            [
              72.87482452392578,
              19.314802169799805
            ],
            [
              72.73371887207031,
              19.379087448120117
            ],
            [
              72.75444793701172,
              19.571949005126953
            ],
            [
              73.39553833007812,
              20.021955490112305
            ],
            [
              73.70869445800781,
              20.857677459716797
            ],
            [
              73.75796508789062,
              21.307680130004883
            ],
            [
              74.05239868164062,
              21.950544357299805
            ],
            [
              74.37904357910156,
              22.20768928527832
            ],
            [
              75.46563720703125,
              22.59341049194336
            ],
            [
              75.4886245727539,
              22.786272048950195
            ],
            [
              75.35514068603516,
              22.914846420288086
            ],
            [
              75.31971740722656,
              23.236284255981445
            ],
            [
              74.72071838378906,
              23.814878463745117
            ],
            [
              74.2974853515625,
              24.00774574279785
            ],
            [
              74.17292785644531,
              24.200613021850586
            ],
            [
              74.02359771728516,
              24.200613021850586
            ],
            [
              73.97395324707031,
              24.393482208251953
            ],
            [
              73.16281127929688,
              25.03639030456543
            ],
            [
              72.71953582763672,
              25.615020751953125
            ],
            [
              72.56974792480469,
              25.615020751953125
            ],
            [
              72.46768188476562,
              26.450830459594727
            ],
            [
              72.34705352783203,
              26.643707275390625
            ],
            [
              72.3870620727539,
              26.900876998901367
            ],
            [
              72.22301483154297,
              27.2866268157959
            ],
            [
              72.27556610107422,
              27.608078002929688
            ],
            [
              72.64176940917969,
              27.993812561035156
            ],
            [
              72.65280151367188,
              28.058101654052734
            ],
            [
              73.35357666015625,
              28.186676025390625
            ],
            [
              74.81671905517578,
              28.765243530273438
            ],
            [
              75.3435287475586,
              29.150936126708984
            ],
            [
              76.38938903808594,
              29.08665657043457
            ],
            [
              77.00678253173828,
              28.765243530273438
            ],
            [
              77.96339416503906,
              28.636676788330078
            ],
            [
              78.08940887451172,
              28.508106231689453
            ],
            [
              78.06466674804688,
              28.379535675048828
            ],
            [
              78.26638793945312,
              28.25096321105957
            ],
            [
              78.24202728271484,
              28.12238883972168
            ],
            [
              78.39278411865234,
              28.12238883972168
            ],
            [
              78.51155090332031,
              27.54378890991211
            ],
            [
              78.84136199951172,
              27.2866268157959
            ],
            [
              78.85968780517578,
              26.96516990661621
            ],
            [
              79.6933364868164,
              26.129364013671875
            ],
            [
              79.98262786865234,
              26.06507110595703
            ],
            [
              80.03643035888672,
              25.936485290527344
            ],
            [
              80.45462036132812,
              25.743606567382812
            ],
            [
              80.96857452392578,
              25.67931365966797
            ],
            [
              81.1724624633789,
              25.55072784423828
            ],
            [
              82.06061553955078,
              25.48643684387207
            ],
            [
              85.05558776855469,
              25.48643684387207
            ],
            [
              86.50917053222656,
              25.229267120361328
            ],
            [
              87.25747680664062,
              25.229267120361328
            ],
            [
              87.60973358154297,
              25.100683212280273
            ],
            [
              88.23027038574219,
              25.229267120361328
            ],
            [
              89.27790069580078,
              25.229267120361328
            ],
            [
              89.54363250732422,
              25.03639030456543
            ],
            [
              89.84281921386719,
              25.03639030456543
            ],
            [
              89.83171081542969,
              24.97209930419922
            ]
          ]
        ]
      }
    }
  ]
}