{
  "type": "FeatureCollection",
  "name": "territory-113",
  "features": [
    {
      "type": "Feature",
      "properties": {
        "Name": "Indo-Scythians",
        "FromYear": -66,
        "ToYear": -51,
        "Area": 1496196.8439638887,
        "Type": "POLITY",
        "Wikipedia": "Indo-Scythians",
        "Wikidata": "Q240123",
        "SeshatID": "",
        "Components": "",
        "MemberOf": ""
      },
      "geometry": {
        "type": "Polygon",
        "coordinates": [
          [
            [
              70.72064208984375,
              20.664819717407227
            ],
            [
              70.29546356201172,
              20.857677459716797
            ],
            [
              69.88987731933594,
              21.24339485168457
            ],
            [
              69.90315246582031,
              21.371967315673828
            ],
            [
              69.49736022949219,
              21.7576847076416
            ],
            [
              69.34872436523438,
              21.7576847076416
            ],
            [
              68.94945526123047,
              22.20768928527832
            ],
            [
              68.97650909423828,
              22.46483612060547
            ],
            [
              69.19975280761719,
              22.46483612060547
            ],
            [
              69.2605209350586,
              22.33626365661621
            ],
            [
              69.40931701660156,
              22.33626365661621
            ],
            [
              69.49740600585938,
              22.46483612060547
            ],
            [
              69.86946868896484,
              22.46483612060547
            ],
            [
              70.26250457763672,
              22.657697677612305
            ],
            [
              70.36528778076172,
              22.914846420288086
            ],
            [
              69.45060729980469,
              22.72198486328125
            ],
            [
              68.80825805664062,
              22.97913360595703
            ],
            [
              68.55245971679688,
              23.36486053466797
            ],
            [
              68.3359375,
              23.429147720336914
            ],
            [
              68.35022735595703,
              23.557723999023438
            ],
            [
              68.12652587890625,
              23.557723999023438
            ],
            [
              68.15538787841797,
              23.814878463745117
            ],
            [
              67.63314819335938,
              23.814878463745117
            ],
            [
              67.49114990234375,
              23.879167556762695
            ],
            [
              67.43836975097656,
              24.07203483581543
            ],
            [
              67.28907775878906,
              24.07203483581543
            ],
            [
              67.32612609863281,
              24.393482208251953
            ],
            [
              67.14765930175781,
              24.779226303100586
            ],
            [
              66.63204956054688,
              24.843517303466797
            ],
            [
              66.63977813720703,
              24.907808303833008
            ],
            [
              67.1120834350586,
              25.100683212280273
            ],
            [
              67.50210571289062,
              25.807899475097656
            ],
            [
              67.19660949707031,
              26.32224464416504
            ],
            [
              67.17454528808594,
              27.222335815429688
            ],
            [
              67.06233215332031,
              27.4794979095459
            ],
            [
              67.12104034423828,
              27.865236282348633
            ],
            [
              67.04571533203125,
              27.865236282348633
            ],
            [
              67.04087829589844,
              28.315250396728516
            ],
            [
              66.9654541015625,
              28.315250396728516
            ],
            [
              67.0067367553711,
              28.572391510009766
            ],
            [
              66.93125915527344,
              28.572391510009766
            ],
            [
              67.13524627685547,
              29.34377670288086
            ],
            [
              66.99494171142578,
              29.40805435180664
            ],
            [
              66.8879623413086,
              29.665164947509766
            ],
            [
              65.76306915283203,
              29.729440689086914
            ],
            [
              65.12470245361328,
              29.536611557006836
            ],
            [
              64.52979278564453,
              29.600887298583984
            ],
            [
              64.11966705322266,
              29.40805435180664
            ],
            [
              62.3036994934082,
              29.40805435180664
            ],
            [
              60.93583679199219,
              29.857990264892578
            ],
            [
              61.87461853027344,
              30.950578689575195
            ],
            [
              61.941524505615234,
              31.336183547973633
            ],
            [
              62.42121505737305,
              31.464719772338867
            ],
            [
              62.81953811645508,
              31.978878021240234
            ],
            [
              63.16080093383789,
              32.171695709228516
            ],
            [
              63.185020446777344,
              32.30024337768555
            ],
            [
              63.426448822021484,
              32.36451721191406
            ],
            [
              63.872615814208984,
              33.84315490722656
            ],
            [
              64.3238754272461,
              34.164703369140625
            ],
            [
              64.57353210449219,
              34.614952087402344
            ],
            [
              65.09204864501953,
              34.87228775024414
            ],
            [
              65.41487121582031,
              34.93662643432617
            ],
            [
              65.61793518066406,
              34.80794906616211
            ],
            [
              65.92647552490234,
              34.80794906616211
            ],
            [
              66.06645965576172,
              34.743614196777344
            ],
            [
              66.0379867553711,
              34.614952087402344
            ],
            [
              66.68873596191406,
              34.42197799682617
            ],
            [
              66.81427001953125,
              34.2933349609375
            ],
            [
              69.73943328857422,
              34.2933349609375
            ],
            [
              69.98755645751953,
              34.03607940673828
            ],
            [
              70.57282257080078,
              33.90746307373047
            ],
            [
              70.81841278076172,
              33.971771240234375
            ],
            [
              70.77163696289062,
              34.10039138793945
            ],
            [
              70.9558334350586,
              34.22901916503906
            ],
            [
              71.47920227050781,
              34.164703369140625
            ],
            [
              71.55614471435547,
              34.164703369140625
            ],
            [
              72.58761596679688,
              34.2933349609375
            ],
            [
              72.85011291503906,
              34.42197799682617
            ],
            [
              73.92835235595703,
              34.42197799682617
            ],
            [
              73.896240234375,
              34.2933349609375
            ],
            [
              74.03417205810547,
              34.22901916503906
            ],
            [
              75.5406494140625,
              34.10039138793945
            ],
            [
              75.68698120117188,
              33.45735549926758
            ],
            [
              75.82453918457031,
              33.393062591552734
            ],
            [
              75.94432830810547,
              32.94303894042969
            ],
            [
              76.09748840332031,
              32.94303894042969
            ],
            [
              76.08113098144531,
              32.557350158691406
            ],
            [
              76.26461029052734,
              32.36451721191406
            ],
            [
              77.80732727050781,
              31.78606605529785
            ],
            [
              77.88359069824219,
              31.78606605529785
            ],
            [
              77.42759704589844,
              31.464719772338867
            ],
            [
              77.3834457397461,
              31.271915435791016
            ],
            [
              76.9925308227539,
              30.886310577392578
            ],
            [
              76.70124816894531,
              30.243623733520508
            ],
            [
              76.2325439453125,
              30.179353713989258
            ],
            [
              76.2415771484375,
              29.857990264892578
            ],
            [
              76.05072021484375,
              29.665164947509766
            ],
            [
              76.9058609008789,
              29.022375106811523
            ],
            [
              76.88069152832031,
              28.893810272216797
            ],
            [
              77.14537811279297,
              28.700960159301758
            ],
            [
              77.10839080810547,
              28.508106231689453
            ],
            [
              77.33477783203125,
              28.508106231689453
            ],
            [
              77.46118927001953,
              28.379535675048828
            ],
            [
              77.43690490722656,
              28.25096321105957
            ],
            [
              77.66312408447266,
              28.25096321105957
            ],
            [
              77.7777328491211,
              28.058101654052734
            ],
            [
              78.13057708740234,
              27.92952537536621
            ],
            [
              78.84136199951172,
              27.2866268157959
            ],
            [
              78.80709838867188,
              27.093751907348633
            ],
            [
              78.98757934570312,
              26.836584091186523
            ],
            [
              78.80424499511719,
              26.643707275390625
            ],
            [
              78.72915649414062,
              26.643707275390625
            ],
            [
              78.30049133300781,
              26.772293090820312
            ],
            [
              77.3893814086914,
              26.257951736450195
            ],
            [
              77.17472839355469,
              26.32224464416504
            ],
            [
              77.1335220336914,
              26.06507110595703
            ],
            [
              76.868408203125,
              25.807899475097656
            ],
            [
              76.81941986083984,
              25.48643684387207
            ],
            [
              76.65049743652344,
              25.357851028442383
            ],
            [
              76.6128158569336,
              25.100683212280273
            ],
            [
              76.22351837158203,
              24.457773208618164
            ],
            [
              76.27214050292969,
              24.264904022216797
            ],
            [
              76.10567474365234,
              24.136323928833008
            ],
            [
              75.93994140625,
              23.429147720336914
            ],
            [
              75.32439422607422,
              22.657697677612305
            ],
            [
              75.3167724609375,
              22.59341049194336
            ],
            [
              74.21565246582031,
              22.079116821289062
            ],
            [
              74.14128875732422,
              22.079116821289062
            ],
            [
              73.36188507080078,
              21.7576847076416
            ],
            [
              72.61167907714844,
              21.693397521972656
            ],
            [
              72.4911880493164,
              21.950544357299805
            ],
            [
              72.52674865722656,
              22.271976470947266
            ],
            [
              72.37797546386719,
              22.271976470947266
            ],
            [
              72.34249877929688,
              21.950544357299805
            ],
            [
              72.11245727539062,
              21.88625717163086
            ],
            [
              72.17279815673828,
              21.7576847076416
            ],
            [
              72.3214340209961,
              21.7576847076416
            ],
            [
              72.18476104736328,
              21.179107666015625
            ],
            [
              71.4084701538086,
              20.857677459716797
            ],
            [
              71.32078552246094,
              20.72910499572754
            ],
            [
              71.2466049194336,
              20.72910499572754
            ],
            [
              70.72064208984375,
              20.664819717407227
            ]
          ]
        ]
      }
    }
  ]
}