{
  "type": "FeatureCollection",
  "name": "territory-116",
  "features": [
    {
      "type": "Feature",
      "properties": {
        "Name": "Great Yuan",
        "FromYear": -50,
        "ToYear": 42,
        "Area": 51348.21334834599,
        "Type": "POLITY",
        "Wikipedia": "Yuan dynasty",
        "Wikidata": "Q7313",
        "SeshatID": "",
        "Components": "",
        "MemberOf": ""
      },
      "geometry": {
        "type": "Polygon",
        "coordinates": [
          [
            [
              71.92003631591797,
              41.32738494873047
            ],
            [
              71.99954986572266,
              41.32738494873047
            ],
            [
              72.23180389404297,
              41.06801223754883
            ],
            [
              72.47001647949219,
              41.06801223754883
            ],
            [
              73.01934814453125,
              40.80876541137695
            ],
            [
              72.998046875,
              40.74397277832031
            ],
            [
              71.7823257446289,
              40.16116714477539
            ],
            [
              71.20909881591797,
              40.0964469909668
            ],
            [
              71.07054138183594,
              39.90232849121094
            ],
            [
              70.91268920898438,
              39.90232849121094
            ],
            [
              70.95221710205078,
              40.031734466552734
            ],
            [
              70.8140869140625,
              40.0964469909668
            ],
            [
              70.75484466552734,
              39.90232849121094
            ],
            [
              70.55796813964844,
              39.77294921875
            ],
            [
              69.59239959716797,
              39.70827102661133
            ],
            [
              69.33419799804688,
              39.90232849121094
            ],
            [
              68.95865631103516,
              39.9670295715332
            ],
            [
              68.99703216552734,
              40.0964469909668
            ],
            [
              69.27286529541016,
              40.225894927978516
            ],
            [
              69.3316421508789,
              40.42012023925781
            ],
            [
              68.85665130615234,
              40.93837356567383
            ],
            [
              68.89849853515625,
              41.32738494873047
            ],
            [
              68.97801208496094,
              41.32738494873047
            ],
            [
              69.39952087402344,
              41.65177917480469
            ],
            [
              69.81880950927734,
              41.71668243408203
            ],
            [
              70.01571655273438,
              41.586883544921875
            ],
            [
              71.62983703613281,
              41.65177917480469
            ],
            [
              71.92003631591797,
              41.32738494873047
            ]
          ]
        ]
      }
    }
  ]
}