{
  "type": "FeatureCollection",
  "name": "territory-117",
  "features": [
    {
      "type": "Feature",
      "properties": {
        "Name": "Thracian Kingdom",
        "FromYear": -27,
        "ToYear": 42,
        "Area": 90345.10333150973,
        "Type": "POLITY",
        "Wikipedia": "Thracian kingdom",
        "Wikidata": "Q104815700",
        "SeshatID": "",
        "Components": "",
        "MemberOf": ""
      },
      "geometry": {
        "type": "Polygon",
        "coordinates": [
          [
            [
              29.19350242614746,
              44.842647552490234
            ],
            [
              29.024105072021484,
              44.77729415893555
            ],
            [
              29.04557228088379,
              44.973392486572266
            ],
            [
              28.883193969726562,
              44.973392486572266
            ],
            [
              28.802005767822266,
              44.973392486572266
            ],
            [
              28.463375091552734,
              44.842647552490234
            ],
            [
              28.3001708984375,
              44.05907440185547
            ],
            [
              28.018028259277344,
              43.6678352355957
            ],
            [
              27.991680145263672,
              43.407203674316406
            ],
            [
              27.65704917907715,
              43.276947021484375
            ],
            [
              27.4521484375,
              42.82133865356445
            ],
            [
              27.193193435668945,
              42.62621307373047
            ],
            [
              27.174896240234375,
              42.43117141723633
            ],
            [
              27.328767776489258,
              42.36617660522461
            ],
            [
              27.316564559936523,
              42.236209869384766
            ],
            [
              27.46413230895996,
              42.10627746582031
            ],
            [
              26.574190139770508,
              41.97637939453125
            ],
            [
              26.2325496673584,
              41.71668243408203
            ],
            [
              25.680164337158203,
              41.781593322753906
            ],
            [
              23.743696212768555,
              41.45711898803711
            ],
            [
              23.44826316833496,
              41.781593322753906
            ],
            [
              23.21365737915039,
              41.84651184082031
            ],
            [
              23.32564926147461,
              42.30118942260742
            ],
            [
              23.57497215270996,
              42.43117141723633
            ],
            [
              23.5187931060791,
              42.75628662109375
            ],
            [
              23.688810348510742,
              42.88639831542969
            ],
            [
              23.703481674194336,
              43.08163070678711
            ],
            [
              23.949365615844727,
              43.146724700927734
            ],
            [
              23.974531173706055,
              43.472347259521484
            ],
            [
              24.14060401916504,
              43.53750228881836
            ],
            [
              24.156030654907227,
              43.73301696777344
            ],
            [
              24.23662757873535,
              43.73301696777344
            ],
            [
              24.80620765686035,
              43.79821014404297
            ],
            [
              25.52049446105957,
              43.6678352355957
            ],
            [
              26.36821174621582,
              44.12431716918945
            ],
            [
              27.748062133789062,
              44.18956756591797
            ],
            [
              27.929664611816406,
              44.38538360595703
            ],
            [
              27.8487606048584,
              44.38538360595703
            ],
            [
              27.86873435974121,
              44.58129119873047
            ],
            [
              27.706735610961914,
              44.58129119873047
            ],
            [
              27.726606369018555,
              44.77729415893555
            ],
            [
              27.8887939453125,
              44.77729415893555
            ],
            [
              27.92239761352539,
              45.10417556762695
            ],
            [
              27.766572952270508,
              45.169586181640625
            ],
            [
              27.786672592163086,
              45.36587905883789
            ],
            [
              28.037626266479492,
              45.431331634521484
            ],
            [
              28.051286697387695,
              45.56227111816406
            ],
            [
              28.28878402709961,
              45.496795654296875
            ],
            [
              28.274951934814453,
              45.36587905883789
            ],
            [
              28.430747985839844,
              45.300437927246094
            ],
            [
              28.756139755249023,
              45.300437927246094
            ],
            [
              29.184673309326172,
              45.496795654296875
            ],
            [
              29.66587257385254,
              45.431331634521484
            ],
            [
              29.621288299560547,
              45.03877639770508
            ],
            [
              29.274627685546875,
              44.842647552490234
            ],
            [
              29.19350242614746,
              44.842647552490234
            ]
          ]
        ]
      }
    }
  ]
}