{
  "type": "FeatureCollection",
  "name": "territory-120",
  "features": [
    {
      "type": "Feature",
      "properties": {
        "Name": "Caucasian Albania",
        "FromYear": 439,
        "ToYear": 450,
        "Area": 75000.99007260273,
        "Type": "POLITY",
        "Wikipedia": "Caucasian Albania",
        "Wikidata": "Q177076",
        "SeshatID": "",
        "Components": "",
        "MemberOf": ""
      },
      "geometry": {
        "type": "Polygon",
        "coordinates": [
          [
            [
              47.496280670166016,
              41.26253128051758
            ],
            [
              47.98626708984375,
              41.32738494873047
            ],
            [
              48.118568420410156,
              41.586883544921875
            ],
            [
              48.55713653564453,
              41.781593322753906
            ],
            [
              49.08600997924805,
              41.26253128051758
            ],
            [
              49.059226989746094,
              41.132843017578125
            ],
            [
              49.270748138427734,
              41.00318908691406
            ],
            [
              49.2441520690918,
              40.873565673828125
            ],
            [
              49.50836181640625,
              40.614410400390625
            ],
            [
              50.04951477050781,
              40.54964065551758
            ],
            [
              50.2603759765625,
              40.42012023925781
            ],
            [
              49.6933479309082,
              40.355369567871094
            ],
            [
              49.50919723510742,
              40.225894927978516
            ],
            [
              49.26664352416992,
              39.38497543334961
            ],
            [
              49.151405334472656,
              39.19107437133789
            ],
            [
              48.994110107421875,
              39.19107437133789
            ],
            [
              48.91546630859375,
              39.19107437133789
            ],
            [
              48.782222747802734,
              39.320335388183594
            ],
            [
              48.80645751953125,
              39.449623107910156
            ],
            [
              48.52786636352539,
              39.64360046386719
            ],
            [
              47.73964309692383,
              39.64360046386719
            ],
            [
              47.527008056640625,
              39.77294921875
            ],
            [
              47.12083053588867,
              39.70827102661133
            ],
            [
              47.06560134887695,
              39.8376350402832
            ],
            [
              46.773597717285156,
              39.9670295715332
            ],
            [
              46.45779800415039,
              39.9670295715332
            ],
            [
              46.48136901855469,
              40.0964469909668
            ],
            [
              46.256134033203125,
              40.16116714477539
            ],
            [
              46.200740814208984,
              40.29063034057617
            ],
            [
              45.59148025512695,
              40.42012023925781
            ],
            [
              45.456661224365234,
              40.54964065551758
            ],
            [
              45.5953483581543,
              40.873565673828125
            ],
            [
              45.30192947387695,
              41.00318908691406
            ],
            [
              45.11168670654297,
              41.26253128051758
            ],
            [
              44.237335205078125,
              41.26253128051758
            ],
            [
              44.3523063659668,
              41.45711898803711
            ],
            [
              44.77427673339844,
              41.586883544921875
            ],
            [
              45.07451629638672,
              41.911441802978516
            ],
            [
              45.313819885253906,
              41.911441802978516
            ],
            [
              45.53632354736328,
              42.236209869384766
            ],
            [
              45.696144104003906,
              42.236209869384766
            ],
            [
              45.68342208862305,
              42.17123794555664
            ],
            [
              46.229713439941406,
              42.10627746582031
            ],
            [
              46.43056869506836,
              41.911441802978516
            ],
            [
              46.81643295288086,
              41.84651184082031
            ],
            [
              47.35015106201172,
              41.32738494873047
            ],
            [
              47.50918197631836,
              41.32738494873047
            ],
            [
              47.496280670166016,
              41.26253128051758
            ]
          ]
        ]
      }
    }
  ]
}