{
  "type": "FeatureCollection",
  "name": "territory-130",
  "features": [
    {
      "type": "Feature",
      "properties": {
        "Name": "Trưng sisters",
        "FromYear": 43,
        "ToYear": 50,
        "Area": 99740.54759121504,
        "Type": "POLITY",
        "Wikipedia": "Trưng sisters",
        "Wikidata": "Q1207428",
        "SeshatID": "",
        "Components": "",
        "MemberOf": ""
      },
      "geometry": {
        "type": "Polygon",
        "coordinates": [
          [
            [
              108.08744049072266,
              21.43625259399414
            ],
            [
              107.79033660888672,
              21.43625259399414
            ],
            [
              107.41735076904297,
              20.986249923706055
            ],
            [
              106.87641143798828,
              20.857677459716797
            ],
            [
              106.8337173461914,
              20.60053253173828
            ],
            [
              106.68537902832031,
              20.60053253173828
            ],
            [
              106.53694915771484,
              20.150527954101562
            ],
            [
              106.0606460571289,
              19.95766830444336
            ],
            [
              105.84930419921875,
              19.571949005126953
            ],
            [
              105.91281127929688,
              19.507661819458008
            ],
            [
              105.73389434814453,
              18.864791870117188
            ],
            [
              106.05134582519531,
              18.543354034423828
            ],
            [
              106.030517578125,
              18.414779663085938
            ],
            [
              106.17830657958984,
              18.414779663085938
            ],
            [
              106.29487609863281,
              18.2219181060791
            ],
            [
              106.56956481933594,
              18.093341827392578
            ],
            [
              106.57118225097656,
              17.643327713012695
            ],
            [
              106.7720947265625,
              17.514753341674805
            ],
            [
              106.75170135498047,
              17.38617706298828
            ],
            [
              107.02642822265625,
              17.257600784301758
            ],
            [
              106.7648696899414,
              17.000450134277344
            ],
            [
              106.5337142944336,
              16.9361629486084
            ],
            [
              105.143798828125,
              18.414779663085938
            ],
            [
              105.18512725830078,
              18.67193031311035
            ],
            [
              105.03726959228516,
              18.67193031311035
            ],
            [
              105.14230346679688,
              18.864791870117188
            ],
            [
              105.0151596069336,
              18.993366241455078
            ],
            [
              105.01402282714844,
              19.443374633789062
            ],
            [
              104.94000244140625,
              19.443374633789062
            ],
            [
              104.99213409423828,
              19.764808654785156
            ],
            [
              104.8648452758789,
              19.893383026123047
            ],
            [
              104.98062133789062,
              20.150527954101562
            ],
            [
              104.4395751953125,
              20.471960067749023
            ],
            [
              104.61909484863281,
              20.664819717407227
            ],
            [
              104.90534973144531,
              20.60053253173828
            ],
            [
              104.87299346923828,
              20.857677459716797
            ],
            [
              105.09559631347656,
              20.857677459716797
            ],
            [
              104.8512954711914,
              21.179107666015625
            ],
            [
              104.97850036621094,
              21.500539779663086
            ],
            [
              104.925537109375,
              21.629112243652344
            ],
            [
              105.0955810546875,
              21.7576847076416
            ],
            [
              105.1279525756836,
              21.950544357299805
            ],
            [
              104.87400817871094,
              22.20768928527832
            ],
            [
              105.24907684326172,
              22.657697677612305
            ],
            [
              105.17464447021484,
              22.657697677612305
            ],
            [
              105.21978759765625,
              22.914846420288086
            ],
            [
              105.10509490966797,
              23.107707977294922
            ],
            [
              105.11660766601562,
              23.171995162963867
            ],
            [
              105.21431732177734,
              23.30057144165039
            ],
            [
              105.43790435791016,
              23.30057144165039
            ],
            [
              105.75257110595703,
              22.97913360595703
            ],
            [
              106.19947814941406,
              22.97913360595703
            ],
            [
              106.32543182373047,
              22.85055923461914
            ],
            [
              106.70928955078125,
              22.914846420288086
            ],
            [
              106.77223205566406,
              22.85055923461914
            ],
            [
              106.60701751708984,
              22.33626365661621
            ],
            [
              106.71125030517578,
              22.079116821289062
            ],
            [
              107.23982238769531,
              21.693397521972656
            ],
            [
              107.4627456665039,
              21.693397521972656
            ],
            [
              107.58939361572266,
              21.5648250579834
            ],
            [
              107.97187042236328,
              21.629112243652344
            ],
            [
              108.09842681884766,
              21.500539779663086
            ],
            [
              108.08744049072266,
              21.43625259399414
            ]
          ]
        ]
      }
    }
  ]
}