{
  "type": "FeatureCollection",
  "name": "territory-138",
  "features": [
    {
      "type": "Feature",
      "properties": {
        "Name": "Norse",
        "FromYear": 402,
        "ToYear": 489,
        "Area": 71171.2162282139,
        "Type": "POLITY",
        "Wikipedia": "Norse",
        "Wikidata": "Q909583",
        "SeshatID": "",
        "Components": "",
        "MemberOf": ""
      },
      "geometry": {
        "type": "MultiPolygon",
        "coordinates": [
          [
            [
              [
                10.710991859436035,
                55.021148681640625
              ],
              [
                9.926376342773438,
                55.089229583740234
              ],
              [
                9.751152038574219,
                55.36180877685547
              ],
              [
                9.489937782287598,
                55.15733337402344
              ],
              [
                9.490632057189941,
                55.021148681640625
              ],
              [
                9.228630065917969,
                55.089229583740234
              ],
              [
                9.054789543151855,
                55.021148681640625
              ],
              [
                9.05597972869873,
                54.88506317138672
              ],
              [
                8.533562660217285,
                54.88506317138672
              ],
              [
                8.530884742736816,
                55.089229583740234
              ],
              [
                8.443666458129883,
                55.089229583740234
              ],
              [
                8.52729320526123,
                55.36180877685547
              ],
              [
                9.139223098754883,
                55.36180877685547
              ],
              [
                9.22264289855957,
                55.90821838378906
              ],
              [
                9.13426399230957,
                55.97663879394531
              ],
              [
                9.924721717834473,
                56.319149017333984
              ],
              [
                10.36523151397705,
                56.25059127807617
              ],
              [
                10.277146339416504,
                56.25059127807617
              ],
              [
                10.276667594909668,
                55.97663879394531
              ],
              [
                9.925338745117188,
                55.83982467651367
              ],
              [
                9.925520896911621,
                55.70311737060547
              ],
              [
                9.750177383422852,
                55.70311737060547
              ],
              [
                9.750565528869629,
                55.56651306152344
              ],
              [
                10.626581192016602,
                55.63479995727539
              ],
              [
                10.625955581665039,
                55.498252868652344
              ],
              [
                10.800582885742188,
                55.430015563964844
              ],
              [
                10.80017375946045,
                55.36180877685547
              ],
              [
                10.710991859436035,
                55.021148681640625
              ]
            ]
          ],
          [
            [
              [
                18.230064392089844,
                57.8345832824707
              ],
              [
                18.598026275634766,
                57.97305679321289
              ],
              [
                19.04520034790039,
                57.97305679321289
              ],
              [
                19.03397560119629,
                57.8345832824707
              ],
              [
                18.844388961791992,
                57.696231842041016
              ],
              [
                18.911693572998047,
                57.41988754272461
              ],
              [
                18.45128059387207,
                57.21294021606445
              ],
              [
                18.342275619506836,
                56.937416076660156
              ],
              [
                18.076435089111328,
                56.937416076660156
              ],
              [
                18.02667236328125,
                57.488929748535156
              ],
              [
                18.031593322753906,
                57.55800247192383
              ],
              [
                18.230064392089844,
                57.8345832824707
              ]
            ]
          ],
          [
            [
              [
                7.843780994415283,
                59.08528518676758
              ],
              [
                7.842375755310059,
                59.15507125854492
              ],
              [
                7.932782649993896,
                59.15507125854492
              ],
              [
                7.93412971496582,
                59.08528518676758
              ],
              [
                7.843780994415283,
                59.08528518676758
              ]
            ]
          ],
          [
            [
              [
                16.93279266357422,
                59.92485809326172
              ],
              [
                16.942001342773438,
                60.065250396728516
              ],
              [
                17.30672836303711,
                60.065250396728516
              ],
              [
                17.297035217285156,
                59.92485809326172
              ],
              [
                17.479158401489258,
                59.92485809326172
              ],
              [
                17.469280242919922,
                59.78459548950195
              ],
              [
                17.73700523376465,
                59.714515686035156
              ],
              [
                17.631099700927734,
                59.504478454589844
              ],
              [
                17.449695587158203,
                59.504478454589844
              ],
              [
                17.33987045288086,
                59.22488784790039
              ],
              [
                16.887542724609375,
                59.22488784790039
              ],
              [
                16.896488189697266,
                59.36461639404297
              ],
              [
                16.715320587158203,
                59.36461639404297
              ],
              [
                16.72408103942871,
                59.504478454589844
              ],
              [
                16.451976776123047,
                59.504478454589844
              ],
              [
                16.546958923339844,
                59.574459075927734
              ],
              [
                16.551252365112305,
                59.64447021484375
              ],
              [
                16.55987548828125,
                59.78459548950195
              ],
              [
                16.93279266357422,
                59.92485809326172
              ]
            ]
          ],
          [
            [
              [
                11.92190933227539,
                59.78459548950195
              ],
              [
                11.737747192382812,
                59.64447021484375
              ],
              [
                11.734354019165039,
                59.434532165527344
              ],
              [
                11.824995994567871,
                59.434532165527344
              ],
              [
                11.821459770202637,
                59.22488784790039
              ],
              [
                11.637378692626953,
                59.015533447265625
              ],
              [
                11.726568222045898,
                58.94581604003906
              ],
              [
                11.718966484069824,
                58.45867156982422
              ],
              [
                11.537395477294922,
                58.31977081298828
              ],
              [
                11.179258346557617,
                58.38920593261719
              ],
              [
                11.09703254699707,
                59.15507125854492
              ],
              [
                10.825811386108398,
                59.15507125854492
              ],
              [
                10.555644989013672,
                59.36461639404297
              ],
              [
                10.557076454162598,
                59.64447021484375
              ],
              [
                10.466255187988281,
                59.64447021484375
              ],
              [
                10.465655326843262,
                59.504478454589844
              ],
              [
                10.374953269958496,
                59.504478454589844
              ],
              [
                10.464767456054688,
                59.294734954833984
              ],
              [
                10.012155532836914,
                58.94581604003906
              ],
              [
                9.65099048614502,
                59.015533447265625
              ],
              [
                9.561288833618164,
                58.876129150390625
              ],
              [
                9.380940437316895,
                58.876129150390625
              ],
              [
                9.381759643554688,
                58.73685073852539
              ],
              [
                9.111583709716797,
                58.73685073852539
              ],
              [
                9.112746238708496,
                58.59769821166992
              ],
              [
                8.932857513427734,
                58.59769821166992
              ],
              [
                8.66648006439209,
                58.31977081298828
              ],
              [
                8.040976524353027,
                58.180992126464844
              ],
              [
                7.864492893218994,
                58.042335510253906
              ],
              [
                7.059075832366943,
                58.042335510253906
              ],
              [
                7.402140617370605,
                58.66725540161133
              ],
              [
                7.84937047958374,
                58.80647277832031
              ],
              [
                7.93412971496582,
                59.08528518676758
              ],
              [
                8.0244779586792,
                59.08528518676758
              ],
              [
                7.931433200836182,
                59.22488784790039
              ],
              [
                8.20283031463623,
                59.22488784790039
              ],
              [
                8.200474739074707,
                59.36461639404297
              ],
              [
                8.380578994750977,
                59.434532165527344
              ],
              [
                8.467185020446777,
                59.714515686035156
              ],
              [
                8.558065414428711,
                59.714515686035156
              ],
              [
                8.554235458374023,
                59.99503707885742
              ],
              [
                8.734794616699219,
                60.135501861572266
              ],
              [
                8.639920234680176,
                60.416839599609375
              ],
              [
                8.822105407714844,
                60.48725891113281
              ],
              [
                8.909996032714844,
                60.83990478515625
              ],
              [
                9.092493057250977,
                60.9812126159668
              ],
              [
                9.090653419494629,
                61.193458557128906
              ],
              [
                9.274024963378906,
                61.335140228271484
              ],
              [
                9.735360145568848,
                61.40604019165039
              ],
              [
                10.656689643859863,
                61.05192565917969
              ],
              [
                10.841371536254883,
                61.12267303466797
              ],
              [
                10.932185173034668,
                60.9812126159668
              ],
              [
                11.29922866821289,
                60.91054153442383
              ],
              [
                11.662368774414062,
                60.628211975097656
              ],
              [
                11.657881736755371,
                60.34645080566406
              ],
              [
                11.656769752502441,
                60.276100158691406
              ],
              [
                11.838268280029297,
                60.20578384399414
              ],
              [
                11.92190933227539,
                59.78459548950195
              ]
            ]
          ]
        ]
      }
    }
  ]
}