{
  "type": "FeatureCollection",
  "name": "territory-139",
  "features": [
    {
      "type": "Feature",
      "properties": {
        "Name": "Cao Cao",
        "FromYear": 215,
        "ToYear": 223,
        "Area": 1377180.440899301,
        "Type": "POLITY",
        "Wikipedia": "Cao Cao",
        "Wikidata": "Q204077",
        "SeshatID": "",
        "Components": "",
        "MemberOf": ""
      },
      "geometry": {
        "type": "Polygon",
        "coordinates": [
          [
            [
              126.34768676757812,
              37.835243225097656
            ],
            [
              126.26954650878906,
              37.835243225097656
            ],
            [
              125.84493255615234,
              37.7707405090332
            ],
            [
              125.83466339111328,
              37.89975357055664
            ],
            [
              125.6783218383789,
              37.89975357055664
            ],
            [
              125.38711547851562,
              37.641746520996094
            ],
            [
              125.23096466064453,
              37.641746520996094
            ],
            [
              125.29808044433594,
              37.7707405090332
            ],
            [
              125.20932006835938,
              37.89975357055664
            ],
            [
              124.89665222167969,
              37.89975357055664
            ],
            [
              125.07669067382812,
              38.09331130981445
            ],
            [
              124.76374053955078,
              38.09331130981445
            ],
            [
              124.86637115478516,
              38.28691864013672
            ],
            [
              124.7880630493164,
              38.28691864013672
            ],
            [
              124.96138000488281,
              38.60969924926758
            ],
            [
              125.15330505371094,
              38.67427444458008
            ],
            [
              125.18850708007812,
              38.738853454589844
            ],
            [
              125.03155517578125,
              38.738853454589844
            ],
            [
              125.39002990722656,
              39.38497543334961
            ],
            [
              125.30574798583984,
              39.51427459716797
            ],
            [
              124.86974334716797,
              39.57893371582031
            ],
            [
              124.86456298828125,
              39.70827102661133
            ],
            [
              124.51239776611328,
              39.64360046386719
            ],
            [
              124.3446044921875,
              39.90232849121094
            ],
            [
              124.03396606445312,
              39.77294921875
            ],
            [
              123.59744262695312,
              39.8376350402832
            ],
            [
              122.93595886230469,
              39.64360046386719
            ],
            [
              122.17044830322266,
              39.25570297241211
            ],
            [
              121.95193481445312,
              38.997230529785156
            ],
            [
              121.71622467041016,
              38.997230529785156
            ],
            [
              121.42170715332031,
              38.738853454589844
            ],
            [
              121.02933502197266,
              38.738853454589844
            ],
            [
              121.20073699951172,
              39.06184005737305
            ],
            [
              121.51512908935547,
              39.06184005737305
            ],
            [
              121.69013214111328,
              39.38497543334961
            ],
            [
              121.2965316772461,
              39.38497543334961
            ],
            [
              121.20963287353516,
              39.51427459716797
            ],
            [
              121.28069305419922,
              39.64360046386719
            ],
            [
              121.43833923339844,
              39.64360046386719
            ],
            [
              121.50332641601562,
              39.90232849121094
            ],
            [
              121.7764663696289,
              39.9670295715332
            ],
            [
              122.23056030273438,
              40.4848747253418
            ],
            [
              122.10609436035156,
              40.6791877746582
            ],
            [
              121.82695770263672,
              40.74397277832031
            ],
            [
              121.82366180419922,
              40.873565673828125
            ],
            [
              121.1097640991211,
              40.873565673828125
            ],
            [
              120.9967269897461,
              40.6791877746582
            ],
            [
              120.64734649658203,
              40.4848747253418
            ],
            [
              120.50029754638672,
              40.225894927978516
            ],
            [
              119.38044738769531,
              39.77294921875
            ],
            [
              119.21530151367188,
              39.320335388183594
            ],
            [
              118.98941802978516,
              39.19107437133789
            ],
            [
              118.44984436035156,
              39.06184005737305
            ],
            [
              118.0568618774414,
              39.06184005737305
            ],
            [
              118.04566192626953,
              39.19107437133789
            ],
            [
              117.77603912353516,
              39.1264533996582
            ],
            [
              117.57643127441406,
              38.738853454589844
            ],
            [
              117.6549072265625,
              38.738853454589844
            ],
            [
              117.60245513916016,
              38.48057174682617
            ],
            [
              117.75920867919922,
              38.48057174682617
            ],
            [
              117.77266693115234,
              38.351463317871094
            ],
            [
              118.05360412597656,
              38.28691864013672
            ],
            [
              118.06742095947266,
              38.157840728759766
            ],
            [
              118.58300018310547,
              38.09331130981445
            ],
            [
              118.64759826660156,
              38.22237777709961
            ],
            [
              118.80416870117188,
              38.22237777709961
            ],
            [
              118.77176666259766,
              38.157840728759766
            ],
            [
              119.4571304321289,
              37.96426773071289
            ],
            [
              119.3928451538086,
              37.835243225097656
            ],
            [
              119.23655700683594,
              37.835243225097656
            ],
            [
              118.98403930664062,
              37.3193473815918
            ],
            [
              119.13996124267578,
              37.3193473815918
            ],
            [
              119.15568542480469,
              37.1904182434082
            ],
            [
              119.70111083984375,
              37.1904182434082
            ],
            [
              119.82661437988281,
              37.44829177856445
            ],
            [
              120.20220184326172,
              37.5772590637207
            ],
            [
              120.18807220458984,
              37.706241607666016
            ],
            [
              120.75377655029297,
              37.89975357055664
            ],
            [
              121.11202239990234,
              37.835243225097656
            ],
            [
              121.17103576660156,
              37.641746520996094
            ],
            [
              121.48333740234375,
              37.641746520996094
            ],
            [
              121.49687957763672,
              37.51277160644531
            ],
            [
              122.15351867675781,
              37.5772590637207
            ],
            [
              122.1211166381836,
              37.51277160644531
            ],
            [
              122.71288299560547,
              37.44829177856445
            ],
            [
              122.47421264648438,
              37.12596130371094
            ],
            [
              122.56636810302734,
              36.9970588684082
            ],
            [
              122.39389038085938,
              36.80373764038086
            ],
            [
              121.91207885742188,
              36.932613372802734
            ],
            [
              121.21208190917969,
              36.61045455932617
            ],
            [
              120.97892761230469,
              36.61045455932617
            ],
            [
              120.96481323242188,
              36.417205810546875
            ],
            [
              120.73184967041016,
              36.417205810546875
            ],
            [
              120.65852355957031,
              36.09519577026367
            ],
            [
              120.31848907470703,
              36.03080368041992
            ],
            [
              119.98648071289062,
              35.644527435302734
            ],
            [
              119.61874389648438,
              35.51579284667969
            ],
            [
              119.22760772705078,
              34.80794906616211
            ],
            [
              119.45901489257812,
              34.80794906616211
            ],
            [
              119.43090057373047,
              34.743614196777344
            ],
            [
              119.71125030517578,
              34.679283142089844
            ],
            [
              119.73230743408203,
              34.55062484741211
            ],
            [
              120.3418197631836,
              34.3576545715332
            ],
            [
              120.48936462402344,
              34.164703369140625
            ],
            [
              120.55045318603516,
              33.5859489440918
            ],
            [
              120.92630004882812,
              33.20018768310547
            ],
            [
              120.92327880859375,
              33.00732421875
            ],
            [
              120.89688873291016,
              32.94303894042969
            ],
            [
              120.15547943115234,
              32.81447219848633
            ],
            [
              119.46658325195312,
              32.81447219848633
            ],
            [
              119.05896759033203,
              32.94303894042969
            ],
            [
              117.96123504638672,
              32.878753662109375
            ],
            [
              117.5788803100586,
              32.685909271240234
            ],
            [
              117.40213775634766,
              32.428794860839844
            ],
            [
              116.91878509521484,
              32.36451721191406
            ],
            [
              116.61597442626953,
              32.171695709228516
            ],
            [
              115.32723999023438,
              31.78606605529785
            ],
            [
              114.55482482910156,
              31.336183547973633
            ],
            [
              114.06755828857422,
              31.464719772338867
            ],
            [
              113.85504150390625,
              31.7217960357666
            ],
            [
              113.32134246826172,
              31.7217960357666
            ],
            [
              111.6895980834961,
              31.8503360748291
            ],
            [
              110.8656005859375,
              32.107421875
            ],
            [
              110.61365509033203,
              32.043148040771484
            ],
            [
              110.22430419921875,
              32.23596954345703
            ],
            [
              110.19403076171875,
              32.36451721191406
            ],
            [
              109.91146850585938,
              32.428794860839844
            ],
            [
              109.88143157958984,
              32.557350158691406
            ],
            [
              109.49907684326172,
              32.557350158691406
            ],
            [
              109.46910095214844,
              32.685909271240234
            ],
            [
              109.31609344482422,
              32.685909271240234
            ],
            [
              109.15662384033203,
              32.878753662109375
            ],
            [
              108.23787689208984,
              32.878753662109375
            ],
            [
              108.1015625,
              33.13589859008789
            ],
            [
              107.87826538085938,
              32.94303894042969
            ],
            [
              107.64852142333984,
              32.94303894042969
            ],
            [
              107.66516876220703,
              33.20018768310547
            ],
            [
              107.58851623535156,
              33.20018768310547
            ],
            [
              107.83116149902344,
              33.65024948120117
            ],
            [
              107.7543716430664,
              33.65024948120117
            ],
            [
              107.84688568115234,
              34.10039138793945
            ],
            [
              106.38541412353516,
              34.10039138793945
            ],
            [
              105.55828094482422,
              34.3576545715332
            ],
            [
              103.63971710205078,
              34.164703369140625
            ],
            [
              103.4793472290039,
              34.3576545715332
            ],
            [
              103.50296783447266,
              34.42197799682617
            ],
            [
              103.73529052734375,
              35.45143127441406
            ],
            [
              103.63004302978516,
              35.58015823364258
            ],
            [
              103.6773910522461,
              35.902034759521484
            ],
            [
              103.59990692138672,
              35.902034759521484
            ],
            [
              103.6755599975586,
              36.09519577026367
            ],
            [
              103.46696472167969,
              36.3527946472168
            ],
            [
              103.51822662353516,
              36.48161697387695
            ],
            [
              103.38858032226562,
              36.5460319519043
            ],
            [
              103.44023132324219,
              36.67487716674805
            ],
            [
              103.31065368652344,
              36.73930740356445
            ],
            [
              103.36270904541016,
              36.8681755065918
            ],
            [
              103.2077865600586,
              37.06150817871094
            ],
            [
              102.87095642089844,
              37.1904182434082
            ],
            [
              102.6109619140625,
              37.12596130371094
            ],
            [
              102.58558654785156,
              37.254878997802734
            ],
            [
              102.17054748535156,
              37.38381576538086
            ],
            [
              102.17203521728516,
              37.5772590637207
            ],
            [
              102.04254913330078,
              37.641746520996094
            ],
            [
              102.09606170654297,
              37.7707405090332
            ],
            [
              101.75530242919922,
              37.51277160644531
            ],
            [
              101.60066986083984,
              37.706241607666016
            ],
            [
              101.31484985351562,
              37.7707405090332
            ],
            [
              101.29009246826172,
              37.89975357055664
            ],
            [
              100.79631805419922,
              38.028785705566406
            ],
            [
              100.79882049560547,
              38.22237777709961
            ],
            [
              100.64225006103516,
              38.22237777709961
            ],
            [
              100.4137954711914,
              38.60969924926758
            ],
            [
              100.19944763183594,
              38.28691864013672
            ],
            [
              99.86175537109375,
              38.416015625
            ],
            [
              99.37857055664062,
              39.1264533996582
            ],
            [
              99.09188079833984,
              39.19107437133789
            ],
            [
              99.1197738647461,
              39.25570297241211
            ],
            [
              98.9577865600586,
              39.06184005737305
            ],
            [
              98.3840560913086,
              39.19107437133789
            ],
            [
              98.11726379394531,
              38.93262481689453
            ],
            [
              97.96016693115234,
              38.93262481689453
            ],
            [
              97.85742950439453,
              39.06184005737305
            ],
            [
              97.49164581298828,
              39.1264533996582
            ],
            [
              97.46768188476562,
              39.25570297241211
            ],
            [
              96.76294708251953,
              39.449623107910156
            ],
            [
              96.68096923828125,
              39.25570297241211
            ],
            [
              96.75963592529297,
              39.25570297241211
            ],
            [
              96.67847442626953,
              39.06184005737305
            ],
            [
              96.75707244873047,
              39.06184005737305
            ],
            [
              96.67670440673828,
              38.8680305480957
            ],
            [
              96.75523376464844,
              38.8680305480957
            ],
            [
              96.64930725097656,
              38.60969924926758
            ],
            [
              96.41403198242188,
              38.60969924926758
            ],
            [
              96.30970764160156,
              38.738853454589844
            ],
            [
              95.6822738647461,
              38.93262481689453
            ],
            [
              95.31853485107422,
              39.38497543334961
            ],
            [
              94.97687530517578,
              39.320335388183594
            ],
            [
              94.50609588623047,
              39.51427459716797
            ],
            [
              93.95469665527344,
              39.51427459716797
            ],
            [
              93.35050964355469,
              39.38497543334961
            ],
            [
              93.27178955078125,
              39.38497543334961
            ],
            [
              93.2734375,
              39.77294921875
            ],
            [
              93.09048461914062,
              39.90232849121094
            ],
            [
              93.19904327392578,
              40.16116714477539
            ],
            [
              93.27806854248047,
              40.16116714477539
            ],
            [
              93.36487579345703,
              40.54964065551758
            ],
            [
              93.57447052001953,
              40.4848747253418
            ],
            [
              93.84545135498047,
              40.74397277832031
            ],
            [
              95.22967529296875,
              41.00318908691406
            ],
            [
              97.21408081054688,
              41.00318908691406
            ],
            [
              97.18427276611328,
              40.93837356567383
            ],
            [
              97.88810729980469,
              40.74397277832031
            ],
            [
              98.03691864013672,
              40.54964065551758
            ],
            [
              98.27448272705078,
              40.54964065551758
            ],
            [
              98.50260162353516,
              40.355369567871094
            ],
            [
              98.94775390625,
              40.29063034057617
            ],
            [
              98.91836547851562,
              40.225894927978516
            ],
            [
              99.28423309326172,
              40.16116714477539
            ],
            [
              99.3836898803711,
              40.031734466552734
            ],
            [
              100.17345428466797,
              40.031734466552734
            ],
            [
              100.14405822753906,
              39.9670295715332
            ],
            [
              100.38090515136719,
              39.9670295715332
            ],
            [
              100.73719787597656,
              39.70827102661133
            ],
            [
              101.18104553222656,
              39.64360046386719
            ],
            [
              101.16522979736328,
              39.25570297241211
            ],
            [
              101.55858612060547,
              39.25570297241211
            ],
            [
              101.63008880615234,
              39.06184005737305
            ],
            [
              102.12320709228516,
              38.93262481689453
            ],
            [
              102.09483337402344,
              38.8680305480957
            ],
            [
              103.13201141357422,
              39.25570297241211
            ],
            [
              103.812255859375,
              39.70827102661133
            ],
            [
              104.58282470703125,
              39.8376350402832
            ],
            [
              104.66761779785156,
              39.51427459716797
            ],
            [
              103.9386215209961,
              39.1264533996582
            ],
            [
              103.60787963867188,
              38.738853454589844
            ],
            [
              104.10753631591797,
              38.80344009399414
            ],
            [
              103.83612060546875,
              38.54513168334961
            ],
            [
              103.75135040283203,
              38.351463317871094
            ],
            [
              103.8799057006836,
              38.28691864013672
            ],
            [
              103.6626205444336,
              37.96426773071289
            ],
            [
              103.76398468017578,
              37.835243225097656
            ],
            [
              104.36157989501953,
              37.7707405090332
            ],
            [
              104.462890625,
              37.641746520996094
            ],
            [
              105.77377319335938,
              37.96426773071289
            ],
            [
              107.3586196899414,
              37.835243225097656
            ],
            [
              108.53948974609375,
              38.028785705566406
            ],
            [
              108.51044464111328,
              37.96426773071289
            ],
            [
              108.74501037597656,
              37.96426773071289
            ],
            [
              108.8433609008789,
              37.835243225097656
            ],
            [
              110.12300872802734,
              37.89975357055664
            ],
            [
              110.09367370605469,
              37.835243225097656
            ],
            [
              110.48439025878906,
              37.835243225097656
            ],
            [
              110.45503997802734,
              37.7707405090332
            ],
            [
              111.74313354492188,
              37.51277160644531
            ],
            [
              113.0043716430664,
              39.64360046386719
            ],
            [
              113.6225357055664,
              40.225894927978516
            ],
            [
              113.76039123535156,
              40.4848747253418
            ],
            [
              114.95846557617188,
              40.93837356567383
            ],
            [
              115.99239349365234,
              41.781593322753906
            ],
            [
              117.33787536621094,
              42.17123794555664
            ],
            [
              117.73728942871094,
              42.17123794555664
            ],
            [
              117.70140075683594,
              41.97637939453125
            ],
            [
              117.82256317138672,
              41.911441802978516
            ],
            [
              117.70792388916016,
              41.71668243408203
            ],
            [
              117.79130554199219,
              41.586883544921875
            ],
            [
              118.0718765258789,
              41.521995544433594
            ],
            [
              118.03404998779297,
              41.45711898803711
            ],
            [
              118.46986389160156,
              41.521995544433594
            ],
            [
              118.43190002441406,
              41.45711898803711
            ],
            [
              118.67061614990234,
              41.45711898803711
            ],
            [
              118.63268280029297,
              41.39224624633789
            ],
            [
              118.82975006103516,
              41.45711898803711
            ],
            [
              118.7917709350586,
              41.39224624633789
            ],
            [
              119.4281005859375,
              41.39224624633789
            ],
            [
              119.3900146484375,
              41.32738494873047
            ],
            [
              121.02125549316406,
              41.26253128051758
            ],
            [
              123.1669921875,
              41.911441802978516
            ],
            [
              123.12676239013672,
              41.84651184082031
            ],
            [
              123.40548706054688,
              41.781593322753906
            ],
            [
              123.36537170410156,
              41.71668243408203
            ],
            [
              123.60441589355469,
              41.71668243408203
            ],
            [
              123.56433868408203,
              41.65177917480469
            ],
            [
              124.04171752929688,
              41.521995544433594
            ],
            [
              124.00180053710938,
              41.45711898803711
            ],
            [
              124.28016662597656,
              41.39224624633789
            ],
            [
              124.2403793334961,
              41.32738494873047
            ],
            [
              124.47891998291016,
              41.32738494873047
            ],
            [
              124.43917083740234,
              41.26253128051758
            ],
            [
              124.7173843383789,
              41.19768524169922
            ],
            [
              124.67777252197266,
              41.132843017578125
            ],
            [
              125.8306655883789,
              41.32738494873047
            ],
            [
              125.79044342041016,
              41.26253128051758
            ],
            [
              126.10839080810547,
              41.26253128051758
            ],
            [
              126.18696594238281,
              41.132843017578125
            ],
            [
              126.74209594726562,
              41.00318908691406
            ],
            [
              126.62281799316406,
              40.6791877746582
            ],
            [
              126.42505645751953,
              40.614410400390625
            ],
            [
              126.26929473876953,
              40.355369567871094
            ],
            [
              126.43173217773438,
              40.0964469909668
            ],
            [
              126.7094955444336,
              40.031734466552734
            ],
            [
              126.83229064941406,
              39.8376350402832
            ],
            [
              126.72828674316406,
              39.38497543334961
            ],
            [
              126.9644546508789,
              39.38497543334961
            ],
            [
              126.85406494140625,
              39.19107437133789
            ],
            [
              127.02290344238281,
              38.93262481689453
            ],
            [
              126.93743133544922,
              38.351463317871094
            ],
            [
              126.34768676757812,
              37.835243225097656
            ]
          ]
        ]
      }
    }
  ]
}