{
  "type": "FeatureCollection",
  "name": "territory-146",
  "features": [
    {
      "type": "Feature",
      "properties": {
        "Name": "Eastern Kushans",
        "FromYear": 238,
        "ToYear": 259,
        "Area": 1240514.4813036164,
        "Type": "POLITY",
        "Wikipedia": "Kushan Empire",
        "Wikidata": "Q25979",
        "SeshatID": "",
        "Components": "",
        "MemberOf": ""
      },
      "geometry": {
        "type": "Polygon",
        "coordinates": [
          [
            [
              74.17559051513672,
              34.48630142211914
            ],
            [
              74.25262451171875,
              34.48630142211914
            ],
            [
              74.63370513916016,
              34.164703369140625
            ],
            [
              74.60157775878906,
              34.03607940673828
            ],
            [
              75.02796936035156,
              33.5859489440918
            ],
            [
              74.99642181396484,
              33.45735549926758
            ],
            [
              75.13414764404297,
              33.393062591552734
            ],
            [
              75.10282135009766,
              33.26447677612305
            ],
            [
              75.24053955078125,
              33.20018768310547
            ],
            [
              75.27055358886719,
              33.00732421875
            ],
            [
              75.42375183105469,
              33.00732421875
            ],
            [
              75.46939849853516,
              32.878753662109375
            ],
            [
              75.88238525390625,
              32.685909271240234
            ],
            [
              76.12737274169922,
              32.75019073486328
            ],
            [
              76.08113098144531,
              32.557350158691406
            ],
            [
              76.46338653564453,
              32.23596954345703
            ],
            [
              78.4480209350586,
              31.593257904052734
            ],
            [
              78.84430694580078,
              31.65752601623535
            ],
            [
              78.81387329101562,
              31.528987884521484
            ],
            [
              79.17961883544922,
              31.464719772338867
            ],
            [
              79.60707092285156,
              31.014846801757812
            ],
            [
              79.62389373779297,
              30.757776260375977
            ],
            [
              79.86929321289062,
              30.500701904296875
            ],
            [
              79.84490966796875,
              30.050809860229492
            ],
            [
              79.95435333251953,
              29.857990264892578
            ],
            [
              79.88524627685547,
              29.536611557006836
            ],
            [
              79.96094512939453,
              29.536611557006836
            ],
            [
              79.8666000366211,
              29.08665657043457
            ],
            [
              80.16558837890625,
              28.700960159301758
            ],
            [
              80.68107604980469,
              28.636676788330078
            ],
            [
              80.95700073242188,
              28.508106231689453
            ],
            [
              81.19453430175781,
              28.186676025390625
            ],
            [
              81.88497924804688,
              27.865236282348633
            ],
            [
              82.53770446777344,
              27.736658096313477
            ],
            [
              83.07760620117188,
              27.41520881652832
            ],
            [
              84.3565902709961,
              27.41520881652832
            ],
            [
              84.36042785644531,
              26.643707275390625
            ],
            [
              84.5105972290039,
              26.643707275390625
            ],
            [
              84.44046783447266,
              26.257951736450195
            ],
            [
              84.5154800415039,
              26.257951736450195
            ],
            [
              84.45659637451172,
              25.48643684387207
            ],
            [
              84.3390884399414,
              25.229267120361328
            ],
            [
              83.75359344482422,
              24.843517303466797
            ],
            [
              83.07071685791016,
              24.779226303100586
            ],
            [
              82.35892486572266,
              24.522062301635742
            ],
            [
              81.60259246826172,
              23.943456649780273
            ],
            [
              81.31623077392578,
              23.493436813354492
            ],
            [
              81.3074722290039,
              23.429147720336914
            ],
            [
              80.5849609375,
              24.136323928833008
            ],
            [
              79.37958526611328,
              24.586353302001953
            ],
            [
              78.5760498046875,
              24.714935302734375
            ],
            [
              78.31441497802734,
              24.97209930419922
            ],
            [
              78.36701965332031,
              25.807899475097656
            ],
            [
              78.2920913696289,
              25.807899475097656
            ],
            [
              78.33210754394531,
              26.515121459960938
            ],
            [
              78.25704956054688,
              26.515121459960938
            ],
            [
              78.23637390136719,
              26.836584091186523
            ],
            [
              77.23820495605469,
              26.70800018310547
            ],
            [
              77.10957336425781,
              26.836584091186523
            ],
            [
              76.58372497558594,
              26.836584091186523
            ],
            [
              73.95864868164062,
              26.386537551879883
            ],
            [
              73.47901916503906,
              26.19365882873535
            ],
            [
              73.17902374267578,
              26.19365882873535
            ],
            [
              71.90473175048828,
              25.67931365966797
            ],
            [
              71.23513793945312,
              25.164974212646484
            ],
            [
              71.08550262451172,
              25.164974212646484
            ],
            [
              70.57011413574219,
              24.650644302368164
            ],
            [
              70.6047592163086,
              24.329193115234375
            ],
            [
              70.44752502441406,
              24.264904022216797
            ],
            [
              70.42416381835938,
              24.07203483581543
            ],
            [
              70.06529235839844,
              23.557723999023438
            ],
            [
              69.49991607666016,
              23.171995162963867
            ],
            [
              69.03872680664062,
              23.043420791625977
            ],
            [
              69.02472686767578,
              22.914846420288086
            ],
            [
              68.95024871826172,
              22.914846420288086
            ],
            [
              68.60577392578125,
              23.171995162963867
            ],
            [
              68.55245971679688,
              23.36486053466797
            ],
            [
              68.3359375,
              23.429147720336914
            ],
            [
              68.35022735595703,
              23.557723999023438
            ],
            [
              68.12652587890625,
              23.557723999023438
            ],
            [
              68.15538787841797,
              23.814878463745117
            ],
            [
              67.63314819335938,
              23.814878463745117
            ],
            [
              67.49114990234375,
              23.879167556762695
            ],
            [
              67.43836975097656,
              24.07203483581543
            ],
            [
              67.28907775878906,
              24.07203483581543
            ],
            [
              67.32612609863281,
              24.393482208251953
            ],
            [
              67.14765930175781,
              24.779226303100586
            ],
            [
              66.63204956054688,
              24.843517303466797
            ],
            [
              66.63977813720703,
              24.907808303833008
            ],
            [
              67.1120834350586,
              25.100683212280273
            ],
            [
              67.50210571289062,
              25.807899475097656
            ],
            [
              67.19660949707031,
              26.32224464416504
            ],
            [
              67.17454528808594,
              27.222335815429688
            ],
            [
              67.06233215332031,
              27.4794979095459
            ],
            [
              67.12104034423828,
              27.865236282348633
            ],
            [
              67.04571533203125,
              27.865236282348633
            ],
            [
              67.04087829589844,
              28.315250396728516
            ],
            [
              66.9654541015625,
              28.315250396728516
            ],
            [
              67.0067367553711,
              28.572391510009766
            ],
            [
              66.93125915527344,
              28.572391510009766
            ],
            [
              67.13524627685547,
              29.34377670288086
            ],
            [
              66.99494171142578,
              29.40805435180664
            ],
            [
              66.8879623413086,
              29.665164947509766
            ],
            [
              66.4336166381836,
              29.665164947509766
            ],
            [
              66.0771255493164,
              29.79371452331543
            ],
            [
              66.3155746459961,
              29.857990264892578
            ],
            [
              66.4184341430664,
              30.436433792114258
            ],
            [
              66.34252166748047,
              30.436433792114258
            ],
            [
              66.5251693725586,
              31.014846801757812
            ],
            [
              66.87832641601562,
              31.271915435791016
            ],
            [
              67.93124389648438,
              31.593257904052734
            ],
            [
              68.12230682373047,
              31.78606605529785
            ],
            [
              68.35108947753906,
              31.78606605529785
            ],
            [
              69.44192504882812,
              32.62162780761719
            ],
            [
              70.32556915283203,
              32.81447219848633
            ],
            [
              70.4448471069336,
              33.00732421875
            ],
            [
              70.36824798583984,
              33.00732421875
            ],
            [
              70.39693450927734,
              33.13589859008789
            ],
            [
              70.57913970947266,
              33.26447677612305
            ],
            [
              70.62288665771484,
              33.45735549926758
            ],
            [
              70.86780548095703,
              33.52165222167969
            ],
            [
              70.89529418945312,
              33.971771240234375
            ],
            [
              70.77163696289062,
              34.10039138793945
            ],
            [
              71.20201110839844,
              34.2933349609375
            ],
            [
              71.60481262207031,
              35.00096893310547
            ],
            [
              71.68201446533203,
              35.00096893310547
            ],
            [
              72.13227081298828,
              35.258358001708984
            ],
            [
              72.7059097290039,
              35.38706970214844
            ],
            [
              73.21415710449219,
              35.258358001708984
            ],
            [
              73.44120788574219,
              34.93662643432617
            ],
            [
              73.81070709228516,
              34.87228775024414
            ],
            [
              73.70096588134766,
              34.743614196777344
            ],
            [
              73.99312591552734,
              34.679283142089844
            ],
            [
              74.17559051513672,
              34.48630142211914
            ]
          ]
        ]
      }
    }
  ]
}