{
  "type": "FeatureCollection",
  "name": "territory-147",
  "features": [
    {
      "type": "Feature",
      "properties": {
        "Name": "Western Kushans",
        "FromYear": 238,
        "ToYear": 246,
        "Area": 684685.7926896549,
        "Type": "POLITY",
        "Wikipedia": "Kushan Empire",
        "Wikidata": "Q25979",
        "SeshatID": "",
        "Components": "",
        "MemberOf": ""
      },
      "geometry": {
        "type": "Polygon",
        "coordinates": [
          [
            [
              71.92003631591797,
              41.32738494873047
            ],
            [
              71.99954986572266,
              41.32738494873047
            ],
            [
              72.23180389404297,
              41.06801223754883
            ],
            [
              72.47001647949219,
              41.06801223754883
            ],
            [
              73.01934814453125,
              40.80876541137695
            ],
            [
              73.09864044189453,
              40.80876541137695
            ],
            [
              73.13530731201172,
              40.6791877746582
            ],
            [
              73.29378509521484,
              40.6791877746582
            ],
            [
              73.33053588867188,
              40.54964065551758
            ],
            [
              73.48890686035156,
              40.54964065551758
            ],
            [
              73.5257339477539,
              40.42012023925781
            ],
            [
              73.80000305175781,
              40.29063034057617
            ],
            [
              73.57305908203125,
              39.57893371582031
            ],
            [
              73.39533996582031,
              39.51427459716797
            ],
            [
              73.6902847290039,
              39.449623107910156
            ],
            [
              73.67021179199219,
              39.38497543334961
            ],
            [
              73.63028717041016,
              39.25570297241211
            ],
            [
              73.7479019165039,
              39.1264533996582
            ],
            [
              73.49423217773438,
              38.54513168334961
            ],
            [
              72.98930358886719,
              38.157840728759766
            ],
            [
              72.62619018554688,
              37.706241607666016
            ],
            [
              72.50084686279297,
              37.254878997802734
            ],
            [
              72.42290496826172,
              37.254878997802734
            ],
            [
              72.36104583740234,
              36.73930740356445
            ],
            [
              71.8871841430664,
              36.417205810546875
            ],
            [
              71.57656860351562,
              36.417205810546875
            ],
            [
              71.27709197998047,
              36.15959167480469
            ],
            [
              71.244140625,
              36.03080368041992
            ],
            [
              71.6719741821289,
              35.58015823364258
            ],
            [
              71.62069702148438,
              35.065311431884766
            ],
            [
              71.60481262207031,
              35.00096893310547
            ],
            [
              71.20201110839844,
              34.2933349609375
            ],
            [
              70.77163696289062,
              34.10039138793945
            ],
            [
              70.89529418945312,
              33.971771240234375
            ],
            [
              70.86780548095703,
              33.52165222167969
            ],
            [
              70.62288665771484,
              33.45735549926758
            ],
            [
              70.57913970947266,
              33.26447677612305
            ],
            [
              70.39693450927734,
              33.13589859008789
            ],
            [
              70.36824798583984,
              33.00732421875
            ],
            [
              70.4448471069336,
              33.00732421875
            ],
            [
              70.32556915283203,
              32.81447219848633
            ],
            [
              69.44192504882812,
              32.62162780761719
            ],
            [
              68.35108947753906,
              31.78606605529785
            ],
            [
              68.12230682373047,
              31.78606605529785
            ],
            [
              67.93124389648438,
              31.593257904052734
            ],
            [
              66.87832641601562,
              31.271915435791016
            ],
            [
              66.5251693725586,
              31.014846801757812
            ],
            [
              66.44911193847656,
              31.014846801757812
            ],
            [
              66.48328399658203,
              31.593257904052734
            ],
            [
              66.10224151611328,
              31.593257904052734
            ],
            [
              65.69441223144531,
              31.8503360748291
            ],
            [
              65.02023315429688,
              31.91460609436035
            ],
            [
              64.38263702392578,
              32.171695709228516
            ],
            [
              63.55480194091797,
              32.23596954345703
            ],
            [
              63.426448822021484,
              32.36451721191406
            ],
            [
              63.872615814208984,
              33.84315490722656
            ],
            [
              64.3238754272461,
              34.164703369140625
            ],
            [
              64.57353210449219,
              34.614952087402344
            ],
            [
              65.09204864501953,
              34.87228775024414
            ],
            [
              64.85395812988281,
              35.194007873535156
            ],
            [
              64.8285140991211,
              35.77327346801758
            ],
            [
              64.75106811523438,
              35.77327346801758
            ],
            [
              65.15513610839844,
              38.738853454589844
            ],
            [
              65.07666015625,
              38.738853454589844
            ],
            [
              65.1440658569336,
              38.997230529785156
            ],
            [
              65.06549835205078,
              38.997230529785156
            ],
            [
              65.2818832397461,
              39.51427459716797
            ],
            [
              65.20310974121094,
              39.51427459716797
            ],
            [
              65.29122161865234,
              39.8376350402832
            ],
            [
              65.56378936767578,
              39.9670295715332
            ],
            [
              65.88282012939453,
              40.80876541137695
            ],
            [
              65.96211242675781,
              40.80876541137695
            ],
            [
              66.65251922607422,
              41.26253128051758
            ],
            [
              66.89097595214844,
              41.26253128051758
            ],
            [
              67.54730987548828,
              41.586883544921875
            ],
            [
              68.02506256103516,
              41.586883544921875
            ],
            [
              68.22328186035156,
              41.45711898803711
            ],
            [
              68.97801208496094,
              41.32738494873047
            ],
            [
              69.57976531982422,
              41.71668243408203
            ],
            [
              70.01571655273438,
              41.586883544921875
            ],
            [
              71.62983703613281,
              41.65177917480469
            ],
            [
              71.92003631591797,
              41.32738494873047
            ]
          ]
        ]
      }
    }
  ]
}