{
  "type": "FeatureCollection",
  "name": "territory-151",
  "features": [
    {
      "type": "Feature",
      "properties": {
        "Name": "Palmyrene Empire",
        "FromYear": 263,
        "ToYear": 264,
        "Area": 1043311.7779928264,
        "Type": "POLITY",
        "Wikipedia": "Palmyrene Empire",
        "Wikidata": "Q877875",
        "SeshatID": "",
        "Components": "",
        "MemberOf": ""
      },
      "geometry": {
        "type": "MultiPolygon",
        "coordinates": [
          [
            [
              [
                40.02592086791992,
                34.2933349609375
              ],
              [
                39.50897979736328,
                34.48630142211914
              ],
              [
                39.12379455566406,
                34.48630142211914
              ],
              [
                37.990238189697266,
                33.971771240234375
              ],
              [
                37.73945236206055,
                33.77885055541992
              ],
              [
                37.72612380981445,
                33.65024948120117
              ],
              [
                37.57255172729492,
                33.65024948120117
              ],
              [
                37.0732307434082,
                33.26447677612305
              ],
              [
                37.054195404052734,
                33.07160949707031
              ],
              [
                36.90095901489258,
                33.07160949707031
              ],
              [
                36.716766357421875,
                32.75019073486328
              ],
              [
                36.750667572021484,
                32.30024337768555
              ],
              [
                36.5155143737793,
                32.23596954345703
              ],
              [
                36.66231155395508,
                32.171695709228516
              ],
              [
                36.38663864135742,
                31.65752601623535
              ],
              [
                36.423099517822266,
                31.20764923095703
              ],
              [
                36.2708854675293,
                31.20764923095703
              ],
              [
                36.40085220336914,
                30.950578689575195
              ],
              [
                36.15641784667969,
                30.757776260375977
              ],
              [
                35.84559631347656,
                29.729440689086914
              ],
              [
                35.76985549926758,
                29.729440689086914
              ],
              [
                35.80632781982422,
                29.21521759033203
              ],
              [
                35.655086517333984,
                29.21521759033203
              ],
              [
                35.64081573486328,
                29.022375106811523
              ],
              [
                35.480316162109375,
                28.893810272216797
              ],
              [
                35.19560241699219,
                28.058101654052734
              ],
              [
                34.59267044067383,
                28.058101654052734
              ],
              [
                34.60541915893555,
                28.25096321105957
              ],
              [
                34.853519439697266,
                28.572391510009766
              ],
              [
                34.91290283203125,
                29.40805435180664
              ],
              [
                34.75225830078125,
                29.279497146606445
              ],
              [
                34.517303466796875,
                28.058101654052734
              ],
              [
                34.35825729370117,
                27.92952537536621
              ],
              [
                34.345943450927734,
                27.736658096313477
              ],
              [
                34.12004470825195,
                27.736658096313477
              ],
              [
                33.6169548034668,
                28.12238883972168
              ],
              [
                33.553810119628906,
                28.315250396728516
              ],
              [
                33.40296936035156,
                28.315250396728516
              ],
              [
                33.18891525268555,
                28.508106231689453
              ],
              [
                33.14677429199219,
                29.022375106811523
              ],
              [
                32.857112884521484,
                29.21521759033203
              ],
              [
                32.58876037597656,
                29.729440689086914
              ],
              [
                32.60188293457031,
                29.922264099121094
              ],
              [
                32.44160079956055,
                29.79371452331543
              ],
              [
                32.68916320800781,
                28.958093643188477
              ],
              [
                32.83612823486328,
                28.893810272216797
              ],
              [
                33.10531997680664,
                28.379535675048828
              ],
              [
                33.60887145996094,
                27.993812561035156
              ],
              [
                33.585105895996094,
                27.608078002929688
              ],
              [
                33.7991943359375,
                27.41520881652832
              ],
              [
                33.92659378051758,
                27.029460906982422
              ],
              [
                34.07311248779297,
                26.96516990661621
              ],
              [
                34.05074691772461,
                26.57941436767578
              ],
              [
                34.197208404541016,
                26.515121459960938
              ],
              [
                34.461280822753906,
                25.8721923828125
              ],
              [
                34.60763931274414,
                25.807899475097656
              ],
              [
                35.145530700683594,
                24.650644302368164
              ],
              [
                35.860408782958984,
                24.00774574279785
              ],
              [
                35.85411834716797,
                23.879167556762695
              ],
              [
                35.558753967285156,
                23.943456649780273
              ],
              [
                35.55257034301758,
                23.814878463745117
              ],
              [
                35.10795974731445,
                23.879167556762695
              ],
              [
                33.75636291503906,
                23.68630027770996
              ],
              [
                33.6817741394043,
                23.68630027770996
              ],
              [
                33.38899612426758,
                23.814878463745117
              ],
              [
                32.040863037109375,
                23.68630027770996
              ],
              [
                31.670488357543945,
                23.75058937072754
              ],
              [
                30.537214279174805,
                23.36486053466797
              ],
              [
                30.462675094604492,
                23.36486053466797
              ],
              [
                30.39519500732422,
                23.557723999023438
              ],
              [
                30.10396385192871,
                23.75058937072754
              ],
              [
                30.10871124267578,
                23.879167556762695
              ],
              [
                29.95948028564453,
                23.879167556762695
              ],
              [
                29.672801971435547,
                24.200613021850586
              ],
              [
                28.568815231323242,
                24.650644302368164
              ],
              [
                28.288646697998047,
                25.164974212646484
              ],
              [
                28.24367904663086,
                25.936485290527344
              ],
              [
                28.34531593322754,
                26.57941436767578
              ],
              [
                28.270244598388672,
                26.57941436767578
              ],
              [
                28.220294952392578,
                27.158044815063477
              ],
              [
                28.145111083984375,
                27.158044815063477
              ],
              [
                28.15372657775879,
                27.35091781616211
              ],
              [
                27.93669891357422,
                27.54378890991211
              ],
              [
                27.710918426513672,
                27.54378890991211
              ],
              [
                27.791961669921875,
                27.6723690032959
              ],
              [
                27.644275665283203,
                27.736658096313477
              ],
              [
                27.647178649902344,
                27.800947189331055
              ],
              [
                28.11420249938965,
                28.12238883972168
              ],
              [
                28.20518684387207,
                28.44382095336914
              ],
              [
                28.52326202392578,
                28.765243530273438
              ],
              [
                28.53994369506836,
                29.08665657043457
              ],
              [
                28.86321258544922,
                29.472333908081055
              ],
              [
                28.877477645874023,
                29.729440689086914
              ],
              [
                29.043609619140625,
                29.986536026000977
              ],
              [
                29.093055725097656,
                30.822044372558594
              ],
              [
                29.169065475463867,
                30.822044372558594
              ],
              [
                29.3970890045166,
                30.822044372558594
              ],
              [
                29.485143661499023,
                31.014846801757812
              ],
              [
                29.78937339782715,
                31.014846801757812
              ],
              [
                29.882049560546875,
                31.271915435791016
              ],
              [
                30.33879280090332,
                31.271915435791016
              ],
              [
                30.271244049072266,
                31.40045166015625
              ],
              [
                30.351730346679688,
                31.464719772338867
              ],
              [
                30.965608596801758,
                31.528987884521484
              ],
              [
                30.974620819091797,
                31.65752601623535
              ],
              [
                31.203296661376953,
                31.65752601623535
              ],
              [
                31.117990493774414,
                31.528987884521484
              ],
              [
                31.265825271606445,
                31.464719772338867
              ],
              [
                31.875221252441406,
                31.464719772338867
              ],
              [
                31.780553817749023,
                31.20764923095703
              ],
              [
                31.93739891052246,
                31.271915435791016
              ],
              [
                31.999635696411133,
                31.079113006591797
              ],
              [
                32.303932189941406,
                31.079113006591797
              ],
              [
                32.23719787597656,
                31.20764923095703
              ],
              [
                32.38941192626953,
                31.20764923095703
              ],
              [
                32.53215408325195,
                31.079113006591797
              ],
              [
                32.76515197753906,
                31.143381118774414
              ],
              [
                32.8316764831543,
                31.014846801757812
              ],
              [
                33.74934005737305,
                31.079113006591797
              ],
              [
                34.2972412109375,
                31.271915435791016
              ],
              [
                34.30759811401367,
                31.40045166015625
              ],
              [
                34.63344955444336,
                31.65752601623535
              ],
              [
                34.57329559326172,
                31.8503360748291
              ],
              [
                34.81304168701172,
                31.978878021240234
              ],
              [
                34.76983642578125,
                32.36451721191406
              ],
              [
                35.021759033203125,
                32.62162780761719
              ],
              [
                35.05632781982422,
                33.00732421875
              ],
              [
                35.21538543701172,
                33.07160949707031
              ],
              [
                35.39840316772461,
                33.393062591552734
              ],
              [
                35.34577560424805,
                33.65024948120117
              ],
              [
                35.49934768676758,
                33.65024948120117
              ],
              [
                35.4470100402832,
                33.90746307373047
              ],
              [
                35.68381118774414,
                33.971771240234375
              ],
              [
                35.64447784423828,
                34.3576545715332
              ],
              [
                35.79212951660156,
                34.2933349609375
              ],
              [
                36.048770904541016,
                34.55062484741211
              ],
              [
                36.0682373046875,
                34.743614196777344
              ],
              [
                35.92698669433594,
                34.87228775024414
              ],
              [
                35.959747314453125,
                35.194007873535156
              ],
              [
                35.88248825073242,
                35.194007873535156
              ],
              [
                35.99294662475586,
                35.51579284667969
              ],
              [
                35.84488296508789,
                35.58015823364258
              ],
              [
                35.990074157714844,
                36.2239875793457
              ],
              [
                35.84174346923828,
                36.28839111328125
              ],
              [
                36.26490020751953,
                36.61045455932617
              ],
              [
                36.28622817993164,
                36.80373764038086
              ],
              [
                36.144901275634766,
                36.932613372802734
              ],
              [
                35.833587646484375,
                36.932613372802734
              ],
              [
                35.487709045410156,
                36.61045455932617
              ],
              [
                35.11265563964844,
                36.73930740356445
              ],
              [
                34.95038986206055,
                36.67487716674805
              ],
              [
                34.892860412597656,
                36.8681755065918
              ],
              [
                34.581634521484375,
                36.8681755065918
              ],
              [
                34.2507209777832,
                36.67487716674805
              ],
              [
                33.97906494140625,
                36.28839111328125
              ],
              [
                32.558349609375,
                36.03080368041992
              ],
              [
                32.498512268066406,
                36.2239875793457
              ],
              [
                32.06806182861328,
                36.61045455932617
              ],
              [
                31.391563415527344,
                36.8681755065918
              ],
              [
                30.696895599365234,
                36.932613372802734
              ],
              [
                30.619068145751953,
                36.932613372802734
              ],
              [
                30.81454849243164,
                37.38381576538086
              ],
              [
                30.531185150146484,
                37.706241607666016
              ],
              [
                30.15203285217285,
                37.835243225097656
              ],
              [
                30.163454055786133,
                37.96426773071289
              ],
              [
                30.891101837158203,
                38.22237777709961
              ],
              [
                30.98763656616211,
                38.416015625
              ],
              [
                31.385658264160156,
                38.48057174682617
              ],
              [
                31.442956924438477,
                39.06184005737305
              ],
              [
                31.23297691345215,
                39.320335388183594
              ],
              [
                31.37827491760254,
                39.9670295715332
              ],
              [
                31.306106567382812,
                40.031734466552734
              ],
              [
                32.110042572021484,
                40.16116714477539
              ],
              [
                32.30427932739258,
                40.4848747253418
              ],
              [
                32.764366149902344,
                40.355369567871094
              ],
              [
                33.00168991088867,
                40.355369567871094
              ],
              [
                33.095882415771484,
                40.4848747253418
              ],
              [
                34.030086517333984,
                40.355369567871094
              ],
              [
                34.45772171020508,
                40.614410400390625
              ],
              [
                35.17064666748047,
                40.614410400390625
              ],
              [
                35.3123779296875,
                40.4848747253418
              ],
              [
                35.70817947387695,
                40.4848747253418
              ],
              [
                35.92866134643555,
                40.355369567871094
              ],
              [
                36.49108123779297,
                40.42012023925781
              ],
              [
                36.790103912353516,
                40.29063034057617
              ],
              [
                37.115272521972656,
                40.355369567871094
              ],
              [
                38.20438003540039,
                40.225894927978516
              ],
              [
                38.334999084472656,
                40.031734466552734
              ],
              [
                38.790401458740234,
                39.90232849121094
              ],
              [
                38.92983627319336,
                39.77294921875
              ],
              [
                38.74488830566406,
                39.57893371582031
              ],
              [
                38.95417022705078,
                39.38497543334961
              ],
              [
                39.20852279663086,
                39.51427459716797
              ],
              [
                39.750633239746094,
                39.449623107910156
              ],
              [
                39.848045349121094,
                39.57893371582031
              ],
              [
                40.547637939453125,
                39.51427459716797
              ],
              [
                40.50969314575195,
                39.25570297241211
              ],
              [
                40.6575927734375,
                39.19107437133789
              ],
              [
                40.46860122680664,
                38.416015625
              ],
              [
                40.54695510864258,
                38.416015625
              ],
              [
                40.57164001464844,
                38.028785705566406
              ],
              [
                40.09366226196289,
                37.96426773071289
              ],
              [
                40.050636291503906,
                37.641746520996094
              ],
              [
                40.18118667602539,
                37.44829177856445
              ],
              [
                41.177772521972656,
                37.3193473815918
              ],
              [
                41.273006439208984,
                36.8681755065918
              ],
              [
                41.679588317871094,
                36.417205810546875
              ],
              [
                41.57657241821289,
                36.2239875793457
              ],
              [
                41.086280822753906,
                36.03080368041992
              ],
              [
                41.112205505371094,
                35.00096893310547
              ],
              [
                40.7723274230957,
                34.743614196777344
              ],
              [
                40.61809539794922,
                34.743614196777344
              ],
              [
                40.10289764404297,
                34.2933349609375
              ],
              [
                40.02592086791992,
                34.2933349609375
              ]
            ]
          ],
          [
            [
              [
                30.613496780395508,
                36.8681755065918
              ],
              [
                30.535690307617188,
                36.8681755065918
              ],
              [
                30.54123878479004,
                36.932613372802734
              ],
              [
                30.619068145751953,
                36.932613372802734
              ],
              [
                30.613496780395508,
                36.8681755065918
              ]
            ]
          ]
        ]
      }
    }
  ]
}