{
  "type": "FeatureCollection",
  "name": "territory-154",
  "features": [
    {
      "type": "Feature",
      "properties": {
        "Name": "Saxons",
        "FromYear": 455,
        "ToYear": 468,
        "Area": 82798.01164798715,
        "Type": "POLITY",
        "Wikipedia": "Saxons",
        "Wikidata": "Q101985",
        "SeshatID": "",
        "Components": "",
        "MemberOf": ""
      },
      "geometry": {
        "type": "Polygon",
        "coordinates": [
          [
            [
              11.224061965942383,
              53.93522644042969
            ],
            [
              11.137670516967773,
              53.93522644042969
            ],
            [
              10.877296447753906,
              53.732303619384766
            ],
            [
              10.87574291229248,
              53.462066650390625
            ],
            [
              11.132387161254883,
              53.25962829589844
            ],
            [
              11.47608470916748,
              53.25962829589844
            ],
            [
              11.47470760345459,
              53.124786376953125
            ],
            [
              11.818037033081055,
              53.124786376953125
            ],
            [
              11.637447357177734,
              52.31757736206055
            ],
            [
              11.552154541015625,
              52.31757736206055
            ],
            [
              11.55083179473877,
              52.18334197998047
            ],
            [
              11.804113388061523,
              51.98215103149414
            ],
            [
              11.546998977661133,
              51.78114318847656
            ],
            [
              10.868002891540527,
              51.91512680053711
            ],
            [
              10.44254207611084,
              51.580322265625
            ],
            [
              10.272875785827637,
              51.64724349975586
            ],
            [
              10.188253402709961,
              51.44654083251953
            ],
            [
              9.68019962310791,
              51.37968063354492
            ],
            [
              9.680888175964355,
              51.24601745605469
            ],
            [
              9.511246681213379,
              51.31283950805664
            ],
            [
              9.51210880279541,
              51.17921447753906
            ],
            [
              9.342463493347168,
              51.24601745605469
            ],
            [
              8.418646812438965,
              50.77880859375
            ],
            [
              8.419631004333496,
              50.71213912963867
            ],
            [
              8.165696144104004,
              50.77880859375
            ],
            [
              7.651692390441895,
              51.17921447753906
            ],
            [
              7.648990631103516,
              51.31283950805664
            ],
            [
              7.392090797424316,
              51.44654083251953
            ],
            [
              7.301267147064209,
              51.71418380737305
            ],
            [
              7.128238201141357,
              51.84812545776367
            ],
            [
              6.699635028839111,
              51.98215103149414
            ],
            [
              6.697800159454346,
              52.0491943359375
            ],
            [
              6.948029518127441,
              52.250450134277344
            ],
            [
              7.016500473022461,
              52.92268753051758
            ],
            [
              7.014810562133789,
              52.99003219604492
            ],
            [
              7.100551605224609,
              52.99003219604492
            ],
            [
              7.097254753112793,
              53.124786376953125
            ],
            [
              7.442051410675049,
              53.057395935058594
            ],
            [
              8.381847381591797,
              53.32708740234375
            ],
            [
              8.374106407165527,
              53.86756134033203
            ],
            [
              8.892172813415527,
              53.86756134033203
            ],
            [
              8.802155494689941,
              54.20612335205078
            ],
            [
              8.54152774810791,
              54.27390670776367
            ],
            [
              8.539765357971191,
              54.4095458984375
            ],
            [
              8.798471450805664,
              54.545284271240234
            ],
            [
              8.97212028503418,
              54.545284271240234
            ],
            [
              8.974040985107422,
              54.341712951660156
            ],
            [
              9.147398948669434,
              54.341712951660156
            ],
            [
              9.322098731994629,
              54.138362884521484
            ],
            [
              9.58200740814209,
              54.07062530517578
            ],
            [
              11.138771057128906,
              54.07062530517578
            ],
            [
              11.224061965942383,
              53.93522644042969
            ]
          ]
        ]
      }
    }
  ]
}