{
  "type": "FeatureCollection",
  "name": "territory-157",
  "features": [
    {
      "type": "Feature",
      "properties": {
        "Name": "Yaudheya Republic",
        "FromYear": 347,
        "ToYear": 372,
        "Area": 220728.6654340006,
        "Type": "POLITY",
        "Wikipedia": "Yaudheya",
        "Wikidata": "Q8050331",
        "SeshatID": "in_yaudheya_rep",
        "Components": "",
        "MemberOf": ""
      },
      "geometry": {
        "type": "Polygon",
        "coordinates": [
          [
            [
              74.88389974544057,
              26.99677118912664
            ],
            [
              74.18718609192982,
              27.238914784724507
            ],
            [
              73.49047243841908,
              27.2448141720611
            ],
            [
              73.26486992204416,
              27.906487687998172
            ],
            [
              72.9364191996748,
              28.307407141168497
            ],
            [
              72.58474468885508,
              28.456270774687674
            ],
            [
              72.2894708071291,
              28.834778629103273
            ],
            [
              72.12026891984792,
              29.168469488919364
            ],
            [
              72.16339881268429,
              29.49819155497489
            ],
            [
              73.6099090647352,
              30.24330860206193
            ],
            [
              73.9516305233619,
              30.2547724471421
            ],
            [
              74.38956481985436,
              30.752150819153382
            ],
            [
              74.84740522073287,
              31.068110186017776
            ],
            [
              75.35501088257641,
              30.894603966068264
            ],
            [
              76.1711611624033,
              30.880368164557158
            ],
            [
              76.34036304968448,
              30.746448299770645
            ],
            [
              76.58587167044541,
              30.914530532986294
            ],
            [
              76.56928325012375,
              31.30368475723339
            ],
            [
              76.88778092030007,
              31.29234522063855
            ],
            [
              77.19300785421908,
              31.136288368182257
            ],
            [
              78.06224107907533,
              31.400015696442424
            ],
            [
              79.01441640554002,
              30.583784705392024
            ],
            [
              78.82530841387282,
              30.332118395742512
            ],
            [
              78.2745728591929,
              30.07693270639985
            ],
            [
              77.79682635392838,
              29.371056790339832
            ],
            [
              77.77360256547801,
              28.88126964453722
            ],
            [
              77.51150552439537,
              28.371648453176977
            ],
            [
              77.80014403799268,
              27.448151197132347
            ],
            [
              77.2427731151841,
              26.623679792581445
            ],
            [
              76.76834429398396,
              26.267218546320798
            ],
            [
              75.79958054719758,
              26.718549381744452
            ],
            [
              74.88389974544057,
              26.99677118912664
            ]
          ]
        ]
      }
    }
  ]
}