{
  "type": "FeatureCollection",
  "name": "territory-163",
  "features": [
    {
      "type": "Feature",
      "properties": {
        "Name": "Vandals",
        "FromYear": 410,
        "ToYear": 413,
        "Area": 420481.89806845115,
        "Type": "POLITY",
        "Wikipedia": "Vandals",
        "Wikidata": "Q42211",
        "SeshatID": "",
        "Components": "",
        "MemberOf": ""
      },
      "geometry": {
        "type": "Polygon",
        "coordinates": [
          [
            [
              -5.565621852874756,
              43.53750228881836
            ],
            [
              -4.990375518798828,
              43.407203674316406
            ],
            [
              -3.467212915420532,
              43.472347259521484
            ],
            [
              -3.295851230621338,
              43.342071533203125
            ],
            [
              -1.767988562583923,
              43.342071533203125
            ],
            [
              -1.687574744224548,
              43.342071533203125
            ],
            [
              -1.441840410232544,
              43.276947021484375
            ],
            [
              -1.428432941436768,
              43.08163070678711
            ],
            [
              -1.026964664459229,
              43.08163070678711
            ],
            [
              -0.933906555175781,
              42.88639831542969
            ],
            [
              -1.811595559120178,
              42.82133865356445
            ],
            [
              -2.127629995346069,
              42.75628662109375
            ],
            [
              -2.198425054550171,
              42.62621307373047
            ],
            [
              -5.007138729095459,
              42.691246032714844
            ],
            [
              -5.704421520233154,
              42.43117141723633
            ],
            [
              -5.692637920379639,
              42.30118942260742
            ],
            [
              -5.846592426300049,
              42.236209869384766
            ],
            [
              -5.834789276123047,
              42.10627746582031
            ],
            [
              -5.982642650604248,
              41.97637939453125
            ],
            [
              -5.753982543945312,
              41.19768524169922
            ],
            [
              -4.763566970825195,
              40.74397277832031
            ],
            [
              -2.847488403320312,
              40.54964065551758
            ],
            [
              -2.438416719436646,
              40.355369567871094
            ],
            [
              -1.236045598983765,
              40.0964469909668
            ],
            [
              -0.848629713058472,
              40.225894927978516
            ],
            [
              0.103515118360519,
              40.16116714477539
            ],
            [
              0.106994137167931,
              40.0964469909668
            ],
            [
              -0.201878547668457,
              39.9670295715332
            ],
            [
              -0.345421016216278,
              39.70827102661133
            ],
            [
              -0.313707679510117,
              39.1264533996582
            ],
            [
              0.099359586834908,
              38.738853454589844
            ],
            [
              -0.660861134529114,
              38.28691864013672
            ],
            [
              -0.803495347499847,
              38.028785705566406
            ],
            [
              -0.704753637313843,
              37.641746520996094
            ],
            [
              -1.708719491958618,
              37.44829177856445
            ],
            [
              -1.623468399047852,
              37.3193473815918
            ],
            [
              -1.857354998588562,
              37.3193473815918
            ],
            [
              -2.061630010604858,
              36.80373764038086
            ],
            [
              -2.532132625579834,
              36.8681755065918
            ],
            [
              -2.680080890655518,
              36.73930740356445
            ],
            [
              -4.468626022338867,
              36.73930740356445
            ],
            [
              -4.688807487487793,
              36.5460319519043
            ],
            [
              -5.22819709777832,
              36.48161697387695
            ],
            [
              -5.287947177886963,
              36.2239875793457
            ],
            [
              -5.662277221679688,
              36.03080368041992
            ],
            [
              -5.831079006195068,
              36.2239875793457
            ],
            [
              -6.063849925994873,
              36.2239875793457
            ],
            [
              -6.330093860626221,
              36.67487716674805
            ],
            [
              -6.349542140960693,
              36.932613372802734
            ],
            [
              -6.587993621826172,
              36.9970588684082
            ],
            [
              -6.84182596206665,
              37.254878997802734
            ],
            [
              -7.465344429016113,
              37.254878997802734
            ],
            [
              -7.454815864562988,
              37.12596130371094
            ],
            [
              -7.677903652191162,
              36.9970588684082
            ],
            [
              -8.067157745361328,
              36.9970588684082
            ],
            [
              -8.311661720275879,
              37.12596130371094
            ],
            [
              -8.70113754272461,
              37.12596130371094
            ],
            [
              -9.00136661529541,
              36.9970588684082
            ],
            [
              -8.896896362304688,
              37.5772590637207
            ],
            [
              -8.818843841552734,
              37.5772590637207
            ],
            [
              -8.822718620300293,
              38.48057174682617
            ],
            [
              -9.20852279663086,
              38.416015625
            ],
            [
              -9.23299789428711,
              38.67427444458008
            ],
            [
              -9.38370418548584,
              38.60969924926758
            ],
            [
              -9.553065299987793,
              38.738853454589844
            ],
            [
              -9.571974754333496,
              38.93262481689453
            ],
            [
              -9.42748737335205,
              39.06184005737305
            ],
            [
              -9.387048721313477,
              39.449623107910156
            ],
            [
              -9.157164573669434,
              39.51427459716797
            ],
            [
              -9.044321060180664,
              39.9670295715332
            ],
            [
              -8.899272918701172,
              40.0964469909668
            ],
            [
              -8.872282981872559,
              40.614410400390625
            ],
            [
              -8.72695255279541,
              40.74397277832031
            ],
            [
              -8.956093788146973,
              42.17123794555664
            ],
            [
              -8.65042495727539,
              42.30118942260742
            ],
            [
              -8.9043550491333,
              42.43117141723633
            ],
            [
              -8.918540954589844,
              42.56119155883789
            ],
            [
              -9.078654289245605,
              42.56119155883789
            ],
            [
              -9.30460262298584,
              43.146724700927734
            ],
            [
              -8.851689338684082,
              43.407203674316406
            ],
            [
              -8.369025230407715,
              43.407203674316406
            ],
            [
              -8.39044189453125,
              43.6026611328125
            ],
            [
              -8.243616104125977,
              43.73301696777344
            ],
            [
              -7.276463031768799,
              43.73301696777344
            ],
            [
              -7.343485832214355,
              43.6026611328125
            ],
            [
              -7.175715446472168,
              43.53750228881836
            ],
            [
              -5.646126270294189,
              43.53750228881836
            ],
            [
              -5.565621852874756,
              43.53750228881836
            ]
          ]
        ]
      }
    }
  ]
}