{
  "type": "FeatureCollection",
  "name": "territory-164",
  "features": [
    {
      "type": "Feature",
      "properties": {
        "Name": "Former Yan",
        "FromYear": 353,
        "ToYear": 366,
        "Area": 772045.2838417899,
        "Type": "POLITY",
        "Wikipedia": "Former Yan",
        "Wikidata": "Q1472004",
        "SeshatID": "",
        "Components": "",
        "MemberOf": ""
      },
      "geometry": {
        "type": "Polygon",
        "coordinates": [
          [
            [
              119.0303955078125,
              41.39224624633789
            ],
            [
              121.02125549316406,
              41.26253128051758
            ],
            [
              123.08721923828125,
              41.911441802978516
            ],
            [
              123.1669921875,
              41.911441802978516
            ],
            [
              123.12676239013672,
              41.84651184082031
            ],
            [
              123.40548706054688,
              41.781593322753906
            ],
            [
              123.36537170410156,
              41.71668243408203
            ],
            [
              123.60441589355469,
              41.71668243408203
            ],
            [
              123.56433868408203,
              41.65177917480469
            ],
            [
              123.84288024902344,
              41.586883544921875
            ],
            [
              123.80292510986328,
              41.521995544433594
            ],
            [
              124.04171752929688,
              41.521995544433594
            ],
            [
              124.00180053710938,
              41.45711898803711
            ],
            [
              124.28016662597656,
              41.39224624633789
            ],
            [
              124.2403793334961,
              41.32738494873047
            ],
            [
              124.47891998291016,
              41.32738494873047
            ],
            [
              124.43917083740234,
              41.26253128051758
            ],
            [
              125.0751953125,
              41.00318908691406
            ],
            [
              124.99653625488281,
              40.873565673828125
            ],
            [
              125.0769271850586,
              40.74397277832031
            ],
            [
              124.88362121582031,
              40.42012023925781
            ],
            [
              124.56999206542969,
              40.29063034057617
            ],
            [
              124.26568603515625,
              39.90232849121094
            ],
            [
              124.22863006591797,
              39.8376350402832
            ],
            [
              123.59744262695312,
              39.8376350402832
            ],
            [
              122.93595886230469,
              39.64360046386719
            ],
            [
              122.17044830322266,
              39.25570297241211
            ],
            [
              121.95193481445312,
              38.997230529785156
            ],
            [
              121.71622467041016,
              38.997230529785156
            ],
            [
              121.42170715332031,
              38.738853454589844
            ],
            [
              121.02933502197266,
              38.738853454589844
            ],
            [
              121.20073699951172,
              39.06184005737305
            ],
            [
              121.51512908935547,
              39.06184005737305
            ],
            [
              121.69013214111328,
              39.38497543334961
            ],
            [
              121.2965316772461,
              39.38497543334961
            ],
            [
              121.20963287353516,
              39.51427459716797
            ],
            [
              121.28069305419922,
              39.64360046386719
            ],
            [
              121.43833923339844,
              39.64360046386719
            ],
            [
              121.50332641601562,
              39.90232849121094
            ],
            [
              121.7764663696289,
              39.9670295715332
            ],
            [
              122.23056030273438,
              40.4848747253418
            ],
            [
              122.10609436035156,
              40.6791877746582
            ],
            [
              121.82695770263672,
              40.74397277832031
            ],
            [
              121.82366180419922,
              40.873565673828125
            ],
            [
              121.1097640991211,
              40.873565673828125
            ],
            [
              120.9967269897461,
              40.6791877746582
            ],
            [
              120.64734649658203,
              40.4848747253418
            ],
            [
              120.50029754638672,
              40.225894927978516
            ],
            [
              119.38044738769531,
              39.77294921875
            ],
            [
              119.21530151367188,
              39.320335388183594
            ],
            [
              118.98941802978516,
              39.19107437133789
            ],
            [
              118.44984436035156,
              39.06184005737305
            ],
            [
              118.0568618774414,
              39.06184005737305
            ],
            [
              118.04566192626953,
              39.19107437133789
            ],
            [
              117.77603912353516,
              39.1264533996582
            ],
            [
              117.57643127441406,
              38.738853454589844
            ],
            [
              117.6549072265625,
              38.738853454589844
            ],
            [
              117.60245513916016,
              38.48057174682617
            ],
            [
              117.75920867919922,
              38.48057174682617
            ],
            [
              117.77266693115234,
              38.351463317871094
            ],
            [
              118.05360412597656,
              38.28691864013672
            ],
            [
              118.06742095947266,
              38.157840728759766
            ],
            [
              118.58300018310547,
              38.09331130981445
            ],
            [
              118.64759826660156,
              38.22237777709961
            ],
            [
              118.80416870117188,
              38.22237777709961
            ],
            [
              118.77176666259766,
              38.157840728759766
            ],
            [
              119.4571304321289,
              37.96426773071289
            ],
            [
              119.3928451538086,
              37.835243225097656
            ],
            [
              119.23655700683594,
              37.835243225097656
            ],
            [
              118.98403930664062,
              37.3193473815918
            ],
            [
              119.13996124267578,
              37.3193473815918
            ],
            [
              119.15568542480469,
              37.1904182434082
            ],
            [
              119.70111083984375,
              37.1904182434082
            ],
            [
              119.82661437988281,
              37.44829177856445
            ],
            [
              120.20220184326172,
              37.5772590637207
            ],
            [
              120.18807220458984,
              37.706241607666016
            ],
            [
              120.75377655029297,
              37.89975357055664
            ],
            [
              121.11202239990234,
              37.835243225097656
            ],
            [
              121.17103576660156,
              37.641746520996094
            ],
            [
              121.48333740234375,
              37.641746520996094
            ],
            [
              121.49687957763672,
              37.51277160644531
            ],
            [
              122.15351867675781,
              37.5772590637207
            ],
            [
              122.1211166381836,
              37.51277160644531
            ],
            [
              122.71288299560547,
              37.44829177856445
            ],
            [
              122.44239044189453,
              37.06150817871094
            ],
            [
              122.56636810302734,
              36.9970588684082
            ],
            [
              122.50314331054688,
              36.8681755065918
            ],
            [
              122.16053771972656,
              36.80373764038086
            ],
            [
              122.14556121826172,
              36.932613372802734
            ],
            [
              121.91207885742188,
              36.932613372802734
            ],
            [
              121.21208190917969,
              36.61045455932617
            ],
            [
              120.97892761230469,
              36.61045455932617
            ],
            [
              120.96481323242188,
              36.417205810546875
            ],
            [
              120.73184967041016,
              36.417205810546875
            ],
            [
              120.65852355957031,
              36.09519577026367
            ],
            [
              120.31848907470703,
              36.03080368041992
            ],
            [
              119.98648071289062,
              35.644527435302734
            ],
            [
              119.61874389648438,
              35.51579284667969
            ],
            [
              119.22760772705078,
              34.80794906616211
            ],
            [
              119.45901489257812,
              34.80794906616211
            ],
            [
              119.43090057373047,
              34.743614196777344
            ],
            [
              119.71125030517578,
              34.679283142089844
            ],
            [
              119.73230743408203,
              34.55062484741211
            ],
            [
              120.3418197631836,
              34.3576545715332
            ],
            [
              120.46170806884766,
              34.10039138793945
            ],
            [
              120.43412780761719,
              34.03607940673828
            ],
            [
              118.60778045654297,
              33.71455001831055
            ],
            [
              117.34940338134766,
              33.26447677612305
            ],
            [
              116.58267211914062,
              33.26447677612305
            ],
            [
              115.10179138183594,
              33.00732421875
            ],
            [
              114.0791244506836,
              33.13589859008789
            ],
            [
              113.95281219482422,
              33.00732421875
            ],
            [
              113.82437896728516,
              33.07160949707031
            ],
            [
              113.44408416748047,
              32.878753662109375
            ],
            [
              111.26387786865234,
              32.36451721191406
            ],
            [
              111.77423858642578,
              33.52165222167969
            ],
            [
              111.67042541503906,
              33.65024948120117
            ],
            [
              111.72042083740234,
              33.77885055541992
            ],
            [
              111.33467864990234,
              33.971771240234375
            ],
            [
              111.30827331542969,
              34.10039138793945
            ],
            [
              111.00059509277344,
              34.10039138793945
            ],
            [
              110.9742431640625,
              34.22901916503906
            ],
            [
              110.76870727539062,
              34.2933349609375
            ],
            [
              110.71676635742188,
              34.743614196777344
            ],
            [
              110.5883560180664,
              34.80794906616211
            ],
            [
              110.6662368774414,
              35.00096893310547
            ],
            [
              110.53790283203125,
              35.065311431884766
            ],
            [
              110.61846160888672,
              35.45143127441406
            ],
            [
              110.54113006591797,
              35.45143127441406
            ],
            [
              110.72847747802734,
              35.902034759521484
            ],
            [
              111.01985931396484,
              36.2239875793457
            ],
            [
              110.89216613769531,
              36.28839111328125
            ],
            [
              110.92524719238281,
              36.5460319519043
            ],
            [
              110.74788665771484,
              36.67487716674805
            ],
            [
              110.81090545654297,
              36.9970588684082
            ],
            [
              110.7330551147461,
              36.9970588684082
            ],
            [
              110.87596893310547,
              37.3193473815918
            ],
            [
              110.79800415039062,
              37.3193473815918
            ],
            [
              111.00188446044922,
              37.7707405090332
            ],
            [
              111.33700561523438,
              38.157840728759766
            ],
            [
              111.19283294677734,
              38.351463317871094
            ],
            [
              111.03617095947266,
              38.351463317871094
            ],
            [
              111.079833984375,
              38.60969924926758
            ],
            [
              111.00141143798828,
              38.60969924926758
            ],
            [
              111.15621948242188,
              38.93262481689453
            ],
            [
              111.4863052368164,
              39.1264533996582
            ],
            [
              111.39248657226562,
              39.25570297241211
            ],
            [
              111.6181640625,
              39.70827102661133
            ],
            [
              111.447021484375,
              39.8376350402832
            ],
            [
              111.15911102294922,
              39.57893371582031
            ],
            [
              110.41793823242188,
              39.51427459716797
            ],
            [
              110.27775573730469,
              39.70827102661133
            ],
            [
              110.4732666015625,
              40.0964469909668
            ],
            [
              110.73081970214844,
              40.29063034057617
            ],
            [
              110.76424407958984,
              40.355369567871094
            ],
            [
              113.03791046142578,
              40.614410400390625
            ],
            [
              113.71597290039062,
              40.54964065551758
            ],
            [
              114.33190155029297,
              40.80876541137695
            ],
            [
              114.5343246459961,
              40.74397277832031
            ],
            [
              114.95846557617188,
              40.93837356567383
            ],
            [
              115.99239349365234,
              41.781593322753906
            ],
            [
              117.29935455322266,
              42.10627746582031
            ],
            [
              117.4564208984375,
              42.236209869384766
            ],
            [
              117.77606201171875,
              42.236209869384766
            ],
            [
              117.73988342285156,
              42.041324615478516
            ],
            [
              117.86099243164062,
              41.97637939453125
            ],
            [
              117.74602508544922,
              41.781593322753906
            ],
            [
              117.87093353271484,
              41.586883544921875
            ],
            [
              118.42831420898438,
              41.586883544921875
            ],
            [
              118.39026641845703,
              41.521995544433594
            ],
            [
              118.95085144042969,
              41.39224624633789
            ],
            [
              119.0303955078125,
              41.39224624633789
            ]
          ]
        ]
      }
    }
  ]
}