{
  "type": "FeatureCollection",
  "name": "territory-169",
  "features": [
    {
      "type": "Feature",
      "properties": {
        "Name": "Kadamba Empire",
        "FromYear": 451,
        "ToYear": 545,
        "Area": 202263.44961518113,
        "Type": "POLITY",
        "Wikipedia": "Kadamba Empire",
        "Wikidata": "Q1479952",
        "SeshatID": "in_kadamba_emp",
        "Components": "",
        "MemberOf": ""
      },
      "geometry": {
        "type": "Polygon",
        "coordinates": [
          [
            [
              74.74081969948742,
              14.31996338677238
            ],
            [
              74.68262120666641,
              14.8563603893611
            ],
            [
              74.58280128735242,
              15.26047479136459
            ],
            [
              74.30265525317276,
              15.71760274032656
            ],
            [
              73.77700788132505,
              17.12543652346743
            ],
            [
              73.67482366203569,
              17.89847572466509
            ],
            [
              74.03767972629896,
              18.41012268608065
            ],
            [
              74.50498772882187,
              18.80089809254442
            ],
            [
              75.82380198917186,
              18.71975732183413
            ],
            [
              77.06163708749219,
              17.85159188067663
            ],
            [
              77.50188906634087,
              17.02514965813771
            ],
            [
              77.48790441295998,
              16.14613706261204
            ],
            [
              77.49699373048092,
              15.49581483747255
            ],
            [
              77.44073687657188,
              14.47435114631183
            ],
            [
              77.75851896772795,
              13.34690533740741
            ],
            [
              77.50647428407063,
              13.03229880699652
            ],
            [
              76.9433164133851,
              12.75956702973121
            ],
            [
              76.00871421480451,
              12.87520626523278
            ],
            [
              75.51394580004644,
              13.16764660220303
            ],
            [
              74.74081969948742,
              14.31996338677238
            ]
          ]
        ]
      }
    }
  ]
}