{
  "type": "FeatureCollection",
  "name": "territory-170",
  "features": [
    {
      "type": "Feature",
      "properties": {
        "Name": "Kalabhra Dynasty",
        "FromYear": 353,
        "ToYear": 591,
        "Area": 137945.45314999064,
        "Type": "POLITY",
        "Wikipedia": "Kalabhra dynasty",
        "Wikidata": "Q2572901",
        "SeshatID": "in_kalabhra_dyn",
        "Components": "",
        "MemberOf": ""
      },
      "geometry": {
        "type": "Polygon",
        "coordinates": [
          [
            [
              79.504,
              12.853
            ],
            [
              79.726,
              12.81
            ],
            [
              80.154,
              12.46
            ],
            [
              79.761,
              11.667
            ],
            [
              79.844,
              10.27
            ],
            [
              79.394,
              10.319
            ],
            [
              79.229,
              10.177
            ],
            [
              79.253,
              10.003
            ],
            [
              78.902,
              9.479
            ],
            [
              79.022,
              9.323
            ],
            [
              79.288,
              9.26
            ],
            [
              78.871,
              9.265
            ],
            [
              78.46,
              9.117
            ],
            [
              78.207,
              8.952
            ],
            [
              78.089,
              8.375
            ],
            [
              77.542,
              8.077
            ],
            [
              77.344,
              8.105
            ],
            [
              76.599,
              8.874
            ],
            [
              76.685,
              8.998
            ],
            [
              76.535,
              8.981
            ],
            [
              76.355,
              9.373
            ],
            [
              76.289,
              9.826
            ],
            [
              76.357,
              9.518
            ],
            [
              76.531,
              9.525
            ],
            [
              76.045,
              10.509
            ],
            [
              76.95,
              11.336
            ],
            [
              77.06,
              11.547
            ],
            [
              77.065,
              12.209
            ],
            [
              77.245,
              12.28
            ],
            [
              77.854,
              12.147
            ],
            [
              78.908,
              12.838
            ],
            [
              79.504,
              12.853
            ]
          ]
        ]
      }
    }
  ]
}