{
  "type": "FeatureCollection",
  "name": "territory-171",
  "features": [
    {
      "type": "Feature",
      "properties": {
        "Name": "Former Qin",
        "FromYear": 378,
        "ToYear": 382,
        "Area": 1798333.4725242204,
        "Type": "POLITY",
        "Wikipedia": "Former Qin",
        "Wikidata": "Q1471995",
        "SeshatID": "",
        "Components": "",
        "MemberOf": ""
      },
      "geometry": {
        "type": "Polygon",
        "coordinates": [
          [
            [
              121.02125549316406,
              41.26253128051758
            ],
            [
              123.08721923828125,
              41.911441802978516
            ],
            [
              123.1669921875,
              41.911441802978516
            ],
            [
              123.12676239013672,
              41.84651184082031
            ],
            [
              123.40548706054688,
              41.781593322753906
            ],
            [
              123.36537170410156,
              41.71668243408203
            ],
            [
              123.60441589355469,
              41.71668243408203
            ],
            [
              123.56433868408203,
              41.65177917480469
            ],
            [
              123.84288024902344,
              41.586883544921875
            ],
            [
              123.80292510986328,
              41.521995544433594
            ],
            [
              124.04171752929688,
              41.521995544433594
            ],
            [
              124.00180053710938,
              41.45711898803711
            ],
            [
              124.28016662597656,
              41.39224624633789
            ],
            [
              124.2403793334961,
              41.32738494873047
            ],
            [
              124.47891998291016,
              41.32738494873047
            ],
            [
              124.43917083740234,
              41.26253128051758
            ],
            [
              125.0751953125,
              41.00318908691406
            ],
            [
              124.99653625488281,
              40.873565673828125
            ],
            [
              125.0769271850586,
              40.74397277832031
            ],
            [
              124.88362121582031,
              40.42012023925781
            ],
            [
              124.56999206542969,
              40.29063034057617
            ],
            [
              124.26568603515625,
              39.90232849121094
            ],
            [
              124.22863006591797,
              39.8376350402832
            ],
            [
              123.59744262695312,
              39.8376350402832
            ],
            [
              122.93595886230469,
              39.64360046386719
            ],
            [
              122.17044830322266,
              39.25570297241211
            ],
            [
              121.95193481445312,
              38.997230529785156
            ],
            [
              121.71622467041016,
              38.997230529785156
            ],
            [
              121.42170715332031,
              38.738853454589844
            ],
            [
              121.02933502197266,
              38.738853454589844
            ],
            [
              121.20073699951172,
              39.06184005737305
            ],
            [
              121.51512908935547,
              39.06184005737305
            ],
            [
              121.69013214111328,
              39.38497543334961
            ],
            [
              121.2965316772461,
              39.38497543334961
            ],
            [
              121.20963287353516,
              39.51427459716797
            ],
            [
              121.28069305419922,
              39.64360046386719
            ],
            [
              121.43833923339844,
              39.64360046386719
            ],
            [
              121.50332641601562,
              39.90232849121094
            ],
            [
              121.7764663696289,
              39.9670295715332
            ],
            [
              122.23056030273438,
              40.4848747253418
            ],
            [
              122.10609436035156,
              40.6791877746582
            ],
            [
              121.82695770263672,
              40.74397277832031
            ],
            [
              121.82366180419922,
              40.873565673828125
            ],
            [
              121.1097640991211,
              40.873565673828125
            ],
            [
              120.9967269897461,
              40.6791877746582
            ],
            [
              120.64734649658203,
              40.4848747253418
            ],
            [
              120.50029754638672,
              40.225894927978516
            ],
            [
              119.38044738769531,
              39.77294921875
            ],
            [
              119.21530151367188,
              39.320335388183594
            ],
            [
              118.98941802978516,
              39.19107437133789
            ],
            [
              118.44984436035156,
              39.06184005737305
            ],
            [
              118.0568618774414,
              39.06184005737305
            ],
            [
              118.04566192626953,
              39.19107437133789
            ],
            [
              117.77603912353516,
              39.1264533996582
            ],
            [
              117.57643127441406,
              38.738853454589844
            ],
            [
              117.6549072265625,
              38.738853454589844
            ],
            [
              117.60245513916016,
              38.48057174682617
            ],
            [
              117.75920867919922,
              38.48057174682617
            ],
            [
              117.77266693115234,
              38.351463317871094
            ],
            [
              118.05360412597656,
              38.28691864013672
            ],
            [
              118.06742095947266,
              38.157840728759766
            ],
            [
              118.58300018310547,
              38.09331130981445
            ],
            [
              118.64759826660156,
              38.22237777709961
            ],
            [
              118.80416870117188,
              38.22237777709961
            ],
            [
              118.77176666259766,
              38.157840728759766
            ],
            [
              119.4571304321289,
              37.96426773071289
            ],
            [
              119.3928451538086,
              37.835243225097656
            ],
            [
              119.23655700683594,
              37.835243225097656
            ],
            [
              118.98403930664062,
              37.3193473815918
            ],
            [
              119.13996124267578,
              37.3193473815918
            ],
            [
              119.15568542480469,
              37.1904182434082
            ],
            [
              119.70111083984375,
              37.1904182434082
            ],
            [
              119.82661437988281,
              37.44829177856445
            ],
            [
              120.20220184326172,
              37.5772590637207
            ],
            [
              120.18807220458984,
              37.706241607666016
            ],
            [
              120.75377655029297,
              37.89975357055664
            ],
            [
              121.11202239990234,
              37.835243225097656
            ],
            [
              121.17103576660156,
              37.641746520996094
            ],
            [
              121.48333740234375,
              37.641746520996094
            ],
            [
              121.49687957763672,
              37.51277160644531
            ],
            [
              122.15351867675781,
              37.5772590637207
            ],
            [
              122.1211166381836,
              37.51277160644531
            ],
            [
              122.71288299560547,
              37.44829177856445
            ],
            [
              122.44239044189453,
              37.06150817871094
            ],
            [
              122.56636810302734,
              36.9970588684082
            ],
            [
              122.50314331054688,
              36.8681755065918
            ],
            [
              122.16053771972656,
              36.80373764038086
            ],
            [
              122.14556121826172,
              36.932613372802734
            ],
            [
              121.91207885742188,
              36.932613372802734
            ],
            [
              121.21208190917969,
              36.61045455932617
            ],
            [
              120.97892761230469,
              36.61045455932617
            ],
            [
              120.96481323242188,
              36.417205810546875
            ],
            [
              120.73184967041016,
              36.417205810546875
            ],
            [
              120.65852355957031,
              36.09519577026367
            ],
            [
              120.31848907470703,
              36.03080368041992
            ],
            [
              119.98648071289062,
              35.644527435302734
            ],
            [
              119.61874389648438,
              35.51579284667969
            ],
            [
              119.22760772705078,
              34.80794906616211
            ],
            [
              119.45901489257812,
              34.80794906616211
            ],
            [
              119.43090057373047,
              34.743614196777344
            ],
            [
              119.71125030517578,
              34.679283142089844
            ],
            [
              119.73230743408203,
              34.55062484741211
            ],
            [
              120.3418197631836,
              34.3576545715332
            ],
            [
              120.46170806884766,
              34.10039138793945
            ],
            [
              120.43412780761719,
              34.03607940673828
            ],
            [
              118.60778045654297,
              33.71455001831055
            ],
            [
              117.34940338134766,
              33.26447677612305
            ],
            [
              116.58267211914062,
              33.26447677612305
            ],
            [
              115.10179138183594,
              33.00732421875
            ],
            [
              114.0791244506836,
              33.13589859008789
            ],
            [
              113.95281219482422,
              33.00732421875
            ],
            [
              113.82437896728516,
              33.07160949707031
            ],
            [
              113.44408416748047,
              32.878753662109375
            ],
            [
              111.61662292480469,
              32.493072509765625
            ],
            [
              111.24053955078125,
              32.30024337768555
            ],
            [
              110.17093658447266,
              32.30024337768555
            ],
            [
              109.91146850585938,
              32.428794860839844
            ],
            [
              109.88143157958984,
              32.557350158691406
            ],
            [
              109.57554626464844,
              32.557350158691406
            ],
            [
              108.95692443847656,
              32.107421875
            ],
            [
              108.8230209350586,
              31.7217960357666
            ],
            [
              107.90705871582031,
              30.564971923828125
            ],
            [
              105.5287094116211,
              29.21521759033203
            ],
            [
              104.68240356445312,
              28.893810272216797
            ],
            [
              104.30465698242188,
              28.893810272216797
            ],
            [
              104.29239654541016,
              28.572391510009766
            ],
            [
              103.89775848388672,
              28.508106231689453
            ],
            [
              103.87129211425781,
              28.12238883972168
            ],
            [
              103.54629516601562,
              27.736658096313477
            ],
            [
              102.85252380371094,
              27.6723690032959
            ],
            [
              102.8094482421875,
              27.800947189331055
            ],
            [
              102.59969329833984,
              27.865236282348633
            ],
            [
              102.6230239868164,
              28.25096321105957
            ],
            [
              102.4888916015625,
              28.315250396728516
            ],
            [
              102.52250671386719,
              28.44382095336914
            ],
            [
              101.98661804199219,
              28.700960159301758
            ],
            [
              100.98818969726562,
              28.636676788330078
            ],
            [
              101.00505065917969,
              28.700960159301758
            ],
            [
              100.90499114990234,
              28.893810272216797
            ],
            [
              100.9566421508789,
              29.08665657043457
            ],
            [
              100.88105010986328,
              29.08665657043457
            ],
            [
              100.95094299316406,
              29.34377670288086
            ],
            [
              100.87529754638672,
              29.34377670288086
            ],
            [
              100.9643325805664,
              29.665164947509766
            ],
            [
              100.88860321044922,
              29.665164947509766
            ],
            [
              100.961181640625,
              29.922264099121094
            ],
            [
              100.88539123535156,
              29.922264099121094
            ],
            [
              100.97779083251953,
              30.243623733520508
            ],
            [
              100.90192413330078,
              30.243623733520508
            ],
            [
              101.01526641845703,
              30.629240036010742
            ],
            [
              100.9393081665039,
              30.629240036010742
            ],
            [
              101.05530548095703,
              31.014846801757812
            ],
            [
              100.97924041748047,
              31.014846801757812
            ],
            [
              101.44035339355469,
              32.23596954345703
            ],
            [
              101.68687438964844,
              32.75019073486328
            ],
            [
              101.88323974609375,
              32.878753662109375
            ],
            [
              102.55159759521484,
              33.26447677612305
            ],
            [
              103.20997619628906,
              33.393062591552734
            ],
            [
              103.4928207397461,
              33.971771240234375
            ],
            [
              103.35535430908203,
              34.22901916503906
            ],
            [
              103.52665710449219,
              34.48630142211914
            ],
            [
              103.44961547851562,
              34.48630142211914
            ],
            [
              103.73529052734375,
              35.45143127441406
            ],
            [
              103.63004302978516,
              35.58015823364258
            ],
            [
              103.6487808227539,
              36.2239875793457
            ],
            [
              103.46696472167969,
              36.3527946472168
            ],
            [
              103.51822662353516,
              36.48161697387695
            ],
            [
              103.38858032226562,
              36.5460319519043
            ],
            [
              103.44023132324219,
              36.67487716674805
            ],
            [
              103.31065368652344,
              36.73930740356445
            ],
            [
              103.36270904541016,
              36.8681755065918
            ],
            [
              103.2077865600586,
              37.06150817871094
            ],
            [
              102.71511840820312,
              37.1904182434082
            ],
            [
              102.68885803222656,
              37.12596130371094
            ],
            [
              102.53401184082031,
              37.3193473815918
            ],
            [
              102.24852752685547,
              37.38381576538086
            ],
            [
              102.09397888183594,
              37.5772590637207
            ],
            [
              102.09606170654297,
              37.7707405090332
            ],
            [
              101.70372009277344,
              37.5772590637207
            ],
            [
              101.54920959472656,
              37.7707405090332
            ],
            [
              101.26336669921875,
              37.835243225097656
            ],
            [
              101.23871612548828,
              37.96426773071289
            ],
            [
              100.8745346069336,
              38.028785705566406
            ],
            [
              100.4137954711914,
              38.60969924926758
            ],
            [
              100.2264404296875,
              38.351463317871094
            ],
            [
              99.81044006347656,
              38.48057174682617
            ],
            [
              99.19844818115234,
              39.25570297241211
            ],
            [
              98.9068374633789,
              39.1264533996582
            ],
            [
              98.3840560913086,
              39.19107437133789
            ],
            [
              98.22306060791016,
              38.997230529785156
            ],
            [
              97.90877532958984,
              38.997230529785156
            ],
            [
              97.20784759521484,
              39.38497543334961
            ],
            [
              96.76294708251953,
              39.449623107910156
            ],
            [
              96.65383911132812,
              39.19107437133789
            ],
            [
              96.73248291015625,
              39.19107437133789
            ],
            [
              96.70207977294922,
              38.738853454589844
            ],
            [
              96.36184692382812,
              38.67427444458008
            ],
            [
              95.9699935913086,
              38.8680305480957
            ],
            [
              95.89147186279297,
              38.8680305480957
            ],
            [
              95.63017272949219,
              38.997230529785156
            ],
            [
              95.55278778076172,
              39.19107437133789
            ],
            [
              95.39549255371094,
              39.19107437133789
            ],
            [
              95.31853485107422,
              39.38497543334961
            ],
            [
              95.05557250976562,
              39.320335388183594
            ],
            [
              94.58486938476562,
              39.51427459716797
            ],
            [
              93.87593078613281,
              39.51427459716797
            ],
            [
              93.50794982910156,
              39.38497543334961
            ],
            [
              93.29811096191406,
              39.449623107910156
            ],
            [
              93.2734375,
              39.77294921875
            ],
            [
              93.09048461914062,
              39.90232849121094
            ],
            [
              93.19904327392578,
              40.16116714477539
            ],
            [
              93.27806854248047,
              40.16116714477539
            ],
            [
              93.36487579345703,
              40.54964065551758
            ],
            [
              93.57447052001953,
              40.4848747253418
            ],
            [
              93.84545135498047,
              40.74397277832031
            ],
            [
              93.92472076416016,
              40.74397277832031
            ],
            [
              95.22967529296875,
              41.00318908691406
            ],
            [
              96.92637634277344,
              41.06801223754883
            ],
            [
              96.89657592773438,
              41.00318908691406
            ],
            [
              97.6304931640625,
              40.873565673828125
            ],
            [
              98.03691864013672,
              40.54964065551758
            ],
            [
              98.22490692138672,
              40.614410400390625
            ],
            [
              98.24494171142578,
              40.4848747253418
            ],
            [
              98.94775390625,
              40.29063034057617
            ],
            [
              99.04714965820312,
              40.16116714477539
            ],
            [
              99.28423309326172,
              40.16116714477539
            ],
            [
              99.3836898803711,
              40.031734466552734
            ],
            [
              100.12395477294922,
              40.0964469909668
            ],
            [
              100.09447479248047,
              40.031734466552734
            ],
            [
              100.53881072998047,
              39.9670295715332
            ],
            [
              100.55899047851562,
              39.8376350402832
            ],
            [
              100.92413330078125,
              39.77294921875
            ],
            [
              100.89488983154297,
              39.70827102661133
            ],
            [
              104.37670135498047,
              39.90232849121094
            ],
            [
              106.94979095458984,
              39.8376350402832
            ],
            [
              109.44623565673828,
              40.0964469909668
            ],
            [
              110.17725372314453,
              40.29063034057617
            ],
            [
              113.00328826904297,
              40.54964065551758
            ],
            [
              114.57604217529297,
              41.39224624633789
            ],
            [
              117.29935455322266,
              42.10627746582031
            ],
            [
              117.4564208984375,
              42.236209869384766
            ],
            [
              117.77606201171875,
              42.236209869384766
            ],
            [
              117.73988342285156,
              42.041324615478516
            ],
            [
              117.86099243164062,
              41.97637939453125
            ],
            [
              117.74602508544922,
              41.781593322753906
            ],
            [
              117.87093353271484,
              41.586883544921875
            ],
            [
              118.42831420898438,
              41.586883544921875
            ],
            [
              118.39026641845703,
              41.521995544433594
            ],
            [
              118.95085144042969,
              41.39224624633789
            ],
            [
              119.0303955078125,
              41.39224624633789
            ],
            [
              121.02125549316406,
              41.26253128051758
            ]
          ]
        ]
      }
    }
  ]
}