{
  "type": "FeatureCollection",
  "name": "territory-172",
  "features": [
    {
      "type": "Feature",
      "properties": {
        "Name": "Kamarupa Kingdom",
        "FromYear": 960,
        "ToYear": 999,
        "Area": 230539.1884104589,
        "Type": "POLITY",
        "Wikipedia": "Kamarupa",
        "Wikidata": "Q1194765",
        "SeshatID": "in_kamarupa_k",
        "Components": "",
        "MemberOf": ""
      },
      "geometry": {
        "type": "Polygon",
        "coordinates": [
          [
            [
              89.88723702561175,
              25.505648903258507
            ],
            [
              89.24772101080136,
              25.57670623823744
            ],
            [
              88.30370013379068,
              25.65762231340978
            ],
            [
              87.53881421565211,
              26.04856400490283
            ],
            [
              88.17693069564737,
              27.63561538117313
            ],
            [
              91.19859520675276,
              27.787542647094632
            ],
            [
              92.29584768285248,
              27.61873457384852
            ],
            [
              93.61255065417215,
              28.580940591351357
            ],
            [
              94.33842536913043,
              28.9523183524928
            ],
            [
              95.9421020649685,
              28.935437545168188
            ],
            [
              96.2628374041361,
              28.547178976702135
            ],
            [
              96.63581306655058,
              28.306910617300087
            ],
            [
              96.46540709203144,
              28.091397178937633
            ],
            [
              96.51604951400527,
              27.500568922576242
            ],
            [
              94.86173039619338,
              26.42019725380113
            ],
            [
              93.46585677908902,
              24.92323178113143
            ],
            [
              93.00484159048615,
              24.90092459458613
            ],
            [
              92.27896687552787,
              25.171017511779905
            ],
            [
              91.45180731662192,
              25.137255897130682
            ],
            [
              90.48960129911909,
              25.609918502219795
            ],
            [
              89.89483135732544,
              25.62715821067758
            ],
            [
              89.88723702561175,
              25.505648903258507
            ]
          ]
        ]
      }
    }
  ]
}