{
  "type": "FeatureCollection",
  "name": "territory-175",
  "features": [
    {
      "type": "Feature",
      "properties": {
        "Name": "Tarumanagara",
        "FromYear": 612,
        "ToYear": 665,
        "Area": 62498.71327751515,
        "Type": "POLITY",
        "Wikipedia": "Tarumanagara",
        "Wikidata": "Q2247225",
        "SeshatID": "",
        "Components": "",
        "MemberOf": ""
      },
      "geometry": {
        "type": "Polygon",
        "coordinates": [
          [
            [
              108.04115295410156,
              -6.271672248840332
            ],
            [
              108.11407470703125,
              -6.271672248840332
            ],
            [
              108.33635711669922,
              -6.335959911346436
            ],
            [
              108.5806655883789,
              -6.78597354888916
            ],
            [
              109.31388854980469,
              -6.850261211395264
            ],
            [
              109.25250244140625,
              -7.043123722076416
            ],
            [
              109.40232849121094,
              -7.10741138458252
            ],
            [
              109.49128723144531,
              -7.364562034606934
            ],
            [
              110.09161376953125,
              -7.621712207794189
            ],
            [
              109.95841217041016,
              -7.8145751953125
            ],
            [
              110.0444564819336,
              -8.007437705993652
            ],
            [
              108.78215026855469,
              -7.685999870300293
            ],
            [
              108.13792419433594,
              -7.878862857818604
            ],
            [
              107.16431427001953,
              -7.493137359619141
            ],
            [
              106.43457794189453,
              -7.493137359619141
            ],
            [
              106.28465270996094,
              -7.428849697113037
            ],
            [
              106.3343734741211,
              -7.043123722076416
            ],
            [
              105.8854751586914,
              -6.850261211395264
            ],
            [
              105.37486267089844,
              -6.850261211395264
            ],
            [
              105.42984771728516,
              -6.528822898864746
            ],
            [
              105.64512634277344,
              -6.464535236358643
            ],
            [
              105.69756317138672,
              -6.078809261322021
            ],
            [
              105.90641784667969,
              -5.885946750640869
            ],
            [
              106.79126739501953,
              -6.078809261322021
            ],
            [
              106.85420227050781,
              -5.885946750640869
            ],
            [
              107.00001525878906,
              -5.885946750640869
            ],
            [
              107.37120056152344,
              -6.014522075653076
            ],
            [
              107.5272445678711,
              -6.207384586334229
            ],
            [
              108.04115295410156,
              -6.271672248840332
            ]
          ]
        ]
      }
    }
  ]
}