{
  "type": "FeatureCollection",
  "name": "territory-176",
  "features": [
    {
      "type": "Feature",
      "properties": {
        "Name": "Silla",
        "FromYear": 567,
        "ToYear": 660,
        "Area": 86615.50042896856,
        "Type": "POLITY",
        "Wikipedia": "Silla",
        "Wikidata": "Q28456",
        "SeshatID": "",
        "Components": "",
        "MemberOf": ""
      },
      "geometry": {
        "type": "Polygon",
        "coordinates": [
          [
            [
              128.00201416015625,
              38.997230529785156
            ],
            [
              128.08058166503906,
              38.997230529785156
            ],
            [
              128.20680236816406,
              38.80344009399414
            ],
            [
              128.36380004882812,
              38.80344009399414
            ],
            [
              129.10020446777344,
              37.5772590637207
            ],
            [
              129.2563018798828,
              37.5772590637207
            ],
            [
              129.4748077392578,
              37.254878997802734
            ],
            [
              129.40687561035156,
              37.12596130371094
            ],
            [
              129.53929138183594,
              36.932613372802734
            ],
            [
              129.43896484375,
              36.73930740356445
            ],
            [
              129.5167236328125,
              36.73930740356445
            ],
            [
              129.4172821044922,
              36.5460319519043
            ],
            [
              129.49497985839844,
              36.5460319519043
            ],
            [
              129.42141723632812,
              36.09519577026367
            ],
            [
              129.57652282714844,
              36.09519577026367
            ],
            [
              129.6669158935547,
              35.9664192199707
            ],
            [
              129.52078247070312,
              35.51579284667969
            ],
            [
              129.14712524414062,
              35.065311431884766
            ],
            [
              128.52938842773438,
              35.065311431884766
            ],
            [
              128.5451202392578,
              34.93662643432617
            ],
            [
              128.80740356445312,
              35.00096893310547
            ],
            [
              128.6848602294922,
              34.743614196777344
            ],
            [
              128.32968139648438,
              34.80794906616211
            ],
            [
              128.31358337402344,
              34.93662643432617
            ],
            [
              128.08206176757812,
              34.93662643432617
            ],
            [
              128.0679168701172,
              34.743614196777344
            ],
            [
              127.75946044921875,
              34.743614196777344
            ],
            [
              127.62208557128906,
              34.614952087402344
            ],
            [
              127.54501342773438,
              34.614952087402344
            ],
            [
              127.45099639892578,
              34.743614196777344
            ],
            [
              127.572265625,
              35.00096893310547
            ],
            [
              127.44835662841797,
              35.065311431884766
            ],
            [
              127.633056640625,
              35.45143127441406
            ],
            [
              127.55571746826172,
              35.45143127441406
            ],
            [
              128.0897216796875,
              36.2239875793457
            ],
            [
              127.96672058105469,
              36.28839111328125
            ],
            [
              128.0187225341797,
              36.5460319519043
            ],
            [
              127.89594268798828,
              36.61045455932617
            ],
            [
              127.99439239501953,
              36.80373764038086
            ],
            [
              127.67139434814453,
              36.932613372802734
            ],
            [
              127.70452117919922,
              36.9970588684082
            ],
            [
              126.7374496459961,
              36.932613372802734
            ],
            [
              126.77030944824219,
              36.9970588684082
            ],
            [
              126.80326843261719,
              37.06150817871094
            ],
            [
              126.60265350341797,
              37.12596130371094
            ],
            [
              126.7022933959961,
              37.3193473815918
            ],
            [
              126.53524017333984,
              37.44829177856445
            ],
            [
              126.6025161743164,
              37.5772590637207
            ],
            [
              126.2903060913086,
              37.5772590637207
            ],
            [
              126.31365966796875,
              37.7707405090332
            ],
            [
              126.34768676757812,
              37.835243225097656
            ],
            [
              126.66026306152344,
              37.835243225097656
            ],
            [
              126.94571685791016,
              38.22237777709961
            ],
            [
              126.85910034179688,
              38.351463317871094
            ],
            [
              126.70243835449219,
              38.351463317871094
            ],
            [
              126.95767974853516,
              38.67427444458008
            ],
            [
              126.87922668457031,
              38.67427444458008
            ],
            [
              126.9867935180664,
              38.8680305480957
            ],
            [
              126.86581420898438,
              38.93262481689453
            ],
            [
              126.93832397460938,
              39.06184005737305
            ],
            [
              126.85972595214844,
              39.06184005737305
            ],
            [
              127.04317474365234,
              39.38497543334961
            ],
            [
              126.68653106689453,
              39.449623107910156
            ],
            [
              126.83229064941406,
              39.8376350402832
            ],
            [
              127.81350708007812,
              40.16116714477539
            ],
            [
              128.2876739501953,
              40.16116714477539
            ],
            [
              128.2100372314453,
              40.031734466552734
            ],
            [
              128.17144775390625,
              39.9670295715332
            ],
            [
              127.9345932006836,
              39.9670295715332
            ],
            [
              127.58325958251953,
              39.77294921875
            ],
            [
              127.665283203125,
              39.64360046386719
            ],
            [
              127.44142150878906,
              39.25570297241211
            ],
            [
              127.79782104492188,
              39.19107437133789
            ],
            [
              127.760986328125,
              39.1264533996582
            ],
            [
              127.9182357788086,
              39.1264533996582
            ],
            [
              128.00201416015625,
              38.997230529785156
            ]
          ]
        ]
      }
    }
  ]
}