{
  "type": "FeatureCollection",
  "name": "territory-179",
  "features": [
    {
      "type": "Feature",
      "properties": {
        "Name": "Western Yan",
        "FromYear": 387,
        "ToYear": 389,
        "Area": 116089.9385057136,
        "Type": "POLITY",
        "Wikipedia": "Western Yan",
        "Wikidata": "Q1149230",
        "SeshatID": "",
        "Components": "",
        "MemberOf": ""
      },
      "geometry": {
        "type": "Polygon",
        "coordinates": [
          [
            [
              114.43579864501953,
              38.416015625
            ],
            [
              114.4364242553711,
              38.09331130981445
            ],
            [
              113.93522644042969,
              37.1904182434082
            ],
            [
              114.01313781738281,
              37.1904182434082
            ],
            [
              113.92493438720703,
              36.9970588684082
            ],
            [
              114.00279235839844,
              36.9970588684082
            ],
            [
              113.93527221679688,
              36.67487716674805
            ],
            [
              114.01301574707031,
              36.67487716674805
            ],
            [
              113.60167694091797,
              36.09519577026367
            ],
            [
              112.8155288696289,
              35.708900451660156
            ],
            [
              112.0915756225586,
              35.644527435302734
            ],
            [
              111.00120544433594,
              35.065311431884766
            ],
            [
              110.53790283203125,
              35.065311431884766
            ],
            [
              110.64772033691406,
              35.708900451660156
            ],
            [
              111.01985931396484,
              36.2239875793457
            ],
            [
              110.89216613769531,
              36.28839111328125
            ],
            [
              110.92524719238281,
              36.5460319519043
            ],
            [
              110.74788665771484,
              36.67487716674805
            ],
            [
              110.77588653564453,
              36.73930740356445
            ],
            [
              110.81090545654297,
              36.9970588684082
            ],
            [
              110.7330551147461,
              36.9970588684082
            ],
            [
              110.87596893310547,
              37.3193473815918
            ],
            [
              110.79800415039062,
              37.3193473815918
            ],
            [
              111.00188446044922,
              37.7707405090332
            ],
            [
              111.33700561523438,
              38.157840728759766
            ],
            [
              111.21060943603516,
              38.22237777709961
            ],
            [
              111.27116394042969,
              38.351463317871094
            ],
            [
              111.55039978027344,
              38.60969924926758
            ],
            [
              112.02024841308594,
              38.93262481689453
            ],
            [
              112.57745361328125,
              39.57893371582031
            ],
            [
              113.24083709716797,
              39.64360046386719
            ],
            [
              113.33248138427734,
              39.51427459716797
            ],
            [
              113.7263412475586,
              39.51427459716797
            ],
            [
              114.67092895507812,
              39.9670295715332
            ],
            [
              114.82882690429688,
              39.9670295715332
            ],
            [
              114.96355438232422,
              39.77294921875
            ],
            [
              114.90791320800781,
              39.51427459716797
            ],
            [
              114.58522033691406,
              39.19107437133789
            ],
            [
              114.19198608398438,
              39.19107437133789
            ],
            [
              114.09469604492188,
              38.997230529785156
            ],
            [
              114.17327117919922,
              38.997230529785156
            ],
            [
              114.04505920410156,
              38.738853454589844
            ],
            [
              114.43579864501953,
              38.416015625
            ]
          ]
        ]
      }
    }
  ]
}