{
  "type": "FeatureCollection",
  "name": "territory-18",
  "features": [
    {
      "type": "Feature",
      "properties": {
        "Name": "(Alliance between Elam and Babylonia)",
        "FromYear": -1300,
        "ToYear": -1241,
        "Area": 237027.40618462703,
        "Type": "RELATION",
        "Wikipedia": "Elam",
        "Wikidata": "Q128904",
        "SeshatID": "ir_elam_6;iq_babylonia_2",
        "Components": "Babylonia;Elam",
        "MemberOf": ""
      },
      "geometry": {
        "type": "MultiPolygon",
        "coordinates": [
          [
            [
              [
                49.84233093261719,
                32.493072509765625
              ],
              [
                49.8241081237793,
                32.36451721191406
              ],
              [
                50.03515625,
                32.23596954345703
              ],
              [
                50.0170783996582,
                32.107421875
              ],
              [
                50.286407470703125,
                31.8503360748291
              ],
              [
                50.16586685180664,
                31.528987884521484
              ],
              [
                50.4794921875,
                31.593257904052734
              ],
              [
                50.38563537597656,
                31.464719772338867
              ],
              [
                50.72254943847656,
                31.143381118774414
              ],
              [
                50.7052001953125,
                31.014846801757812
              ],
              [
                50.983463287353516,
                30.822044372558594
              ],
              [
                50.96632385253906,
                30.69350814819336
              ],
              [
                51.1012077331543,
                30.564971923828125
              ],
              [
                51.47236251831055,
                30.500701904296875
              ],
              [
                51.51433181762695,
                30.243623733520508
              ],
              [
                51.72506332397461,
                30.115081787109375
              ],
              [
                51.70834732055664,
                29.986536026000977
              ],
              [
                52.240230560302734,
                29.40805435180664
              ],
              [
                52.20804977416992,
                29.150936126708984
              ],
              [
                51.88204574584961,
                28.958093643188477
              ],
              [
                51.858787536621094,
                28.765243530273438
              ],
              [
                51.55670928955078,
                28.765243530273438
              ],
              [
                51.06624984741211,
                28.44382095336914
              ],
              [
                51.028076171875,
                28.765243530273438
              ],
              [
                50.80903244018555,
                28.829526901245117
              ],
              [
                50.9150390625,
                29.08665657043457
              ],
              [
                50.620323181152344,
                29.150936126708984
              ],
              [
                50.65126037597656,
                29.40805435180664
              ],
              [
                50.23628234863281,
                29.729440689086914
              ],
              [
                50.0648078918457,
                30.179353713989258
              ],
              [
                49.585899353027344,
                29.986536026000977
              ],
              [
                49.01873016357422,
                30.307893753051758
              ],
              [
                49.110572814941406,
                30.436433792114258
              ],
              [
                49.11860656738281,
                30.500701904296875
              ],
              [
                49.04267883300781,
                30.500701904296875
              ],
              [
                48.942848205566406,
                30.307893753051758
              ],
              [
                48.987266540527344,
                30.050809860229492
              ],
              [
                48.36544418334961,
                29.922264099121094
              ],
              [
                48.40353012084961,
                29.600887298583984
              ],
              [
                47.8662223815918,
                29.536611557006836
              ],
              [
                47.28971481323242,
                29.79371452331543
              ],
              [
                46.97944259643555,
                29.729440689086914
              ],
              [
                46.99397659301758,
                29.857990264892578
              ],
              [
                46.84971618652344,
                29.922264099121094
              ],
              [
                46.61511993408203,
                29.857990264892578
              ],
              [
                46.590572357177734,
                30.307893753051758
              ],
              [
                45.77046203613281,
                30.436433792114258
              ],
              [
                44.95460891723633,
                31.271915435791016
              ],
              [
                44.5814208984375,
                31.336183547973633
              ],
              [
                44.459014892578125,
                31.593257904052734
              ],
              [
                43.420249938964844,
                32.493072509765625
              ],
              [
                43.42790222167969,
                32.557350158691406
              ],
              [
                43.91015625,
                32.75019073486328
              ],
              [
                44.208351135253906,
                32.685909271240234
              ],
              [
                44.17155075073242,
                33.00732421875
              ],
              [
                43.965721130371094,
                33.20018768310547
              ],
              [
                44.195682525634766,
                33.20018768310547
              ],
              [
                44.37346649169922,
                33.393062591552734
              ],
              [
                44.50829315185547,
                33.84315490722656
              ],
              [
                44.371360778808594,
                33.971771240234375
              ],
              [
                44.396671295166016,
                34.164703369140625
              ],
              [
                45.55075454711914,
                34.164703369140625
              ],
              [
                45.64531326293945,
                34.2933349609375
              ],
              [
                45.50016784667969,
                34.3576545715332
              ],
              [
                45.535648345947266,
                34.614952087402344
              ],
              [
                45.68980026245117,
                34.614952087402344
              ],
              [
                45.7167854309082,
                34.80794906616211
              ],
              [
                45.88014221191406,
                34.87228775024414
              ],
              [
                45.87105941772461,
                34.80794906616211
              ],
              [
                46.175201416015625,
                34.22901916503906
              ],
              [
                46.14847946166992,
                34.03607940673828
              ],
              [
                46.379180908203125,
                34.03607940673828
              ],
              [
                46.284515380859375,
                33.90746307373047
              ],
              [
                46.78679656982422,
                33.65024948120117
              ],
              [
                46.683536529541016,
                33.45735549926758
              ],
              [
                46.76026153564453,
                33.45735549926758
              ],
              [
                46.75147247314453,
                33.393062591552734
              ],
              [
                47.559574127197266,
                33.13589859008789
              ],
              [
                47.636207580566406,
                33.13589859008789
              ],
              [
                47.71284484863281,
                33.13589859008789
              ],
              [
                48.54673767089844,
                33.07160949707031
              ],
              [
                48.68178939819336,
                32.94303894042969
              ],
              [
                48.98810958862305,
                32.94303894042969
              ],
              [
                49.046443939208984,
                32.81447219848633
              ],
              [
                49.27607345581055,
                32.81447219848633
              ],
              [
                49.24876022338867,
                32.62162780761719
              ],
              [
                49.716880798339844,
                32.685909271240234
              ],
              [
                49.85148620605469,
                32.557350158691406
              ],
              [
                49.84233093261719,
                32.493072509765625
              ]
            ]
          ],
          [
            [
              [
                50.46181106567383,
                31.464719772338867
              ],
              [
                50.47063446044922,
                31.528987884521484
              ],
              [
                50.54682540893555,
                31.528987884521484
              ],
              [
                50.537986755371094,
                31.464719772338867
              ],
              [
                50.46181106567383,
                31.464719772338867
              ]
            ]
          ]
        ]
      }
    }
  ]
}