{
  "type": "FeatureCollection",
  "name": "territory-180",
  "features": [
    {
      "type": "Feature",
      "properties": {
        "Name": "Later Liang",
        "FromYear": 387,
        "ToYear": 396,
        "Area": 237181.3277928518,
        "Type": "POLITY",
        "Wikipedia": "Later Liang (Sixteen Kingdoms)",
        "Wikidata": "Q2314869",
        "SeshatID": "",
        "Components": "",
        "MemberOf": ""
      },
      "geometry": {
        "type": "Polygon",
        "coordinates": [
          [
            [
              98.32410430908203,
              40.4848747253418
            ],
            [
              98.40325927734375,
              40.4848747253418
            ],
            [
              98.50260162353516,
              40.355369567871094
            ],
            [
              98.94775390625,
              40.29063034057617
            ],
            [
              98.91836547851562,
              40.225894927978516
            ],
            [
              99.28423309326172,
              40.16116714477539
            ],
            [
              99.3836898803711,
              40.031734466552734
            ],
            [
              100.12395477294922,
              40.0964469909668
            ],
            [
              100.09447479248047,
              40.031734466552734
            ],
            [
              100.53881072998047,
              39.9670295715332
            ],
            [
              100.55899047851562,
              39.8376350402832
            ],
            [
              100.92413330078125,
              39.77294921875
            ],
            [
              100.89488983154297,
              39.70827102661133
            ],
            [
              104.61347198486328,
              39.90232849121094
            ],
            [
              104.6007308959961,
              39.70827102661133
            ],
            [
              104.72804260253906,
              39.64360046386719
            ],
            [
              104.60763549804688,
              39.38497543334961
            ],
            [
              104.4800796508789,
              39.449623107910156
            ],
            [
              103.6653060913086,
              38.8680305480957
            ],
            [
              103.60787963867188,
              38.738853454589844
            ],
            [
              104.2149658203125,
              38.8680305480957
            ],
            [
              103.8077621459961,
              38.48057174682617
            ],
            [
              103.75135040283203,
              38.351463317871094
            ],
            [
              103.95821380615234,
              38.28691864013672
            ],
            [
              103.7457275390625,
              38.157840728759766
            ],
            [
              103.7132797241211,
              37.89975357055664
            ],
            [
              104.31098937988281,
              37.835243225097656
            ],
            [
              104.4122085571289,
              37.706241607666016
            ],
            [
              105.32686614990234,
              37.835243225097656
            ],
            [
              105.3493881225586,
              37.706241607666016
            ],
            [
              105.73988342285156,
              37.706241607666016
            ],
            [
              106.04695129394531,
              37.51277160644531
            ],
            [
              106.01932525634766,
              37.44829177856445
            ],
            [
              105.67985534667969,
              37.38381576538086
            ],
            [
              105.59806060791016,
              37.1904182434082
            ],
            [
              104.7385482788086,
              36.9970588684082
            ],
            [
              104.39933776855469,
              36.73930740356445
            ],
            [
              103.93507385253906,
              35.9664192199707
            ],
            [
              103.70472717285156,
              35.77327346801758
            ],
            [
              103.63004302978516,
              35.58015823364258
            ],
            [
              103.73529052734375,
              35.45143127441406
            ],
            [
              103.44961547851562,
              34.48630142211914
            ],
            [
              103.52665710449219,
              34.48630142211914
            ],
            [
              103.35535430908203,
              34.22901916503906
            ],
            [
              103.27839660644531,
              34.22901916503906
            ],
            [
              103.01736450195312,
              34.3576545715332
            ],
            [
              103.0644302368164,
              34.48630142211914
            ],
            [
              102.21702575683594,
              34.48630142211914
            ],
            [
              102.26393127441406,
              34.614952087402344
            ],
            [
              101.93222045898438,
              34.55062484741211
            ],
            [
              102.1033706665039,
              34.80794906616211
            ],
            [
              101.6105728149414,
              34.93662643432617
            ],
            [
              101.99073791503906,
              35.12965774536133
            ],
            [
              102.14009094238281,
              35.32271194458008
            ],
            [
              102.03382873535156,
              35.45143127441406
            ],
            [
              102.21281433105469,
              35.51579284667969
            ],
            [
              102.23719787597656,
              35.58015823364258
            ],
            [
              102.57125091552734,
              35.644527435302734
            ],
            [
              102.61747741699219,
              35.9664192199707
            ],
            [
              102.79747772216797,
              36.03080368041992
            ],
            [
              102.92353057861328,
              36.3527946472168
            ],
            [
              102.79261016845703,
              36.61045455932617
            ],
            [
              102.84407806396484,
              36.73930740356445
            ],
            [
              102.6105728149414,
              36.932613372802734
            ],
            [
              102.68885803222656,
              37.12596130371094
            ],
            [
              102.53401184082031,
              37.3193473815918
            ],
            [
              102.24852752685547,
              37.38381576538086
            ],
            [
              102.09397888183594,
              37.5772590637207
            ],
            [
              102.09606170654297,
              37.7707405090332
            ],
            [
              101.85982513427734,
              37.5772590637207
            ],
            [
              101.5740966796875,
              37.641746520996094
            ],
            [
              101.54920959472656,
              37.7707405090332
            ],
            [
              101.26336669921875,
              37.835243225097656
            ],
            [
              101.23871612548828,
              37.96426773071289
            ],
            [
              100.8745346069336,
              38.028785705566406
            ],
            [
              100.4137954711914,
              38.60969924926758
            ],
            [
              100.2264404296875,
              38.351463317871094
            ],
            [
              99.81044006347656,
              38.48057174682617
            ],
            [
              99.19844818115234,
              39.25570297241211
            ],
            [
              98.9068374633789,
              39.1264533996582
            ],
            [
              98.3840560913086,
              39.19107437133789
            ],
            [
              98.22306060791016,
              38.997230529785156
            ],
            [
              97.90877532958984,
              38.997230529785156
            ],
            [
              97.20784759521484,
              39.38497543334961
            ],
            [
              96.76294708251953,
              39.449623107910156
            ],
            [
              96.65383911132812,
              39.19107437133789
            ],
            [
              96.73248291015625,
              39.19107437133789
            ],
            [
              96.70207977294922,
              38.738853454589844
            ],
            [
              96.36184692382812,
              38.67427444458008
            ],
            [
              95.9699935913086,
              38.8680305480957
            ],
            [
              95.89147186279297,
              38.8680305480957
            ],
            [
              95.63017272949219,
              38.997230529785156
            ],
            [
              95.55278778076172,
              39.19107437133789
            ],
            [
              95.39549255371094,
              39.19107437133789
            ],
            [
              95.31853485107422,
              39.38497543334961
            ],
            [
              95.05557250976562,
              39.320335388183594
            ],
            [
              94.58486938476562,
              39.51427459716797
            ],
            [
              93.87593078613281,
              39.51427459716797
            ],
            [
              93.50794982910156,
              39.38497543334961
            ],
            [
              93.29811096191406,
              39.449623107910156
            ],
            [
              93.2734375,
              39.77294921875
            ],
            [
              93.09048461914062,
              39.90232849121094
            ],
            [
              93.19904327392578,
              40.16116714477539
            ],
            [
              93.27806854248047,
              40.16116714477539
            ],
            [
              93.36487579345703,
              40.54964065551758
            ],
            [
              93.57447052001953,
              40.4848747253418
            ],
            [
              93.84545135498047,
              40.74397277832031
            ],
            [
              93.92472076416016,
              40.74397277832031
            ],
            [
              95.22967529296875,
              41.00318908691406
            ],
            [
              96.92637634277344,
              41.06801223754883
            ],
            [
              96.89657592773438,
              41.00318908691406
            ],
            [
              97.6304931640625,
              40.873565673828125
            ],
            [
              97.60071563720703,
              40.80876541137695
            ],
            [
              97.88810729980469,
              40.74397277832031
            ],
            [
              97.90805053710938,
              40.614410400390625
            ],
            [
              98.22490692138672,
              40.614410400390625
            ],
            [
              98.32410430908203,
              40.4848747253418
            ]
          ]
        ]
      }
    }
  ]
}