{
  "type": "FeatureCollection",
  "name": "territory-190",
  "features": [
    {
      "type": "Feature",
      "properties": {
        "Name": "(Alliance between Northern Wei and Rouran Khaganate)",
        "FromYear": 476,
        "ToYear": 479,
        "Area": 5037575.37146915,
        "Type": "RELATION",
        "Wikipedia": "Northern Wei",
        "Wikidata": "Q875305",
        "SeshatID": "cn_northern_wei_dyn;mn_rouran_khaganate",
        "Components": "Rouran Khaganate;Northern Wei",
        "MemberOf": ""
      },
      "geometry": {
        "type": "MultiPolygon",
        "coordinates": [
          [
            [
              [
                120.64734649658203,
                40.4848747253418
              ],
              [
                120.50029754638672,
                40.225894927978516
              ],
              [
                119.38044738769531,
                39.77294921875
              ],
              [
                119.21530151367188,
                39.320335388183594
              ],
              [
                118.98941802978516,
                39.19107437133789
              ],
              [
                118.44984436035156,
                39.06184005737305
              ],
              [
                118.0568618774414,
                39.06184005737305
              ],
              [
                118.04566192626953,
                39.19107437133789
              ],
              [
                117.77603912353516,
                39.1264533996582
              ],
              [
                117.57643127441406,
                38.738853454589844
              ],
              [
                117.6549072265625,
                38.738853454589844
              ],
              [
                117.60245513916016,
                38.48057174682617
              ],
              [
                118.05360412597656,
                38.28691864013672
              ],
              [
                118.06742095947266,
                38.157840728759766
              ],
              [
                118.58300018310547,
                38.09331130981445
              ],
              [
                118.64759826660156,
                38.22237777709961
              ],
              [
                118.80416870117188,
                38.22237777709961
              ],
              [
                118.77176666259766,
                38.157840728759766
              ],
              [
                119.4571304321289,
                37.96426773071289
              ],
              [
                119.3928451538086,
                37.835243225097656
              ],
              [
                119.23655700683594,
                37.835243225097656
              ],
              [
                118.98403930664062,
                37.3193473815918
              ],
              [
                119.13996124267578,
                37.3193473815918
              ],
              [
                119.15568542480469,
                37.1904182434082
              ],
              [
                119.70111083984375,
                37.1904182434082
              ],
              [
                119.82661437988281,
                37.44829177856445
              ],
              [
                120.20220184326172,
                37.5772590637207
              ],
              [
                120.18807220458984,
                37.706241607666016
              ],
              [
                120.75377655029297,
                37.89975357055664
              ],
              [
                121.11202239990234,
                37.835243225097656
              ],
              [
                121.17103576660156,
                37.641746520996094
              ],
              [
                121.48333740234375,
                37.641746520996094
              ],
              [
                121.49687957763672,
                37.51277160644531
              ],
              [
                122.15351867675781,
                37.5772590637207
              ],
              [
                122.1211166381836,
                37.51277160644531
              ],
              [
                122.71288299560547,
                37.44829177856445
              ],
              [
                122.47421264648438,
                37.12596130371094
              ],
              [
                122.56636810302734,
                36.9970588684082
              ],
              [
                122.39389038085938,
                36.80373764038086
              ],
              [
                121.91207885742188,
                36.932613372802734
              ],
              [
                121.21208190917969,
                36.61045455932617
              ],
              [
                120.97892761230469,
                36.61045455932617
              ],
              [
                120.96481323242188,
                36.417205810546875
              ],
              [
                120.73184967041016,
                36.417205810546875
              ],
              [
                120.65852355957031,
                36.09519577026367
              ],
              [
                120.31848907470703,
                36.03080368041992
              ],
              [
                119.98648071289062,
                35.644527435302734
              ],
              [
                119.61874389648438,
                35.51579284667969
              ],
              [
                119.25574493408203,
                34.87228775024414
              ],
              [
                119.22760772705078,
                34.80794906616211
              ],
              [
                118.80187225341797,
                34.3576545715332
              ],
              [
                118.04661560058594,
                33.84315490722656
              ],
              [
                116.86434936523438,
                33.393062591552734
              ],
              [
                116.2249526977539,
                33.32876968383789
              ],
              [
                116.02044677734375,
                33.20018768310547
              ],
              [
                114.0791244506836,
                33.13589859008789
              ],
              [
                113.95281219482422,
                33.00732421875
              ],
              [
                113.82437896728516,
                33.07160949707031
              ],
              [
                113.44408416748047,
                32.878753662109375
              ],
              [
                111.61662292480469,
                32.493072509765625
              ],
              [
                111.24053955078125,
                32.30024337768555
              ],
              [
                110.17093658447266,
                32.30024337768555
              ],
              [
                109.91146850585938,
                32.428794860839844
              ],
              [
                109.88143157958984,
                32.557350158691406
              ],
              [
                109.49907684326172,
                32.557350158691406
              ],
              [
                109.46910095214844,
                32.685909271240234
              ],
              [
                109.31609344482422,
                32.685909271240234
              ],
              [
                109.15662384033203,
                32.878753662109375
              ],
              [
                108.23787689208984,
                32.878753662109375
              ],
              [
                108.1015625,
                33.13589859008789
              ],
              [
                107.87826538085938,
                32.94303894042969
              ],
              [
                107.64852142333984,
                32.94303894042969
              ],
              [
                107.66516876220703,
                33.20018768310547
              ],
              [
                107.4821548461914,
                33.32876968383789
              ],
              [
                106.74531555175781,
                33.20018768310547
              ],
              [
                106.56185913085938,
                33.32876968383789
              ],
              [
                105.94832611083984,
                33.32876968383789
              ],
              [
                105.7029800415039,
                33.07160949707031
              ],
              [
                105.16666412353516,
                33.07160949707031
              ],
              [
                104.69842529296875,
                33.26447677612305
              ],
              [
                103.20997619628906,
                33.393062591552734
              ],
              [
                103.4928207397461,
                33.971771240234375
              ],
              [
                103.38555145263672,
                34.10039138793945
              ],
              [
                103.73529052734375,
                35.45143127441406
              ],
              [
                103.63004302978516,
                35.58015823364258
              ],
              [
                103.7297592163086,
                35.837650299072266
              ],
              [
                103.65229797363281,
                35.837650299072266
              ],
              [
                103.72779083251953,
                36.03080368041992
              ],
              [
                103.59667205810547,
                36.28839111328125
              ],
              [
                103.64786529541016,
                36.417205810546875
              ],
              [
                103.38858032226562,
                36.5460319519043
              ],
              [
                103.25885772705078,
                36.80373764038086
              ],
              [
                103.10328674316406,
                36.80373764038086
              ],
              [
                102.79303741455078,
                37.1904182434082
              ],
              [
                102.55928802490234,
                37.1904182434082
              ],
              [
                102.53401184082031,
                37.3193473815918
              ],
              [
                102.24852752685547,
                37.38381576538086
              ],
              [
                102.09397888183594,
                37.5772590637207
              ],
              [
                102.09606170654297,
                37.7707405090332
              ],
              [
                101.85982513427734,
                37.5772590637207
              ],
              [
                101.5740966796875,
                37.641746520996094
              ],
              [
                101.54920959472656,
                37.7707405090332
              ],
              [
                101.26336669921875,
                37.835243225097656
              ],
              [
                101.23871612548828,
                37.96426773071289
              ],
              [
                100.8745346069336,
                38.028785705566406
              ],
              [
                100.4137954711914,
                38.60969924926758
              ],
              [
                100.2264404296875,
                38.351463317871094
              ],
              [
                99.81044006347656,
                38.48057174682617
              ],
              [
                99.19844818115234,
                39.25570297241211
              ],
              [
                98.9068374633789,
                39.1264533996582
              ],
              [
                98.3840560913086,
                39.19107437133789
              ],
              [
                98.22306060791016,
                38.997230529785156
              ],
              [
                97.90877532958984,
                38.997230529785156
              ],
              [
                97.20784759521484,
                39.38497543334961
              ],
              [
                96.76294708251953,
                39.449623107910156
              ],
              [
                96.65383911132812,
                39.19107437133789
              ],
              [
                96.73248291015625,
                39.19107437133789
              ],
              [
                96.70207977294922,
                38.738853454589844
              ],
              [
                96.36184692382812,
                38.67427444458008
              ],
              [
                95.81295013427734,
                38.8680305480957
              ],
              [
                95.55278778076172,
                39.19107437133789
              ],
              [
                95.39549255371094,
                39.19107437133789
              ],
              [
                95.31853485107422,
                39.38497543334961
              ],
              [
                95.05557250976562,
                39.320335388183594
              ],
              [
                94.58486938476562,
                39.51427459716797
              ],
              [
                93.87593078613281,
                39.51427459716797
              ],
              [
                93.35050964355469,
                39.38497543334961
              ],
              [
                93.24575805664062,
                39.51427459716797
              ],
              [
                93.29883575439453,
                39.64360046386719
              ],
              [
                93.22001647949219,
                39.64360046386719
              ],
              [
                93.2734375,
                39.77294921875
              ],
              [
                93.09048461914062,
                39.90232849121094
              ],
              [
                93.19904327392578,
                40.16116714477539
              ],
              [
                93.27806854248047,
                40.16116714477539
              ],
              [
                93.36487579345703,
                40.54964065551758
              ],
              [
                93.57447052001953,
                40.4848747253418
              ],
              [
                93.84545135498047,
                40.74397277832031
              ],
              [
                92.76900482177734,
                41.00318908691406
              ],
              [
                92.79737854003906,
                41.06801223754883
              ],
              [
                92.47976684570312,
                41.06801223754883
              ],
              [
                91.27023315429688,
                41.39224624633789
              ],
              [
                90.77527618408203,
                41.71668243408203
              ],
              [
                90.5362319946289,
                41.71668243408203
              ],
              [
                90.43372344970703,
                41.84651184082031
              ],
              [
                90.19451141357422,
                41.84651184082031
              ],
              [
                90.22297668457031,
                41.911441802978516
              ],
              [
                89.61315155029297,
                41.97637939453125
              ],
              [
                89.64155578613281,
                42.041324615478516
              ],
              [
                88.81988525390625,
                42.17123794555664
              ],
              [
                88.84820556640625,
                42.236209869384766
              ],
              [
                88.07719421386719,
                42.30118942260742
              ],
              [
                88.10537719726562,
                42.36617660522461
              ],
              [
                85.76380920410156,
                42.691246032714844
              ],
              [
                85.79151153564453,
                42.75628662109375
              ],
              [
                84.10846710205078,
                42.75628662109375
              ],
              [
                82.05574798583984,
                42.236209869384766
              ],
              [
                80.96251678466797,
                42.30118942260742
              ],
              [
                80.5337905883789,
                42.43117141723633
              ],
              [
                80.02848815917969,
                42.36617660522461
              ],
              [
                79.43895721435547,
                42.496177673339844
              ],
              [
                79.40936279296875,
                42.62621307373047
              ],
              [
                79.24919128417969,
                42.62621307373047
              ],
              [
                79.0846176147461,
                42.82133865356445
              ],
              [
                77.93187713623047,
                42.95146560668945
              ],
              [
                77.9569091796875,
                43.016544342041016
              ],
              [
                79.09185791015625,
                44.05907440185547
              ],
              [
                79.86965942382812,
                44.973392486572266
              ],
              [
                80.33009338378906,
                45.10417556762695
              ],
              [
                81.28350830078125,
                45.62776184082031
              ],
              [
                81.7791519165039,
                46.02093505859375
              ],
              [
                81.75438690185547,
                46.1520881652832
              ],
              [
                82.36567687988281,
                46.61152267456055
              ],
              [
                82.71333312988281,
                47.20316696166992
              ],
              [
                82.63102722167969,
                47.20316696166992
              ],
              [
                82.75096893310547,
                47.46647262573242
              ],
              [
                82.59416961669922,
                47.664100646972656
              ],
              [
                82.65495300292969,
                47.79592514038086
              ],
              [
                82.52017211914062,
                47.86185836791992
              ],
              [
                82.58135223388672,
                47.993770599365234
              ],
              [
                82.39452362060547,
                48.1257438659668
              ],
              [
                82.43540954589844,
                48.38986587524414
              ],
              [
                82.35247039794922,
                48.38986587524414
              ],
              [
                82.6876220703125,
                48.91886520385742
              ],
              [
                84.98126983642578,
                50.312522888183594
              ],
              [
                85.8331527709961,
                50.64549255371094
              ],
              [
                86.86048126220703,
                50.97892379760742
              ],
              [
                88.27997589111328,
                51.24601745605469
              ],
              [
                88.39606475830078,
                51.44654083251953
              ],
              [
                88.526611328125,
                51.37968063354492
              ],
              [
                90.07669830322266,
                51.84812545776367
              ],
              [
                90.67161560058594,
                51.84812545776367
              ],
              [
                90.67530822753906,
                51.71418380737305
              ],
              [
                91.6531753540039,
                51.64724349975586
              ],
              [
                91.61236572265625,
                51.580322265625
              ],
              [
                92.37571716308594,
                51.580322265625
              ],
              [
                92.58663177490234,
                51.64724349975586
              ],
              [
                92.58467864990234,
                51.78114318847656
              ],
              [
                93.09435272216797,
                51.78114318847656
              ],
              [
                94.58428192138672,
                52.250450134277344
              ],
              [
                96.38236236572266,
                52.51908493041992
              ],
              [
                97.92002868652344,
                52.51908493041992
              ],
              [
                97.87442779541016,
                52.4518928527832
              ],
              [
                98.29542541503906,
                52.31757736206055
              ],
              [
                98.25,
                52.250450134277344
              ],
              [
                98.59099578857422,
                52.250450134277344
              ],
              [
                98.54554748535156,
                52.18334197998047
              ],
              [
                98.84089660644531,
                52.11625671386719
              ],
              [
                100.07284545898438,
                52.78806686401367
              ],
              [
                100.54847717285156,
                52.85536575317383
              ],
              [
                100.55840301513672,
                52.99003219604492
              ],
              [
                101.65126037597656,
                52.720787048339844
              ],
              [
                101.64102172851562,
                52.586299896240234
              ],
              [
                101.72649383544922,
                52.586299896240234
              ],
              [
                101.71660614013672,
                52.4518928527832
              ],
              [
                101.88736724853516,
                52.4518928527832
              ],
              [
                101.87773895263672,
                52.31757736206055
              ],
              [
                102.26651763916016,
                52.38472366333008
              ],
              [
                102.21891021728516,
                52.31757736206055
              ],
              [
                102.47479248046875,
                52.31757736206055
              ],
              [
                102.42721557617188,
                52.250450134277344
              ],
              [
                102.51245880126953,
                52.250450134277344
              ],
              [
                102.84349060058594,
                52.11625671386719
              ],
              [
                102.7961196899414,
                52.0491943359375
              ],
              [
                103.29706573486328,
                51.91512680053711
              ],
              [
                103.20281982421875,
                51.78114318847656
              ],
              [
                103.28776550292969,
                51.78114318847656
              ],
              [
                103.19407653808594,
                51.64724349975586
              ],
              [
                103.31710052490234,
                51.580322265625
              ],
              [
                103.21658325195312,
                51.31283950805664
              ],
              [
                103.30123138427734,
                51.31283950805664
              ],
              [
                103.29400634765625,
                51.17921447753906
              ],
              [
                103.463134765625,
                51.17921447753906
              ],
              [
                103.49517059326172,
                50.97892379760742
              ],
              [
                104.29378509521484,
                50.912200927734375
              ],
              [
                104.93064880371094,
                50.97892379760742
              ],
              [
                107.21868133544922,
                51.580322265625
              ],
              [
                108.72425842285156,
                51.78114318847656
              ],
              [
                109.26890563964844,
                51.71418380737305
              ],
              [
                109.53899383544922,
                51.84812545776367
              ],
              [
                109.52361297607422,
                51.71418380737305
              ],
              [
                109.9984359741211,
                51.78114318847656
              ],
              [
                109.98284149169922,
                51.64724349975586
              ],
              [
                110.40713500976562,
                51.64724349975586
              ],
              [
                110.3569107055664,
                51.580322265625
              ],
              [
                112.2740478515625,
                51.64724349975586
              ],
              [
                113.8614730834961,
                52.0491943359375
              ],
              [
                114.99018859863281,
                52.18334197998047
              ],
              [
                117.05211639404297,
                52.720787048339844
              ],
              [
                118.27884674072266,
                52.653533935546875
              ],
              [
                118.22235107421875,
                52.586299896240234
              ],
              [
                118.3932876586914,
                52.586299896240234
              ],
              [
                118.33688354492188,
                52.51908493041992
              ],
              [
                118.79295349121094,
                52.4518928527832
              ],
              [
                118.73664093017578,
                52.38472366333008
              ],
              [
                118.90731811523438,
                52.38472366333008
              ],
              [
                118.85110473632812,
                52.31757736206055
              ],
              [
                119.10698699951172,
                52.31757736206055
              ],
              [
                119.05081939697266,
                52.250450134277344
              ],
              [
                119.45001983642578,
                52.11625671386719
              ],
              [
                119.42353820800781,
                51.98215103149414
              ],
              [
                119.59368133544922,
                51.98215103149414
              ],
              [
                119.56759643554688,
                51.84812545776367
              ],
              [
                119.7375717163086,
                51.84812545776367
              ],
              [
                119.68218231201172,
                51.78114318847656
              ],
              [
                119.8816909790039,
                51.71418380737305
              ],
              [
                119.82654571533203,
                51.64724349975586
              ],
              [
                120.13639831542969,
                51.71418380737305
              ],
              [
                120.02603912353516,
                51.580322265625
              ],
              [
                120.56456756591797,
                51.51342010498047
              ],
              [
                120.50956726074219,
                51.44654083251953
              ],
              [
                120.76376342773438,
                51.44654083251953
              ],
              [
                120.70882415771484,
                51.37968063354492
              ],
              [
                120.8233642578125,
                51.31283950805664
              ],
              [
                120.084228515625,
                49.84712600708008
              ],
              [
                120.1679916381836,
                49.84712600708008
              ],
              [
                119.81724548339844,
                49.38258361816406
              ],
              [
                119.9007339477539,
                49.38258361816406
              ],
              [
                119.06246185302734,
                47.993770599365234
              ],
              [
                119.14518737792969,
                47.993770599365234
              ],
              [
                118.96100616455078,
                47.730003356933594
              ],
              [
                119.04358673095703,
                47.730003356933594
              ],
              [
                118.54730224609375,
                47.005828857421875
              ],
              [
                118.62950134277344,
                47.005828857421875
              ],
              [
                118.45243835449219,
                46.74290466308594
              ],
              [
                118.6165771484375,
                46.74290466308594
              ],
              [
                118.35904693603516,
                46.480194091796875
              ],
              [
                118.44097900390625,
                46.480194091796875
              ],
              [
                118.35379791259766,
                46.348915100097656
              ],
              [
                118.4356689453125,
                46.348915100097656
              ],
              [
                118.37825775146484,
                45.889827728271484
              ],
              [
                118.66175842285156,
                45.82429504394531
              ],
              [
                118.65745544433594,
                45.693260192871094
              ],
              [
                119.42070007324219,
                45.36587905883789
              ],
              [
                119.37789154052734,
                45.300437927246094
              ],
              [
                119.98568725585938,
                45.23500442504883
              ],
              [
                119.9427719116211,
                45.169586181640625
              ],
              [
                120.91818237304688,
                45.169586181640625
              ],
              [
                120.87496185302734,
                45.10417556762695
              ],
              [
                121.73102569580078,
                45.169586181640625
              ],
              [
                121.68748474121094,
                45.10417556762695
              ],
              [
                123.34963989257812,
                45.03877639770508
              ],
              [
                123.30558013916016,
                44.973392486572266
              ],
              [
                124.50812530517578,
                44.71194839477539
              ],
              [
                124.46390533447266,
                44.64661407470703
              ],
              [
                124.86150360107422,
                44.5159797668457
              ],
              [
                124.81732940673828,
                44.45067596435547
              ],
              [
                124.97185516357422,
                44.32010269165039
              ],
              [
                125.05272674560547,
                44.32010269165039
              ],
              [
                125.00868225097656,
                44.25482940673828
              ],
              [
                125.1631851196289,
                44.12431716918945
              ],
              [
                125.06883239746094,
                43.86341094970703
              ],
              [
                125.14949035644531,
                43.86341094970703
              ],
              [
                125.0624008178711,
                43.73301696777344
              ],
              [
                125.14299774169922,
                43.73301696777344
              ],
              [
                125.05621337890625,
                43.6026611328125
              ],
              [
                125.13674926757812,
                43.6026611328125
              ],
              [
                124.95885467529297,
                43.211830139160156
              ],
              [
                125.0392074584961,
                43.211830139160156
              ],
              [
                124.90662384033203,
                42.88639831542969
              ],
              [
                124.98682403564453,
                42.88639831542969
              ],
              [
                124.8182144165039,
                42.62621307373047
              ],
              [
                125.01287078857422,
                42.43117141723633
              ],
              [
                124.92961883544922,
                42.30118942260742
              ],
              [
                122.6083755493164,
                41.781593322753906
              ],
              [
                122.4899673461914,
                41.45711898803711
              ],
              [
                121.93632507324219,
                41.19768524169922
              ],
              [
                121.82366180419922,
                40.873565673828125
              ],
              [
                121.74433898925781,
                40.873565673828125
              ],
              [
                121.1097640991211,
                40.873565673828125
              ],
              [
                120.72650909423828,
                40.4848747253418
              ],
              [
                120.64734649658203,
                40.4848747253418
              ]
            ]
          ],
          [
            [
              [
                93.05128479003906,
                51.84812545776367
              ],
              [
                93.09330749511719,
                51.91512680053711
              ],
              [
                93.17833709716797,
                51.91512680053711
              ],
              [
                93.13627624511719,
                51.84812545776367
              ],
              [
                93.05128479003906,
                51.84812545776367
              ]
            ]
          ]
        ]
      }
    }
  ]
}