{
  "type": "FeatureCollection",
  "name": "territory-193",
  "features": [
    {
      "type": "Feature",
      "properties": {
        "Name": "Xia",
        "FromYear": 426,
        "ToYear": 438,
        "Area": 229893.54795663615,
        "Type": "POLITY",
        "Wikipedia": "Xia",
        "Wikidata": "Q7427",
        "SeshatID": "",
        "Components": "",
        "MemberOf": ""
      },
      "geometry": {
        "type": "Polygon",
        "coordinates": [
          [
            [
              110.53790283203125,
              35.065311431884766
            ],
            [
              110.6662368774414,
              35.00096893310547
            ],
            [
              110.5883560180664,
              34.80794906616211
            ],
            [
              110.71676635742188,
              34.743614196777344
            ],
            [
              110.69108581542969,
              34.48630142211914
            ],
            [
              110.8196029663086,
              34.42197799682617
            ],
            [
              110.82032775878906,
              34.22901916503906
            ],
            [
              110.9742431640625,
              34.22901916503906
            ],
            [
              111.00059509277344,
              34.10039138793945
            ],
            [
              111.30827331542969,
              34.10039138793945
            ],
            [
              111.33467864990234,
              33.971771240234375
            ],
            [
              111.72042083740234,
              33.77885055541992
            ],
            [
              111.67042541503906,
              33.65024948120117
            ],
            [
              111.77423858642578,
              33.52165222167969
            ],
            [
              111.24053955078125,
              32.30024337768555
            ],
            [
              110.17093658447266,
              32.30024337768555
            ],
            [
              109.91146850585938,
              32.428794860839844
            ],
            [
              109.88143157958984,
              32.557350158691406
            ],
            [
              109.49907684326172,
              32.557350158691406
            ],
            [
              109.46910095214844,
              32.685909271240234
            ],
            [
              109.31609344482422,
              32.685909271240234
            ],
            [
              109.15662384033203,
              32.878753662109375
            ],
            [
              108.23787689208984,
              32.878753662109375
            ],
            [
              108.1015625,
              33.13589859008789
            ],
            [
              107.87826538085938,
              32.94303894042969
            ],
            [
              107.64852142333984,
              32.94303894042969
            ],
            [
              107.66516876220703,
              33.20018768310547
            ],
            [
              107.4821548461914,
              33.32876968383789
            ],
            [
              106.74531555175781,
              33.20018768310547
            ],
            [
              106.56185913085938,
              33.32876968383789
            ],
            [
              106.02501678466797,
              33.32876968383789
            ],
            [
              106.37223815917969,
              33.65024948120117
            ],
            [
              106.18913269042969,
              33.77885055541992
            ],
            [
              106.38541412353516,
              34.10039138793945
            ],
            [
              106.27977752685547,
              34.22901916503906
            ],
            [
              106.35260772705078,
              34.42197799682617
            ],
            [
              106.27558898925781,
              34.42197799682617
            ],
            [
              106.49762725830078,
              35.00096893310547
            ],
            [
              106.88001251220703,
              35.58015823364258
            ],
            [
              106.9317398071289,
              35.902034759521484
            ],
            [
              107.31916046142578,
              35.902034759521484
            ],
            [
              107.47540283203125,
              36.09519577026367
            ],
            [
              107.34861755371094,
              36.3527946472168
            ],
            [
              107.11571502685547,
              36.3527946472168
            ],
            [
              106.9626693725586,
              36.5460319519043
            ],
            [
              107.04327392578125,
              36.73930740356445
            ],
            [
              106.91473388671875,
              36.80373764038086
            ],
            [
              106.91837310791016,
              36.9970588684082
            ],
            [
              105.72676849365234,
              37.12596130371094
            ],
            [
              105.62523651123047,
              37.254878997802734
            ],
            [
              105.67985534667969,
              37.38381576538086
            ],
            [
              106.01932525634766,
              37.44829177856445
            ],
            [
              107.2454605102539,
              37.5772590637207
            ],
            [
              107.64266967773438,
              37.7707405090332
            ],
            [
              108.32515716552734,
              37.89975357055664
            ],
            [
              109.07779693603516,
              37.835243225097656
            ],
            [
              109.76148986816406,
              37.96426773071289
            ],
            [
              110.39788055419922,
              38.157840728759766
            ],
            [
              110.67475891113281,
              38.416015625
            ],
            [
              111.55039978027344,
              38.60969924926758
            ],
            [
              111.27116394042969,
              38.351463317871094
            ],
            [
              111.21060943603516,
              38.22237777709961
            ],
            [
              111.33700561523438,
              38.157840728759766
            ],
            [
              111.00188446044922,
              37.7707405090332
            ],
            [
              110.79800415039062,
              37.3193473815918
            ],
            [
              110.87596893310547,
              37.3193473815918
            ],
            [
              110.7330551147461,
              36.9970588684082
            ],
            [
              110.81090545654297,
              36.9970588684082
            ],
            [
              110.74788665771484,
              36.67487716674805
            ],
            [
              110.92524719238281,
              36.5460319519043
            ],
            [
              110.89216613769531,
              36.28839111328125
            ],
            [
              111.01985931396484,
              36.2239875793457
            ],
            [
              110.72847747802734,
              35.902034759521484
            ],
            [
              110.54113006591797,
              35.45143127441406
            ],
            [
              110.61846160888672,
              35.45143127441406
            ],
            [
              110.53790283203125,
              35.065311431884766
            ]
          ]
        ]
      }
    }
  ]
}