{
  "type": "FeatureCollection",
  "name": "territory-196",
  "features": [
    {
      "type": "Feature",
      "properties": {
        "Name": "Burgundian Kingdom",
        "FromYear": 612,
        "ToYear": 616,
        "Area": 583607.1399839316,
        "Type": "POLITY",
        "Wikipedia": "Kingdom of the Burgundians",
        "Wikidata": "Q13590051",
        "SeshatID": "fr_merovingian_emp_2",
        "Components": "",
        "MemberOf": "(Merovingian Empire);(Kingdom of the Franks)"
      },
      "geometry": {
        "type": "Polygon",
        "coordinates": [
          [
            [
              7.228299140930176,
              43.86341094970703
            ],
            [
              6.993107318878174,
              43.53750228881836
            ],
            [
              6.67255163192749,
              43.472347259521484
            ],
            [
              6.596527099609375,
              43.276947021484375
            ],
            [
              6.278174877166748,
              43.146724700927734
            ],
            [
              5.796233177185059,
              43.146724700927734
            ],
            [
              5.631923198699951,
              43.276947021484375
            ],
            [
              5.390771865844727,
              43.276947021484375
            ],
            [
              5.386905193328857,
              43.407203674316406
            ],
            [
              5.063065528869629,
              43.472347259521484
            ],
            [
              4.177847862243652,
              43.472347259521484
            ],
            [
              4.173032760620117,
              43.6026611328125
            ],
            [
              4.092497825622559,
              43.6026611328125
            ],
            [
              4.236700534820557,
              44.05907440185547
            ],
            [
              4.633574962615967,
              44.25482940673828
            ],
            [
              4.057530879974365,
              44.5159797668457
            ],
            [
              3.814627170562744,
              44.5159797668457
            ],
            [
              3.429201602935791,
              44.05907440185547
            ],
            [
              3.025451898574829,
              44.05907440185547
            ],
            [
              2.795101165771484,
              43.79821014404297
            ],
            [
              2.633847713470459,
              43.79821014404297
            ],
            [
              2.095041275024414,
              43.276947021484375
            ],
            [
              1.950274229049683,
              42.95146560668945
            ],
            [
              1.789806246757507,
              42.95146560668945
            ],
            [
              1.485537886619568,
              42.62621307373047
            ],
            [
              1.074691534042358,
              42.82133865356445
            ],
            [
              0.040142297744751,
              42.691246032714844
            ],
            [
              -0.208102732896805,
              42.82133865356445
            ],
            [
              -0.528801321983337,
              42.82133865356445
            ],
            [
              -1.026964664459229,
              43.08163070678711
            ],
            [
              -1.428432941436768,
              43.08163070678711
            ],
            [
              -1.441840410232544,
              43.276947021484375
            ],
            [
              -1.687574744224548,
              43.342071533203125
            ],
            [
              -1.692170143127441,
              43.407203674316406
            ],
            [
              -1.459883332252502,
              43.53750228881836
            ],
            [
              -1.402047991752625,
              43.86341094970703
            ],
            [
              -1.321390628814697,
              43.86341094970703
            ],
            [
              -1.348801136016846,
              44.25482940673828
            ],
            [
              -1.267958283424377,
              44.25482940673828
            ],
            [
              -1.286344885826111,
              44.5159797668457
            ],
            [
              -1.205376982688904,
              44.5159797668457
            ],
            [
              -1.251859068870544,
              45.169586181640625
            ],
            [
              -1.170574903488159,
              45.169586181640625
            ],
            [
              -1.189373373985291,
              45.431331634521484
            ],
            [
              -1.031213998794556,
              45.496795654296875
            ],
            [
              -1.045281529426575,
              45.693260192871094
            ],
            [
              -1.213142395019531,
              45.75876998901367
            ],
            [
              -1.141096234321594,
              45.889827728271484
            ],
            [
              -1.222735166549683,
              45.889827728271484
            ],
            [
              -1.251809358596802,
              46.283294677734375
            ],
            [
              -1.666043281555176,
              46.348915100097656
            ],
            [
              -2.014399528503418,
              46.61152267456055
            ],
            [
              -2.024919986724854,
              46.74290466308594
            ],
            [
              -2.194406032562256,
              46.808616638183594
            ],
            [
              -2.139080047607422,
              47.13737487792969
            ],
            [
              -2.232228517532349,
              47.26897048950195
            ],
            [
              -2.561590671539307,
              47.26897048950195
            ],
            [
              -2.578423976898193,
              47.46647262573242
            ],
            [
              -2.831500053405762,
              47.53233337402344
            ],
            [
              -2.837259292602539,
              47.598209381103516
            ],
            [
              -2.447182655334473,
              47.86185836791992
            ],
            [
              -1.796727180480957,
              47.993770599365234
            ],
            [
              -1.647326707839966,
              48.191749572753906
            ],
            [
              -1.652703642845154,
              48.257774353027344
            ],
            [
              -1.668919563293457,
              48.455936431884766
            ],
            [
              -1.508333325386047,
              48.52202224731445
            ],
            [
              -1.602181315422058,
              48.654239654541016
            ],
            [
              -1.607621908187866,
              48.72037124633789
            ],
            [
              -1.718345284461975,
              49.051273345947266
            ],
            [
              -1.635041356086731,
              49.051273345947266
            ],
            [
              -1.651668906211853,
              49.2500114440918
            ],
            [
              -1.913302421569824,
              49.38258361816406
            ],
            [
              -2.031550645828247,
              49.78071212768555
            ],
            [
              -1.361783027648926,
              49.78071212768555
            ],
            [
              -1.250783205032349,
              49.44889450073242
            ],
            [
              0.007001183927059,
              49.38258361816406
            ],
            [
              -0.012448177672923,
              49.64793395996094
            ],
            [
              0.224112883210182,
              49.84712600708008
            ],
            [
              1.052847385406494,
              49.98000717163086
            ],
            [
              1.45067572593689,
              50.312522888183594
            ],
            [
              1.446373105049133,
              50.37908172607422
            ],
            [
              1.950821161270142,
              50.37908172607422
            ],
            [
              2.554430246353149,
              50.11296081542969
            ],
            [
              3.984085559844971,
              50.04647445678711
            ],
            [
              4.154837608337402,
              49.98000717163086
            ],
            [
              4.163800239562988,
              49.78071212768555
            ],
            [
              4.420679569244385,
              49.64793395996094
            ],
            [
              4.744420528411865,
              49.91355895996094
            ],
            [
              4.998414993286133,
              49.84712600708008
            ],
            [
              4.985380172729492,
              50.17946243286133
            ],
            [
              5.232241630554199,
              50.312522888183594
            ],
            [
              5.058992385864258,
              50.445655822753906
            ],
            [
              5.040729522705078,
              50.912200927734375
            ],
            [
              5.038103103637695,
              50.97892379760742
            ],
            [
              4.953662872314453,
              50.97892379760742
            ],
            [
              4.945631980895996,
              51.17921447753906
            ],
            [
              5.19676399230957,
              51.24601745605469
            ],
            [
              5.191628456115723,
              51.37968063354492
            ],
            [
              4.341732025146484,
              51.44654083251953
            ],
            [
              4.338729858398438,
              51.51342010498047
            ],
            [
              4.335721492767334,
              51.580322265625
            ],
            [
              4.332707405090332,
              51.64724349975586
            ],
            [
              4.329687118530273,
              51.71418380737305
            ],
            [
              4.414589405059814,
              51.71418380737305
            ],
            [
              4.499491691589355,
              51.71418380737305
            ],
            [
              4.487694263458252,
              51.98215103149414
            ],
            [
              4.652082920074463,
              52.11625671386719
            ],
            [
              4.646299362182617,
              52.250450134277344
            ],
            [
              5.072545528411865,
              52.250450134277344
            ],
            [
              5.149869918823242,
              52.4518928527832
            ],
            [
              5.320633411407471,
              52.4518928527832
            ],
            [
              5.222162246704102,
              52.78806686401367
            ],
            [
              5.307767868041992,
              52.78806686401367
            ],
            [
              5.305179595947266,
              52.85536575317383
            ],
            [
              5.390830039978027,
              52.85536575317383
            ],
            [
              5.38828182220459,
              52.92268753051758
            ],
            [
              5.559673309326172,
              52.92268753051758
            ],
            [
              5.654990673065186,
              52.653533935546875
            ],
            [
              6.335031509399414,
              52.78806686401367
            ],
            [
              6.326824188232422,
              53.057395935058594
            ],
            [
              6.4964280128479,
              53.124786376953125
            ],
            [
              7.016500473022461,
              52.92268753051758
            ],
            [
              6.948029518127441,
              52.250450134277344
            ],
            [
              6.697800159454346,
              52.0491943359375
            ],
            [
              6.612682342529297,
              52.0491943359375
            ],
            [
              6.614560127258301,
              51.98215103149414
            ],
            [
              6.699635028839111,
              51.98215103149414
            ],
            [
              7.301267147064209,
              51.71418380737305
            ],
            [
              7.392090797424316,
              51.44654083251953
            ],
            [
              7.648990631103516,
              51.31283950805664
            ],
            [
              7.651692390441895,
              51.17921447753906
            ],
            [
              8.335354804992676,
              50.71213912963867
            ],
            [
              8.837132453918457,
              51.04566955566406
            ],
            [
              9.427069664001465,
              51.24601745605469
            ],
            [
              9.345601081848145,
              50.84549331665039
            ],
            [
              9.178116798400879,
              50.71213912963867
            ],
            [
              9.266509056091309,
              50.2459831237793
            ],
            [
              8.843364715576172,
              50.51224899291992
            ],
            [
              8.42556381225586,
              50.312522888183594
            ],
            [
              8.346715927124023,
              49.98000717163086
            ],
            [
              8.26287841796875,
              49.98000717163086
            ],
            [
              8.268299102783203,
              49.64793395996094
            ],
            [
              8.351943016052246,
              49.64793395996094
            ],
            [
              8.275930404663086,
              49.18375015258789
            ],
            [
              8.112674713134766,
              48.98506164550781
            ],
            [
              7.528380393981934,
              49.051273345947266
            ],
            [
              7.364774227142334,
              48.91886520385742
            ],
            [
              7.213953495025635,
              48.257774353027344
            ],
            [
              7.131087303161621,
              48.257774353027344
            ],
            [
              7.062728881835938,
              47.664100646972656
            ],
            [
              7.483957767486572,
              47.26897048950195
            ],
            [
              8.061505317687988,
              47.20316696166992
            ],
            [
              8.394814491271973,
              46.94007873535156
            ],
            [
              9.545738220214844,
              46.87434005737305
            ],
            [
              9.383280754089355,
              46.677207946777344
            ],
            [
              9.385076522827148,
              46.480194091796875
            ],
            [
              9.142709732055664,
              46.1520881652832
            ],
            [
              8.243240356445312,
              46.1520881652832
            ],
            [
              7.837991714477539,
              45.95537567138672
            ],
            [
              6.939604759216309,
              45.95537567138672
            ],
            [
              6.779487133026123,
              45.82429504394531
            ],
            [
              6.782690525054932,
              45.693260192871094
            ],
            [
              7.113230228424072,
              45.496795654296875
            ],
            [
              7.117553234100342,
              45.300437927246094
            ],
            [
              6.713985443115234,
              45.169586181640625
            ],
            [
              6.637507915496826,
              44.973392486572266
            ],
            [
              6.965181350708008,
              44.842647552490234
            ],
            [
              6.895741939544678,
              44.32010269165039
            ],
            [
              7.139705181121826,
              44.25482940673828
            ],
            [
              7.227019786834717,
              43.92862319946289
            ],
            [
              7.228299140930176,
              43.86341094970703
            ]
          ]
        ]
      }
    }
  ]
}