{
  "type": "FeatureCollection",
  "name": "territory-200",
  "features": [
    {
      "type": "Feature",
      "properties": {
        "Name": "Hunnic Empire",
        "FromYear": 451,
        "ToYear": 451,
        "Area": 1913269.473114018,
        "Type": "POLITY",
        "Wikipedia": "Huns",
        "Wikidata": "Q45813",
        "SeshatID": "hu_hun_k",
        "Components": "",
        "MemberOf": ""
      },
      "geometry": {
        "type": "MultiPolygon",
        "coordinates": [
          [
            [
              [
                44.682186126708984,
                43.6026611328125
              ],
              [
                44.69510269165039,
                43.6678352355957
              ],
              [
                44.77566909790039,
                43.6678352355957
              ],
              [
                44.76272201538086,
                43.6026611328125
              ],
              [
                44.682186126708984,
                43.6026611328125
              ]
            ]
          ],
          [
            [
              [
                35.01994323730469,
                45.300437927246094
              ],
              [
                36.42308807373047,
                45.431331634521484
              ],
              [
                36.37263107299805,
                45.10417556762695
              ],
              [
                35.87525939941406,
                45.03877639770508
              ],
              [
                35.732418060302734,
                45.169586181640625
              ],
              [
                35.40727996826172,
                45.169586181640625
              ],
              [
                35.297096252441406,
                44.973392486572266
              ],
              [
                34.376285552978516,
                44.77729415893555
              ],
              [
                33.92564392089844,
                44.45067596435547
              ],
              [
                33.52096176147461,
                44.45067596435547
              ],
              [
                33.46652603149414,
                44.64661407470703
              ],
              [
                33.54755401611328,
                44.64661407470703
              ],
              [
                33.61005401611328,
                45.10417556762695
              ],
              [
                32.92236328125,
                45.431331634521484
              ],
              [
                32.59671401977539,
                45.431331634521484
              ],
              [
                33.03901290893555,
                45.693260192871094
              ],
              [
                33.70957565307617,
                45.82429504394531
              ],
              [
                33.73704528808594,
                46.02093505859375
              ],
              [
                34.15492630004883,
                46.08650588989258
              ],
              [
                34.544586181640625,
                45.95537567138672
              ],
              [
                34.74187088012695,
                45.62776184082031
              ],
              [
                34.82337951660156,
                45.62776184082031
              ],
              [
                34.98639678955078,
                45.62776184082031
              ],
              [
                35.01994323730469,
                45.300437927246094
              ]
            ]
          ],
          [
            [
              [
                29.66587257385254,
                45.431331634521484
              ],
              [
                29.658414840698242,
                45.36587905883789
              ],
              [
                29.57703399658203,
                45.36587905883789
              ],
              [
                29.58445930480957,
                45.431331634521484
              ],
              [
                29.66587257385254,
                45.431331634521484
              ]
            ]
          ],
          [
            [
              [
                53.100955963134766,
                46.02093505859375
              ],
              [
                53.18265914916992,
                46.02093505859375
              ],
              [
                53.16569900512695,
                45.95537567138672
              ],
              [
                53.08402633666992,
                45.95537567138672
              ],
              [
                53.100955963134766,
                46.02093505859375
              ]
            ]
          ],
          [
            [
              [
                47.04105758666992,
                44.842647552490234
              ],
              [
                46.688507080078125,
                44.71194839477539
              ],
              [
                46.63267517089844,
                44.45067596435547
              ],
              [
                47.00926971435547,
                44.32010269165039
              ],
              [
                47.39570617675781,
                43.86341094970703
              ],
              [
                47.406455993652344,
                43.53750228881836
              ],
              [
                46.92342758178711,
                43.53750228881836
              ],
              [
                46.9509391784668,
                43.6678352355957
              ],
              [
                46.750450134277344,
                43.86341094970703
              ],
              [
                46.266502380371094,
                43.86341094970703
              ],
              [
                46.293739318847656,
                43.99384307861328
              ],
              [
                45.930419921875,
                43.79821014404297
              ],
              [
                45.60791015625,
                43.79821014404297
              ],
              [
                45.084861755371094,
                43.6026611328125
              ],
              [
                44.78864288330078,
                43.73301696777344
              ],
              [
                44.13114547729492,
                43.6678352355957
              ],
              [
                44.07600402832031,
                43.79821014404297
              ],
              [
                43.37533187866211,
                43.92862319946289
              ],
              [
                43.4004020690918,
                44.05907440185547
              ],
              [
                43.127315521240234,
                44.32010269165039
              ],
              [
                43.15240478515625,
                44.45067596435547
              ],
              [
                42.56674575805664,
                44.77729415893555
              ],
              [
                41.32649612426758,
                44.64661407470703
              ],
              [
                41.01416015625,
                44.71194839477539
              ],
              [
                40.31962966918945,
                44.45067596435547
              ],
              [
                39.60239791870117,
                44.5159797668457
              ],
              [
                38.74928665161133,
                44.25482940673828
              ],
              [
                38.60915756225586,
                44.38538360595703
              ],
              [
                38.21527862548828,
                44.45067596435547
              ],
              [
                38.014862060546875,
                44.71194839477539
              ],
              [
                37.52848815917969,
                44.71194839477539
              ],
              [
                37.25600814819336,
                45.03877639770508
              ],
              [
                36.778892517089844,
                45.10417556762695
              ],
              [
                36.74873733520508,
                45.431331634521484
              ],
              [
                36.911563873291016,
                45.431331634521484
              ],
              [
                36.972293853759766,
                45.300437927246094
              ],
              [
                37.704429626464844,
                45.300437927246094
              ],
              [
                37.747013092041016,
                45.56227111816406
              ],
              [
                37.59468460083008,
                45.62776184082031
              ],
              [
                37.7577018737793,
                45.62776184082031
              ],
              [
                37.89311981201172,
                45.95537567138672
              ],
              [
                38.334564208984375,
                46.1520881652832
              ],
              [
                38.36785888671875,
                46.348915100097656
              ],
              [
                37.89856719970703,
                46.480194091796875
              ],
              [
                37.83858108520508,
                46.61152267456055
              ],
              [
                38.494598388671875,
                46.61152267456055
              ],
              [
                38.62202453613281,
                46.87434005737305
              ],
              [
                38.78630065917969,
                46.87434005737305
              ],
              [
                38.89152145385742,
                47.005828857421875
              ],
              [
                39.12647247314453,
                46.94007873535156
              ],
              [
                39.26741409301758,
                47.26897048950195
              ],
              [
                39.1968879699707,
                47.33478927612305
              ],
              [
                38.6794548034668,
                47.20316696166992
              ],
              [
                37.51609802246094,
                47.13737487792969
              ],
              [
                37.16523361206055,
                47.005828857421875
              ],
              [
                37.2257080078125,
                46.87434005737305
              ],
              [
                36.90787887573242,
                46.94007873535156
              ],
              [
                36.80437088012695,
                46.808616638183594
              ],
              [
                35.634639739990234,
                46.677207946777344
              ],
              [
                35.24697494506836,
                46.283294677734375
              ],
              [
                34.75596237182617,
                46.283294677734375
              ],
              [
                34.736690521240234,
                46.1520881652832
              ],
              [
                34.0825309753418,
                46.1520881652832
              ],
              [
                34.019439697265625,
                46.283294677734375
              ],
              [
                33.610260009765625,
                46.283294677734375
              ],
              [
                33.59191131591797,
                46.1520881652832
              ],
              [
                32.946651458740234,
                46.21768569946289
              ],
              [
                32.84713363647461,
                46.08650588989258
              ],
              [
                32.683658599853516,
                46.08650588989258
              ],
              [
                32.0639533996582,
                46.348915100097656
              ],
              [
                31.81834602355957,
                46.348915100097656
              ],
              [
                31.835351943969727,
                46.480194091796875
              ],
              [
                32.16309356689453,
                46.480194091796875
              ],
              [
                32.18914794921875,
                46.677207946777344
              ],
              [
                32.03373336791992,
                46.74290466308594
              ],
              [
                31.787527084350586,
                46.74290466308594
              ],
              [
                31.606428146362305,
                46.61152267456055
              ],
              [
                30.87657928466797,
                46.677207946777344
              ],
              [
                30.297666549682617,
                45.95537567138672
              ],
              [
                30.044963836669922,
                45.889827728271484
              ],
              [
                29.85890007019043,
                45.693260192871094
              ],
              [
                29.614274978637695,
                45.693260192871094
              ],
              [
                29.591896057128906,
                45.496795654296875
              ],
              [
                29.58445930480957,
                45.431331634521484
              ],
              [
                29.095985412597656,
                45.431331634521484
              ],
              [
                28.667741775512695,
                45.23500442504883
              ],
              [
                28.34939956665039,
                45.300437927246094
              ],
              [
                28.281864166259766,
                45.431331634521484
              ],
              [
                27.868051528930664,
                45.36587905883789
              ],
              [
                27.847858428955078,
                45.169586181640625
              ],
              [
                27.99687957763672,
                45.03877639770508
              ],
              [
                27.969886779785156,
                44.77729415893555
              ],
              [
                27.801036834716797,
                44.71194839477539
              ],
              [
                27.787734985351562,
                44.58129119873047
              ],
              [
                27.943035125732422,
                44.5159797668457
              ],
              [
                27.828874588012695,
                44.18956756591797
              ],
              [
                27.492671966552734,
                44.05907440185547
              ],
              [
                26.281423568725586,
                44.05907440185547
              ],
              [
                25.84855079650879,
                43.73301696777344
              ],
              [
                25.434297561645508,
                43.6026611328125
              ],
              [
                24.881397247314453,
                43.73301696777344
              ],
              [
                24.15087890625,
                43.6678352355957
              ],
              [
                23.601760864257812,
                43.86341094970703
              ],
              [
                22.951791763305664,
                43.79821014404297
              ],
              [
                22.894636154174805,
                44.12431716918945
              ],
              [
                22.50443458557129,
                44.32010269165039
              ],
              [
                22.518192291259766,
                44.5159797668457
              ],
              [
                22.689453125,
                44.64661407470703
              ],
              [
                21.951416015625,
                44.5159797668457
              ],
              [
                21.879146575927734,
                44.64661407470703
              ],
              [
                21.40547752380371,
                44.842647552490234
              ],
              [
                20.748632431030273,
                44.71194839477539
              ],
              [
                20.516931533813477,
                44.908016204833984
              ],
              [
                20.5284423828125,
                45.10417556762695
              ],
              [
                20.288434982299805,
                45.169586181640625
              ],
              [
                20.136940002441406,
                45.36587905883789
              ],
              [
                19.885604858398438,
                45.23500442504883
              ],
              [
                19.235076904296875,
                45.23500442504883
              ],
              [
                18.997617721557617,
                45.36587905883789
              ],
              [
                19.004117965698242,
                45.496795654296875
              ],
              [
                19.007373809814453,
                45.56227111816406
              ],
              [
                18.9258975982666,
                45.56227111816406
              ],
              [
                18.77879524230957,
                45.889827728271484
              ],
              [
                18.446147918701172,
                45.75876998901367
              ],
              [
                17.87512969970703,
                45.75876998901367
              ],
              [
                17.151081085205078,
                46.02093505859375
              ],
              [
                16.836334228515625,
                46.348915100097656
              ],
              [
                16.593053817749023,
                46.414546966552734
              ],
              [
                16.597719192504883,
                46.54585266113281
              ],
              [
                16.436054229736328,
                46.61152267456055
              ],
              [
                16.46375846862793,
                47.4006233215332
              ],
              [
                16.63099479675293,
                47.46647262573242
              ],
              [
                16.72084617614746,
                47.664100646972656
              ],
              [
                17.056297302246094,
                47.79592514038086
              ],
              [
                17.066926956176758,
                48.059749603271484
              ],
              [
                16.663206100463867,
                48.323814392089844
              ],
              [
                15.498525619506836,
                48.191749572753906
              ],
              [
                15.17097282409668,
                48.323814392089844
              ],
              [
                14.756464004516602,
                48.323814392089844
              ],
              [
                14.173242568969727,
                48.191749572753906
              ],
              [
                14.087601661682129,
                48.059749603271484
              ],
              [
                13.42110824584961,
                47.79592514038086
              ],
              [
                12.75854206085205,
                47.664100646972656
              ],
              [
                11.933061599731445,
                47.664100646972656
              ],
              [
                11.189559936523438,
                47.4006233215332
              ],
              [
                9.622751235961914,
                47.53233337402344
              ],
              [
                9.54027271270752,
                47.53233337402344
              ],
              [
                9.374073028564453,
                47.664100646972656
              ],
              [
                8.216176986694336,
                47.79592514038086
              ],
              [
                7.797914981842041,
                48.059749603271484
              ],
              [
                7.709810256958008,
                48.323814392089844
              ],
              [
                7.372251987457275,
                48.5881233215332
              ],
              [
                7.289205551147461,
                48.5881233215332
              ],
              [
                7.284614086151123,
                48.786521911621094
              ],
              [
                7.529807567596436,
                48.98506164550781
              ],
              [
                7.525523662567139,
                49.18375015258789
              ],
              [
                7.689570903778076,
                49.316287994384766
              ],
              [
                7.685503959655762,
                49.51522445678711
              ],
              [
                7.431860446929932,
                49.64793395996094
              ],
              [
                7.015303134918213,
                49.58156967163086
              ],
              [
                6.851565837860107,
                49.44889450073242
              ],
              [
                6.855033874511719,
                49.316287994384766
              ],
              [
                6.689933776855469,
                49.2500114440918
              ],
              [
                6.693541526794434,
                49.11750411987305
              ],
              [
                6.120429992675781,
                48.786521911621094
              ],
              [
                4.706778526306152,
                48.786521911621094
              ],
              [
                4.604533195495605,
                49.2500114440918
              ],
              [
                4.276649475097656,
                49.11750411987305
              ],
              [
                3.961373090744019,
                48.72037124633789
              ],
              [
                3.62889575958252,
                48.72037124633789
              ],
              [
                3.369750022888184,
                48.91886520385742
              ],
              [
                2.121304988861084,
                48.91886520385742
              ],
              [
                1.780415773391724,
                49.051273345947266
              ],
              [
                1.513998746871948,
                49.316287994384766
              ],
              [
                1.560075283050537,
                49.91355895996094
              ],
              [
                1.72354793548584,
                49.98000717163086
              ],
              [
                1.715270042419434,
                50.11296081542969
              ],
              [
                1.967018127441406,
                50.11296081542969
              ],
              [
                3.141842603683472,
                50.11296081542969
              ],
              [
                4.154837608337402,
                49.98000717163086
              ],
              [
                4.316667079925537,
                50.11296081542969
              ],
              [
                4.310800075531006,
                50.2459831237793
              ],
              [
                4.641211032867432,
                50.37908172607422
              ],
              [
                4.635622024536133,
                50.51224899291992
              ],
              [
                4.969600677490234,
                50.578861236572266
              ],
              [
                5.048582077026367,
                50.71213912963867
              ],
              [
                5.891344547271729,
                50.71213912963867
              ],
              [
                6.05564546585083,
                50.84549331665039
              ],
              [
                6.30269193649292,
                51.04566955566406
              ],
              [
                6.809579849243164,
                51.04566955566406
              ],
              [
                6.990284442901611,
                50.578861236572266
              ],
              [
                7.674661636352539,
                50.04647445678711
              ],
              [
                7.762485027313232,
                49.84712600708008
              ],
              [
                8.265043258666992,
                49.84712600708008
              ],
              [
                8.34880256652832,
                49.84712600708008
              ],
              [
                8.601011276245117,
                49.78071212768555
              ],
              [
                8.774468421936035,
                49.316287994384766
              ],
              [
                8.942957878112793,
                49.18375015258789
              ],
              [
                10.02780818939209,
                48.98506164550781
              ],
              [
                9.435544967651367,
                50.11296081542969
              ],
              [
                9.267712593078613,
                50.11296081542969
              ],
              [
                9.266509056091309,
                50.2459831237793
              ],
              [
                8.843364715576172,
                50.51224899291992
              ],
              [
                8.759209632873535,
                50.51224899291992
              ],
              [
                8.421602249145508,
                50.578861236572266
              ],
              [
                8.334330558776855,
                50.77880859375
              ],
              [
                8.165696144104004,
                50.77880859375
              ],
              [
                7.651692390441895,
                51.17921447753906
              ],
              [
                7.648990631103516,
                51.31283950805664
              ],
              [
                7.392090797424316,
                51.44654083251953
              ],
              [
                7.301267147064209,
                51.71418380737305
              ],
              [
                6.699635028839111,
                51.98215103149414
              ],
              [
                6.697800159454346,
                52.0491943359375
              ],
              [
                6.779329299926758,
                52.18334197998047
              ],
              [
                7.712639808654785,
                52.38472366333008
              ],
              [
                7.710002422332764,
                52.51908493041992
              ],
              [
                7.882084846496582,
                52.4518928527832
              ],
              [
                7.965095043182373,
                52.586299896240234
              ],
              [
                8.136035919189453,
                52.586299896240234
              ],
              [
                8.133841514587402,
                52.720787048339844
              ],
              [
                8.560769081115723,
                52.78806686401367
              ],
              [
                8.5590238571167,
                52.92268753051758
              ],
              [
                10.101604461669922,
                52.85536575317383
              ],
              [
                11.303043365478516,
                53.124786376953125
              ],
              [
                12.160320281982422,
                53.057395935058594
              ],
              [
                12.677689552307129,
                53.192195892333984
              ],
              [
                14.053811073303223,
                53.25962829589844
              ],
              [
                14.22783088684082,
                53.32708740234375
              ],
              [
                14.232200622558594,
                53.462066650390625
              ],
              [
                14.48343276977539,
                53.25962829589844
              ],
              [
                15.254036903381348,
                53.192195892333984
              ],
              [
                17.173545837402344,
                53.732303619384766
              ],
              [
                17.33823013305664,
                53.597137451171875
              ],
              [
                17.764890670776367,
                53.52959060668945
              ],
              [
                17.67067527770996,
                53.39456558227539
              ],
              [
                18.345653533935547,
                53.192195892333984
              ],
              [
                18.49534797668457,
                52.85536575317383
              ],
              [
                19.00461769104004,
                52.78806686401367
              ],
              [
                19.33270263671875,
                52.586299896240234
              ],
              [
                19.508495330810547,
                52.653533935546875
              ],
              [
                19.755090713500977,
                52.51908493041992
              ],
              [
                20.347816467285156,
                52.4518928527832
              ],
              [
                21.053447723388672,
                52.720787048339844
              ],
              [
                21.658382415771484,
                52.78806686401367
              ],
              [
                21.841861724853516,
                52.92268753051758
              ],
              [
                22.18464469909668,
                52.92268753051758
              ],
              [
                22.172014236450195,
                52.78806686401367
              ],
              [
                22.435270309448242,
                52.85536575317383
              ],
              [
                22.48872947692871,
                52.51908493041992
              ],
              [
                23.158716201782227,
                52.38472366333008
              ],
              [
                23.1453914642334,
                52.250450134277344
              ],
              [
                23.401138305664062,
                52.250450134277344
              ],
              [
                23.63629913330078,
                52.0491943359375
              ],
              [
                23.517602920532227,
                51.71418380737305
              ],
              [
                23.60250473022461,
                51.71418380737305
              ],
              [
                23.71892547607422,
                51.17921447753906
              ],
              [
                24.114870071411133,
                50.912200927734375
              ],
              [
                24.010730743408203,
                50.71213912963867
              ],
              [
                25.47995376586914,
                51.04566955566406
              ],
              [
                27.50750732421875,
                51.04566955566406
              ],
              [
                27.912818908691406,
                50.912200927734375
              ],
              [
                29.24493408203125,
                50.77880859375
              ],
              [
                29.760196685791016,
                50.84549331665039
              ],
              [
                30.415721893310547,
                50.71213912963867
              ],
              [
                31.441205978393555,
                50.2459831237793
              ],
              [
                32.19716262817383,
                50.2459831237793
              ],
              [
                33.41658401489258,
                50.51224899291992
              ],
              [
                33.522830963134766,
                50.64549255371094
              ],
              [
                33.44966506958008,
                50.71213912963867
              ],
              [
                33.62941360473633,
                50.77880859375
              ],
              [
                33.955322265625,
                50.71213912963867
              ],
              [
                34.31551742553711,
                50.84549331665039
              ],
              [
                34.51945877075195,
                51.04566955566406
              ],
              [
                34.869380950927734,
                51.112430572509766
              ],
              [
                34.80890655517578,
                51.24601745605469
              ],
              [
                35.30424499511719,
                51.17921447753906
              ],
              [
                35.68003845214844,
                51.37968063354492
              ],
              [
                36.35755920410156,
                51.37968063354492
              ],
              [
                36.99553298950195,
                51.17921447753906
              ],
              [
                36.88493347167969,
                51.04566955566406
              ],
              [
                37.053897857666016,
                51.04566955566406
              ],
              [
                37.410648345947266,
                50.71213912963867
              ],
              [
                37.73461151123047,
                50.64549255371094
              ],
              [
                38.13482666015625,
                50.11296081542969
              ],
              [
                38.38657760620117,
                50.11296081542969
              ],
              [
                38.26384353637695,
                49.91355895996094
              ],
              [
                38.3476448059082,
                49.91355895996094
              ],
              [
                38.49656295776367,
                49.38258361816406
              ],
              [
                39.2039680480957,
                48.72037124633789
              ],
              [
                39.51119613647461,
                48.5881233215332
              ],
              [
                40.75688934326172,
                48.5881233215332
              ],
              [
                42.445621490478516,
                48.72037124633789
              ],
              [
                42.417816162109375,
                48.5881233215332
              ],
              [
                42.999141693115234,
                48.5881233215332
              ],
              [
                43.219940185546875,
                48.455936431884766
              ],
              [
                44.9623908996582,
                48.455936431884766
              ],
              [
                45.43013381958008,
                48.323814392089844
              ],
              [
                45.73155212402344,
                48.191749572753906
              ],
              [
                45.85206985473633,
                47.993770599365234
              ],
              [
                46.01751708984375,
                47.993770599365234
              ],
              [
                46.34061050415039,
                47.598209381103516
              ],
              [
                46.58815002441406,
                47.598209381103516
              ],
              [
                46.640560150146484,
                47.46647262573242
              ],
              [
                46.46075439453125,
                47.4006233215332
              ],
              [
                46.4310417175293,
                47.26897048950195
              ],
              [
                46.76830291748047,
                46.94007873535156
              ],
              [
                46.93264389038086,
                46.94007873535156
              ],
              [
                47.4553108215332,
                46.348915100097656
              ],
              [
                47.7009162902832,
                46.348915100097656
              ],
              [
                48.3808479309082,
                46.808616638183594
              ],
              [
                48.709259033203125,
                46.808616638183594
              ],
              [
                49.411373138427734,
                47.33478927612305
              ],
              [
                49.57612609863281,
                47.33478927612305
              ],
              [
                49.97119140625,
                47.598209381103516
              ],
              [
                52.02118682861328,
                47.86185836791992
              ],
              [
                53.242958068847656,
                47.79592514038086
              ],
              [
                53.68428421020508,
                47.598209381103516
              ],
              [
                54.520652770996094,
                46.74290466308594
              ],
              [
                54.478397369384766,
                46.283294677734375
              ],
              [
                54.56023406982422,
                46.283294677734375
              ],
              [
                54.286781311035156,
                45.56227111816406
              ],
              [
                53.87939453125,
                45.56227111816406
              ],
              [
                53.66555404663086,
                45.36587905883789
              ],
              [
                53.42141342163086,
                45.36587905883789
              ],
              [
                53.06462860107422,
                45.56227111816406
              ],
              [
                53.067134857177734,
                45.889827728271484
              ],
              [
                53.247371673583984,
                45.95537567138672
              ],
              [
                53.34987258911133,
                46.348915100097656
              ],
              [
                53.26800537109375,
                46.348915100097656
              ],
              [
                53.27227020263672,
                46.677207946777344
              ],
              [
                53.19023513793945,
                46.677207946777344
              ],
              [
                53.242305755615234,
                46.87434005737305
              ],
              [
                53.112831115722656,
                47.005828857421875
              ],
              [
                51.862857818603516,
                46.94007873535156
              ],
              [
                51.81448745727539,
                47.07159423828125
              ],
              [
                51.58463668823242,
                47.13737487792969
              ],
              [
                50.84418869018555,
                47.13737487792969
              ],
              [
                50.3016242980957,
                46.94007873535156
              ],
              [
                49.990848541259766,
                46.677207946777344
              ],
              [
                49.303199768066406,
                46.54585266113281
              ],
              [
                49.06181335449219,
                46.21768569946289
              ],
              [
                48.6375732421875,
                46.1520881652832
              ],
              [
                48.59209442138672,
                45.95537567138672
              ],
              [
                48.34708023071289,
                45.95537567138672
              ],
              [
                48.05744171142578,
                45.75876998901367
              ],
              [
                47.56800079345703,
                45.75876998901367
              ],
              [
                47.47183609008789,
                45.693260192871094
              ],
              [
                47.509674072265625,
                45.496795654296875
              ],
              [
                47.495155334472656,
                45.431331634521484
              ],
              [
                47.332332611083984,
                45.431331634521484
              ],
              [
                47.04105758666992,
                44.842647552490234
              ]
            ]
          ],
          [
            [
              [
                32.480384826660156,
                50.445655822753906
              ],
              [
                32.56449890136719,
                50.445655822753906
              ],
              [
                32.55400466918945,
                50.37908172607422
              ],
              [
                32.46992874145508,
                50.37908172607422
              ],
              [
                32.480384826660156,
                50.445655822753906
              ]
            ]
          ],
          [
            [
              [
                7.285952568054199,
                52.38472366333008
              ],
              [
                7.371289730072021,
                52.38472366333008
              ],
              [
                7.372783660888672,
                52.31757736206055
              ],
              [
                7.287490367889404,
                52.31757736206055
              ],
              [
                7.285952568054199,
                52.38472366333008
              ]
            ]
          ]
        ]
      }
    }
  ]
}