{
  "type": "FeatureCollection",
  "name": "territory-206",
  "features": [
    {
      "type": "Feature",
      "properties": {
        "Name": "(Anglo-Saxon England)",
        "FromYear": 741,
        "ToYear": 749,
        "Area": 140864.75040832342,
        "Type": "POLITY",
        "Wikipedia": "History of Anglo-Saxon England",
        "Wikidata": "Q784963",
        "SeshatID": "gb_anglo_saxon_1",
        "Components": "Kingdom of Northumbria;Kingdom of Kent;Kingdom of Mercia;Kingdom of Sussex;Kingdom of East Anglia",
        "MemberOf": ""
      },
      "geometry": {
        "type": "Polygon",
        "coordinates": [
          [
            [
              -1.367843627929688,
              50.84549331665039
            ],
            [
              -1.362119078636169,
              50.77880859375
            ],
            [
              -1.109168291091919,
              50.77880859375
            ],
            [
              -1.098008990287781,
              50.64549255371094
            ],
            [
              -1.513427257537842,
              50.578861236572266
            ],
            [
              -1.524962306022644,
              50.71213912963867
            ],
            [
              -2.030619621276855,
              50.71213912963867
            ],
            [
              -2.102793455123901,
              50.578861236572266
            ],
            [
              -2.607964515686035,
              50.578861236572266
            ],
            [
              -2.789105415344238,
              50.71213912963867
            ],
            [
              -3.12621021270752,
              50.71213912963867
            ],
            [
              -3.456606388092041,
              50.64549255371094
            ],
            [
              -3.584736108779907,
              50.2459831237793
            ],
            [
              -4.088706493377686,
              50.2459831237793
            ],
            [
              -4.186630249023438,
              50.37908172607422
            ],
            [
              -4.270704746246338,
              50.37908172607422
            ],
            [
              -4.306077480316162,
              50.71213912963867
            ],
            [
              -4.657799243927002,
              50.84549331665039
            ],
            [
              -4.665138721466064,
              50.912200927734375
            ],
            [
              -4.67988109588623,
              51.04566955566406
            ],
            [
              -4.426436901092529,
              51.04566955566406
            ],
            [
              -4.201729774475098,
              51.31283950805664
            ],
            [
              -3.094635725021362,
              51.24601745605469
            ],
            [
              -3.107994079589844,
              51.37968063354492
            ],
            [
              -2.945236444473267,
              51.44654083251953
            ],
            [
              -2.951877117156982,
              51.51342010498047
            ],
            [
              -2.625775098800659,
              51.64724349975586
            ],
            [
              -2.822042465209961,
              51.91512680053711
            ],
            [
              -2.82872486114502,
              51.98215103149414
            ],
            [
              -2.913799524307251,
              51.98215103149414
            ],
            [
              -2.920543432235718,
              52.0491943359375
            ],
            [
              -2.927305936813354,
              52.11625671386719
            ],
            [
              -2.869202375411987,
              52.38472366333008
            ],
            [
              -3.03987717628479,
              52.38472366333008
            ],
            [
              -3.139120101928711,
              52.51908493041992
            ],
            [
              -3.074559926986694,
              52.720787048339844
            ],
            [
              -3.274127721786499,
              52.99003219604492
            ],
            [
              -3.489411115646362,
              53.39456558227539
            ],
            [
              -3.403394460678101,
              53.39456558227539
            ],
            [
              -3.317377805709839,
              53.39456558227539
            ],
            [
              -3.324654340744019,
              53.462066650390625
            ],
            [
              -3.238591194152832,
              53.462066650390625
            ],
            [
              -3.152528285980225,
              53.462066650390625
            ],
            [
              -3.159731149673462,
              53.52959060668945
            ],
            [
              -3.095205545425415,
              53.732303619384766
            ],
            [
              -3.196035623550415,
              53.86756134033203
            ],
            [
              -2.96582555770874,
              54.138362884521484
            ],
            [
              -3.304538726806641,
              54.07062530517578
            ],
            [
              -3.319409608840942,
              54.20612335205078
            ],
            [
              -3.586766958236694,
              54.27390670776367
            ],
            [
              -3.617407321929932,
              54.545284271240234
            ],
            [
              -3.704231739044189,
              54.545284271240234
            ],
            [
              -3.648374080657959,
              54.817054748535156
            ],
            [
              -3.394958257675171,
              54.88506317138672
            ],
            [
              -3.402623414993286,
              54.95309066772461
            ],
            [
              -3.06163477897644,
              55.021148681640625
            ],
            [
              -3.186784505844116,
              55.36180877685547
            ],
            [
              -3.274203062057495,
              55.36180877685547
            ],
            [
              -3.783684492111206,
              55.97663879394531
            ],
            [
              -3.791834115982056,
              56.04508590698242
            ],
            [
              -2.656256437301636,
              56.11355972290039
            ],
            [
              -2.01904296875,
              55.90821838378906
            ],
            [
              -1.633551597595215,
              55.56651306152344
            ],
            [
              -1.505842089653015,
              55.15733337402344
            ],
            [
              -1.499213099479675,
              55.089229583740234
            ],
            [
              -1.285956144332886,
              54.681121826171875
            ],
            [
              -0.671433329582214,
              54.613189697265625
            ],
            [
              -0.393139123916626,
              54.4095458984375
            ],
            [
              0.009794717654586,
              53.732303619384766
            ],
            [
              0.015318141318858,
              53.664710998535156
            ],
            [
              0.020827349275351,
              53.597137451171875
            ],
            [
              0.29531991481781,
              53.39456558227539
            ],
            [
              0.316494405269623,
              53.124786376953125
            ],
            [
              0.06977716833353,
              52.99003219604492
            ],
            [
              0.166152358055115,
              52.85536575317383
            ],
            [
              0.251802802085876,
              52.85536575317383
            ],
            [
              0.337453275918961,
              52.85536575317383
            ],
            [
              0.493327647447586,
              53.057395935058594
            ],
            [
              1.093834638595581,
              53.057395935058594
            ],
            [
              1.622210025787354,
              52.85536575317383
            ],
            [
              1.739019155502319,
              52.38472366333008
            ],
            [
              1.425007224082947,
              51.98215103149414
            ],
            [
              1.169783234596252,
              51.98215103149414
            ],
            [
              1.183690190315247,
              51.78114318847656
            ],
            [
              1.098745107650757,
              51.78114318847656
            ],
            [
              1.013799905776978,
              51.78114318847656
            ],
            [
              0.928854763507843,
              51.78114318847656
            ],
            [
              0.843909561634064,
              51.78114318847656
            ],
            [
              0.84869384765625,
              51.71418380737305
            ],
            [
              0.853466212749481,
              51.64724349975586
            ],
            [
              0.858226716518402,
              51.580322265625
            ],
            [
              0.862975299358368,
              51.51342010498047
            ],
            [
              0.778200805187225,
              51.51342010498047
            ],
            [
              0.693426311016083,
              51.51342010498047
            ],
            [
              0.60865181684494,
              51.51342010498047
            ],
            [
              0.523877322673798,
              51.51342010498047
            ],
            [
              0.528783321380615,
              51.44654083251953
            ],
            [
              0.613515496253967,
              51.44654083251953
            ],
            [
              1.380577206611633,
              51.37968063354492
            ],
            [
              1.393928170204163,
              51.17921447753906
            ],
            [
              0.820786774158478,
              50.912200927734375
            ],
            [
              0.73638790845871,
              50.912200927734375
            ],
            [
              0.74110209941864,
              50.84549331665039
            ],
            [
              -0.265998780727386,
              50.77880859375
            ],
            [
              -0.350315719842911,
              50.77880859375
            ],
            [
              -1.283485770225525,
              50.84549331665039
            ],
            [
              -1.367843627929688,
              50.84549331665039
            ]
          ]
        ]
      }
    }
  ]
}