{
  "type": "FeatureCollection",
  "name": "territory-21",
  "features": [
    {
      "type": "Feature",
      "properties": {
        "Name": "Kingdom of Kush",
        "FromYear": -700,
        "ToYear": -676,
        "Area": 563236.5717136584,
        "Type": "POLITY",
        "Wikipedia": "Kingdom of Kush",
        "Wikidata": "Q241790",
        "SeshatID": "eg_kushite",
        "Components": "",
        "MemberOf": ""
      },
      "geometry": {
        "type": "Polygon",
        "coordinates": [
          [
            [
              32.23719787597656,
              31.20764923095703
            ],
            [
              32.31330490112305,
              31.20764923095703
            ],
            [
              32.53215408325195,
              31.079113006591797
            ],
            [
              32.836448669433594,
              31.079113006591797
            ],
            [
              32.746158599853516,
              30.886310577392578
            ],
            [
              32.822181701660156,
              30.886310577392578
            ],
            [
              32.732112884521484,
              30.69350814819336
            ],
            [
              32.7895622253418,
              30.436433792114258
            ],
            [
              32.55729293823242,
              30.372163772583008
            ],
            [
              32.60188293457031,
              29.922264099121094
            ],
            [
              32.437278747558594,
              29.729440689086914
            ],
            [
              32.21433639526367,
              29.79371452331543
            ],
            [
              31.978622436523438,
              29.665164947509766
            ],
            [
              31.59999656677246,
              29.665164947509766
            ],
            [
              31.591777801513672,
              29.536611557006836
            ],
            [
              31.29303741455078,
              29.600887298583984
            ],
            [
              30.974388122558594,
              29.34377670288086
            ],
            [
              30.845903396606445,
              28.44382095336914
            ],
            [
              30.985857009887695,
              28.25096321105957
            ],
            [
              31.015527725219727,
              27.41520881652832
            ],
            [
              31.165996551513672,
              27.41520881652832
            ],
            [
              31.73684310913086,
              26.836584091186523
            ],
            [
              32.4880485534668,
              26.836584091186523
            ],
            [
              32.63129806518555,
              26.70800018310547
            ],
            [
              32.60744094848633,
              26.257951736450195
            ],
            [
              32.36933517456055,
              26.000778198242188
            ],
            [
              32.41645050048828,
              23.75058937072754
            ],
            [
              33.38899612426758,
              23.814878463745117
            ],
            [
              33.60999298095703,
              23.75058937072754
            ],
            [
              33.8225212097168,
              23.493436813354492
            ],
            [
              33.80870819091797,
              23.171995162963867
            ],
            [
              33.88322067260742,
              23.171995162963867
            ],
            [
              33.74533462524414,
              21.629112243652344
            ],
            [
              33.81963348388672,
              21.629112243652344
            ],
            [
              33.80931091308594,
              21.371967315673828
            ],
            [
              34.01131057739258,
              20.857677459716797
            ],
            [
              34.125484466552734,
              20.021955490112305
            ],
            [
              34.597408294677734,
              18.929079055786133
            ],
            [
              34.87919235229492,
              18.607641220092773
            ],
            [
              34.93901062011719,
              18.286205291748047
            ],
            [
              35.299827575683594,
              18.093341827392578
            ],
            [
              35.50127029418945,
              17.643327713012695
            ],
            [
              36.00331497192383,
              17.321889877319336
            ],
            [
              35.98310089111328,
              16.87187385559082
            ],
            [
              36.05681228637695,
              16.87187385559082
            ],
            [
              35.67131805419922,
              16.486146926879883
            ],
            [
              34.71365737915039,
              16.486146926879883
            ],
            [
              34.55558776855469,
              16.228994369506836
            ],
            [
              34.68425369262695,
              15.77897834777832
            ],
            [
              34.098121643066406,
              15.843266487121582
            ],
            [
              33.86210632324219,
              15.457538604736328
            ],
            [
              32.749210357666016,
              15.200387001037598
            ],
            [
              32.52862548828125,
              15.200387001037598
            ],
            [
              32.533355712890625,
              15.328963279724121
            ],
            [
              31.804903030395508,
              15.52182674407959
            ],
            [
              31.5269718170166,
              15.971842765808105
            ],
            [
              31.536441802978516,
              16.228994369506836
            ],
            [
              31.39390754699707,
              16.35757064819336
            ],
            [
              31.47713279724121,
              16.614723205566406
            ],
            [
              31.336956024169922,
              16.807586669921875
            ],
            [
              31.220840454101562,
              17.643327713012695
            ],
            [
              31.14703941345215,
              17.643327713012695
            ],
            [
              30.876768112182617,
              20.343387603759766
            ],
            [
              30.80263328552246,
              20.343387603759766
            ],
            [
              30.81843376159668,
              20.793392181396484
            ],
            [
              30.744239807128906,
              20.793392181396484
            ],
            [
              30.762121200561523,
              21.307680130004883
            ],
            [
              30.687862396240234,
              21.307680130004883
            ],
            [
              30.63583755493164,
              21.950544357299805
            ],
            [
              30.561492919921875,
              21.950544357299805
            ],
            [
              30.72144317626953,
              22.271976470947266
            ],
            [
              30.742036819458008,
              22.85055923461914
            ],
            [
              30.600034713745117,
              23.043420791625977
            ],
            [
              30.607040405273438,
              23.236284255981445
            ],
            [
              30.390480041503906,
              23.429147720336914
            ],
            [
              30.39519500732422,
              23.557723999023438
            ],
            [
              30.10396385192871,
              23.75058937072754
            ],
            [
              30.10871124267578,
              23.879167556762695
            ],
            [
              29.95948028564453,
              23.879167556762695
            ],
            [
              29.672801971435547,
              24.200613021850586
            ],
            [
              28.568815231323242,
              24.650644302368164
            ],
            [
              28.288646697998047,
              25.164974212646484
            ],
            [
              28.30586814880371,
              25.615020751953125
            ],
            [
              28.230972290039062,
              25.615020751953125
            ],
            [
              28.34807014465332,
              26.643707275390625
            ],
            [
              29.12248992919922,
              27.158044815063477
            ],
            [
              29.887014389038086,
              27.41520881652832
            ],
            [
              29.968725204467773,
              27.54378890991211
            ],
            [
              29.89671516418457,
              27.608078002929688
            ],
            [
              30.122533798217773,
              27.608078002929688
            ],
            [
              30.283130645751953,
              27.800947189331055
            ],
            [
              30.293336868286133,
              27.993812561035156
            ],
            [
              30.077518463134766,
              28.186676025390625
            ],
            [
              30.084430694580078,
              28.315250396728516
            ],
            [
              29.566688537597656,
              28.508106231689453
            ],
            [
              29.68467903137207,
              29.279497146606445
            ],
            [
              30.059144973754883,
              29.21521759033203
            ],
            [
              30.30113410949707,
              29.472333908081055
            ],
            [
              30.002180099487305,
              29.536611557006836
            ],
            [
              30.085491180419922,
              29.665164947509766
            ],
            [
              29.79015350341797,
              29.79371452331543
            ],
            [
              29.877429962158203,
              29.986536026000977
            ],
            [
              29.29377555847168,
              30.372163772583008
            ],
            [
              29.30537986755371,
              30.564971923828125
            ],
            [
              29.093055725097656,
              30.822044372558594
            ],
            [
              29.3970890045166,
              30.822044372558594
            ],
            [
              29.485143661499023,
              31.014846801757812
            ],
            [
              29.633193969726562,
              30.950578689575195
            ],
            [
              29.86956024169922,
              31.079113006591797
            ],
            [
              29.8017635345459,
              31.20764923095703
            ],
            [
              29.882049560546875,
              31.271915435791016
            ],
            [
              30.33879280090332,
              31.271915435791016
            ],
            [
              30.271244049072266,
              31.40045166015625
            ],
            [
              30.351730346679688,
              31.464719772338867
            ],
            [
              30.80877685546875,
              31.464719772338867
            ],
            [
              30.965608596801758,
              31.528987884521484
            ],
            [
              30.974620819091797,
              31.65752601623535
            ],
            [
              31.203296661376953,
              31.65752601623535
            ],
            [
              31.117990493774414,
              31.528987884521484
            ],
            [
              31.265825271606445,
              31.464719772338867
            ],
            [
              31.875221252441406,
              31.464719772338867
            ],
            [
              31.780553817749023,
              31.20764923095703
            ],
            [
              31.93739891052246,
              31.271915435791016
            ],
            [
              31.999635696411133,
              31.079113006591797
            ],
            [
              32.303932189941406,
              31.079113006591797
            ],
            [
              32.23719787597656,
              31.20764923095703
            ]
          ]
        ]
      }
    }
  ]
}