{
  "type": "FeatureCollection",
  "name": "territory-212",
  "features": [
    {
      "type": "Feature",
      "properties": {
        "Name": "Kingdom of Soissons",
        "FromYear": 476,
        "ToYear": 479,
        "Area": 159003.13951494396,
        "Type": "POLITY",
        "Wikipedia": "Kingdom of Soissons",
        "Wikidata": "Q1247508",
        "SeshatID": "",
        "Components": "",
        "MemberOf": ""
      },
      "geometry": {
        "type": "MultiPolygon",
        "coordinates": [
          [
            [
              [
                19.31032371520996,
                43.53750228881836
              ],
              [
                19.457914352416992,
                43.276947021484375
              ],
              [
                19.11398696899414,
                42.82133865356445
              ],
              [
                19.168758392333984,
                42.30118942260742
              ],
              [
                19.005796432495117,
                42.236209869384766
              ],
              [
                18.925886154174805,
                42.236209869384766
              ],
              [
                18.85202980041504,
                42.36617660522461
              ],
              [
                18.143457412719727,
                42.62621307373047
              ],
              [
                17.83389663696289,
                42.88639831542969
              ],
              [
                17.593284606933594,
                42.88639831542969
              ],
              [
                17.50791358947754,
                42.75628662109375
              ],
              [
                17.515670776367188,
                42.95146560668945
              ],
              [
                17.35520362854004,
                42.95146560668945
              ],
              [
                17.36538314819336,
                43.211830139160156
              ],
              [
                17.12186050415039,
                43.146724700927734
              ],
              [
                17.05129051208496,
                43.407203674316406
              ],
              [
                16.727190017700195,
                43.342071533203125
              ],
              [
                16.734172821044922,
                43.53750228881836
              ],
              [
                16.575437545776367,
                43.6026611328125
              ],
              [
                15.927099227905273,
                43.472347259521484
              ],
              [
                16.01169204711914,
                43.6026611328125
              ],
              [
                15.856636047363281,
                43.79821014404297
              ],
              [
                15.695383071899414,
                43.79821014404297
              ],
              [
                15.618592262268066,
                43.92862319946289
              ],
              [
                15.374701499938965,
                43.86341094970703
              ],
              [
                15.459075927734375,
                43.99384307861328
              ],
              [
                15.218687057495117,
                44.05907440185547
              ],
              [
                15.146636962890625,
                44.38538360595703
              ],
              [
                14.908865928649902,
                44.58129119873047
              ],
              [
                14.91874885559082,
                44.973392486572266
              ],
              [
                14.515777587890625,
                45.10417556762695
              ],
              [
                14.606118202209473,
                45.496795654296875
              ],
              [
                14.607632637023926,
                45.56227111816406
              ],
              [
                14.933539390563965,
                45.56227111816406
              ],
              [
                15.167534828186035,
                45.169586181640625
              ],
              [
                15.485201835632324,
                44.908016204833984
              ],
              [
                15.647515296936035,
                44.908016204833984
              ],
              [
                15.64172077178955,
                44.71194839477539
              ],
              [
                15.884906768798828,
                44.71194839477539
              ],
              [
                16.038679122924805,
                44.45067596435547
              ],
              [
                16.19840431213379,
                44.38538360595703
              ],
              [
                16.19411277770996,
                44.25482940673828
              ],
              [
                16.355798721313477,
                44.25482940673828
              ],
              [
                16.427703857421875,
                43.99384307861328
              ],
              [
                17.146665573120117,
                43.79821014404297
              ],
              [
                17.458715438842773,
                43.53750228881836
              ],
              [
                17.70022964477539,
                43.53750228881836
              ],
              [
                17.855730056762695,
                43.407203674316406
              ],
              [
                19.31032371520996,
                43.53750228881836
              ]
            ]
          ],
          [
            [
              [
                14.51131820678711,
                44.908016204833984
              ],
              [
                14.502378463745117,
                44.5159797668457
              ],
              [
                14.260871887207031,
                44.58129119873047
              ],
              [
                14.269240379333496,
                44.973392486572266
              ],
              [
                14.350428581237793,
                44.973392486572266
              ],
              [
                14.51131820678711,
                44.908016204833984
              ]
            ]
          ],
          [
            [
              [
                4.432048320770264,
                49.38258361816406
              ],
              [
                4.865273475646973,
                48.98506164550781
              ],
              [
                4.795193195343018,
                48.654239654541016
              ],
              [
                3.730523109436035,
                48.323814392089844
              ],
              [
                3.595711946487427,
                47.664100646972656
              ],
              [
                2.945314645767212,
                47.46647262573242
              ],
              [
                2.02357006072998,
                47.730003356933594
              ],
              [
                1.312388062477112,
                47.20316696166992
              ],
              [
                -0.004512888379395,
                47.20316696166992
              ],
              [
                -0.095940217375755,
                47.33478927612305
              ],
              [
                -0.260690033435822,
                47.33478927612305
              ],
              [
                -0.269995987415314,
                47.46647262573242
              ],
              [
                -1.176878452301025,
                47.46647262573242
              ],
              [
                -1.408822774887085,
                47.26897048950195
              ],
              [
                -2.232228517532349,
                47.26897048950195
              ],
              [
                -2.314568996429443,
                47.26897048950195
              ],
              [
                -2.561590671539307,
                47.26897048950195
              ],
              [
                -2.578423976898193,
                47.46647262573242
              ],
              [
                -2.831500053405762,
                47.53233337402344
              ],
              [
                -2.837259292602539,
                47.598209381103516
              ],
              [
                -2.447182655334473,
                47.86185836791992
              ],
              [
                -1.796727180480957,
                47.993770599365234
              ],
              [
                -1.647326707839966,
                48.191749572753906
              ],
              [
                -1.652703642845154,
                48.257774353027344
              ],
              [
                -1.668919563293457,
                48.455936431884766
              ],
              [
                -1.508333325386047,
                48.52202224731445
              ],
              [
                -1.602181315422058,
                48.654239654541016
              ],
              [
                -1.607621908187866,
                48.72037124633789
              ],
              [
                -1.718345284461975,
                49.051273345947266
              ],
              [
                -1.635041356086731,
                49.051273345947266
              ],
              [
                -1.651668906211853,
                49.2500114440918
              ],
              [
                -1.913302421569824,
                49.38258361816406
              ],
              [
                -2.031550645828247,
                49.78071212768555
              ],
              [
                -1.361783027648926,
                49.78071212768555
              ],
              [
                -1.250783205032349,
                49.44889450073242
              ],
              [
                0.007001183927059,
                49.38258361816406
              ],
              [
                -0.012448177672923,
                49.64793395996094
              ],
              [
                0.224112883210182,
                49.84712600708008
              ],
              [
                1.052847385406494,
                49.98000717163086
              ],
              [
                1.370972871780396,
                50.2459831237793
              ],
              [
                1.454967975616455,
                50.2459831237793
              ],
              [
                1.967018127441406,
                50.11296081542969
              ],
              [
                3.141842603683472,
                50.11296081542969
              ],
              [
                4.154837608337402,
                49.98000717163086
              ],
              [
                4.238675117492676,
                49.98000717163086
              ],
              [
                4.322512626647949,
                49.98000717163086
              ],
              [
                4.325428009033203,
                49.91355895996094
              ],
              [
                4.328337669372559,
                49.84712600708008
              ],
              [
                4.331242084503174,
                49.78071212768555
              ],
              [
                4.432048320770264,
                49.38258361816406
              ]
            ]
          ]
        ]
      }
    }
  ]
}