{
  "type": "FeatureCollection",
  "name": "territory-215",
  "features": [
    {
      "type": "Feature",
      "properties": {
        "Name": "(Alliance between Ostrogothic Kingdom and Visigothic Kingdom)",
        "FromYear": 500,
        "ToYear": 509,
        "Area": 1245877.9363937723,
        "Type": "RELATION",
        "Wikipedia": "Ostrogothic Kingdom",
        "Wikidata": "Q583038",
        "SeshatID": "it_ostrogoth_k;es_visigothic_k",
        "Components": "Ostrogothic Kingdom;Visigothic Kingdom",
        "MemberOf": ""
      },
      "geometry": {
        "type": "MultiPolygon",
        "coordinates": [
          [
            [
              [
                7.150246143341064,
                43.73301696777344
              ],
              [
                6.993107318878174,
                43.53750228881836
              ],
              [
                6.67255163192749,
                43.472347259521484
              ],
              [
                6.596527099609375,
                43.276947021484375
              ],
              [
                6.278174877166748,
                43.146724700927734
              ],
              [
                5.796233177185059,
                43.146724700927734
              ],
              [
                5.631923198699951,
                43.276947021484375
              ],
              [
                5.390771865844727,
                43.276947021484375
              ],
              [
                5.386905193328857,
                43.407203674316406
              ],
              [
                5.063065528869629,
                43.472347259521484
              ],
              [
                4.177847862243652,
                43.472347259521484
              ],
              [
                4.173032760620117,
                43.6026611328125
              ],
              [
                3.850892543792725,
                43.6026611328125
              ],
              [
                3.617136240005493,
                43.407203674316406
              ],
              [
                3.140029191970825,
                43.276947021484375
              ],
              [
                2.984907388687134,
                43.146724700927734
              ],
              [
                3.009923458099365,
                42.56119155883789
              ],
              [
                3.178062200546265,
                42.36617660522461
              ],
              [
                3.116764783859253,
                41.911441802978516
              ],
              [
                2.572504997253418,
                41.586883544921875
              ],
              [
                2.333626985549927,
                41.586883544921875
              ],
              [
                2.106574535369873,
                41.32738494873047
              ],
              [
                1.238392949104309,
                41.19768524169922
              ],
              [
                0.695793092250824,
                40.93837356567383
              ],
              [
                0.709256291389465,
                40.6791877746582
              ],
              [
                0.247769102454185,
                40.42012023925781
              ],
              [
                0.182543575763702,
                40.16116714477539
              ],
              [
                -0.126465529203415,
                40.031734466552734
              ],
              [
                -0.345421016216278,
                39.70827102661133
              ],
              [
                -0.313707679510117,
                39.1264533996582
              ],
              [
                0.099359586834908,
                38.738853454589844
              ],
              [
                -0.660861134529114,
                38.28691864013672
              ],
              [
                -0.803495347499847,
                38.028785705566406
              ],
              [
                -0.704753637313843,
                37.641746520996094
              ],
              [
                -1.708719491958618,
                37.44829177856445
              ],
              [
                -1.623468399047852,
                37.3193473815918
              ],
              [
                -1.857354998588562,
                37.3193473815918
              ],
              [
                -2.061630010604858,
                36.80373764038086
              ],
              [
                -2.532132625579834,
                36.8681755065918
              ],
              [
                -2.680080890655518,
                36.73930740356445
              ],
              [
                -4.468626022338867,
                36.73930740356445
              ],
              [
                -4.688807487487793,
                36.5460319519043
              ],
              [
                -5.22819709777832,
                36.48161697387695
              ],
              [
                -5.287947177886963,
                36.2239875793457
              ],
              [
                -5.662277221679688,
                36.03080368041992
              ],
              [
                -5.831079006195068,
                36.2239875793457
              ],
              [
                -6.063849925994873,
                36.2239875793457
              ],
              [
                -6.330093860626221,
                36.67487716674805
              ],
              [
                -6.349542140960693,
                36.932613372802734
              ],
              [
                -6.587993621826172,
                36.9970588684082
              ],
              [
                -6.84182596206665,
                37.254878997802734
              ],
              [
                -7.465344429016113,
                37.254878997802734
              ],
              [
                -7.454815864562988,
                37.12596130371094
              ],
              [
                -7.677903652191162,
                36.9970588684082
              ],
              [
                -8.067157745361328,
                36.9970588684082
              ],
              [
                -8.311661720275879,
                37.12596130371094
              ],
              [
                -8.70113754272461,
                37.12596130371094
              ],
              [
                -9.00136661529541,
                36.9970588684082
              ],
              [
                -8.896896362304688,
                37.5772590637207
              ],
              [
                -8.818843841552734,
                37.5772590637207
              ],
              [
                -8.822718620300293,
                38.48057174682617
              ],
              [
                -9.20852279663086,
                38.416015625
              ],
              [
                -9.23299789428711,
                38.67427444458008
              ],
              [
                -9.38370418548584,
                38.60969924926758
              ],
              [
                -9.553065299987793,
                38.738853454589844
              ],
              [
                -9.446549415588379,
                39.25570297241211
              ],
              [
                -9.367877960205078,
                39.25570297241211
              ],
              [
                -8.974522590637207,
                39.25570297241211
              ],
              [
                -8.914570808410645,
                39.449623107910156
              ],
              [
                -8.757078170776367,
                39.449623107910156
              ],
              [
                -8.472929954528809,
                39.77294921875
              ],
              [
                -7.926864624023438,
                39.8376350402832
              ],
              [
                -6.862598419189453,
                40.29063034057617
              ],
              [
                -6.854352474212646,
                41.06801223754883
              ],
              [
                -6.254164218902588,
                41.45711898803711
              ],
              [
                -6.130332946777344,
                41.84651184082031
              ],
              [
                -5.902846813201904,
                41.97637939453125
              ],
              [
                -5.784419536590576,
                42.43117141723633
              ],
              [
                -5.704421520233154,
                42.43117141723633
              ],
              [
                -5.734158039093018,
                42.75628662109375
              ],
              [
                -5.654013156890869,
                42.75628662109375
              ],
              [
                -3.720062017440796,
                42.62621307373047
              ],
              [
                -2.678941965103149,
                42.62621307373047
              ],
              [
                -2.528355360031128,
                42.75628662109375
              ],
              [
                -2.27851128578186,
                42.62621307373047
              ],
              [
                -2.132294178009033,
                42.82133865356445
              ],
              [
                -1.807049632072449,
                42.75628662109375
              ],
              [
                -1.330547690391541,
                42.82133865356445
              ],
              [
                -1.259086012840271,
                42.95146560668945
              ],
              [
                -0.938149929046631,
                42.95146560668945
              ],
              [
                -1.107258319854736,
                43.08163070678711
              ],
              [
                -1.423987507820129,
                43.016544342041016
              ],
              [
                -1.517712950706482,
                43.211830139160156
              ],
              [
                -1.441840410232544,
                43.276947021484375
              ],
              [
                -1.763375043869019,
                43.276947021484375
              ],
              [
                -1.459883332252502,
                43.53750228881836
              ],
              [
                -1.402047991752625,
                43.86341094970703
              ],
              [
                -1.321390628814697,
                43.86341094970703
              ],
              [
                -1.348801136016846,
                44.25482940673828
              ],
              [
                -1.267958283424377,
                44.25482940673828
              ],
              [
                -1.286344885826111,
                44.5159797668457
              ],
              [
                -1.205376982688904,
                44.5159797668457
              ],
              [
                -1.251859068870544,
                45.169586181640625
              ],
              [
                -1.170574903488159,
                45.169586181640625
              ],
              [
                -1.189373373985291,
                45.431331634521484
              ],
              [
                -1.031213998794556,
                45.496795654296875
              ],
              [
                -1.045281529426575,
                45.693260192871094
              ],
              [
                -1.213142395019531,
                45.75876998901367
              ],
              [
                -1.141096234321594,
                45.889827728271484
              ],
              [
                -1.222735166549683,
                45.889827728271484
              ],
              [
                -1.251809358596802,
                46.283294677734375
              ],
              [
                -1.666043281555176,
                46.348915100097656
              ],
              [
                -2.194406032562256,
                46.808616638183594
              ],
              [
                -2.139080047607422,
                47.13737487792969
              ],
              [
                -2.226783275604248,
                47.20316696166992
              ],
              [
                -2.232228517532349,
                47.26897048950195
              ],
              [
                -1.408822774887085,
                47.26897048950195
              ],
              [
                -1.176878452301025,
                47.46647262573242
              ],
              [
                -0.269995987415314,
                47.46647262573242
              ],
              [
                -0.260690033435822,
                47.33478927612305
              ],
              [
                -0.095940217375755,
                47.33478927612305
              ],
              [
                -0.004512888379395,
                47.20316696166992
              ],
              [
                1.312388062477112,
                47.20316696166992
              ],
              [
                2.02357006072998,
                47.730003356933594
              ],
              [
                2.945314645767212,
                47.46647262573242
              ],
              [
                3.034306049346924,
                47.33478927612305
              ],
              [
                2.96506404876709,
                47.07159423828125
              ],
              [
                3.227499008178711,
                46.74290466308594
              ],
              [
                3.076056957244873,
                46.480194091796875
              ],
              [
                3.858186483383179,
                45.431331634521484
              ],
              [
                3.869040966033936,
                45.169586181640625
              ],
              [
                4.039471626281738,
                44.973392486572266
              ],
              [
                3.968777418136597,
                44.71194839477539
              ],
              [
                4.133441925048828,
                44.64661407470703
              ],
              [
                4.224428653717041,
                44.38538360595703
              ],
              [
                4.386239051818848,
                44.38538360595703
              ],
              [
                4.391046047210693,
                44.25482940673828
              ],
              [
                5.046322345733643,
                43.99384307861328
              ],
              [
                5.855320453643799,
                43.92862319946289
              ],
              [
                6.085249423980713,
                44.38538360595703
              ],
              [
                6.810436248779297,
                44.5159797668457
              ],
              [
                6.968075275421143,
                44.71194839477539
              ],
              [
                6.88701343536377,
                44.71194839477539
              ],
              [
                6.882567882537842,
                44.908016204833984
              ],
              [
                6.637507915496826,
                44.973392486572266
              ],
              [
                6.634309768676758,
                45.10417556762695
              ],
              [
                7.037666320800781,
                45.23500442504883
              ],
              [
                7.114676952362061,
                45.431331634521484
              ],
              [
                7.437684535980225,
                45.56227111816406
              ],
              [
                7.515255928039551,
                45.75876998901367
              ],
              [
                8.080806732177734,
                46.08650588989258
              ],
              [
                8.078590393066406,
                46.21768569946289
              ],
              [
                8.6449613571167,
                46.677207946777344
              ],
              [
                8.723495483398438,
                46.94007873535156
              ],
              [
                8.887835502624512,
                46.94007873535156
              ],
              [
                8.88620662689209,
                47.07159423828125
              ],
              [
                9.130768775939941,
                47.26897048950195
              ],
              [
                9.295450210571289,
                47.26897048950195
              ],
              [
                9.376555442810059,
                47.4006233215332
              ],
              [
                9.951909065246582,
                47.664100646972656
              ],
              [
                9.868124008178711,
                47.86185836791992
              ],
              [
                9.950777053833008,
                47.86185836791992
              ],
              [
                10.11336898803711,
                48.455936431884766
              ],
              [
                11.026633262634277,
                48.786521911621094
              ],
              [
                11.109789848327637,
                48.786521911621094
              ],
              [
                11.609875679016113,
                48.98506164550781
              ],
              [
                11.694007873535156,
                49.11750411987305
              ],
              [
                12.11134147644043,
                49.18375015258789
              ],
              [
                12.938261032104492,
                48.72037124633789
              ],
              [
                13.600728988647461,
                48.5881233215332
              ],
              [
                13.683775901794434,
                48.5881233215332
              ],
              [
                13.7642183303833,
                48.455936431884766
              ],
              [
                14.257559776306152,
                48.257774353027344
              ],
              [
                16.826404571533203,
                48.257774353027344
              ],
              [
                16.823808670043945,
                48.191749572753906
              ],
              [
                16.906639099121094,
                48.191749572753906
              ],
              [
                16.909269332885742,
                48.257774353027344
              ],
              [
                16.992136001586914,
                48.257774353027344
              ],
              [
                16.989469528198242,
                48.191749572753906
              ],
              [
                17.07229995727539,
                48.191749572753906
              ],
              [
                17.066926956176758,
                48.059749603271484
              ],
              [
                17.634624481201172,
                47.79592514038086
              ],
              [
                18.626039505004883,
                47.79592514038086
              ],
              [
                18.79804801940918,
                47.92780685424805
              ],
              [
                18.956510543823242,
                47.79592514038086
              ],
              [
                18.949644088745117,
                47.664100646972656
              ],
              [
                19.26919937133789,
                47.46647262573242
              ],
              [
                19.090551376342773,
                47.20316696166992
              ],
              [
                19.165966033935547,
                47.07159423828125
              ],
              [
                18.83371925354004,
                47.005828857421875
              ],
              [
                18.823881149291992,
                46.808616638183594
              ],
              [
                18.905982971191406,
                46.808616638183594
              ],
              [
                18.896116256713867,
                46.61152267456055
              ],
              [
                19.05011558532715,
                46.414546966552734
              ],
              [
                18.951833724975586,
                46.08650588989258
              ],
              [
                18.87009620666504,
                46.08650588989258
              ],
              [
                18.948575973510742,
                46.02093505859375
              ],
              [
                18.85401725769043,
                45.75876998901367
              ],
              [
                19.01063346862793,
                45.62776184082031
              ],
              [
                18.92267417907715,
                45.496795654296875
              ],
              [
                19.004117965698242,
                45.496795654296875
              ],
              [
                18.997617721557617,
                45.36587905883789
              ],
              [
                19.23841667175293,
                45.300437927246094
              ],
              [
                20.295940399169922,
                45.300437927246094
              ],
              [
                20.292184829711914,
                45.23500442504883
              ],
              [
                19.938013076782227,
                44.71194839477539
              ],
              [
                19.92363166809082,
                44.45067596435547
              ],
              [
                19.670358657836914,
                44.25482940673828
              ],
              [
                19.659931182861328,
                44.05907440185547
              ],
              [
                19.410938262939453,
                43.92862319946289
              ],
              [
                19.474700927734375,
                43.6026611328125
              ],
              [
                19.313631057739258,
                43.6026611328125
              ],
              [
                19.30372428894043,
                43.407203674316406
              ],
              [
                19.457914352416992,
                43.276947021484375
              ],
              [
                19.11398696899414,
                42.82133865356445
              ],
              [
                19.168758392333984,
                42.30118942260742
              ],
              [
                19.005796432495117,
                42.236209869384766
              ],
              [
                18.925886154174805,
                42.236209869384766
              ],
              [
                18.85202980041504,
                42.36617660522461
              ],
              [
                18.143457412719727,
                42.62621307373047
              ],
              [
                17.83389663696289,
                42.88639831542969
              ],
              [
                17.593284606933594,
                42.88639831542969
              ],
              [
                17.50791358947754,
                42.75628662109375
              ],
              [
                17.515670776367188,
                42.95146560668945
              ],
              [
                17.35520362854004,
                42.95146560668945
              ],
              [
                17.36538314819336,
                43.211830139160156
              ],
              [
                17.12186050415039,
                43.146724700927734
              ],
              [
                17.05129051208496,
                43.407203674316406
              ],
              [
                16.727190017700195,
                43.342071533203125
              ],
              [
                16.734172821044922,
                43.53750228881836
              ],
              [
                16.575437545776367,
                43.6026611328125
              ],
              [
                15.927099227905273,
                43.472347259521484
              ],
              [
                16.01169204711914,
                43.6026611328125
              ],
              [
                15.856636047363281,
                43.79821014404297
              ],
              [
                15.695383071899414,
                43.79821014404297
              ],
              [
                15.618592262268066,
                43.92862319946289
              ],
              [
                15.374701499938965,
                43.86341094970703
              ],
              [
                15.459075927734375,
                43.99384307861328
              ],
              [
                15.218687057495117,
                44.05907440185547
              ],
              [
                15.146636962890625,
                44.38538360595703
              ],
              [
                14.908865928649902,
                44.58129119873047
              ],
              [
                14.91874885559082,
                44.973392486572266
              ],
              [
                14.515777587890625,
                45.10417556762695
              ],
              [
                14.603090286254883,
                45.36587905883789
              ],
              [
                14.196189880371094,
                45.36587905883789
              ],
              [
                14.189410209655762,
                45.03877639770508
              ],
              [
                13.945749282836914,
                45.03877639770508
              ],
              [
                13.943220138549805,
                44.908016204833984
              ],
              [
                13.780906677246094,
                44.908016204833984
              ],
              [
                13.705584526062012,
                45.23500442504883
              ],
              [
                13.544051170349121,
                45.300437927246094
              ],
              [
                13.547340393066406,
                45.496795654296875
              ],
              [
                13.710229873657227,
                45.496795654296875
              ],
              [
                13.714865684509277,
                45.75876998901367
              ],
              [
                13.144780158996582,
                45.82429504394531
              ],
              [
                13.060476303100586,
                45.62776184082031
              ],
              [
                12.816752433776855,
                45.693260192871094
              ],
              [
                12.652192115783691,
                45.56227111816406
              ],
              [
                12.162785530090332,
                45.496795654296875
              ],
              [
                12.160021781921387,
                45.169586181640625
              ],
              [
                12.40256118774414,
                45.03877639770508
              ],
              [
                12.399906158447266,
                44.77729415893555
              ],
              [
                12.157197952270508,
                44.842647552490234
              ],
              [
                12.153728485107422,
                44.45067596435547
              ],
              [
                12.312999725341797,
                44.18956756591797
              ],
              [
                12.873446464538574,
                43.79821014404297
              ],
              [
                13.035634994506836,
                43.86341094970703
              ],
              [
                13.033763885498047,
                43.73301696777344
              ],
              [
                13.355091094970703,
                43.6678352355957
              ],
              [
                13.672640800476074,
                43.407203674316406
              ],
              [
                13.747068405151367,
                43.08163070678711
              ],
              [
                13.98537540435791,
                42.95146560668945
              ],
              [
                13.901384353637695,
                42.75628662109375
              ],
              [
                14.056464195251465,
                42.496177673339844
              ],
              [
                14.607714653015137,
                42.10627746582031
              ],
              [
                14.768959999084473,
                42.17123794555664
              ],
              [
                14.765887260437012,
                42.041324615478516
              ],
              [
                14.9239501953125,
                41.97637939453125
              ],
              [
                15.165011405944824,
                42.041324615478516
              ],
              [
                15.241438865661621,
                41.911441802978516
              ],
              [
                16.11888313293457,
                41.911441802978516
              ],
              [
                16.114879608154297,
                41.781593322753906
              ],
              [
                15.87384033203125,
                41.71668243408203
              ],
              [
                15.943941116333008,
                41.39224624633789
              ],
              [
                17.20269203186035,
                41.00318908691406
              ],
              [
                17.510658264160156,
                40.74397277832031
              ],
              [
                17.981229782104492,
                40.614410400390625
              ],
              [
                18.43811798095703,
                40.16116714477539
              ],
              [
                18.34894371032715,
                39.90232849121094
              ],
              [
                18.11216926574707,
                39.90232849121094
              ],
              [
                17.813072204589844,
                40.355369567871094
              ],
              [
                17.41753578186035,
                40.355369567871094
              ],
              [
                17.345230102539062,
                40.54964065551758
              ],
              [
                17.02848243713379,
                40.54964065551758
              ],
              [
                16.867990493774414,
                40.4848747253418
              ],
              [
                16.945016860961914,
                40.42012023925781
              ],
              [
                16.861696243286133,
                40.29063034057617
              ],
              [
                16.624452590942383,
                40.29063034057617
              ],
              [
                16.697484970092773,
                40.0964469909668
              ],
              [
                16.45665168762207,
                39.9670295715332
              ],
              [
                16.44725799560547,
                39.64360046386719
              ],
              [
                16.916194915771484,
                39.51427459716797
              ],
              [
                17.069679260253906,
                39.38497543334961
              ],
              [
                17.138301849365234,
                39.06184005737305
              ],
              [
                16.502395629882812,
                38.80344009399414
              ],
              [
                16.491945266723633,
                38.416015625
              ],
              [
                15.932764053344727,
                37.96426773071289
              ],
              [
                15.698192596435547,
                37.96426773071289
              ],
              [
                15.62426471710205,
                38.157840728759766
              ],
              [
                15.389483451843262,
                38.157840728759766
              ],
              [
                15.066489219665527,
                37.641746520996094
              ],
              [
                15.059245109558105,
                37.254878997802734
              ],
              [
                15.213889122009277,
                37.1904182434082
              ],
              [
                15.210210800170898,
                36.9970588684082
              ],
              [
                15.049844741821289,
                36.73930740356445
              ],
              [
                14.661029815673828,
                36.73930740356445
              ],
              [
                14.27791690826416,
                37.12596130371094
              ],
              [
                13.578389167785645,
                37.254878997802734
              ],
              [
                13.192005157470703,
                37.5772590637207
              ],
              [
                12.490468978881836,
                37.706241607666016
              ],
              [
                12.49189567565918,
                37.89975357055664
              ],
              [
                12.649824142456055,
                38.09331130981445
              ],
              [
                13.040358543395996,
                38.028785705566406
              ],
              [
                13.119925498962402,
                38.157840728759766
              ],
              [
                13.354706764221191,
                38.157840728759766
              ],
              [
                13.665236473083496,
                37.96426773071289
              ],
              [
                14.05618953704834,
                37.96426773071289
              ],
              [
                15.862062454223633,
                38.28691864013672
              ],
              [
                15.949724197387695,
                38.67427444458008
              ],
              [
                16.265209197998047,
                38.738853454589844
              ],
              [
                16.270299911499023,
                38.93262481689453
              ],
              [
                16.116540908813477,
                39.06184005737305
              ],
              [
                15.898874282836914,
                39.77294921875
              ],
              [
                15.665508270263672,
                39.90232849121094
              ],
              [
                15.747773170471191,
                40.031734466552734
              ],
              [
                15.431868553161621,
                40.031734466552734
              ],
              [
                15.199469566345215,
                40.225894927978516
              ],
              [
                15.041359901428223,
                40.225894927978516
              ],
              [
                14.893351554870605,
                40.6791877746582
              ],
              [
                14.417906761169434,
                40.6791877746582
              ],
              [
                14.421854972839355,
                40.873565673828125
              ],
              [
                14.104567527770996,
                40.873565673828125
              ],
              [
                13.950616836547852,
                41.132843017578125
              ],
              [
                13.791753768920898,
                41.132843017578125
              ],
              [
                13.714534759521484,
                41.26253128051758
              ],
              [
                13.000019073486328,
                41.32738494873047
              ],
              [
                12.130502700805664,
                41.911441802978516
              ],
              [
                12.131669044494629,
                42.041324615478516
              ],
              [
                11.812841415405273,
                42.10627746582031
              ],
              [
                11.654799461364746,
                42.36617660522461
              ],
              [
                11.494501113891602,
                42.30118942260742
              ],
              [
                11.415224075317383,
                42.43117141723633
              ],
              [
                11.255227088928223,
                42.43117141723633
              ],
              [
                11.175962448120117,
                42.62621307373047
              ],
              [
                11.015789985656738,
                42.62621307373047
              ],
              [
                11.01634693145752,
                42.82133865356445
              ],
              [
                10.535322189331055,
                43.08163070678711
              ],
              [
                10.374164581298828,
                43.6678352355957
              ],
              [
                10.13144302368164,
                44.05907440185547
              ],
              [
                9.889463424682617,
                43.99384307861328
              ],
              [
                9.969700813293457,
                44.12431716918945
              ],
              [
                9.7273588180542,
                44.12431716918945
              ],
              [
                9.159077644348145,
                44.45067596435547
              ],
              [
                8.592522621154785,
                44.45067596435547
              ],
              [
                8.191595077514648,
                44.18956756591797
              ],
              [
                8.033902168273926,
                43.92862319946289
              ],
              [
                7.552080154418945,
                43.79821014404297
              ],
              [
                7.471453189849854,
                43.79821014404297
              ],
              [
                7.39082670211792,
                43.79821014404297
              ],
              [
                7.150246143341064,
                43.73301696777344
              ]
            ]
          ],
          [
            [
              [
                10.455166816711426,
                42.691246032714844
              ],
              [
                10.21481990814209,
                42.691246032714844
              ],
              [
                10.134284973144531,
                42.88639831542969
              ],
              [
                10.214488983154297,
                42.88639831542969
              ],
              [
                10.45510196685791,
                42.88639831542969
              ],
              [
                10.455166816711426,
                42.691246032714844
              ]
            ]
          ],
          [
            [
              [
                -1.853058218955994,
                43.407203674316406
              ],
              [
                -1.772614240646362,
                43.407203674316406
              ],
              [
                -1.767988562583923,
                43.342071533203125
              ],
              [
                -1.848402380943298,
                43.342071533203125
              ],
              [
                -1.853058218955994,
                43.407203674316406
              ]
            ]
          ],
          [
            [
              [
                14.502378463745117,
                44.5159797668457
              ],
              [
                14.260871887207031,
                44.58129119873047
              ],
              [
                14.269240379333496,
                44.973392486572266
              ],
              [
                14.350428581237793,
                44.973392486572266
              ],
              [
                14.51131820678711,
                44.908016204833984
              ],
              [
                14.502378463745117,
                44.5159797668457
              ]
            ]
          ],
          [
            [
              [
                19.007373809814453,
                45.56227111816406
              ],
              [
                19.088850021362305,
                45.56227111816406
              ],
              [
                19.08556365966797,
                45.496795654296875
              ],
              [
                19.004117965698242,
                45.496795654296875
              ],
              [
                19.007373809814453,
                45.56227111816406
              ]
            ]
          ]
        ]
      }
    }
  ]
}