{
  "type": "FeatureCollection",
  "name": "territory-224",
  "features": [
    {
      "type": "Feature",
      "properties": {
        "Name": "Kingdom of Wessex",
        "FromYear": 830,
        "ToYear": 839,
        "Area": 96899.82447819016,
        "Type": "POLITY",
        "Wikipedia": "Wessex",
        "Wikidata": "Q105313",
        "SeshatID": "gb_anglo_saxon_1",
        "Components": "",
        "MemberOf": "(Anglo-Saxon England)"
      },
      "geometry": {
        "type": "Polygon",
        "coordinates": [
          [
            [
              1.008047938346863,
              53.057395935058594
            ],
            [
              1.093834638595581,
              53.057395935058594
            ],
            [
              1.622210025787354,
              52.85536575317383
            ],
            [
              1.739019155502319,
              52.38472366333008
            ],
            [
              1.425007224082947,
              51.98215103149414
            ],
            [
              1.169783234596252,
              51.98215103149414
            ],
            [
              1.183690190315247,
              51.78114318847656
            ],
            [
              0.843909561634064,
              51.78114318847656
            ],
            [
              0.862975299358368,
              51.51342010498047
            ],
            [
              0.528783321380615,
              51.44654083251953
            ],
            [
              1.380577206611633,
              51.37968063354492
            ],
            [
              1.313834071159363,
              51.112430572509766
            ],
            [
              0.492853790521622,
              50.77880859375
            ],
            [
              -1.367843627929688,
              50.84549331665039
            ],
            [
              -1.109168291091919,
              50.77880859375
            ],
            [
              -1.176646590232849,
              50.578861236572266
            ],
            [
              -1.513427257537842,
              50.578861236572266
            ],
            [
              -1.524962306022644,
              50.71213912963867
            ],
            [
              -2.607964515686035,
              50.578861236572266
            ],
            [
              -2.789105415344238,
              50.71213912963867
            ],
            [
              -3.12621021270752,
              50.71213912963867
            ],
            [
              -3.456606388092041,
              50.64549255371094
            ],
            [
              -3.584736108779907,
              50.2459831237793
            ],
            [
              -4.088706493377686,
              50.2459831237793
            ],
            [
              -4.186630249023438,
              50.37908172607422
            ],
            [
              -4.270704746246338,
              50.37908172607422
            ],
            [
              -4.306077480316162,
              50.71213912963867
            ],
            [
              -4.657799243927002,
              50.84549331665039
            ],
            [
              -4.665138721466064,
              50.912200927734375
            ],
            [
              -4.67988109588623,
              51.04566955566406
            ],
            [
              -4.426436901092529,
              51.04566955566406
            ],
            [
              -4.201729774475098,
              51.31283950805664
            ],
            [
              -3.094635725021362,
              51.24601745605469
            ],
            [
              -3.107994079589844,
              51.37968063354492
            ],
            [
              -2.945236444473267,
              51.44654083251953
            ],
            [
              -2.951877117156982,
              51.51342010498047
            ],
            [
              -2.625775098800659,
              51.64724349975586
            ],
            [
              -2.822042465209961,
              51.91512680053711
            ],
            [
              -2.82872486114502,
              51.98215103149414
            ],
            [
              -2.913799524307251,
              51.98215103149414
            ],
            [
              -2.920543432235718,
              52.0491943359375
            ],
            [
              -2.927305936813354,
              52.11625671386719
            ],
            [
              -2.869202375411987,
              52.38472366333008
            ],
            [
              -3.03987717628479,
              52.38472366333008
            ],
            [
              -3.139120101928711,
              52.51908493041992
            ],
            [
              -3.074559926986694,
              52.720787048339844
            ],
            [
              -3.274127721786499,
              52.99003219604492
            ],
            [
              -3.489411115646362,
              53.39456558227539
            ],
            [
              -3.403394460678101,
              53.39456558227539
            ],
            [
              -3.317377805709839,
              53.39456558227539
            ],
            [
              -3.324654340744019,
              53.462066650390625
            ],
            [
              -3.238591194152832,
              53.462066650390625
            ],
            [
              -3.152528285980225,
              53.462066650390625
            ],
            [
              -2.880269289016724,
              53.32708740234375
            ],
            [
              -2.53638768196106,
              53.32708740234375
            ],
            [
              -1.702297329902649,
              53.597137451171875
            ],
            [
              -1.332802772521973,
              53.32708740234375
            ],
            [
              -1.16086208820343,
              53.32708740234375
            ],
            [
              -1.093101859092712,
              53.52959060668945
            ],
            [
              -0.748663604259491,
              53.52959060668945
            ],
            [
              -0.680205345153809,
              53.732303619384766
            ],
            [
              0.015318141318858,
              53.664710998535156
            ],
            [
              0.020827349275351,
              53.597137451171875
            ],
            [
              0.29531991481781,
              53.39456558227539
            ],
            [
              0.316494405269623,
              53.124786376953125
            ],
            [
              0.06977716833353,
              52.99003219604492
            ],
            [
              0.166152358055115,
              52.85536575317383
            ],
            [
              0.337453275918961,
              52.85536575317383
            ],
            [
              0.493327647447586,
              53.057395935058594
            ],
            [
              1.008047938346863,
              53.057395935058594
            ]
          ]
        ]
      }
    }
  ]
}