{
  "type": "FeatureCollection",
  "name": "territory-227",
  "features": [
    {
      "type": "Feature",
      "properties": {
        "Name": "Dál Riata",
        "FromYear": 750,
        "ToYear": 839,
        "Area": 59788.71330150042,
        "Type": "POLITY",
        "Wikipedia": "Dál Riata",
        "Wikidata": "Q111471",
        "SeshatID": "gb_dal_riata",
        "Components": "",
        "MemberOf": ""
      },
      "geometry": {
        "type": "MultiPolygon",
        "coordinates": [
          [
            [
              [
                -6.187198638916016,
                55.56651306152344
              ],
              [
                -6.362338542938232,
                55.56651306152344
              ],
              [
                -6.381457328796387,
                55.70311737060547
              ],
              [
                -6.556801319122314,
                55.70311737060547
              ],
              [
                -6.585977554321289,
                55.90821838378906
              ],
              [
                -5.89273738861084,
                55.97663879394531
              ],
              [
                -5.874032020568848,
                55.83982467651367
              ],
              [
                -6.127885818481445,
                55.77145767211914
              ],
              [
                -6.118441581726074,
                55.70311737060547
              ],
              [
                -6.187198638916016,
                55.56651306152344
              ]
            ]
          ],
          [
            [
              [
                -1.852917313575745,
                57.696231842041016
              ],
              [
                -1.823600172996521,
                57.41988754272461
              ],
              [
                -2.075707674026489,
                57.28189468383789
              ],
              [
                -2.208682298660278,
                56.86860656738281
              ],
              [
                -2.532599925994873,
                56.59365463256836
              ],
              [
                -2.789952516555786,
                56.524986267089844
              ],
              [
                -2.671310901641846,
                56.25059127807617
              ],
              [
                -3.27212119102478,
                56.11355972290039
              ],
              [
                -3.26426100730896,
                56.04508590698242
              ],
              [
                -3.783684492111206,
                55.97663879394531
              ],
              [
                -3.959438800811768,
                55.97663879394531
              ],
              [
                -4.248361110687256,
                56.182064056396484
              ],
              [
                -4.864589691162109,
                56.182064056396484
              ],
              [
                -4.846980571746826,
                56.04508590698242
              ],
              [
                -4.934909343719482,
                56.04508590698242
              ],
              [
                -4.996289253234863,
                55.83982467651367
              ],
              [
                -5.444243907928467,
                55.90821838378906
              ],
              [
                -5.426101684570312,
                55.77145767211914
              ],
              [
                -5.162932395935059,
                55.77145767211914
              ],
              [
                -5.118756771087646,
                55.430015563964844
              ],
              [
                -5.381163120269775,
                55.430015563964844
              ],
              [
                -5.574207305908203,
                55.56651306152344
              ],
              [
                -5.547083854675293,
                55.36180877685547
              ],
              [
                -5.887563228607178,
                55.29362487792969
              ],
              [
                -5.855425834655762,
                55.70311737060547
              ],
              [
                -5.689270496368408,
                55.77145767211914
              ],
              [
                -5.814198017120361,
                56.04508590698242
              ],
              [
                -5.656883716583252,
                56.182064056396484
              ],
              [
                -5.684883117675781,
                56.387733459472656
              ],
              [
                -6.116209983825684,
                56.319149017333984
              ],
              [
                -6.341366291046143,
                56.662349700927734
              ],
              [
                -5.987764835357666,
                56.662349700927734
              ],
              [
                -5.908953666687012,
                56.731075286865234
              ],
              [
                -5.957282066345215,
                57.07511901855469
              ],
              [
                -5.700699329376221,
                57.14401626586914
              ],
              [
                -5.729594707489014,
                57.35087585449219
              ],
              [
                -5.917263507843018,
                57.41988754272461
              ],
              [
                -5.887243270874023,
                57.8345832824707
              ],
              [
                -5.728240966796875,
                57.97305679321289
              ],
              [
                -5.459936618804932,
                57.97305679321289
              ],
              [
                -5.418947219848633,
                58.31977081298828
              ],
              [
                -5.239514827728271,
                58.31977081298828
              ],
              [
                -5.258847236633301,
                58.45867156982422
              ],
              [
                -5.169017314910889,
                58.45867156982422
              ],
              [
                -5.198037147521973,
                58.66725540161133
              ],
              [
                -4.019067287445068,
                58.59769821166992
              ],
              [
                -3.676762819290161,
                58.73685073852539
              ],
              [
                -3.136410236358643,
                58.73685073852539
              ],
              [
                -3.021383285522461,
                58.528167724609375
              ],
              [
                -3.428223133087158,
                58.180992126464844
              ],
              [
                -4.118414402008057,
                57.97305679321289
              ],
              [
                -3.930825471878052,
                57.903804779052734
              ],
              [
                -3.994018077850342,
                57.696231842041016
              ],
              [
                -3.726380348205566,
                57.696231842041016
              ],
              [
                -3.734920263290405,
                57.7653923034668
              ],
              [
                -1.852917313575745,
                57.696231842041016
              ]
            ]
          ],
          [
            [
              [
                -5.996408939361572,
                57.35087585449219
              ],
              [
                -5.967024803161621,
                57.14401626586914
              ],
              [
                -6.410901069641113,
                57.14401626586914
              ],
              [
                -6.618975639343262,
                57.35087585449219
              ],
              [
                -6.796852111816406,
                57.35087585449219
              ],
              [
                -6.738846778869629,
                57.55800247192383
              ],
              [
                -6.471539974212646,
                57.55800247192383
              ],
              [
                -6.502223968505859,
                57.7653923034668
              ],
              [
                -6.323688507080078,
                57.7653923034668
              ],
              [
                -6.214268684387207,
                57.62710189819336
              ],
              [
                -6.204233169555664,
                57.55800247192383
              ],
              [
                -5.996408939361572,
                57.35087585449219
              ]
            ]
          ],
          [
            [
              [
                -3.531404256820679,
                59.015533447265625
              ],
              [
                -3.441113948822021,
                59.015533447265625
              ],
              [
                -3.376785039901733,
                59.22488784790039
              ],
              [
                -3.195853710174561,
                59.22488784790039
              ],
              [
                -3.088408470153809,
                59.08528518676758
              ],
              [
                -2.809081315994263,
                59.015533447265625
              ],
              [
                -2.792584657669067,
                58.876129150390625
              ],
              [
                -2.972933053970337,
                58.876129150390625
              ],
              [
                -3.063107252120972,
                58.876129150390625
              ],
              [
                -3.415184020996094,
                58.80647277832031
              ],
              [
                -3.531404256820679,
                59.015533447265625
              ]
            ]
          ],
          [
            [
              [
                -2.842337846755981,
                59.294734954833984
              ],
              [
                -2.578956842422485,
                59.36461639404297
              ],
              [
                -2.562593460083008,
                59.22488784790039
              ],
              [
                -2.653059244155884,
                59.22488784790039
              ],
              [
                -2.644851207733154,
                59.15507125854492
              ],
              [
                -2.825665473937988,
                59.15507125854492
              ],
              [
                -2.842337846755981,
                59.294734954833984
              ]
            ]
          ]
        ]
      }
    }
  ]
}