{
  "type": "FeatureCollection",
  "name": "territory-24",
  "features": [
    {
      "type": "Feature",
      "properties": {
        "Name": "Kingdom of Urartu",
        "FromYear": -615,
        "ToYear": -601,
        "Area": 161552.14355469184,
        "Type": "POLITY",
        "Wikipedia": "Urartu",
        "Wikidata": "Q185068",
        "SeshatID": "",
        "Components": "",
        "MemberOf": ""
      },
      "geometry": {
        "type": "Polygon",
        "coordinates": [
          [
            [
              44.95840835571289,
              40.42012023925781
            ],
            [
              44.946903228759766,
              40.355369567871094
            ],
            [
              45.093605041503906,
              40.29063034057617
            ],
            [
              45.11564254760742,
              39.9670295715332
            ],
            [
              45.53334045410156,
              40.0964469909668
            ],
            [
              45.96101760864258,
              39.8376350402832
            ],
            [
              45.7578010559082,
              39.57893371582031
            ],
            [
              45.90409851074219,
              39.51427459716797
            ],
            [
              45.88163375854492,
              39.38497543334961
            ],
            [
              46.09535217285156,
              39.25570297241211
            ],
            [
              46.0620002746582,
              39.06184005737305
            ],
            [
              46.14059829711914,
              39.06184005737305
            ],
            [
              46.1075439453125,
              38.8680305480957
            ],
            [
              45.63640213012695,
              38.8680305480957
            ],
            [
              45.30095672607422,
              38.738853454589844
            ],
            [
              45.023590087890625,
              38.48057174682617
            ],
            [
              44.982242584228516,
              38.22237777709961
            ],
            [
              45.196502685546875,
              38.09331130981445
            ],
            [
              45.12554168701172,
              37.641746520996094
            ],
            [
              45.26163864135742,
              37.51277160644531
            ],
            [
              45.24171829223633,
              37.38381576538086
            ],
            [
              44.919960021972656,
              37.3193473815918
            ],
            [
              44.84199523925781,
              37.3193473815918
            ],
            [
              44.627601623535156,
              37.44829177856445
            ],
            [
              44.58888626098633,
              37.706241607666016
            ],
            [
              44.30603790283203,
              37.89975357055664
            ],
            [
              44.45452117919922,
              38.351463317871094
            ],
            [
              43.280696868896484,
              38.8680305480957
            ],
            [
              43.22235870361328,
              38.997230529785156
            ],
            [
              42.89805603027344,
              38.93262481689453
            ],
            [
              42.68233108520508,
              39.06184005737305
            ],
            [
              42.005008697509766,
              38.738853454589844
            ],
            [
              41.76958465576172,
              38.738853454589844
            ],
            [
              41.71983337402344,
              38.93262481689453
            ],
            [
              41.48419189453125,
              38.93262481689453
            ],
            [
              41.38665008544922,
              38.80344009399414
            ],
            [
              40.846466064453125,
              38.8680305480957
            ],
            [
              40.74940872192383,
              38.738853454589844
            ],
            [
              40.112586975097656,
              38.67427444458008
            ],
            [
              40.016239166259766,
              38.54513168334961
            ],
            [
              39.47618103027344,
              38.60969924926758
            ],
            [
              39.18071365356445,
              38.157840728759766
            ],
            [
              38.86766815185547,
              38.157840728759766
            ],
            [
              38.65800094604492,
              38.351463317871094
            ],
            [
              38.42300796508789,
              38.351463317871094
            ],
            [
              38.31162643432617,
              38.09331130981445
            ],
            [
              38.147010803222656,
              38.028785705566406
            ],
            [
              37.84220504760742,
              38.09331130981445
            ],
            [
              37.57759094238281,
              38.48057174682617
            ],
            [
              37.28023147583008,
              38.60969924926758
            ],
            [
              37.304691314697266,
              38.80344009399414
            ],
            [
              37.3831901550293,
              38.80344009399414
            ],
            [
              37.49492645263672,
              39.06184005737305
            ],
            [
              37.41632843017578,
              39.06184005737305
            ],
            [
              37.43308639526367,
              39.19107437133789
            ],
            [
              37.59885787963867,
              39.25570297241211
            ],
            [
              38.2834358215332,
              40.225894927978516
            ],
            [
              38.925289154052734,
              40.29063034057617
            ],
            [
              39.766170501708984,
              40.0964469909668
            ],
            [
              40.12135314941406,
              40.355369567871094
            ],
            [
              40.58599090576172,
              40.29063034057617
            ],
            [
              40.78462219238281,
              40.54964065551758
            ],
            [
              40.932769775390625,
              40.4848747253418
            ],
            [
              41.560569763183594,
              40.93837356567383
            ],
            [
              41.787899017333984,
              40.873565673828125
            ],
            [
              41.91041564941406,
              41.132843017578125
            ],
            [
              42.466434478759766,
              41.132843017578125
            ],
            [
              42.592105865478516,
              40.93837356567383
            ],
            [
              42.75080490112305,
              40.93837356567383
            ],
            [
              42.863590240478516,
              41.132843017578125
            ],
            [
              43.10188293457031,
              41.132843017578125
            ],
            [
              43.204010009765625,
              41.26253128051758
            ],
            [
              44.06669235229492,
              41.19768524169922
            ],
            [
              44.04346466064453,
              41.06801223754883
            ],
            [
              44.1906623840332,
              41.00318908691406
            ],
            [
              44.065338134765625,
              40.74397277832031
            ],
            [
              44.92559814453125,
              40.6791877746582
            ],
            [
              44.95840835571289,
              40.42012023925781
            ]
          ]
        ]
      }
    }
  ]
}