{
  "type": "FeatureCollection",
  "name": "territory-240",
  "features": [
    {
      "type": "Feature",
      "properties": {
        "Name": "Later Western Liang",
        "FromYear": 561,
        "ToYear": 576,
        "Area": 70044.62567118138,
        "Type": "POLITY",
        "Wikipedia": "Western Liang (555–587)",
        "Wikidata": "Q4186404",
        "SeshatID": "",
        "Components": "",
        "MemberOf": ""
      },
      "geometry": {
        "type": "Polygon",
        "coordinates": [
          [
            [
              108.83255767822266,
              30.372163772583008
            ],
            [
              108.86801147460938,
              30.950578689575195
            ],
            [
              109.04134368896484,
              31.014846801757812
            ],
            [
              109.46489715576172,
              31.593257904052734
            ],
            [
              109.91278076171875,
              31.78606605529785
            ],
            [
              110.56809997558594,
              31.91460609436035
            ],
            [
              110.59912109375,
              31.78606605529785
            ],
            [
              110.80532836914062,
              31.7217960357666
            ],
            [
              111.46887969970703,
              31.65752601623535
            ],
            [
              112.90229034423828,
              31.40045166015625
            ],
            [
              113.0320053100586,
              31.336183547973633
            ],
            [
              113.0502700805664,
              30.950578689575195
            ],
            [
              113.9723129272461,
              30.757776260375977
            ],
            [
              113.9825439453125,
              30.564971923828125
            ],
            [
              113.72297668457031,
              30.243623733520508
            ],
            [
              113.50018310546875,
              29.79371452331543
            ],
            [
              113.25232696533203,
              29.729440689086914
            ],
            [
              112.72879791259766,
              29.986536026000977
            ],
            [
              112.34978485107422,
              29.986536026000977
            ],
            [
              112.16386413574219,
              30.115081787109375
            ],
            [
              111.4262466430664,
              30.179353713989258
            ],
            [
              111.16442108154297,
              30.307893753051758
            ],
            [
              110.08149719238281,
              30.243623733520508
            ],
            [
              108.83255767822266,
              30.372163772583008
            ]
          ]
        ]
      }
    }
  ]
}