{
  "type": "FeatureCollection",
  "name": "territory-241",
  "features": [
    {
      "type": "Feature",
      "properties": {
        "Name": "Georgia",
        "FromYear": 888,
        "ToYear": 910,
        "Area": 86639.95000458341,
        "Type": "POLITY",
        "Wikipedia": "Georgia",
        "Wikidata": "Q4962",
        "SeshatID": "",
        "Components": "",
        "MemberOf": ""
      },
      "geometry": {
        "type": "MultiPolygon",
        "coordinates": [
          [
            [
              [
                46.29668426513672,
                42.041324615478516
              ],
              [
                46.350799560546875,
                41.911441802978516
              ],
              [
                46.7366943359375,
                41.84651184082031
              ],
              [
                47.27063751220703,
                41.32738494873047
              ],
              [
                47.721797943115234,
                41.19768524169922
              ],
              [
                47.84197235107422,
                41.00318908691406
              ],
              [
                47.72432327270508,
                40.80876541137695
              ],
              [
                47.236045837402344,
                40.74397277832031
              ],
              [
                46.797607421875,
                40.93837356567383
              ],
              [
                46.32151412963867,
                40.93837356567383
              ],
              [
                46.05913543701172,
                40.80876541137695
              ],
              [
                45.81708526611328,
                40.355369567871094
              ],
              [
                45.456661224365234,
                40.54964065551758
              ],
              [
                45.5953483581543,
                40.873565673828125
              ],
              [
                45.30192947387695,
                41.00318908691406
              ],
              [
                45.11168670654297,
                41.26253128051758
              ],
              [
                43.57847213745117,
                41.132843017578125
              ],
              [
                43.19264602661133,
                41.19768524169922
              ],
              [
                42.86325454711914,
                41.586883544921875
              ],
              [
                42.62437438964844,
                41.586883544921875
              ],
              [
                42.442626953125,
                41.45711898803711
              ],
              [
                41.57828140258789,
                41.521995544433594
              ],
              [
                41.589237213134766,
                41.586883544921875
              ],
              [
                41.81525421142578,
                41.97637939453125
              ],
              [
                41.73545837402344,
                41.97637939453125
              ],
              [
                41.75791549682617,
                42.10627746582031
              ],
              [
                41.598209381103516,
                42.10627746582031
              ],
              [
                41.700584411621094,
                42.236209869384766
              ],
              [
                41.48331832885742,
                42.36617660522461
              ],
              [
                41.608699798583984,
                42.62621307373047
              ],
              [
                41.11582565307617,
                43.016544342041016
              ],
              [
                40.81732177734375,
                43.146724700927734
              ],
              [
                40.41570281982422,
                43.146724700927734
              ],
              [
                40.219173431396484,
                43.407203674316406
              ],
              [
                39.977840423583984,
                43.407203674316406
              ],
              [
                39.34092330932617,
                43.92862319946289
              ],
              [
                39.351905822753906,
                43.99384307861328
              ],
              [
                40.033470153808594,
                43.73301696777344
              ],
              [
                40.28654479980469,
                43.79821014404297
              ],
              [
                40.26399612426758,
                43.6678352355957
              ],
              [
                40.40254592895508,
                43.53750228881836
              ],
              [
                41.115562438964844,
                43.472347259521484
              ],
              [
                41.10405731201172,
                43.407203674316406
              ],
              [
                41.34539031982422,
                43.407203674316406
              ],
              [
                41.7125244140625,
                43.211830139160156
              ],
              [
                42.98605728149414,
                43.146724700927734
              ],
              [
                43.419063568115234,
                42.88639831542969
              ],
              [
                43.65967559814453,
                42.88639831542969
              ],
              [
                43.851112365722656,
                42.62621307373047
              ],
              [
                44.356510162353516,
                42.75628662109375
              ],
              [
                44.744632720947266,
                42.691246032714844
              ],
              [
                44.82474899291992,
                42.691246032714844
              ],
              [
                45.22532653808594,
                42.691246032714844
              ],
              [
                45.66733932495117,
                42.496177673339844
              ],
              [
                45.72168731689453,
                42.36617660522461
              ],
              [
                45.708900451660156,
                42.30118942260742
              ],
              [
                45.75059127807617,
                42.10627746582031
              ],
              [
                46.29668426513672,
                42.041324615478516
              ]
            ]
          ],
          [
            [
              [
                39.28215789794922,
                44.05907440185547
              ],
              [
                39.36290740966797,
                44.05907440185547
              ],
              [
                39.351905822753906,
                43.99384307861328
              ],
              [
                39.27118682861328,
                43.99384307861328
              ],
              [
                39.190467834472656,
                43.99384307861328
              ],
              [
                39.2014045715332,
                44.05907440185547
              ],
              [
                39.28215789794922,
                44.05907440185547
              ]
            ]
          ],
          [
            [
              [
                39.13158416748047,
                44.12431716918945
              ],
              [
                39.212364196777344,
                44.12431716918945
              ],
              [
                39.2014045715332,
                44.05907440185547
              ],
              [
                39.12065505981445,
                44.05907440185547
              ],
              [
                39.13158416748047,
                44.12431716918945
              ]
            ]
          ],
          [
            [
              [
                39.06172180175781,
                44.18956756591797
              ],
              [
                39.14253234863281,
                44.18956756591797
              ],
              [
                39.13158416748047,
                44.12431716918945
              ],
              [
                39.050804138183594,
                44.12431716918945
              ],
              [
                39.06172180175781,
                44.18956756591797
              ]
            ]
          ]
        ]
      }
    }
  ]
}