{
  "type": "FeatureCollection",
  "name": "territory-243",
  "features": [
    {
      "type": "Feature",
      "properties": {
        "Name": "Kingdom of Italy",
        "FromYear": 1943,
        "ToYear": 1943,
        "Area": 455510.63618283934,
        "Type": "POLITY",
        "Wikipedia": "Kingdom of Italy",
        "Wikidata": "Q172579",
        "SeshatID": "it_italian_k",
        "Components": "",
        "MemberOf": ""
      },
      "geometry": {
        "type": "MultiPolygon",
        "coordinates": [
          [
            [
              [
                20.073074340820312,
                39.64360046386719
              ],
              [
                20.151897430419922,
                39.64360046386719
              ],
              [
                20.148855209350586,
                39.57893371582031
              ],
              [
                20.070056915283203,
                39.57893371582031
              ],
              [
                20.073074340820312,
                39.64360046386719
              ]
            ]
          ],
          [
            [
              [
                9.665326118469238,
                40.29063034057617
              ],
              [
                9.74737548828125,
                39.64360046386719
              ],
              [
                9.668553352355957,
                39.64360046386719
              ],
              [
                9.592622756958008,
                39.1264533996582
              ],
              [
                9.120378494262695,
                39.19107437133789
              ],
              [
                8.96590518951416,
                38.8680305480957
              ],
              [
                8.730334281921387,
                38.8680305480957
              ],
              [
                8.336196899414062,
                38.997230529785156
              ],
              [
                8.411824226379395,
                39.25570297241211
              ],
              [
                8.333152770996094,
                39.25570297241211
              ],
              [
                8.330102920532227,
                39.51427459716797
              ],
              [
                8.40887451171875,
                39.51427459716797
              ],
              [
                8.48337459564209,
                39.90232849121094
              ],
              [
                8.324762344360352,
                39.9670295715332
              ],
              [
                8.400031089782715,
                40.29063034057617
              ],
              [
                8.32094955444336,
                40.29063034057617
              ],
              [
                8.318660736083984,
                40.4848747253418
              ],
              [
                8.159523010253906,
                40.54964065551758
              ],
              [
                8.154606819152832,
                40.93837356567383
              ],
              [
                8.552037239074707,
                40.873565673828125
              ],
              [
                9.024832725524902,
                41.26253128051758
              ],
              [
                9.10431957244873,
                41.26253128051758
              ],
              [
                9.50210952758789,
                41.19768524169922
              ],
              [
                9.821690559387207,
                40.74397277832031
              ],
              [
                9.823226928710938,
                40.355369567871094
              ],
              [
                9.665326118469238,
                40.29063034057617
              ]
            ]
          ],
          [
            [
              [
                14.845620155334473,
                45.300437927246094
              ],
              [
                14.681376457214355,
                45.23500442504883
              ],
              [
                14.757953643798828,
                45.03877639770508
              ],
              [
                14.676733016967773,
                45.03877639770508
              ],
              [
                14.515777587890625,
                45.10417556762695
              ],
              [
                14.603090286254883,
                45.36587905883789
              ],
              [
                14.196189880371094,
                45.36587905883789
              ],
              [
                14.189410209655762,
                45.03877639770508
              ],
              [
                13.945749282836914,
                45.03877639770508
              ],
              [
                13.943220138549805,
                44.908016204833984
              ],
              [
                13.780906677246094,
                44.908016204833984
              ],
              [
                13.705584526062012,
                45.23500442504883
              ],
              [
                13.544051170349121,
                45.300437927246094
              ],
              [
                13.547340393066406,
                45.496795654296875
              ],
              [
                13.710229873657227,
                45.496795654296875
              ],
              [
                13.714865684509277,
                45.75876998901367
              ],
              [
                13.144780158996582,
                45.82429504394531
              ],
              [
                13.060476303100586,
                45.62776184082031
              ],
              [
                12.816752433776855,
                45.693260192871094
              ],
              [
                12.652192115783691,
                45.56227111816406
              ],
              [
                12.162785530090332,
                45.496795654296875
              ],
              [
                12.160021781921387,
                45.169586181640625
              ],
              [
                12.40256118774414,
                45.03877639770508
              ],
              [
                12.399906158447266,
                44.77729415893555
              ],
              [
                12.157197952270508,
                44.842647552490234
              ],
              [
                12.153728485107422,
                44.45067596435547
              ],
              [
                12.553191184997559,
                43.99384307861328
              ],
              [
                12.714629173278809,
                43.99384307861328
              ],
              [
                12.873446464538574,
                43.79821014404297
              ],
              [
                13.035634994506836,
                43.86341094970703
              ],
              [
                13.033763885498047,
                43.73301696777344
              ],
              [
                13.355091094970703,
                43.6678352355957
              ],
              [
                13.672640800476074,
                43.407203674316406
              ],
              [
                13.747068405151367,
                43.08163070678711
              ],
              [
                13.98537540435791,
                42.95146560668945
              ],
              [
                13.901384353637695,
                42.75628662109375
              ],
              [
                14.056464195251465,
                42.496177673339844
              ],
              [
                14.370945930480957,
                42.236209869384766
              ],
              [
                14.530768394470215,
                42.236209869384766
              ],
              [
                14.607714653015137,
                42.10627746582031
              ],
              [
                14.768959999084473,
                42.17123794555664
              ],
              [
                14.765887260437012,
                42.041324615478516
              ],
              [
                14.9239501953125,
                41.97637939453125
              ],
              [
                15.165011405944824,
                42.041324615478516
              ],
              [
                15.241438865661621,
                41.911441802978516
              ],
              [
                16.11888313293457,
                41.911441802978516
              ],
              [
                16.114879608154297,
                41.781593322753906
              ],
              [
                15.87384033203125,
                41.71668243408203
              ],
              [
                15.943941116333008,
                41.39224624633789
              ],
              [
                17.20269203186035,
                41.00318908691406
              ],
              [
                17.510658264160156,
                40.74397277832031
              ],
              [
                17.981229782104492,
                40.614410400390625
              ],
              [
                18.43811798095703,
                40.16116714477539
              ],
              [
                18.34894371032715,
                39.90232849121094
              ],
              [
                18.11216926574707,
                39.90232849121094
              ],
              [
                17.813072204589844,
                40.355369567871094
              ],
              [
                17.41753578186035,
                40.355369567871094
              ],
              [
                17.345230102539062,
                40.54964065551758
              ],
              [
                17.02848243713379,
                40.54964065551758
              ],
              [
                16.867990493774414,
                40.4848747253418
              ],
              [
                16.945016860961914,
                40.42012023925781
              ],
              [
                16.861696243286133,
                40.29063034057617
              ],
              [
                16.624452590942383,
                40.29063034057617
              ],
              [
                16.697484970092773,
                40.0964469909668
              ],
              [
                16.45665168762207,
                39.9670295715332
              ],
              [
                16.44725799560547,
                39.64360046386719
              ],
              [
                16.916194915771484,
                39.51427459716797
              ],
              [
                17.069679260253906,
                39.38497543334961
              ],
              [
                17.138301849365234,
                39.06184005737305
              ],
              [
                16.502395629882812,
                38.80344009399414
              ],
              [
                16.491945266723633,
                38.416015625
              ],
              [
                15.932764053344727,
                37.96426773071289
              ],
              [
                15.698192596435547,
                37.96426773071289
              ],
              [
                15.62426471710205,
                38.157840728759766
              ],
              [
                15.389483451843262,
                38.157840728759766
              ],
              [
                15.066489219665527,
                37.641746520996094
              ],
              [
                15.059245109558105,
                37.254878997802734
              ],
              [
                15.213889122009277,
                37.1904182434082
              ],
              [
                15.049844741821289,
                36.73930740356445
              ],
              [
                14.661029815673828,
                36.73930740356445
              ],
              [
                14.27791690826416,
                37.12596130371094
              ],
              [
                13.578389167785645,
                37.254878997802734
              ],
              [
                13.192005157470703,
                37.5772590637207
              ],
              [
                12.490468978881836,
                37.706241607666016
              ],
              [
                12.49189567565918,
                37.89975357055664
              ],
              [
                12.649824142456055,
                38.09331130981445
              ],
              [
                13.040358543395996,
                38.028785705566406
              ],
              [
                13.119925498962402,
                38.157840728759766
              ],
              [
                13.354706764221191,
                38.157840728759766
              ],
              [
                13.665236473083496,
                37.96426773071289
              ],
              [
                14.05618953704834,
                37.96426773071289
              ],
              [
                15.862062454223633,
                38.28691864013672
              ],
              [
                15.949724197387695,
                38.67427444458008
              ],
              [
                16.265209197998047,
                38.738853454589844
              ],
              [
                16.270299911499023,
                38.93262481689453
              ],
              [
                16.116540908813477,
                39.06184005737305
              ],
              [
                15.898874282836914,
                39.77294921875
              ],
              [
                15.665508270263672,
                39.90232849121094
              ],
              [
                15.747773170471191,
                40.031734466552734
              ],
              [
                15.431868553161621,
                40.031734466552734
              ],
              [
                15.199469566345215,
                40.225894927978516
              ],
              [
                15.041359901428223,
                40.225894927978516
              ],
              [
                14.893351554870605,
                40.6791877746582
              ],
              [
                14.417906761169434,
                40.6791877746582
              ],
              [
                14.421854972839355,
                40.873565673828125
              ],
              [
                14.104567527770996,
                40.873565673828125
              ],
              [
                13.950616836547852,
                41.132843017578125
              ],
              [
                13.791753768920898,
                41.132843017578125
              ],
              [
                13.714534759521484,
                41.26253128051758
              ],
              [
                13.000019073486328,
                41.32738494873047
              ],
              [
                12.922186851501465,
                41.45711898803711
              ],
              [
                12.604641914367676,
                41.521995544433594
              ],
              [
                12.209661483764648,
                41.84651184082031
              ],
              [
                12.370473861694336,
                41.97637939453125
              ],
              [
                12.291962623596191,
                42.10627746582031
              ],
              [
                11.812841415405273,
                42.10627746582031
              ],
              [
                11.654799461364746,
                42.36617660522461
              ],
              [
                11.494501113891602,
                42.30118942260742
              ],
              [
                11.415224075317383,
                42.43117141723633
              ],
              [
                11.255227088928223,
                42.43117141723633
              ],
              [
                11.175962448120117,
                42.62621307373047
              ],
              [
                11.015789985656738,
                42.62621307373047
              ],
              [
                11.01634693145752,
                42.82133865356445
              ],
              [
                10.535322189331055,
                43.08163070678711
              ],
              [
                10.212339401245117,
                43.99384307861328
              ],
              [
                9.889463424682617,
                43.99384307861328
              ],
              [
                9.969700813293457,
                44.12431716918945
              ],
              [
                9.7273588180542,
                44.12431716918945
              ],
              [
                9.159077644348145,
                44.45067596435547
              ],
              [
                8.431501388549805,
                44.38538360595703
              ],
              [
                8.033902168273926,
                43.92862319946289
              ],
              [
                7.31143856048584,
                43.73301696777344
              ],
              [
                7.148946285247803,
                43.79821014404297
              ],
              [
                6.993107318878174,
                43.53750228881836
              ],
              [
                6.91260290145874,
                43.53750228881836
              ],
              [
                6.829278945922852,
                43.6678352355957
              ],
              [
                6.668147563934326,
                43.6678352355957
              ],
              [
                6.74289083480835,
                43.92862319946289
              ],
              [
                6.416947841644287,
                44.05907440185547
              ],
              [
                6.413734436035156,
                44.18956756591797
              ],
              [
                6.814867973327637,
                44.32010269165039
              ],
              [
                6.565949440002441,
                44.58129119873047
              ],
              [
                6.640680313110352,
                44.842647552490234
              ],
              [
                6.228048801422119,
                45.10417556762695
              ],
              [
                5.901144027709961,
                45.169586181640625
              ],
              [
                5.812080860137939,
                45.431331634521484
              ],
              [
                5.48224401473999,
                45.56227111816406
              ],
              [
                5.634932518005371,
                45.889827728271484
              ],
              [
                6.033519744873047,
                46.21768569946289
              ],
              [
                6.273390769958496,
                46.414546966552734
              ],
              [
                6.682901382446289,
                46.414546966552734
              ],
              [
                6.849938869476318,
                46.283294677734375
              ],
              [
                6.856344699859619,
                46.02093505859375
              ],
              [
                7.104432582855225,
                45.889827728271484
              ],
              [
                7.918499946594238,
                46.02093505859375
              ],
              [
                7.919662952423096,
                45.95537567138672
              ],
              [
                8.001335144042969,
                45.95537567138672
              ],
              [
                8.000204086303711,
                46.02093505859375
              ],
              [
                8.078590393066406,
                46.21768569946289
              ],
              [
                8.40284538269043,
                46.414546966552734
              ],
              [
                8.488550186157227,
                46.1520881652832
              ],
              [
                8.652090072631836,
                46.1520881652832
              ],
              [
                8.98212718963623,
                45.889827728271484
              ],
              [
                9.303140640258789,
                46.480194091796875
              ],
              [
                10.041536331176758,
                46.283294677734375
              ],
              [
                10.122788429260254,
                46.414546966552734
              ],
              [
                10.040886878967285,
                46.414546966552734
              ],
              [
                10.039896965026855,
                46.61152267456055
              ],
              [
                10.367905616760254,
                46.61152267456055
              ],
              [
                10.449238777160645,
                46.87434005737305
              ],
              [
                10.941988945007324,
                46.74290466308594
              ],
              [
                11.188736915588379,
                47.005828857421875
              ],
              [
                12.093491554260254,
                47.07159423828125
              ],
              [
                12.255094528198242,
                46.74290466308594
              ],
              [
                13.237005233764648,
                46.54585266113281
              ],
              [
                13.879237174987793,
                45.82429504394531
              ],
              [
                14.207016944885254,
                45.889827728271484
              ],
              [
                15.264768600463867,
                45.75876998901367
              ],
              [
                15.262993812561035,
                45.693260192871094
              ],
              [
                15.261219024658203,
                45.62776184082031
              ],
              [
                15.342728614807129,
                45.62776184082031
              ],
              [
                15.340923309326172,
                45.56227111816406
              ],
              [
                14.850451469421387,
                45.496795654296875
              ],
              [
                14.845620155334473,
                45.300437927246094
              ]
            ],
            [
              [
                12.630784034729004,
                43.73301696777344
              ],
              [
                12.711380004882812,
                43.73301696777344
              ],
              [
                12.63234806060791,
                43.86341094970703
              ],
              [
                12.470312118530273,
                43.79821014404297
              ],
              [
                12.54943561553955,
                43.6678352355957
              ],
              [
                12.630784034729004,
                43.73301696777344
              ]
            ]
          ],
          [
            [
              [
                12.131085395812988,
                41.97637939453125
              ],
              [
                12.210881233215332,
                41.97637939453125
              ],
              [
                12.210269927978516,
                41.911441802978516
              ],
              [
                12.130502700805664,
                41.911441802978516
              ],
              [
                12.131085395812988,
                41.97637939453125
              ]
            ]
          ],
          [
            [
              [
                9.577608108520508,
                41.97637939453125
              ],
              [
                9.497812271118164,
                41.97637939453125
              ],
              [
                9.49889087677002,
                41.781593322753906
              ],
              [
                9.262411117553711,
                41.39224624633789
              ],
              [
                9.1038236618042,
                41.32738494873047
              ],
              [
                8.783942222595215,
                41.521995544433594
              ],
              [
                8.782108306884766,
                41.71668243408203
              ],
              [
                8.622743606567383,
                41.71668243408203
              ],
              [
                8.700496673583984,
                41.911441802978516
              ],
              [
                8.538846015930176,
                42.10627746582031
              ],
              [
                8.534564018249512,
                42.496177673339844
              ],
              [
                8.772740364074707,
                42.691246032714844
              ],
              [
                9.17282485961914,
                42.75628662109375
              ],
              [
                9.251097679138184,
                43.016544342041016
              ],
              [
                9.331360816955566,
                43.016544342041016
              ],
              [
                9.491888999938965,
                43.016544342041016
              ],
              [
                9.49340534210205,
                42.75628662109375
              ],
              [
                9.5735502243042,
                42.75628662109375
              ],
              [
                9.577608108520508,
                41.97637939453125
              ]
            ]
          ],
          [
            [
              [
                17.50791358947754,
                42.75628662109375
              ],
              [
                17.510494232177734,
                42.82133865356445
              ],
              [
                17.590667724609375,
                42.82133865356445
              ],
              [
                17.588058471679688,
                42.75628662109375
              ],
              [
                17.50791358947754,
                42.75628662109375
              ]
            ]
          ],
          [
            [
              [
                10.134284973144531,
                42.88639831542969
              ],
              [
                10.214488983154297,
                42.88639831542969
              ],
              [
                10.45510196685791,
                42.88639831542969
              ],
              [
                10.455166816711426,
                42.691246032714844
              ],
              [
                10.21481990814209,
                42.691246032714844
              ],
              [
                10.134284973144531,
                42.88639831542969
              ]
            ]
          ],
          [
            [
              [
                17.119401931762695,
                43.08163070678711
              ],
              [
                17.199695587158203,
                43.08163070678711
              ],
              [
                17.192262649536133,
                42.88639831542969
              ],
              [
                16.711036682128906,
                42.88639831542969
              ],
              [
                16.71562957763672,
                43.016544342041016
              ],
              [
                17.119401931762695,
                43.08163070678711
              ]
            ]
          ],
          [
            [
              [
                16.722553253173828,
                43.211830139160156
              ],
              [
                16.802907943725586,
                43.211830139160156
              ],
              [
                17.12432289123535,
                43.211830139160156
              ],
              [
                17.119401931762695,
                43.08163070678711
              ],
              [
                16.717933654785156,
                43.08163070678711
              ],
              [
                16.722553253173828,
                43.211830139160156
              ]
            ]
          ],
          [
            [
              [
                16.727190017700195,
                43.342071533203125
              ],
              [
                16.729515075683594,
                43.407203674316406
              ],
              [
                16.80995750427246,
                43.407203674316406
              ],
              [
                16.80760383605957,
                43.342071533203125
              ],
              [
                16.727190017700195,
                43.342071533203125
              ]
            ]
          ],
          [
            [
              [
                16.01169204711914,
                43.6026611328125
              ],
              [
                15.935225486755371,
                43.73301696777344
              ],
              [
                15.695383071899414,
                43.79821014404297
              ],
              [
                15.618592262268066,
                43.92862319946289
              ],
              [
                15.374701499938965,
                43.86341094970703
              ],
              [
                15.459075927734375,
                43.99384307861328
              ],
              [
                15.218687057495117,
                44.05907440185547
              ],
              [
                15.144895553588867,
                44.32010269165039
              ],
              [
                15.146636962890625,
                44.38538360595703
              ],
              [
                15.551162719726562,
                44.38538360595703
              ],
              [
                15.707097053527832,
                44.18956756591797
              ],
              [
                15.868721008300781,
                44.18956756591797
              ],
              [
                16.18341064453125,
                43.92862319946289
              ],
              [
                16.177013397216797,
                43.73301696777344
              ],
              [
                16.17488670349121,
                43.6678352355957
              ],
              [
                16.092227935791016,
                43.6026611328125
              ],
              [
                16.168521881103516,
                43.472347259521484
              ],
              [
                15.927099227905273,
                43.472347259521484
              ],
              [
                16.01169204711914,
                43.6026611328125
              ]
            ]
          ],
          [
            [
              [
                15.065731048583984,
                44.38538360595703
              ],
              [
                15.067441940307617,
                44.45067596435547
              ],
              [
                15.148378372192383,
                44.45067596435547
              ],
              [
                15.146636962890625,
                44.38538360595703
              ],
              [
                15.065731048583984,
                44.38538360595703
              ]
            ]
          ],
          [
            [
              [
                14.986505508422852,
                44.45067596435547
              ],
              [
                14.988184928894043,
                44.5159797668457
              ],
              [
                15.06915283203125,
                44.5159797668457
              ],
              [
                15.067441940307617,
                44.45067596435547
              ],
              [
                14.986505508422852,
                44.45067596435547
              ]
            ]
          ],
          [
            [
              [
                14.269240379333496,
                44.973392486572266
              ],
              [
                14.350428581237793,
                44.973392486572266
              ],
              [
                14.51131820678711,
                44.908016204833984
              ],
              [
                14.502378463745117,
                44.5159797668457
              ],
              [
                14.260871887207031,
                44.58129119873047
              ],
              [
                14.269240379333496,
                44.973392486572266
              ]
            ]
          ],
          [
            [
              [
                27.742563247680664,
                35.902034759521484
              ],
              [
                27.692523956298828,
                36.28839111328125
              ],
              [
                28.01713752746582,
                36.48161697387695
              ],
              [
                28.09481430053711,
                36.48161697387695
              ],
              [
                28.250165939331055,
                36.48161697387695
              ],
              [
                28.139331817626953,
                36.03080368041992
              ],
              [
                27.742563247680664,
                35.902034759521484
              ]
            ]
          ],
          [
            [
              [
                22.87404441833496,
                36.15959167480469
              ],
              [
                22.887205123901367,
                36.417205810546875
              ],
              [
                22.964859008789062,
                36.417205810546875
              ],
              [
                23.116798400878906,
                36.3527946472168
              ],
              [
                23.03582763671875,
                36.28839111328125
              ],
              [
                23.10675048828125,
                36.15959167480469
              ],
              [
                22.87404441833496,
                36.15959167480469
              ]
            ]
          ],
          [
            [
              [
                27.116777420043945,
                36.932613372802734
              ],
              [
                27.18541717529297,
                36.80373764038086
              ],
              [
                26.865324020385742,
                36.67487716674805
              ],
              [
                27.038949966430664,
                36.932613372802734
              ],
              [
                27.116777420043945,
                36.932613372802734
              ]
            ]
          ],
          [
            [
              [
                25.490652084350586,
                37.06150817871094
              ],
              [
                25.486507415771484,
                36.9970588684082
              ],
              [
                25.40865707397461,
                36.9970588684082
              ],
              [
                25.412778854370117,
                37.06150817871094
              ],
              [
                25.490652084350586,
                37.06150817871094
              ]
            ]
          ],
          [
            [
              [
                24.28331756591797,
                37.706241607666016
              ],
              [
                24.36141586303711,
                37.706241607666016
              ],
              [
                24.43158721923828,
                37.5772590637207
              ],
              [
                24.27158546447754,
                37.51277160644531
              ],
              [
                24.201318740844727,
                37.641746520996094
              ],
              [
                24.28331756591797,
                37.706241607666016
              ]
            ]
          ],
          [
            [
              [
                24.986202239990234,
                37.706241607666016
              ],
              [
                25.064300537109375,
                37.706241607666016
              ],
              [
                25.220497131347656,
                37.706241607666016
              ],
              [
                25.285974502563477,
                37.51277160644531
              ],
              [
                25.0518856048584,
                37.51277160644531
              ],
              [
                24.986202239990234,
                37.706241607666016
              ]
            ]
          ],
          [
            [
              [
                26.079580307006836,
                37.706241607666016
              ],
              [
                26.157678604125977,
                37.706241607666016
              ],
              [
                26.313875198364258,
                37.706241607666016
              ],
              [
                26.304851531982422,
                37.5772590637207
              ],
              [
                25.988245010375977,
                37.51277160644531
              ],
              [
                26.079580307006836,
                37.706241607666016
              ]
            ]
          ],
          [
            [
              [
                20.69947624206543,
                37.89975357055664
              ],
              [
                20.77764320373535,
                37.89975357055664
              ],
              [
                20.933977127075195,
                37.89975357055664
              ],
              [
                20.922147750854492,
                37.641746520996094
              ],
              [
                20.612695693969727,
                37.706241607666016
              ],
              [
                20.69947624206543,
                37.89975357055664
              ]
            ]
          ],
          [
            [
              [
                24.694225311279297,
                38.028785705566406
              ],
              [
                24.772438049316406,
                38.028785705566406
              ],
              [
                25.068470001220703,
                37.7707405090332
              ],
              [
                24.830005645751953,
                37.706241607666016
              ],
              [
                24.681930541992188,
                37.835243225097656
              ],
              [
                24.694225311279297,
                38.028785705566406
              ]
            ]
          ],
          [
            [
              [
                20.488054275512695,
                38.416015625
              ],
              [
                20.566410064697266,
                38.416015625
              ],
              [
                20.795446395874023,
                38.28691864013672
              ],
              [
                20.7864933013916,
                38.09331130981445
              ],
              [
                20.398162841796875,
                38.157840728759766
              ],
              [
                20.488054275512695,
                38.416015625
              ]
            ]
          ],
          [
            [
              [
                23.56732749938965,
                38.80344009399414
              ],
              [
                23.563383102416992,
                38.738853454589844
              ],
              [
                23.484909057617188,
                38.738853454589844
              ],
              [
                23.488826751708984,
                38.80344009399414
              ],
              [
                23.56732749938965,
                38.80344009399414
              ]
            ]
          ],
          [
            [
              [
                24.364974975585938,
                38.997230529785156
              ],
              [
                24.443546295166016,
                38.997230529785156
              ],
              [
                24.674930572509766,
                38.93262481689453
              ],
              [
                24.662033081054688,
                38.738853454589844
              ],
              [
                24.35651969909668,
                38.8680305480957
              ],
              [
                24.364974975585938,
                38.997230529785156
              ]
            ]
          ],
          [
            [
              [
                117.48749542236328,
                39.77294921875
              ],
              [
                117.30525970458984,
                39.57893371582031
              ],
              [
                117.2264633178711,
                39.57893371582031
              ],
              [
                117.14766693115234,
                39.57893371582031
              ],
              [
                117.18193817138672,
                39.64360046386719
              ],
              [
                117.10311889648438,
                39.64360046386719
              ],
              [
                117.13749694824219,
                39.70827102661133
              ],
              [
                117.48749542236328,
                39.77294921875
              ]
            ]
          ],
          [
            [
              [
                20.871925354003906,
                41.32738494873047
              ],
              [
                20.705801010131836,
                41.19768524169922
              ],
              [
                20.69525146484375,
                41.00318908691406
              ],
              [
                21.07770347595215,
                40.74397277832031
              ],
              [
                20.980844497680664,
                40.42012023925781
              ],
              [
                21.059978485107422,
                40.42012023925781
              ],
              [
                21.032377243041992,
                39.90232849121094
              ],
              [
                21.262248992919922,
                39.77294921875
              ],
              [
                21.255407333374023,
                39.64360046386719
              ],
              [
                22.20127296447754,
                39.64360046386719
              ],
              [
                22.19757080078125,
                39.57893371582031
              ],
              [
                22.756925582885742,
                39.70827102661133
              ],
              [
                22.835771560668945,
                39.70827102661133
              ],
              [
                23.135168075561523,
                39.449623107910156
              ],
              [
                22.816326141357422,
                39.38497543334961
              ],
              [
                22.797286987304688,
                39.06184005737305
              ],
              [
                22.95830535888672,
                39.1264533996582
              ],
              [
                23.492761611938477,
                38.8680305480957
              ],
              [
                23.331829071044922,
                38.80344009399414
              ],
              [
                23.025423049926758,
                38.93262481689453
              ],
              [
                22.935583114624023,
                38.738853454589844
              ],
              [
                23.16720199584961,
                38.67427444458008
              ],
              [
                23.312631607055664,
                38.48057174682617
              ],
              [
                23.626148223876953,
                38.48057174682617
              ],
              [
                23.563383102416992,
                38.738853454589844
              ],
              [
                24.030162811279297,
                38.67427444458008
              ],
              [
                24.178871154785156,
                38.54513168334961
              ],
              [
                24.158668518066406,
                38.22237777709961
              ],
              [
                24.002099990844727,
                38.22237777709961
              ],
              [
                23.9786319732666,
                37.835243225097656
              ],
              [
                23.44280242919922,
                38.028785705566406
              ],
              [
                23.208162307739258,
                38.028785705566406
              ],
              [
                23.20083236694336,
                37.89975357055664
              ],
              [
                23.044498443603516,
                37.89975357055664
              ],
              [
                23.108261108398438,
                37.641746520996094
              ],
              [
                23.342487335205078,
                37.641746520996094
              ],
              [
                23.413257598876953,
                37.51277160644531
              ],
              [
                23.402393341064453,
                37.3193473815918
              ],
              [
                23.168506622314453,
                37.3193473815918
              ],
              [
                23.101137161254883,
                37.51277160644531
              ],
              [
                22.71442985534668,
                37.5772590637207
              ],
              [
                22.700735092163086,
                37.3193473815918
              ],
              [
                22.853219985961914,
                37.254878997802734
              ],
              [
                23.056013107299805,
                36.67487716674805
              ],
              [
                22.83283233642578,
                36.8681755065918
              ],
              [
                22.59941291809082,
                36.8681755065918
              ],
              [
                22.51182746887207,
                36.67487716674805
              ],
              [
                22.35634422302246,
                36.67487716674805
              ],
              [
                22.21999168395996,
                37.06150817871094
              ],
              [
                21.90850067138672,
                37.06150817871094
              ],
              [
                21.899152755737305,
                36.8681755065918
              ],
              [
                21.743539810180664,
                36.8681755065918
              ],
              [
                21.681032180786133,
                37.1904182434082
              ],
              [
                21.60311508178711,
                37.1904182434082
              ],
              [
                21.696598052978516,
                37.51277160644531
              ],
              [
                21.243581771850586,
                37.835243225097656
              ],
              [
                21.415550231933594,
                38.157840728759766
              ],
              [
                21.728593826293945,
                38.157840728759766
              ],
              [
                21.738431930541992,
                38.351463317871094
              ],
              [
                21.19325065612793,
                38.416015625
              ],
              [
                20.973709106445312,
                38.738853454589844
              ],
              [
                20.74135398864746,
                38.80344009399414
              ],
              [
                20.91095733642578,
                39.06184005737305
              ],
              [
                20.29724884033203,
                39.38497543334961
              ],
              [
                20.15495491027832,
                39.70827102661133
              ],
              [
                19.918411254882812,
                39.70827102661133
              ],
              [
                19.912464141845703,
                39.57893371582031
              ],
              [
                19.75778579711914,
                39.64360046386719
              ],
              [
                19.76365852355957,
                39.77294921875
              ],
              [
                20.00027847290039,
                39.77294921875
              ],
              [
                20.009418487548828,
                39.9670295715332
              ],
              [
                19.62952995300293,
                40.29063034057617
              ],
              [
                19.47136878967285,
                40.29063034057617
              ],
              [
                19.48629379272461,
                40.614410400390625
              ],
              [
                19.2486515045166,
                40.614410400390625
              ],
              [
                19.254547119140625,
                40.74397277832031
              ],
              [
                19.498455047607422,
                40.873565673828125
              ],
              [
                19.437559127807617,
                41.26253128051758
              ],
              [
                19.523332595825195,
                41.39224624633789
              ],
              [
                19.443790435791016,
                41.39224624633789
              ],
              [
                19.529659271240234,
                41.521995544433594
              ],
              [
                19.450061798095703,
                41.521995544433594
              ],
              [
                19.54244041442871,
                41.781593322753906
              ],
              [
                18.85202980041504,
                42.36617660522461
              ],
              [
                18.457979202270508,
                42.496177673339844
              ],
              [
                18.5497989654541,
                42.75628662109375
              ],
              [
                18.469654083251953,
                42.75628662109375
              ],
              [
                18.481433868408203,
                43.016544342041016
              ],
              [
                18.817949295043945,
                43.342071533203125
              ],
              [
                18.81484603881836,
                43.276947021484375
              ],
              [
                18.978776931762695,
                43.342071533203125
              ],
              [
                18.907798767089844,
                43.53750228881836
              ],
              [
                18.988304138183594,
                43.53750228881836
              ],
              [
                19.068809509277344,
                43.53750228881836
              ],
              [
                19.31032371520996,
                43.53750228881836
              ],
              [
                19.47807502746582,
                43.6678352355957
              ],
              [
                19.873855590820312,
                43.53750228881836
              ],
              [
                20.100984573364258,
                43.276947021484375
              ],
              [
                20.261751174926758,
                43.276947021484375
              ],
              [
                20.48802947998047,
                43.016544342041016
              ],
              [
                20.805265426635742,
                42.95146560668945
              ],
              [
                20.87782859802246,
                42.82133865356445
              ],
              [
                21.67134666442871,
                42.691246032714844
              ],
              [
                21.659080505371094,
                42.496177673339844
              ],
              [
                21.091167449951172,
                42.36617660522461
              ],
              [
                20.828866958618164,
                41.97637939453125
              ],
              [
                20.871925354003906,
                41.32738494873047
              ]
            ],
            [
              [
                23.059024810791016,
                38.157840728759766
              ],
              [
                22.980764389038086,
                38.157840728759766
              ],
              [
                22.977134704589844,
                38.09331130981445
              ],
              [
                23.05537223815918,
                38.09331130981445
              ],
              [
                23.059024810791016,
                38.157840728759766
              ]
            ],
            [
              [
                22.9061222076416,
                38.22237777709961
              ],
              [
                22.745981216430664,
                38.157840728759766
              ],
              [
                22.83506965637207,
                38.351463317871094
              ],
              [
                22.51470184326172,
                38.22237777709961
              ],
              [
                22.603641510009766,
                38.416015625
              ],
              [
                22.29022216796875,
                38.416015625
              ],
              [
                22.439908981323242,
                38.28691864013672
              ],
              [
                22.436416625976562,
                38.22237777709961
              ],
              [
                22.589460372924805,
                38.157840728759766
              ],
              [
                22.657155990600586,
                37.96426773071289
              ],
              [
                22.969919204711914,
                37.96426773071289
              ],
              [
                22.9061222076416,
                38.22237777709961
              ]
            ],
            [
              [
                22.984405517578125,
                38.22237777709961
              ],
              [
                22.988061904907227,
                38.28691864013672
              ],
              [
                22.909753799438477,
                38.28691864013672
              ],
              [
                22.9061222076416,
                38.22237777709961
              ],
              [
                22.984405517578125,
                38.22237777709961
              ]
            ],
            [
              [
                22.35123634338379,
                38.09331130981445
              ],
              [
                22.429473876953125,
                38.09331130981445
              ],
              [
                22.432939529418945,
                38.157840728759766
              ],
              [
                22.354679107666016,
                38.157840728759766
              ],
              [
                22.35123634338379,
                38.09331130981445
              ]
            ],
            [
              [
                22.198156356811523,
                38.157840728759766
              ],
              [
                22.276418685913086,
                38.157840728759766
              ],
              [
                22.279848098754883,
                38.22237777709961
              ],
              [
                22.20156478881836,
                38.22237777709961
              ],
              [
                22.198156356811523,
                38.157840728759766
              ]
            ],
            [
              [
                22.35813331604004,
                38.22237777709961
              ],
              [
                22.361600875854492,
                38.28691864013672
              ],
              [
                22.283292770385742,
                38.28691864013672
              ],
              [
                22.279848098754883,
                38.22237777709961
              ],
              [
                22.35813331604004,
                38.22237777709961
              ]
            ],
            [
              [
                21.14027214050293,
                38.93262481689453
              ],
              [
                21.143505096435547,
                38.997230529785156
              ],
              [
                21.14674949645996,
                39.06184005737305
              ],
              [
                21.068151473999023,
                39.06184005737305
              ],
              [
                20.98955535888672,
                39.06184005737305
              ],
              [
                20.986358642578125,
                38.997230529785156
              ],
              [
                21.064931869506836,
                38.997230529785156
              ],
              [
                21.061725616455078,
                38.93262481689453
              ],
              [
                21.14027214050293,
                38.93262481689453
              ]
            ]
          ]
        ]
      }
    }
  ]
}