{
  "type": "FeatureCollection",
  "name": "territory-246",
  "features": [
    {
      "type": "Feature",
      "properties": {
        "Name": "Western Göktürks",
        "FromYear": 629,
        "ToYear": 629,
        "Area": 4205581.842151222,
        "Type": "POLITY",
        "Wikipedia": "Göktürks",
        "Wikidata": "Q205466",
        "SeshatID": "kg_western_turk_khaganate",
        "Components": "",
        "MemberOf": ""
      },
      "geometry": {
        "type": "MultiPolygon",
        "coordinates": [
          [
            [
              [
                60.00878143310547,
                41.97637939453125
              ],
              [
                60.02655029296875,
                42.041324615478516
              ],
              [
                60.10637664794922,
                42.041324615478516
              ],
              [
                60.08857727050781,
                41.97637939453125
              ],
              [
                60.00878143310547,
                41.97637939453125
              ]
            ]
          ],
          [
            [
              [
                72.74433898925781,
                35.837650299072266
              ],
              [
                72.46781921386719,
                35.9664192199707
              ],
              [
                72.50135803222656,
                36.09519577026367
              ],
              [
                72.25849151611328,
                36.3527946472168
              ],
              [
                72.24893188476562,
                36.61045455932617
              ],
              [
                72.26608276367188,
                36.67487716674805
              ],
              [
                72.3352279663086,
                36.932613372802734
              ],
              [
                71.89447021484375,
                36.73930740356445
              ],
              [
                71.58341979980469,
                36.73930740356445
              ],
              [
                71.46198272705078,
                36.8681755065918
              ],
              [
                71.56851959228516,
                37.835243225097656
              ],
              [
                71.27379608154297,
                37.89975357055664
              ],
              [
                71.3639907836914,
                38.22237777709961
              ],
              [
                71.18379211425781,
                38.416015625
              ],
              [
                70.71366119384766,
                38.416015625
              ],
              [
                70.4245834350586,
                38.22237777709961
              ],
              [
                70.1970443725586,
                37.96426773071289
              ],
              [
                70.26583862304688,
                37.641746520996094
              ],
              [
                70.07515716552734,
                37.51277160644531
              ],
              [
                69.5460205078125,
                37.5772590637207
              ],
              [
                69.3497543334961,
                37.12596130371094
              ],
              [
                69.1160659790039,
                37.12596130371094
              ],
              [
                69.0102767944336,
                37.3193473815918
              ],
              [
                68.7763900756836,
                37.3193473815918
              ],
              [
                68.1487045288086,
                36.9970588684082
              ],
              [
                67.91515350341797,
                36.9970588684082
              ],
              [
                67.74652099609375,
                37.254878997802734
              ],
              [
                67.12300109863281,
                37.254878997802734
              ],
              [
                66.99945068359375,
                37.38381576538086
              ],
              [
                66.51548767089844,
                37.3193473815918
              ],
              [
                65.62744903564453,
                37.51277160644531
              ],
              [
                65.58131408691406,
                37.641746520996094
              ],
              [
                64.7397232055664,
                38.028785705566406
              ],
              [
                64.36690521240234,
                38.416015625
              ],
              [
                64.00749206542969,
                38.54513168334961
              ],
              [
                63.837432861328125,
                38.80344009399414
              ],
              [
                63.6804313659668,
                38.80344009399414
              ],
              [
                63.5726203918457,
                38.997230529785156
              ],
              [
                63.41547393798828,
                38.997230529785156
              ],
              [
                63.24568557739258,
                39.25570297241211
              ],
              [
                63.088340759277344,
                39.25570297241211
              ],
              [
                62.65380859375,
                39.70827102661133
              ],
              [
                62.687564849853516,
                39.8376350402832
              ],
              [
                62.48472595214844,
                39.9670295715332
              ],
              [
                62.50175094604492,
                40.031734466552734
              ],
              [
                62.19231414794922,
                40.355369567871094
              ],
              [
                62.226932525634766,
                40.4848747253418
              ],
              [
                62.0241584777832,
                40.614410400390625
              ],
              [
                62.059104919433594,
                40.74397277832031
              ],
              [
                61.91808319091797,
                40.80876541137695
              ],
              [
                61.8654670715332,
                41.19768524169922
              ],
              [
                61.30925369262695,
                41.19768524169922
              ],
              [
                61.061988830566406,
                41.45711898803711
              ],
              [
                60.76137924194336,
                41.521995544433594
              ],
              [
                60.611297607421875,
                41.84651184082031
              ],
              [
                60.31012725830078,
                41.911441802978516
              ],
              [
                60.12422561645508,
                42.10627746582031
              ],
              [
                59.94672775268555,
                42.041324615478516
              ],
              [
                59.98236083984375,
                42.17123794555664
              ],
              [
                59.85831069946289,
                42.30118942260742
              ],
              [
                59.21879196166992,
                42.30118942260742
              ],
              [
                59.12974548339844,
                42.56119155883789
              ],
              [
                58.74713897705078,
                42.62621307373047
              ],
              [
                58.70248031616211,
                42.75628662109375
              ],
              [
                58.42679214477539,
                42.62621307373047
              ],
              [
                58.31938552856445,
                42.82133865356445
              ],
              [
                57.587406158447266,
                43.08163070678711
              ],
              [
                57.461830139160156,
                43.211830139160156
              ],
              [
                57.49699783325195,
                43.342071533203125
              ],
              [
                57.29090118408203,
                43.472347259521484
              ],
              [
                57.326194763183594,
                43.6026611328125
              ],
              [
                57.102203369140625,
                43.6678352355957
              ],
              [
                56.98414993286133,
                44.12431716918945
              ],
              [
                56.840328216552734,
                44.18956756591797
              ],
              [
                56.87590408325195,
                44.32010269165039
              ],
              [
                56.15509796142578,
                44.64661407470703
              ],
              [
                55.89445114135742,
                44.58129119873047
              ],
              [
                55.929588317871094,
                44.71194839477539
              ],
              [
                55.70391845703125,
                44.77729415893555
              ],
              [
                54.29523849487305,
                44.973392486572266
              ],
              [
                54.363616943359375,
                45.23500442504883
              ],
              [
                54.21808624267578,
                45.300437927246094
              ],
              [
                54.286781311035156,
                45.56227111816406
              ],
              [
                53.87939453125,
                45.56227111816406
              ],
              [
                53.66555404663086,
                45.36587905883789
              ],
              [
                53.129337310791016,
                45.496795654296875
              ],
              [
                53.067134857177734,
                45.889827728271484
              ],
              [
                53.247371673583984,
                45.95537567138672
              ],
              [
                53.34987258911133,
                46.348915100097656
              ],
              [
                53.26800537109375,
                46.348915100097656
              ],
              [
                53.27227020263672,
                46.677207946777344
              ],
              [
                53.19023513793945,
                46.677207946777344
              ],
              [
                53.242305755615234,
                46.87434005737305
              ],
              [
                53.112831115722656,
                47.005828857421875
              ],
              [
                51.862857818603516,
                46.94007873535156
              ],
              [
                51.81448745727539,
                47.07159423828125
              ],
              [
                51.58463668823242,
                47.13737487792969
              ],
              [
                50.84418869018555,
                47.13737487792969
              ],
              [
                50.3016242980957,
                46.94007873535156
              ],
              [
                49.990848541259766,
                46.677207946777344
              ],
              [
                49.303199768066406,
                46.54585266113281
              ],
              [
                49.06181335449219,
                46.21768569946289
              ],
              [
                48.6375732421875,
                46.1520881652832
              ],
              [
                48.59209442138672,
                45.95537567138672
              ],
              [
                48.34708023071289,
                45.95537567138672
              ],
              [
                48.05744171142578,
                45.75876998901367
              ],
              [
                47.56800079345703,
                45.75876998901367
              ],
              [
                47.457275390625,
                45.62776184082031
              ],
              [
                47.53878402709961,
                45.62776184082031
              ],
              [
                47.48066329956055,
                45.36587905883789
              ],
              [
                47.332332611083984,
                45.431331634521484
              ],
              [
                47.04105758666992,
                44.842647552490234
              ],
              [
                46.688507080078125,
                44.71194839477539
              ],
              [
                46.63267517089844,
                44.45067596435547
              ],
              [
                47.00926971435547,
                44.32010269165039
              ],
              [
                47.34308624267578,
                43.99384307861328
              ],
              [
                47.33984375,
                43.6026611328125
              ],
              [
                47.459136962890625,
                43.407203674316406
              ],
              [
                47.376399993896484,
                43.016544342041016
              ],
              [
                47.656158447265625,
                42.82133865356445
              ],
              [
                47.68162155151367,
                42.56119155883789
              ],
              [
                47.9608268737793,
                42.36617660522461
              ],
              [
                47.933658599853516,
                42.236209869384766
              ],
              [
                49.08600997924805,
                41.26253128051758
              ],
              [
                49.059226989746094,
                41.132843017578125
              ],
              [
                49.270748138427734,
                41.00318908691406
              ],
              [
                49.2441520690918,
                40.873565673828125
              ],
              [
                49.50836181640625,
                40.614410400390625
              ],
              [
                50.04951477050781,
                40.54964065551758
              ],
              [
                50.2603759765625,
                40.42012023925781
              ],
              [
                49.6933479309082,
                40.355369567871094
              ],
              [
                49.50919723510742,
                40.225894927978516
              ],
              [
                49.26664352416992,
                39.38497543334961
              ],
              [
                49.151405334472656,
                39.19107437133789
              ],
              [
                48.91546630859375,
                39.19107437133789
              ],
              [
                48.879573822021484,
                38.997230529785156
              ],
              [
                48.801002502441406,
                38.997230529785156
              ],
              [
                48.58897018432617,
                39.1264533996582
              ],
              [
                48.19586181640625,
                39.1264533996582
              ],
              [
                48.07395935058594,
                39.320335388183594
              ],
              [
                47.84966278076172,
                39.38497543334961
              ],
              [
                47.14117431640625,
                39.38497543334961
              ],
              [
                47.085670471191406,
                39.51427459716797
              ],
              [
                46.8493537902832,
                39.51427459716797
              ],
              [
                46.79377746582031,
                39.64360046386719
              ],
              [
                46.63613510131836,
                39.64360046386719
              ],
              [
                46.60393142700195,
                39.90232849121094
              ],
              [
                46.45779800415039,
                39.9670295715332
              ],
              [
                46.41419219970703,
                40.16116714477539
              ],
              [
                45.6797981262207,
                40.031734466552734
              ],
              [
                45.882118225097656,
                39.8376350402832
              ],
              [
                45.589012145996094,
                39.51427459716797
              ],
              [
                45.14964294433594,
                39.70827102661133
              ],
              [
                44.51885986328125,
                39.70827102661133
              ],
              [
                44.38304138183594,
                39.8376350402832
              ],
              [
                44.59653854370117,
                40.16116714477539
              ],
              [
                44.64187240600586,
                40.42012023925781
              ],
              [
                44.50641632080078,
                40.54964065551758
              ],
              [
                44.655181884765625,
                40.93837356567383
              ],
              [
                44.57583236694336,
                40.93837356567383
              ],
              [
                44.64666748046875,
                41.32738494873047
              ],
              [
                44.56715393066406,
                41.32738494873047
              ],
              [
                44.7188606262207,
                41.71668243408203
              ],
              [
                44.50400161743164,
                41.84651184082031
              ],
              [
                44.55278778076172,
                42.10627746582031
              ],
              [
                44.804718017578125,
                42.17123794555664
              ],
              [
                44.82474899291992,
                42.691246032714844
              ],
              [
                44.83738327026367,
                42.75628662109375
              ],
              [
                45.157962799072266,
                42.75628662109375
              ],
              [
                45.44002914428711,
                42.56119155883789
              ],
              [
                45.68020248413086,
                42.56119155883789
              ],
              [
                45.68342208862305,
                42.17123794555664
              ],
              [
                46.229713439941406,
                42.10627746582031
              ],
              [
                46.43056869506836,
                41.911441802978516
              ],
              [
                46.81643295288086,
                41.84651184082031
              ],
              [
                47.496280670166016,
                41.26253128051758
              ],
              [
                47.81422424316406,
                41.26253128051758
              ],
              [
                48.09209060668945,
                41.45711898803711
              ],
              [
                48.1719970703125,
                41.84651184082031
              ],
              [
                47.94615173339844,
                41.911441802978516
              ],
              [
                47.2147331237793,
                42.62621307373047
              ],
              [
                47.18866729736328,
                42.88639831542969
              ],
              [
                46.921913146972656,
                43.146724700927734
              ],
              [
                46.76126480102539,
                43.146724700927734
              ],
              [
                46.49380874633789,
                43.407203674316406
              ],
              [
                46.25247573852539,
                43.407203674316406
              ],
              [
                46.05158233642578,
                43.99384307861328
              ],
              [
                45.89014434814453,
                43.99384307861328
              ],
              [
                45.997955322265625,
                44.12431716918945
              ],
              [
                45.728816986083984,
                44.38538360595703
              ],
              [
                45.75595474243164,
                44.5159797668457
              ],
              [
                45.6075553894043,
                44.58129119873047
              ],
              [
                45.58080291748047,
                44.842647552490234
              ],
              [
                45.432106018066406,
                44.908016204833984
              ],
              [
                45.39162826538086,
                45.10417556762695
              ],
              [
                45.229122161865234,
                45.10417556762695
              ],
              [
                45.3375358581543,
                45.23500442504883
              ],
              [
                44.93049621582031,
                45.62776184082031
              ],
              [
                44.631343841552734,
                45.75876998901367
              ],
              [
                44.6583251953125,
                45.889827728271484
              ],
              [
                44.440303802490234,
                46.02093505859375
              ],
              [
                44.467308044433594,
                46.1520881652832
              ],
              [
                44.1805534362793,
                46.348915100097656
              ],
              [
                44.207584381103516,
                46.480194091796875
              ],
              [
                43.933746337890625,
                46.74290466308594
              ],
              [
                43.70099639892578,
                46.808616638183594
              ],
              [
                43.728004455566406,
                46.94007873535156
              ],
              [
                43.42620086669922,
                47.07159423828125
              ],
              [
                43.45322036743164,
                47.20316696166992
              ],
              [
                43.24679183959961,
                47.4006233215332
              ],
              [
                43.287620544433594,
                47.598209381103516
              ],
              [
                43.08095169067383,
                47.79592514038086
              ],
              [
                43.23269271850586,
                48.1257438659668
              ],
              [
                44.879417419433594,
                48.455936431884766
              ],
              [
                45.85984802246094,
                48.38986587524414
              ],
              [
                48.014617919921875,
                48.72037124633789
              ],
              [
                49.51743698120117,
                49.38258361816406
              ],
              [
                53.38418197631836,
                50.312522888183594
              ],
              [
                54.47663497924805,
                50.312522888183594
              ],
              [
                55.46515655517578,
                50.51224899291992
              ],
              [
                58.86937713623047,
                50.37908172607422
              ],
              [
                62.053924560546875,
                50.578861236572266
              ],
              [
                66.74571228027344,
                50.312522888183594
              ],
              [
                67.41297912597656,
                50.71213912963867
              ],
              [
                67.3837890625,
                50.84549331665039
              ],
              [
                67.6368637084961,
                50.84549331665039
              ],
              [
                67.69259643554688,
                50.97892379760742
              ],
              [
                67.86148071289062,
                50.97892379760742
              ],
              [
                68.11522674560547,
                51.17921447753906
              ],
              [
                68.45348358154297,
                51.17921447753906
              ],
              [
                68.4249267578125,
                51.112430572509766
              ],
              [
                68.67849731445312,
                51.112430572509766
              ],
              [
                68.64991760253906,
                51.04566955566406
              ],
              [
                68.81887817382812,
                51.04566955566406
              ],
              [
                68.84626770019531,
                50.912200927734375
              ],
              [
                69.01506042480469,
                50.912200927734375
              ],
              [
                69.1268539428711,
                50.77880859375
              ],
              [
                69.63275146484375,
                50.77880859375
              ],
              [
                69.60416412353516,
                50.71213912963867
              ],
              [
                70.24955749511719,
                50.64549255371094
              ],
              [
                70.36056518554688,
                50.51224899291992
              ],
              [
                70.72602844238281,
                50.578861236572266
              ],
              [
                70.83668518066406,
                50.445655822753906
              ],
              [
                71.20211791992188,
                50.51224899291992
              ],
              [
                71.14427947998047,
                50.37908172607422
              ],
              [
                71.53873443603516,
                50.51224899291992
              ],
              [
                72.51898193359375,
                50.445655822753906
              ],
              [
                72.48947143554688,
                50.37908172607422
              ],
              [
                74.0868911743164,
                50.37908172607422
              ],
              [
                74.0567398071289,
                50.312522888183594
              ],
              [
                77.16603088378906,
                50.312522888183594
              ],
              [
                77.64997863769531,
                50.445655822753906
              ],
              [
                77.61802673339844,
                50.37908172607422
              ],
              [
                78.14246368408203,
                50.2459831237793
              ],
              [
                78.11060333251953,
                50.17946243286133
              ],
              [
                79.28598022460938,
                50.17946243286133
              ],
              [
                82.29215240478516,
                50.312522888183594
              ],
              [
                86.24319458007812,
                50.77880859375
              ],
              [
                88.27997589111328,
                51.24601745605469
              ],
              [
                88.35723114013672,
                51.37968063354492
              ],
              [
                89.1650161743164,
                51.31283950805664
              ],
              [
                89.1717529296875,
                51.17921447753906
              ],
              [
                89.64700317382812,
                50.97892379760742
              ],
              [
                89.60838317871094,
                50.912200927734375
              ],
              [
                88.85690307617188,
                50.17946243286133
              ],
              [
                88.41162872314453,
                49.51522445678711
              ],
              [
                87.81902313232422,
                49.18375015258789
              ],
              [
                87.73048400878906,
                48.852684020996094
              ],
              [
                87.8968734741211,
                48.852684020996094
              ],
              [
                88.05951690673828,
                48.52202224731445
              ],
              [
                88.30854797363281,
                48.52202224731445
              ],
              [
                88.32398986816406,
                48.38986587524414
              ],
              [
                88.62197875976562,
                48.323814392089844
              ],
              [
                88.6375961303711,
                48.191749572753906
              ],
              [
                88.80326080322266,
                48.191749572753906
              ],
              [
                88.76969909667969,
                48.1257438659668
              ],
              [
                88.93529510498047,
                48.1257438659668
              ],
              [
                89.0337905883789,
                47.993770599365234
              ],
              [
                89.61286163330078,
                47.993770599365234
              ],
              [
                89.71098327636719,
                47.86185836791992
              ],
              [
                90.17317962646484,
                47.79592514038086
              ],
              [
                91.00859832763672,
                46.677207946777344
              ],
              [
                90.91261291503906,
                46.1520881652832
              ],
              [
                90.994384765625,
                46.1520881652832
              ],
              [
                90.59378051757812,
                45.496795654296875
              ],
              [
                90.74337005615234,
                45.300437927246094
              ],
              [
                90.90606689453125,
                45.300437927246094
              ],
              [
                91.00562286376953,
                45.169586181640625
              ],
              [
                91.99856567382812,
                45.03877639770508
              ],
              [
                92.34408569335938,
                44.58129119873047
              ],
              [
                92.5060806274414,
                44.58129119873047
              ],
              [
                92.57295227050781,
                44.38538360595703
              ],
              [
                93.75652313232422,
                43.99384307861328
              ],
              [
                94.05020141601562,
                43.6026611328125
              ],
              [
                93.98719024658203,
                43.472347259521484
              ],
              [
                94.31283569335938,
                43.146724700927734
              ],
              [
                94.10306549072266,
                42.36617660522461
              ],
              [
                93.31349182128906,
                42.041324615478516
              ],
              [
                92.86837005615234,
                41.586883544921875
              ],
              [
                92.55916595458984,
                41.06801223754883
              ],
              [
                90.78136444091797,
                40.80876541137695
              ],
              [
                88.56221008300781,
                40.225894927978516
              ],
              [
                88.24598693847656,
                40.225894927978516
              ],
              [
                85.37594604492188,
                39.320335388183594
              ],
              [
                85.1480484008789,
                39.1264533996582
              ],
              [
                84.32572937011719,
                38.80344009399414
              ],
              [
                84.17945098876953,
                38.60969924926758
              ],
              [
                83.94416809082031,
                38.60969924926758
              ],
              [
                82.90682983398438,
                38.09331130981445
              ],
              [
                82.48761749267578,
                37.7707405090332
              ],
              [
                82.05523681640625,
                37.641746520996094
              ],
              [
                81.69473266601562,
                36.9970588684082
              ],
              [
                82.02363586425781,
                36.80373764038086
              ],
              [
                81.94584655761719,
                36.80373764038086
              ],
              [
                79.14901733398438,
                36.28839111328125
              ],
              [
                79.07140350341797,
                36.28839111328125
              ],
              [
                77.35066986083984,
                35.9664192199707
              ],
              [
                76.84990692138672,
                35.837650299072266
              ],
              [
                76.73696899414062,
                35.708900451660156
              ],
              [
                76.52235412597656,
                35.77327346801758
              ],
              [
                75.41548573841587,
                35.38706970214844
              ],
              [
                75.24552730845339,
                35.54668240296396
              ],
              [
                74.71138017409515,
                35.59255919661825
              ],
              [
                74.65829722906575,
                35.435930352303124
              ],
              [
                74.4194239764335,
                35.29795272792197
              ],
              [
                73.41084802087508,
                35.45485004401729
              ],
              [
                73.18874643247815,
                35.258358001708984
              ],
              [
                73.13688659667969,
                35.258358001708984
              ],
              [
                72.71102905273438,
                35.708900451660156
              ],
              [
                72.74433898925781,
                35.837650299072266
              ]
            ]
          ],
          [
            [
              [
                45.161376953125,
                45.169586181640625
              ],
              [
                45.174903869628906,
                45.23500442504883
              ],
              [
                45.25621795654297,
                45.23500442504883
              ],
              [
                45.24266052246094,
                45.169586181640625
              ],
              [
                45.161376953125,
                45.169586181640625
              ]
            ]
          ],
          [
            [
              [
                53.08402633666992,
                45.95537567138672
              ],
              [
                53.100955963134766,
                46.02093505859375
              ],
              [
                53.18265914916992,
                46.02093505859375
              ],
              [
                53.16569900512695,
                45.95537567138672
              ],
              [
                53.08402633666992,
                45.95537567138672
              ]
            ]
          ]
        ]
      }
    }
  ]
}