{
  "type": "FeatureCollection",
  "name": "territory-248",
  "features": [
    {
      "type": "Feature",
      "properties": {
        "Name": "Pandya Dynasty",
        "FromYear": 592,
        "ToYear": 910,
        "Area": 77513.39761392455,
        "Type": "POLITY",
        "Wikipedia": "Pandya dynasty",
        "Wikidata": "Q844910",
        "SeshatID": "in_pandya_emp_2",
        "Components": "",
        "MemberOf": ""
      },
      "geometry": {
        "type": "Polygon",
        "coordinates": [
          [
            [
              79.32189713358214,
              10.81387730944359
            ],
            [
              79.87245786975247,
              10.94995848491416
            ],
            [
              79.88648624029955,
              10.30095600008071
            ],
            [
              79.31037292763126,
              10.24501651407609
            ],
            [
              78.92471194926868,
              9.574174562633127
            ],
            [
              78.96732121938973,
              9.368205973977284
            ],
            [
              79.17436894082343,
              9.288638935245142
            ],
            [
              78.74943196424167,
              9.231449745845506
            ],
            [
              78.29432780228059,
              9.003394914113855
            ],
            [
              78.13921808978799,
              8.788856394997472
            ],
            [
              78.09976861870875,
              8.382559072693194
            ],
            [
              77.77227888637594,
              8.169673785387682
            ],
            [
              77.5531545322657,
              8.06933131694545
            ],
            [
              77.29459794410185,
              8.127648800239438
            ],
            [
              76.54435672441629,
              8.878791186694475
            ],
            [
              76.24330950544007,
              9.926596566834002
            ],
            [
              76.52096153246927,
              10.53633690025429
            ],
            [
              77.04239495453821,
              10.95160086487038
            ],
            [
              78.0960378662894,
              10.93948332905089
            ],
            [
              78.7206389105922,
              10.7781643915826
            ],
            [
              79.32189713358214,
              10.81387730944359
            ]
          ]
        ]
      }
    }
  ]
}