{
  "type": "FeatureCollection",
  "name": "territory-249",
  "features": [
    {
      "type": "Feature",
      "properties": {
        "Name": "Gauda Kingdom",
        "FromYear": 602,
        "ToYear": 611,
        "Area": 90553.52018428601,
        "Type": "POLITY",
        "Wikipedia": "Gauda Kingdom",
        "Wikidata": "Q17076645",
        "SeshatID": "in_gauda_k",
        "Components": "",
        "MemberOf": ""
      },
      "geometry": {
        "type": "Polygon",
        "coordinates": [
          [
            [
              87.75257683363832,
              21.725884911132407
            ],
            [
              88.15927734375005,
              22.121728515624998
            ],
            [
              87.96162109375003,
              22.255029296874987
            ],
            [
              87.94140624999997,
              22.37431640625
            ],
            [
              88.19204282021037,
              22.10983518332844
            ],
            [
              88.25416652471844,
              22.362051694259176
            ],
            [
              88.55939345863744,
              22.570531843391496
            ],
            [
              88.6191117717955,
              23.035404497817353
            ],
            [
              88.82480818378438,
              23.352555893027503
            ],
            [
              89.70067677676933,
              24.020951874509326
            ],
            [
              89.52815720542382,
              24.93884971135107
            ],
            [
              89.67411176931904,
              25.392851637080835
            ],
            [
              90.4171585786232,
              25.1849441531343
            ],
            [
              91.07199639206375,
              24.18678413471978
            ],
            [
              91.31236847804229,
              24.15282815335073
            ],
            [
              91.58273434803583,
              23.9464047478349
            ],
            [
              91.76767922687264,
              23.33740640011824
            ],
            [
              91.64032971493374,
              22.83478574548079
            ],
            [
              91.43515131149114,
              22.69199212534419
            ],
            [
              91.58009303914027,
              22.47959188771656
            ],
            [
              91.54607879396349,
              22.34989260020989
            ],
            [
              91.38553423491666,
              22.50195595001784
            ],
            [
              91.4470424064022,
              22.35172620068672
            ],
            [
              91.34276613066024,
              22.45673471537641
            ],
            [
              91.14600066690049,
              22.43246965476389
            ],
            [
              91.20770755988264,
              22.24534871703408
            ],
            [
              91.12148791920639,
              22.04425949264348
            ],
            [
              90.98914134490063,
              22.00900656756177
            ],
            [
              90.96420529661471,
              22.10864347336495
            ],
            [
              90.8475765751619,
              21.86760892354436
            ],
            [
              90.576331711597,
              21.87285235156311
            ],
            [
              90.47647009983633,
              21.75136160310852
            ],
            [
              90.28857287359389,
              21.87072867691909
            ],
            [
              90.10726672162629,
              21.8035109383537
            ],
            [
              90.02525027876771,
              21.96645315470639
            ],
            [
              89.5927691940397,
              21.6907468502508
            ],
            [
              89.47419039376912,
              21.71670103927083
            ],
            [
              89.5255312660273,
              21.9473678649294
            ],
            [
              89.34967195567481,
              21.68276476135174
            ],
            [
              88.53830700366585,
              21.53338305093015
            ],
            [
              88.03587456967146,
              21.63339271019308
            ],
            [
              88.06719688817184,
              21.80423405317753
            ],
            [
              87.98157819596014,
              21.82854228689559
            ],
            [
              87.75257683363832,
              21.725884911132407
            ]
          ]
        ]
      }
    }
  ]
}