{
  "type": "FeatureCollection",
  "name": "territory-25",
  "features": [
    {
      "type": "Feature",
      "properties": {
        "Name": "Sabaeans",
        "FromYear": 154,
        "ToYear": 237,
        "Area": 64450.64785275195,
        "Type": "POLITY",
        "Wikipedia": "Sabaeans",
        "Wikidata": "Q940785",
        "SeshatID": "",
        "Components": "",
        "MemberOf": ""
      },
      "geometry": {
        "type": "Polygon",
        "coordinates": [
          [
            [
              44.81336975097656,
              16.614723205566406
            ],
            [
              44.809654235839844,
              16.550434112548828
            ],
            [
              45.22568130493164,
              16.100418090820312
            ],
            [
              45.21470260620117,
              15.907554626464844
            ],
            [
              45.365570068359375,
              15.971842765808105
            ],
            [
              45.579044342041016,
              15.843266487121582
            ],
            [
              46.0206184387207,
              15.843266487121582
            ],
            [
              46.17527389526367,
              15.971842765808105
            ],
            [
              46.39610290527344,
              15.971842765808105
            ],
            [
              46.46971130371094,
              15.971842765808105
            ],
            [
              46.38114929199219,
              15.714691162109375
            ],
            [
              46.14939498901367,
              15.52182674407959
            ],
            [
              45.85514831542969,
              15.52182674407959
            ],
            [
              45.847938537597656,
              15.393251419067383
            ],
            [
              45.17897415161133,
              15.26467514038086
            ],
            [
              45.024959564208984,
              15.136098861694336
            ],
            [
              44.28974151611328,
              15.136098861694336
            ],
            [
              42.88957214355469,
              15.07181167602539
            ],
            [
              42.81605529785156,
              15.07181167602539
            ],
            [
              42.765567779541016,
              15.52182674407959
            ],
            [
              42.6920051574707,
              15.52182674407959
            ],
            [
              42.8239860534668,
              16.614723205566406
            ],
            [
              42.476654052734375,
              17.000450134277344
            ],
            [
              42.48728942871094,
              17.193313598632812
            ],
            [
              42.63478469848633,
              17.193313598632812
            ],
            [
              43.02164077758789,
              17.514753341674805
            ],
            [
              43.03257751464844,
              17.707616806030273
            ],
            [
              43.250328063964844,
              17.643327713012695
            ],
            [
              43.552940368652344,
              17.77190399169922
            ],
            [
              43.89961624145508,
              17.38617706298828
            ],
            [
              43.81843948364258,
              17.257600784301758
            ],
            [
              43.95853805541992,
              17.129026412963867
            ],
            [
              43.94747543334961,
              16.9361629486084
            ],
            [
              44.087547302246094,
              16.807586669921875
            ],
            [
              44.312355041503906,
              16.87187385559082
            ],
            [
              44.304962158203125,
              16.743297576904297
            ],
            [
              44.81336975097656,
              16.614723205566406
            ]
          ]
        ]
      }
    }
  ]
}