{
  "type": "FeatureCollection",
  "name": "territory-250",
  "features": [
    {
      "type": "Feature",
      "properties": {
        "Name": "Frisia Kingdom",
        "FromYear": 612,
        "ToYear": 616,
        "Area": 63720.452730710414,
        "Type": "POLITY",
        "Wikipedia": "Frisia",
        "Wikidata": "Q4492881",
        "SeshatID": "",
        "Components": "",
        "MemberOf": ""
      },
      "geometry": {
        "type": "Polygon",
        "coordinates": [
          [
            [
              10.860734939575195,
              49.2500114440918
            ],
            [
              10.944150924682617,
              49.2500114440918
            ],
            [
              11.110798835754395,
              49.18375015258789
            ],
            [
              11.026754379272461,
              48.852684020996094
            ],
            [
              11.026633262634277,
              48.786521911621094
            ],
            [
              10.11336898803711,
              48.455936431884766
            ],
            [
              9.950777053833008,
              47.86185836791992
            ],
            [
              9.868124008178711,
              47.86185836791992
            ],
            [
              9.951909065246582,
              47.664100646972656
            ],
            [
              9.541373252868652,
              47.4006233215332
            ],
            [
              9.54301929473877,
              47.20316696166992
            ],
            [
              9.625325202941895,
              47.20316696166992
            ],
            [
              9.545738220214844,
              46.87434005737305
            ],
            [
              8.394814491271973,
              46.94007873535156
            ],
            [
              8.061505317687988,
              47.20316696166992
            ],
            [
              7.483957767486572,
              47.26897048950195
            ],
            [
              7.062728881835938,
              47.664100646972656
            ],
            [
              7.131087303161621,
              48.257774353027344
            ],
            [
              7.213953495025635,
              48.257774353027344
            ],
            [
              7.364774227142334,
              48.91886520385742
            ],
            [
              7.528380393981934,
              49.051273345947266
            ],
            [
              8.112674713134766,
              48.98506164550781
            ],
            [
              8.275930404663086,
              49.18375015258789
            ],
            [
              8.351943016052246,
              49.64793395996094
            ],
            [
              8.268299102783203,
              49.64793395996094
            ],
            [
              8.26287841796875,
              49.98000717163086
            ],
            [
              8.346715927124023,
              49.98000717163086
            ],
            [
              8.42556381225586,
              50.312522888183594
            ],
            [
              8.843364715576172,
              50.51224899291992
            ],
            [
              9.266509056091309,
              50.2459831237793
            ],
            [
              9.520442008972168,
              49.98000717163086
            ],
            [
              9.439866065979004,
              49.58156967163086
            ],
            [
              9.690682411193848,
              49.58156967163086
            ],
            [
              9.775094032287598,
              49.44889450073242
            ],
            [
              10.527070999145508,
              49.2500114440918
            ],
            [
              10.860734939575195,
              49.2500114440918
            ]
          ]
        ]
      }
    }
  ]
}