{
  "type": "FeatureCollection",
  "name": "territory-251",
  "features": [
    {
      "type": "Feature",
      "properties": {
        "Name": "Kingdom of Northumbria",
        "FromYear": 656,
        "ToYear": 660,
        "Area": 85388.46262554714,
        "Type": "POLITY",
        "Wikipedia": "Northumbria",
        "Wikidata": "Q107299",
        "SeshatID": "gb_anglo_saxon_1",
        "Components": "",
        "MemberOf": "(Anglo-Saxon England)"
      },
      "geometry": {
        "type": "Polygon",
        "coordinates": [
          [
            [
              -1.505842089653015,
              55.15733337402344
            ],
            [
              -1.499213099479675,
              55.089229583740234
            ],
            [
              -1.285956144332886,
              54.681121826171875
            ],
            [
              -0.671433329582214,
              54.613189697265625
            ],
            [
              -0.202435865998268,
              54.20612335205078
            ],
            [
              -0.17964468896389,
              53.93522644042969
            ],
            [
              0.004257039166987,
              53.799922943115234
            ],
            [
              0.020827349275351,
              53.597137451171875
            ],
            [
              0.29531991481781,
              53.39456558227539
            ],
            [
              0.316494405269623,
              53.124786376953125
            ],
            [
              0.06977716833353,
              52.99003219604492
            ],
            [
              0.166152358055115,
              52.85536575317383
            ],
            [
              0.251802802085876,
              52.85536575317383
            ],
            [
              0.091171719133854,
              52.720787048339844
            ],
            [
              0.122854612767696,
              52.31757736206055
            ],
            [
              0.208147898316383,
              52.31757736206055
            ],
            [
              0.324117004871368,
              51.91512680053711
            ],
            [
              -0.441165030002594,
              51.91512680053711
            ],
            [
              -0.430267751216888,
              51.78114318847656
            ],
            [
              -0.696259021759033,
              51.91512680053711
            ],
            [
              -0.578191220760345,
              51.51342010498047
            ],
            [
              -0.747740209102631,
              51.51342010498047
            ],
            [
              -0.84372466802597,
              51.64724349975586
            ],
            [
              -1.262197017669678,
              51.580322265625
            ],
            [
              -1.364664435386658,
              51.78114318847656
            ],
            [
              -2.122885942459106,
              51.71418380737305
            ],
            [
              -2.110366582870483,
              51.580322265625
            ],
            [
              -2.345783948898315,
              51.37968063354492
            ],
            [
              -2.704085111618042,
              51.580322265625
            ],
            [
              -2.55389666557312,
              51.78114318847656
            ],
            [
              -2.822042465209961,
              51.91512680053711
            ],
            [
              -2.82872486114502,
              51.98215103149414
            ],
            [
              -2.913799524307251,
              51.98215103149414
            ],
            [
              -2.920543432235718,
              52.0491943359375
            ],
            [
              -2.927305936813354,
              52.11625671386719
            ],
            [
              -2.81787896156311,
              52.720787048339844
            ],
            [
              -2.732318639755249,
              52.720787048339844
            ],
            [
              -2.845422029495239,
              52.99003219604492
            ],
            [
              -2.887294769287109,
              53.39456558227539
            ],
            [
              -3.152528285980225,
              53.462066650390625
            ],
            [
              -3.159731149673462,
              53.52959060668945
            ],
            [
              -3.095205545425415,
              53.732303619384766
            ],
            [
              -3.196035623550415,
              53.86756134033203
            ],
            [
              -2.96582555770874,
              54.138362884521484
            ],
            [
              -3.304538726806641,
              54.07062530517578
            ],
            [
              -3.319409608840942,
              54.20612335205078
            ],
            [
              -3.586766958236694,
              54.27390670776367
            ],
            [
              -3.617407321929932,
              54.545284271240234
            ],
            [
              -3.704231739044189,
              54.545284271240234
            ],
            [
              -3.648374080657959,
              54.817054748535156
            ],
            [
              -3.394958257675171,
              54.88506317138672
            ],
            [
              -3.402623414993286,
              54.95309066772461
            ],
            [
              -3.06163477897644,
              55.021148681640625
            ],
            [
              -3.186784505844116,
              55.36180877685547
            ],
            [
              -3.274203062057495,
              55.36180877685547
            ],
            [
              -3.783684492111206,
              55.97663879394531
            ],
            [
              -3.791834115982056,
              56.04508590698242
            ],
            [
              -2.656256437301636,
              56.11355972290039
            ],
            [
              -2.01904296875,
              55.90821838378906
            ],
            [
              -1.633551597595215,
              55.56651306152344
            ],
            [
              -1.505842089653015,
              55.15733337402344
            ]
          ]
        ]
      }
    }
  ]
}