{
  "type": "FeatureCollection",
  "name": "territory-254",
  "features": [
    {
      "type": "Feature",
      "properties": {
        "Name": "Tang Dynasty",
        "FromYear": 661,
        "ToYear": 665,
        "Area": 8731215.336840339,
        "Type": "POLITY",
        "Wikipedia": "Tang dynasty",
        "Wikidata": "Q9683",
        "SeshatID": "cn_tang_dyn_1",
        "Components": "",
        "MemberOf": ""
      },
      "geometry": {
        "type": "MultiPolygon",
        "coordinates": [
          [
            [
              [
                109.86219787597656,
                18.350492477416992
              ],
              [
                109.84064483642578,
                18.2219181060791
              ],
              [
                109.24968719482422,
                18.2219181060791
              ],
              [
                109.12333679199219,
                18.350492477416992
              ],
              [
                108.76459503173828,
                18.414779663085938
              ],
              [
                108.63818359375,
                18.543354034423828
              ],
              [
                108.70427703857422,
                19.379087448120117
              ],
              [
                109.20277404785156,
                19.700523376464844
              ],
              [
                109.2463607788086,
                19.95766830444336
              ],
              [
                110.15737915039062,
                20.08624267578125
              ],
              [
                110.59095001220703,
                20.021955490112305
              ],
              [
                110.613037109375,
                20.150527954101562
              ],
              [
                110.90947723388672,
                20.150527954101562
              ],
              [
                111.08741760253906,
                19.893383026123047
              ],
              [
                111.03193664550781,
                19.571949005126953
              ],
              [
                110.88386535644531,
                19.571949005126953
              ],
              [
                110.85066986083984,
                19.379087448120117
              ],
              [
                110.68057250976562,
                19.25051498413086
              ],
              [
                110.50775909423828,
                18.67193031311035
              ],
              [
                110.1902847290039,
                18.543354034423828
              ],
              [
                110.1794204711914,
                18.479066848754883
              ],
              [
                109.86219787597656,
                18.350492477416992
              ]
            ]
          ],
          [
            [
              [
                106.09354400634766,
                23.622013092041016
              ],
              [
                106.16812133789062,
                23.622013092041016
              ],
              [
                106.1561279296875,
                23.557723999023438
              ],
              [
                106.08155822753906,
                23.557723999023438
              ],
              [
                106.09354400634766,
                23.622013092041016
              ]
            ]
          ],
          [
            [
              [
                122.27982330322266,
                29.986536026000977
              ],
              [
                121.97661590576172,
                29.986536026000977
              ],
              [
                122.02213287353516,
                30.115081787109375
              ],
              [
                122.04503631591797,
                30.179353713989258
              ],
              [
                122.2725830078125,
                30.179353713989258
              ],
              [
                122.27982330322266,
                29.986536026000977
              ]
            ]
          ],
          [
            [
              [
                72.74433898925781,
                35.837650299072266
              ],
              [
                72.46781921386719,
                35.9664192199707
              ],
              [
                72.50135803222656,
                36.09519577026367
              ],
              [
                72.25849151611328,
                36.3527946472168
              ],
              [
                72.24893188476562,
                36.61045455932617
              ],
              [
                72.26608276367188,
                36.67487716674805
              ],
              [
                72.3352279663086,
                36.932613372802734
              ],
              [
                71.89447021484375,
                36.73930740356445
              ],
              [
                71.58341979980469,
                36.73930740356445
              ],
              [
                71.46198272705078,
                36.8681755065918
              ],
              [
                71.56851959228516,
                37.835243225097656
              ],
              [
                71.27379608154297,
                37.89975357055664
              ],
              [
                71.3639907836914,
                38.22237777709961
              ],
              [
                71.18379211425781,
                38.416015625
              ],
              [
                70.71366119384766,
                38.416015625
              ],
              [
                70.4245834350586,
                38.22237777709961
              ],
              [
                70.1970443725586,
                37.96426773071289
              ],
              [
                70.26583862304688,
                37.641746520996094
              ],
              [
                70.07515716552734,
                37.51277160644531
              ],
              [
                69.5460205078125,
                37.5772590637207
              ],
              [
                69.3497543334961,
                37.12596130371094
              ],
              [
                69.1160659790039,
                37.12596130371094
              ],
              [
                69.0102767944336,
                37.3193473815918
              ],
              [
                68.6038589477539,
                37.254878997802734
              ],
              [
                68.49290466308594,
                37.12596130371094
              ],
              [
                67.91515350341797,
                36.9970588684082
              ],
              [
                67.74652099609375,
                37.254878997802734
              ],
              [
                67.12300109863281,
                37.254878997802734
              ],
              [
                66.99945068359375,
                37.38381576538086
              ],
              [
                66.51548767089844,
                37.3193473815918
              ],
              [
                65.62744903564453,
                37.51277160644531
              ],
              [
                65.23883056640625,
                37.835243225097656
              ],
              [
                64.66151428222656,
                38.028785705566406
              ],
              [
                64.36690521240234,
                38.416015625
              ],
              [
                64.00749206542969,
                38.54513168334961
              ],
              [
                63.5726203918457,
                38.997230529785156
              ],
              [
                63.41547393798828,
                38.997230529785156
              ],
              [
                62.48472595214844,
                39.9670295715332
              ],
              [
                62.50175094604492,
                40.031734466552734
              ],
              [
                62.19231414794922,
                40.355369567871094
              ],
              [
                62.226932525634766,
                40.4848747253418
              ],
              [
                62.0241584777832,
                40.614410400390625
              ],
              [
                62.059104919433594,
                40.74397277832031
              ],
              [
                61.91808319091797,
                40.80876541137695
              ],
              [
                61.8654670715332,
                41.19768524169922
              ],
              [
                61.30925369262695,
                41.19768524169922
              ],
              [
                61.061988830566406,
                41.45711898803711
              ],
              [
                60.76137924194336,
                41.521995544433594
              ],
              [
                60.611297607421875,
                41.84651184082031
              ],
              [
                60.31012725830078,
                41.911441802978516
              ],
              [
                60.12422561645508,
                42.10627746582031
              ],
              [
                59.94672775268555,
                42.041324615478516
              ],
              [
                59.98236083984375,
                42.17123794555664
              ],
              [
                59.85831069946289,
                42.30118942260742
              ],
              [
                59.21879196166992,
                42.30118942260742
              ],
              [
                59.12974548339844,
                42.56119155883789
              ],
              [
                58.74713897705078,
                42.62621307373047
              ],
              [
                58.70248031616211,
                42.75628662109375
              ],
              [
                58.42679214477539,
                42.62621307373047
              ],
              [
                58.301753997802734,
                42.75628662109375
              ],
              [
                58.33706283569336,
                42.88639831542969
              ],
              [
                58.13174819946289,
                43.016544342041016
              ],
              [
                58.256591796875,
                43.472347259521484
              ],
              [
                58.41754150390625,
                43.472347259521484
              ],
              [
                58.63294982910156,
                43.6678352355957
              ],
              [
                59.1235237121582,
                43.407203674316406
              ],
              [
                60.10750198364258,
                43.472347259521484
              ],
              [
                60.38652801513672,
                43.6026611328125
              ],
              [
                60.600128173828125,
                44.05907440185547
              ],
              [
                60.78084945678711,
                44.12431716918945
              ],
              [
                60.896934509277344,
                44.5159797668457
              ],
              [
                61.38047409057617,
                44.77729415893555
              ],
              [
                61.42001724243164,
                44.908016204833984
              ],
              [
                61.582332611083984,
                44.908016204833984
              ],
              [
                61.72218704223633,
                45.36587905883789
              ],
              [
                61.33523941040039,
                45.431331634521484
              ],
              [
                61.33386993408203,
                45.693260192871094
              ],
              [
                61.25232696533203,
                45.693260192871094
              ],
              [
                61.332855224609375,
                45.95537567138672
              ],
              [
                61.251182556152344,
                45.95537567138672
              ],
              [
                61.68148422241211,
                46.808616638183594
              ],
              [
                63.031532287597656,
                46.414546966552734
              ],
              [
                64.87874603271484,
                45.56227111816406
              ],
              [
                64.9173812866211,
                45.431331634521484
              ],
              [
                65.3627700805664,
                45.300437927246094
              ],
              [
                65.401123046875,
                45.169586181640625
              ],
              [
                66.1054916381836,
                44.842647552490234
              ],
              [
                66.26234436035156,
                44.58129119873047
              ],
              [
                66.42434692382812,
                44.58129119873047
              ],
              [
                66.66166687011719,
                44.32010269165039
              ],
              [
                66.67784881591797,
                44.12431716918945
              ],
              [
                67.40487670898438,
                44.12431716918945
              ],
              [
                67.77189636230469,
                44.25482940673828
              ],
              [
                69.38875579833984,
                44.25482940673828
              ],
              [
                71.34178161621094,
                44.5159797668457
              ],
              [
                71.89881896972656,
                44.71194839477539
              ],
              [
                73.2461166381836,
                45.496795654296875
              ],
              [
                73.74162292480469,
                45.300437927246094
              ],
              [
                73.91116333007812,
                45.10417556762695
              ],
              [
                73.86170196533203,
                44.973392486572266
              ],
              [
                74.13007354736328,
                45.03877639770508
              ],
              [
                74.25473022460938,
                45.36587905883789
              ],
              [
                74.1169662475586,
                45.431331634521484
              ],
              [
                74.3186264038086,
                45.95537567138672
              ],
              [
                74.7525863647461,
                46.02093505859375
              ],
              [
                74.88140106201172,
                46.348915100097656
              ],
              [
                75.31684112548828,
                46.414546966552734
              ],
              [
                75.4511947631836,
                46.54585266113281
              ],
              [
                77.39138793945312,
                46.480194091796875
              ],
              [
                77.36439514160156,
                46.414546966552734
              ],
              [
                77.82868194580078,
                46.348915100097656
              ],
              [
                77.8016128540039,
                46.283294677734375
              ],
              [
                78.97484588623047,
                46.348915100097656
              ],
              [
                79.0855941772461,
                46.61152267456055
              ],
              [
                79.24960327148438,
                46.61152267456055
              ],
              [
                79.30770874023438,
                46.94007873535156
              ],
              [
                83.2851791381836,
                47.730003356933594
              ],
              [
                83.7394790649414,
                47.993770599365234
              ],
              [
                84.41326141357422,
                48.191749572753906
              ],
              [
                86.53858947753906,
                49.44889450073242
              ],
              [
                87.86477661132812,
                50.51224899291992
              ],
              [
                89.32811737060547,
                51.44654083251953
              ],
              [
                90.00083923339844,
                51.580322265625
              ],
              [
                90.24667358398438,
                51.84812545776367
              ],
              [
                90.67161560058594,
                51.84812545776367
              ],
              [
                90.67530822753906,
                51.71418380737305
              ],
              [
                90.93001556396484,
                51.71418380737305
              ],
              [
                91.0149154663086,
                51.71418380737305
              ],
              [
                90.97430419921875,
                51.64724349975586
              ],
              [
                91.1440200805664,
                51.64724349975586
              ],
              [
                91.10346221923828,
                51.580322265625
              ],
              [
                92.37571716308594,
                51.580322265625
              ],
              [
                94.58428192138672,
                52.250450134277344
              ],
              [
                96.38236236572266,
                52.51908493041992
              ],
              [
                97.92002868652344,
                52.51908493041992
              ],
              [
                97.87442779541016,
                52.4518928527832
              ],
              [
                98.29542541503906,
                52.31757736206055
              ],
              [
                98.25,
                52.250450134277344
              ],
              [
                99.01121520996094,
                52.11625671386719
              ],
              [
                99.67520141601562,
                52.586299896240234
              ],
              [
                100.59623718261719,
                52.92268753051758
              ],
              [
                101.48014068603516,
                52.720787048339844
              ],
              [
                101.43230438232422,
                52.653533935546875
              ],
              [
                101.60333251953125,
                52.653533935546875
              ],
              [
                101.6312255859375,
                52.4518928527832
              ],
              [
                101.80198669433594,
                52.4518928527832
              ],
              [
                101.79244995117188,
                52.31757736206055
              ],
              [
                102.51245880126953,
                52.250450134277344
              ],
              [
                102.46499633789062,
                52.18334197998047
              ],
              [
                102.88124084472656,
                52.0491943359375
              ],
              [
                102.83397674560547,
                51.98215103149414
              ],
              [
                103.2120361328125,
                51.91512680053711
              ],
              [
                103.15593719482422,
                51.71418380737305
              ],
              [
                103.2408447265625,
                51.71418380737305
              ],
              [
                103.19407653808594,
                51.64724349975586
              ],
              [
                103.31710052490234,
                51.580322265625
              ],
              [
                103.21658325195312,
                51.31283950805664
              ],
              [
                103.30123138427734,
                51.31283950805664
              ],
              [
                103.29400634765625,
                51.17921447753906
              ],
              [
                103.463134765625,
                51.17921447753906
              ],
              [
                103.49517059326172,
                50.97892379760742
              ],
              [
                104.29378509521484,
                50.912200927734375
              ],
              [
                104.93064880371094,
                50.97892379760742
              ],
              [
                107.21868133544922,
                51.580322265625
              ],
              [
                108.72425842285156,
                51.78114318847656
              ],
              [
                109.26890563964844,
                51.71418380737305
              ],
              [
                109.53899383544922,
                51.84812545776367
              ],
              [
                109.52361297607422,
                51.71418380737305
              ],
              [
                109.9984359741211,
                51.78114318847656
              ],
              [
                109.98284149169922,
                51.64724349975586
              ],
              [
                110.40713500976562,
                51.64724349975586
              ],
              [
                110.3569107055664,
                51.580322265625
              ],
              [
                112.2740478515625,
                51.64724349975586
              ],
              [
                113.8614730834961,
                52.0491943359375
              ],
              [
                114.99018859863281,
                52.18334197998047
              ],
              [
                117.05211639404297,
                52.720787048339844
              ],
              [
                118.27884674072266,
                52.653533935546875
              ],
              [
                118.22235107421875,
                52.586299896240234
              ],
              [
                118.3932876586914,
                52.586299896240234
              ],
              [
                118.33688354492188,
                52.51908493041992
              ],
              [
                119.10698699951172,
                52.31757736206055
              ],
              [
                119.05081939697266,
                52.250450134277344
              ],
              [
                119.45001983642578,
                52.11625671386719
              ],
              [
                119.42353820800781,
                51.98215103149414
              ],
              [
                119.59368133544922,
                51.98215103149414
              ],
              [
                119.56759643554688,
                51.84812545776367
              ],
              [
                119.7375717163086,
                51.84812545776367
              ],
              [
                119.71188354492188,
                51.71418380737305
              ],
              [
                120.13639831542969,
                51.71418380737305
              ],
              [
                120.02603912353516,
                51.580322265625
              ],
              [
                120.56456756591797,
                51.51342010498047
              ],
              [
                120.50956726074219,
                51.44654083251953
              ],
              [
                120.76376342773438,
                51.44654083251953
              ],
              [
                120.70882415771484,
                51.37968063354492
              ],
              [
                120.8233642578125,
                51.31283950805664
              ],
              [
                120.084228515625,
                49.84712600708008
              ],
              [
                120.1679916381836,
                49.84712600708008
              ],
              [
                119.25978088378906,
                48.38986587524414
              ],
              [
                119.34272003173828,
                48.38986587524414
              ],
              [
                119.06246185302734,
                47.993770599365234
              ],
              [
                119.14518737792969,
                47.993770599365234
              ],
              [
                118.96100616455078,
                47.730003356933594
              ],
              [
                119.04358673095703,
                47.730003356933594
              ],
              [
                118.7337417602539,
                47.4006233215332
              ],
              [
                118.81614685058594,
                47.4006233215332
              ],
              [
                118.54730224609375,
                47.005828857421875
              ],
              [
                118.62950134277344,
                47.005828857421875
              ],
              [
                118.49048614501953,
                46.677207946777344
              ],
              [
                118.0216064453125,
                46.21768569946289
              ],
              [
                116.92962646484375,
                44.77729415893555
              ],
              [
                116.44000244140625,
                44.38538360595703
              ],
              [
                114.84928131103516,
                42.56119155883789
              ],
              [
                114.6641845703125,
                42.10627746582031
              ],
              [
                113.50596618652344,
                41.32738494873047
              ],
              [
                113.24810791015625,
                41.00318908691406
              ],
              [
                113.99818420410156,
                41.06801223754883
              ],
              [
                114.27227783203125,
                41.132843017578125
              ],
              [
                114.34439086914062,
                41.26253128051758
              ],
              [
                115.76353454589844,
                41.521995544433594
              ],
              [
                117.39749145507812,
                41.45711898803711
              ],
              [
                117.3600082397461,
                41.39224624633789
              ],
              [
                117.59864044189453,
                41.39224624633789
              ],
              [
                117.60334014892578,
                41.26253128051758
              ],
              [
                117.76231384277344,
                41.26253128051758
              ],
              [
                117.84668731689453,
                41.132843017578125
              ],
              [
                117.77824401855469,
                40.873565673828125
              ],
              [
                117.9001693725586,
                40.80876541137695
              ],
              [
                117.82709503173828,
                40.6791877746582
              ],
              [
                117.91288757324219,
                40.54964065551758
              ],
              [
                118.0712661743164,
                40.54964065551758
              ],
              [
                118.07810974121094,
                40.42012023925781
              ],
              [
                118.638916015625,
                40.29063034057617
              ],
              [
                118.60298156738281,
                40.225894927978516
              ],
              [
                118.99825286865234,
                40.225894927978516
              ],
              [
                119.545166015625,
                40.355369567871094
              ],
              [
                120.07857513427734,
                40.873565673828125
              ],
              [
                120.35420227050781,
                40.93837356567383
              ],
              [
                120.78031921386719,
                41.39224624633789
              ],
              [
                121.3733139038086,
                41.71668243408203
              ],
              [
                121.97047424316406,
                41.911441802978516
              ],
              [
                122.36931610107422,
                41.911441802978516
              ],
              [
                122.3293685913086,
                41.84651184082031
              ],
              [
                122.56858825683594,
                41.84651184082031
              ],
              [
                122.52867126464844,
                41.781593322753906
              ],
              [
                122.6083755493164,
                41.781593322753906
              ],
              [
                122.4899673461914,
                41.45711898803711
              ],
              [
                121.93632507324219,
                41.19768524169922
              ],
              [
                121.82366180419922,
                40.873565673828125
              ],
              [
                121.74433898925781,
                40.873565673828125
              ],
              [
                121.1097640991211,
                40.873565673828125
              ],
              [
                120.9967269897461,
                40.6791877746582
              ],
              [
                120.64734649658203,
                40.4848747253418
              ],
              [
                120.50029754638672,
                40.225894927978516
              ],
              [
                119.38044738769531,
                39.77294921875
              ],
              [
                119.21530151367188,
                39.320335388183594
              ],
              [
                118.44984436035156,
                39.06184005737305
              ],
              [
                118.0568618774414,
                39.06184005737305
              ],
              [
                118.04566192626953,
                39.19107437133789
              ],
              [
                117.88837432861328,
                39.19107437133789
              ],
              [
                117.57643127441406,
                38.738853454589844
              ],
              [
                117.6549072265625,
                38.738853454589844
              ],
              [
                117.60245513916016,
                38.48057174682617
              ],
              [
                118.05360412597656,
                38.28691864013672
              ],
              [
                118.06742095947266,
                38.157840728759766
              ],
              [
                118.58300018310547,
                38.09331130981445
              ],
              [
                118.64759826660156,
                38.22237777709961
              ],
              [
                118.80416870117188,
                38.22237777709961
              ],
              [
                118.77176666259766,
                38.157840728759766
              ],
              [
                119.4571304321289,
                37.96426773071289
              ],
              [
                119.3928451538086,
                37.835243225097656
              ],
              [
                119.23655700683594,
                37.835243225097656
              ],
              [
                118.98403930664062,
                37.3193473815918
              ],
              [
                119.13996124267578,
                37.3193473815918
              ],
              [
                119.15568542480469,
                37.1904182434082
              ],
              [
                119.70111083984375,
                37.1904182434082
              ],
              [
                119.82661437988281,
                37.44829177856445
              ],
              [
                120.20220184326172,
                37.5772590637207
              ],
              [
                120.18807220458984,
                37.706241607666016
              ],
              [
                120.75377655029297,
                37.89975357055664
              ],
              [
                121.11202239990234,
                37.835243225097656
              ],
              [
                121.17103576660156,
                37.641746520996094
              ],
              [
                121.48333740234375,
                37.641746520996094
              ],
              [
                121.49687957763672,
                37.51277160644531
              ],
              [
                122.15351867675781,
                37.5772590637207
              ],
              [
                122.1211166381836,
                37.51277160644531
              ],
              [
                122.71288299560547,
                37.44829177856445
              ],
              [
                122.47421264648438,
                37.12596130371094
              ],
              [
                122.56636810302734,
                36.9970588684082
              ],
              [
                122.39389038085938,
                36.80373764038086
              ],
              [
                121.91207885742188,
                36.932613372802734
              ],
              [
                121.21208190917969,
                36.61045455932617
              ],
              [
                120.97892761230469,
                36.61045455932617
              ],
              [
                120.96481323242188,
                36.417205810546875
              ],
              [
                120.73184967041016,
                36.417205810546875
              ],
              [
                120.65852355957031,
                36.09519577026367
              ],
              [
                120.31848907470703,
                36.03080368041992
              ],
              [
                119.98648071289062,
                35.644527435302734
              ],
              [
                119.61874389648438,
                35.51579284667969
              ],
              [
                119.22760772705078,
                34.80794906616211
              ],
              [
                119.45901489257812,
                34.80794906616211
              ],
              [
                119.43090057373047,
                34.743614196777344
              ],
              [
                119.71125030517578,
                34.679283142089844
              ],
              [
                119.73230743408203,
                34.55062484741211
              ],
              [
                120.3418197631836,
                34.3576545715332
              ],
              [
                120.48936462402344,
                34.164703369140625
              ],
              [
                120.55045318603516,
                33.5859489440918
              ],
              [
                120.92630004882812,
                33.20018768310547
              ],
              [
                120.91920471191406,
                32.62162780761719
              ],
              [
                121.40264892578125,
                32.493072509765625
              ],
              [
                121.50330352783203,
                32.171695709228516
              ],
              [
                121.78321075439453,
                32.107421875
              ],
              [
                121.98702239990234,
                31.8503360748291
              ],
              [
                121.83556365966797,
                31.65752601623535
              ],
              [
                121.96309661865234,
                31.593257904052734
              ],
              [
                121.91353607177734,
                31.464719772338867
              ],
              [
                121.58425903320312,
                31.40045166015625
              ],
              [
                121.73657989501953,
                31.40045166015625
              ],
              [
                121.99526977539062,
                31.079113006591797
              ],
              [
                121.89926147460938,
                30.822044372558594
              ],
              [
                121.51921844482422,
                30.822044372558594
              ],
              [
                121.19719696044922,
                30.564971923828125
              ],
              [
                121.04530334472656,
                30.564971923828125
              ],
              [
                120.67976379394531,
                30.179353713989258
              ],
              [
                120.80880737304688,
                30.115081787109375
              ],
              [
                121.10469055175781,
                30.307893753051758
              ],
              [
                121.48409271240234,
                30.307893753051758
              ],
              [
                121.6202392578125,
                30.050809860229492
              ],
              [
                122.02978515625,
                29.922264099121094
              ],
              [
                121.864501953125,
                29.665164947509766
              ],
              [
                122.01595306396484,
                29.665164947509766
              ],
              [
                121.93843078613281,
                29.21521759033203
              ],
              [
                121.71156311035156,
                29.21521759033203
              ],
              [
                121.74463653564453,
                29.536611557006836
              ],
              [
                121.57134246826172,
                29.472333908081055
              ],
              [
                121.64702606201172,
                29.472333908081055
              ],
              [
                121.53888702392578,
                29.150936126708984
              ],
              [
                121.74431610107422,
                29.08665657043457
              ],
              [
                121.7143325805664,
                28.765243530273438
              ],
              [
                121.52177429199219,
                28.636676788330078
              ],
              [
                121.65211486816406,
                28.572391510009766
              ],
              [
                121.64590454101562,
                28.315250396728516
              ],
              [
                121.37944793701172,
                28.186676025390625
              ],
              [
                121.15326690673828,
                28.186676025390625
              ],
              [
                121.1933822631836,
                28.315250396728516
              ],
              [
                121.11795806884766,
                28.315250396728516
              ],
              [
                121.03816223144531,
                28.058101654052734
              ],
              [
                120.86773681640625,
                27.993812561035156
              ],
              [
                120.71461486816406,
                27.736658096313477
              ],
              [
                120.65725708007812,
                27.54378890991211
              ],
              [
                120.73251342773438,
                27.54378890991211
              ],
              [
                120.54503631591797,
                27.158044815063477
              ],
              [
                120.39466857910156,
                27.158044815063477
              ],
              [
                120.24666595458984,
                26.900876998901367
              ],
              [
                120.09639739990234,
                26.900876998901367
              ],
              [
                120.06058502197266,
                26.772293090820312
              ],
              [
                120.21080017089844,
                26.772293090820312
              ],
              [
                120.1576919555664,
                26.57941436767578
              ],
              [
                119.83992767333984,
                26.515121459960938
              ],
              [
                119.93810272216797,
                26.32224464416504
              ],
              [
                119.5870132446289,
                26.129364013671875
              ],
              [
                119.77836608886719,
                26.000778198242188
              ],
              [
                119.52989959716797,
                25.615020751953125
              ],
              [
                119.90438079833984,
                25.615020751953125
              ],
              [
                119.87213897705078,
                25.48643684387207
              ],
              [
                119.6156997680664,
                25.357851028442383
              ],
              [
                119.27314758300781,
                25.48643684387207
              ],
              [
                119.39114379882812,
                25.357851028442383
              ],
              [
                119.34419250488281,
                25.164974212646484
              ],
              [
                119.02947998046875,
                25.100683212280273
              ],
              [
                119.07367706298828,
                24.97209930419922
              ],
              [
                118.8191146850586,
                24.843517303466797
              ],
              [
                118.75972747802734,
                24.586353302001953
              ],
              [
                118.14736938476562,
                24.522062301635742
              ],
              [
                118.07573699951172,
                24.200613021850586
              ],
              [
                117.72126770019531,
                23.943456649780273
              ],
              [
                117.69377136230469,
                23.814878463745117
              ],
              [
                117.46995544433594,
                23.814878463745117
              ],
              [
                117.1788330078125,
                23.493436813354492
              ],
              [
                116.8938980102539,
                23.557723999023438
              ],
              [
                116.7796401977539,
                23.36486053466797
              ],
              [
                116.81497955322266,
                23.171995162963867
              ],
              [
                116.59144592285156,
                23.171995162963867
              ],
              [
                116.54004669189453,
                22.914846420288086
              ],
              [
                115.69562530517578,
                22.786272048950195
              ],
              [
                115.67061614990234,
                22.657697677612305
              ],
              [
                115.37285614013672,
                22.657697677612305
              ],
              [
                115.17442321777344,
                22.786272048950195
              ],
              [
                114.90156555175781,
                22.529123306274414
              ],
              [
                114.75272369384766,
                22.529123306274414
              ],
              [
                114.64081573486328,
                22.72198486328125
              ],
              [
                114.53111267089844,
                22.143402099609375
              ],
              [
                114.37039184570312,
                22.079116821289062
              ],
              [
                113.99858856201172,
                22.079116821289062
              ],
              [
                113.99634552001953,
                22.46483612060547
              ],
              [
                113.78524017333984,
                22.529123306274414
              ],
              [
                113.7474365234375,
                22.72198486328125
              ],
              [
                113.59854125976562,
                22.72198486328125
              ],
              [
                113.69869995117188,
                22.46483612060547
              ],
              [
                113.63867950439453,
                22.143402099609375
              ],
              [
                113.41557312011719,
                22.143402099609375
              ],
              [
                113.31752014160156,
                22.014829635620117
              ],
              [
                113.10626220703125,
                22.079116821289062
              ],
              [
                113.07096862792969,
                21.88625717163086
              ],
              [
                112.77362823486328,
                21.88625717163086
              ],
              [
                112.44146728515625,
                21.693397521972656
              ],
              [
                111.85850524902344,
                21.7576847076416
              ],
              [
                111.6640625,
                21.500539779663086
              ],
              [
                110.98419189453125,
                21.43625259399414
              ],
              [
                110.73885345458984,
                21.307680130004883
              ],
              [
                110.71642303466797,
                21.179107666015625
              ],
              [
                110.41944885253906,
                21.179107666015625
              ],
              [
                110.48252868652344,
                21.114822387695312
              ],
              [
                110.36384582519531,
                20.857677459716797
              ],
              [
                110.61627197265625,
                20.60053253173828
              ],
              [
                110.48687744140625,
                20.279102325439453
              ],
              [
                109.88289642333984,
                20.214815139770508
              ],
              [
                109.9267807006836,
                20.471960067749023
              ],
              [
                109.7894515991211,
                20.53624725341797
              ],
              [
                109.7702407836914,
                20.857677459716797
              ],
              [
                109.69603729248047,
                20.857677459716797
              ],
              [
                109.87005615234375,
                21.43625259399414
              ],
              [
                109.80696105957031,
                21.500539779663086
              ],
              [
                109.11621856689453,
                21.371967315673828
              ],
              [
                109.08638000488281,
                21.629112243652344
              ],
              [
                108.65169525146484,
                21.693397521972656
              ],
              [
                108.55519104003906,
                21.5648250579834
              ],
              [
                107.79033660888672,
                21.43625259399414
              ],
              [
                107.41735076904297,
                20.986249923706055
              ],
              [
                106.87641143798828,
                20.857677459716797
              ],
              [
                106.8337173461914,
                20.60053253173828
              ],
              [
                106.68537902832031,
                20.60053253173828
              ],
              [
                106.53694915771484,
                20.150527954101562
              ],
              [
                106.0606460571289,
                19.95766830444336
              ],
              [
                105.84930419921875,
                19.571949005126953
              ],
              [
                105.91281127929688,
                19.507661819458008
              ],
              [
                105.73389434814453,
                18.864791870117188
              ],
              [
                106.05134582519531,
                18.543354034423828
              ],
              [
                106.030517578125,
                18.414779663085938
              ],
              [
                106.17830657958984,
                18.414779663085938
              ],
              [
                106.29487609863281,
                18.2219181060791
              ],
              [
                106.56956481933594,
                18.093341827392578
              ],
              [
                106.5281982421875,
                17.836191177368164
              ],
              [
                106.51790618896484,
                17.77190399169922
              ],
              [
                106.29645538330078,
                17.77190399169922
              ],
              [
                106.24317932128906,
                17.90047836303711
              ],
              [
                105.8740234375,
                17.90047836303711
              ],
              [
                105.77974700927734,
                17.77190399169922
              ],
              [
                105.70592498779297,
                17.77190399169922
              ],
              [
                105.66277313232422,
                17.964767456054688
              ],
              [
                105.143798828125,
                18.414779663085938
              ],
              [
                105.18512725830078,
                18.67193031311035
              ],
              [
                105.03726959228516,
                18.67193031311035
              ],
              [
                105.14230346679688,
                18.864791870117188
              ],
              [
                104.97236633300781,
                19.186227798461914
              ],
              [
                104.99213409423828,
                19.764808654785156
              ],
              [
                104.8648452758789,
                19.893383026123047
              ],
              [
                104.98062133789062,
                20.150527954101562
              ],
              [
                104.4395751953125,
                20.471960067749023
              ],
              [
                104.61909484863281,
                20.664819717407227
              ],
              [
                104.90534973144531,
                20.60053253173828
              ],
              [
                104.87299346923828,
                20.857677459716797
              ],
              [
                105.09559631347656,
                20.857677459716797
              ],
              [
                104.8512954711914,
                21.179107666015625
              ],
              [
                104.97850036621094,
                21.500539779663086
              ],
              [
                104.925537109375,
                21.629112243652344
              ],
              [
                105.0955810546875,
                21.7576847076416
              ],
              [
                105.1279525756836,
                21.950544357299805
              ],
              [
                104.87400817871094,
                22.20768928527832
              ],
              [
                105.23788452148438,
                22.59341049194336
              ],
              [
                105.2715835571289,
                22.786272048950195
              ],
              [
                105.76407623291016,
                23.043420791625977
              ],
              [
                106.1561279296875,
                23.557723999023438
              ],
              [
                106.4664306640625,
                23.622013092041016
              ],
              [
                107.14945220947266,
                24.07203483581543
              ],
              [
                107.75928497314453,
                24.136323928833008
              ],
              [
                108.08728790283203,
                24.650644302368164
              ],
              [
                108.30946350097656,
                26.32224464416504
              ],
              [
                107.96507263183594,
                26.450830459594727
              ],
              [
                107.908935546875,
                26.836584091186523
              ],
              [
                106.9048080444336,
                27.029460906982422
              ],
              [
                106.60956573486328,
                27.35091781616211
              ],
              [
                106.45912170410156,
                27.35091781616211
              ],
              [
                106.1817855834961,
                27.736658096313477
              ],
              [
                106.20807647705078,
                28.12238883972168
              ],
              [
                106.1326904296875,
                28.12238883972168
              ],
              [
                106.24258422851562,
                28.25096321105957
              ],
              [
                106.14405822753906,
                28.44382095336914
              ],
              [
                105.52306365966797,
                28.379535675048828
              ],
              [
                105.51264190673828,
                28.058101654052734
              ],
              [
                105.12759399414062,
                27.736658096313477
              ],
              [
                104.61695861816406,
                27.800947189331055
              ],
              [
                104.43353271484375,
                27.6723690032959
              ],
              [
                104.25687408447266,
                27.865236282348633
              ],
              [
                104.63507843017578,
                28.44382095336914
              ],
              [
                103.99048614501953,
                28.572391510009766
              ],
              [
                103.86349487304688,
                28.379535675048828
              ],
              [
                103.99732208251953,
                28.315250396728516
              ],
              [
                103.96347045898438,
                28.186676025390625
              ],
              [
                103.63789367675781,
                27.800947189331055
              ],
              [
                103.4548110961914,
                27.6723690032959
              ],
              [
                103.32039642333984,
                27.736658096313477
              ],
              [
                103.28815460205078,
                27.608078002929688
              ],
              [
                103.28411865234375,
                27.2866268157959
              ],
              [
                103.35932922363281,
                27.2866268157959
              ],
              [
                103.4316635131836,
                26.643707275390625
              ],
              [
                103.50674438476562,
                26.643707275390625
              ],
              [
                103.46222686767578,
                26.450830459594727
              ],
              [
                103.19337463378906,
                26.257951736450195
              ],
              [
                102.90777587890625,
                26.32224464416504
              ],
              [
                102.55054473876953,
                26.06507110595703
              ],
              [
                102.2506332397461,
                26.06507110595703
              ],
              [
                102.20396423339844,
                26.19365882873535
              ],
              [
                102.05396270751953,
                26.19365882873535
              ],
              [
                102.1864242553711,
                26.450830459594727
              ],
              [
                102.08015441894531,
                26.643707275390625
              ],
              [
                101.58399963378906,
                26.772293090820312
              ],
              [
                101.6957778930664,
                27.865236282348633
              ],
              [
                101.36564636230469,
                28.636676788330078
              ],
              [
                101.19561004638672,
                29.40805435180664
              ],
              [
                101.0620346069336,
                29.472333908081055
              ],
              [
                101.05811309814453,
                29.729440689086914
              ],
              [
                100.98237609863281,
                29.729440689086914
              ],
              [
                101.0553207397461,
                29.986536026000977
              ],
              [
                100.95915222167969,
                30.179353713989258
              ],
              [
                101.01528930664062,
                30.372163772583008
              ],
              [
                100.93939971923828,
                30.372163772583008
              ],
              [
                100.99618530273438,
                30.564971923828125
              ],
              [
                100.92024230957031,
                30.564971923828125
              ],
              [
                101.05530548095703,
                31.014846801757812
              ],
              [
                100.97924041748047,
                31.014846801757812
              ],
              [
                101.68687438964844,
                32.75019073486328
              ],
              [
                102.55159759521484,
                33.26447677612305
              ],
              [
                103.0340576171875,
                33.32876968383789
              ],
              [
                103.3320083618164,
                33.52165222167969
              ],
              [
                103.4928207397461,
                33.971771240234375
              ],
              [
                103.38555145263672,
                34.10039138793945
              ],
              [
                103.5210189819336,
                34.679283142089844
              ],
              [
                103.73529052734375,
                35.45143127441406
              ],
              [
                103.63004302978516,
                35.58015823364258
              ],
              [
                103.72779083251953,
                36.03080368041992
              ],
              [
                103.6502685546875,
                36.03080368041992
              ],
              [
                103.64786529541016,
                36.417205810546875
              ],
              [
                103.54397583007812,
                36.5460319519043
              ],
              [
                103.38858032226562,
                36.5460319519043
              ],
              [
                103.25885772705078,
                36.80373764038086
              ],
              [
                103.10328674316406,
                36.80373764038086
              ],
              [
                102.79303741455078,
                37.1904182434082
              ],
              [
                102.55928802490234,
                37.1904182434082
              ],
              [
                102.53401184082031,
                37.3193473815918
              ],
              [
                102.24852752685547,
                37.38381576538086
              ],
              [
                102.09397888183594,
                37.5772590637207
              ],
              [
                102.09606170654297,
                37.7707405090332
              ],
              [
                101.85982513427734,
                37.5772590637207
              ],
              [
                101.5740966796875,
                37.641746520996094
              ],
              [
                101.54920959472656,
                37.7707405090332
              ],
              [
                101.26336669921875,
                37.835243225097656
              ],
              [
                101.23871612548828,
                37.96426773071289
              ],
              [
                100.8745346069336,
                38.028785705566406
              ],
              [
                100.4137954711914,
                38.60969924926758
              ],
              [
                100.2264404296875,
                38.351463317871094
              ],
              [
                99.81044006347656,
                38.48057174682617
              ],
              [
                99.19844818115234,
                39.25570297241211
              ],
              [
                98.9068374633789,
                39.1264533996582
              ],
              [
                98.3840560913086,
                39.19107437133789
              ],
              [
                98.22306060791016,
                38.997230529785156
              ],
              [
                97.90877532958984,
                38.997230529785156
              ],
              [
                97.20784759521484,
                39.38497543334961
              ],
              [
                96.76294708251953,
                39.449623107910156
              ],
              [
                96.65383911132812,
                39.19107437133789
              ],
              [
                96.73248291015625,
                39.19107437133789
              ],
              [
                96.70207977294922,
                38.738853454589844
              ],
              [
                96.36184692382812,
                38.67427444458008
              ],
              [
                95.81295013427734,
                38.8680305480957
              ],
              [
                95.55278778076172,
                39.19107437133789
              ],
              [
                95.39549255371094,
                39.19107437133789
              ],
              [
                95.31853485107422,
                39.38497543334961
              ],
              [
                95.05557250976562,
                39.320335388183594
              ],
              [
                94.58486938476562,
                39.51427459716797
              ],
              [
                93.87593078613281,
                39.51427459716797
              ],
              [
                93.50794982910156,
                39.38497543334961
              ],
              [
                93.2193603515625,
                39.449623107910156
              ],
              [
                93.00947570800781,
                39.320335388183594
              ],
              [
                92.2484130859375,
                39.38497543334961
              ],
              [
                91.123291015625,
                39.1264533996582
              ],
              [
                88.7458267211914,
                38.8680305480957
              ],
              [
                87.66171264648438,
                38.48057174682617
              ],
              [
                86.44012451171875,
                38.351463317871094
              ],
              [
                86.08140563964844,
                38.22237777709961
              ],
              [
                85.81294250488281,
                37.89975357055664
              ],
              [
                85.35621643066406,
                37.706241607666016
              ],
              [
                85.1133804321289,
                37.44829177856445
              ],
              [
                81.45929718017578,
                36.73930740356445
              ],
              [
                81.26437377929688,
                36.61045455932617
              ],
              [
                79.07140350341797,
                36.28839111328125
              ],
              [
                78.18073272705078,
                36.15959167480469
              ],
              [
                76.84990692138672,
                35.837650299072266
              ],
              [
                76.73696899414062,
                35.708900451660156
              ],
              [
                76.52235412597656,
                35.77327346801758
              ],
              [
                75.93163342735511,
                35.58015823364258
              ],
              [
                75.3516931985122,
                35.86189032767915
              ],
              [
                74.8142283800896,
                36.296269913655415
              ],
              [
                74.71469785815951,
                36.62713339125238
              ],
              [
                74.14405619909357,
                36.68568739644765
              ],
              [
                73.84546463330325,
                36.91415265323538
              ],
              [
                72.62455689762727,
                36.86108202738142
              ],
              [
                73.04258508973372,
                36.35507448052216
              ],
              [
                73.21510466107924,
                35.96399716208423
              ],
              [
                73.40753033681077,
                35.39266864611281
              ],
              [
                73.20956118019419,
                35.240344840235224
              ],
              [
                73.21415710449219,
                35.258358001708984
              ],
              [
                72.71102905273438,
                35.708900451660156
              ],
              [
                72.74433898925781,
                35.837650299072266
              ]
            ]
          ],
          [
            [
              [
                127.89839172363281,
                35.837650299072266
              ],
              [
                127.6805191040039,
                35.708900451660156
              ],
              [
                127.55571746826172,
                35.45143127441406
              ],
              [
                127.633056640625,
                35.45143127441406
              ],
              [
                127.44835662841797,
                35.065311431884766
              ],
              [
                127.572265625,
                35.00096893310547
              ],
              [
                127.45099639892578,
                34.743614196777344
              ],
              [
                127.54501342773438,
                34.614952087402344
              ],
              [
                127.51502990722656,
                34.55062484741211
              ],
              [
                127.22427368164062,
                34.42197799682617
              ],
              [
                127.12974548339844,
                34.55062484741211
              ],
              [
                127.29676055908203,
                34.743614196777344
              ],
              [
                127.21964263916016,
                34.743614196777344
              ],
              [
                127.02291107177734,
                34.48630142211914
              ],
              [
                126.62617492675781,
                34.2933349609375
              ],
              [
                126.42462921142578,
                34.3576545715332
              ],
              [
                126.48365783691406,
                34.48630142211914
              ],
              [
                126.3476333618164,
                34.3576545715332
              ],
              [
                126.11663818359375,
                34.3576545715332
              ],
              [
                126.4784164428711,
                34.80794906616211
              ],
              [
                126.1998062133789,
                34.87228775024414
              ],
              [
                126.38115692138672,
                35.258358001708984
              ],
              [
                126.30387878417969,
                35.258358001708984
              ],
              [
                126.51919555664062,
                35.708900451660156
              ],
              [
                126.76777648925781,
                35.902034759521484
              ],
              [
                126.61280822753906,
                35.902034759521484
              ],
              [
                126.67567443847656,
                36.03080368041992
              ],
              [
                126.52062225341797,
                36.03080368041992
              ],
              [
                126.42864227294922,
                36.15959167480469
              ],
              [
                126.45157623291016,
                36.67487716674805
              ],
              [
                126.26383972167969,
                36.61045455932617
              ],
              [
                126.04977416992188,
                36.80373764038086
              ],
              [
                126.49177551269531,
                37.06150817871094
              ],
              [
                126.69245910644531,
                36.9970588684082
              ],
              [
                126.77030944824219,
                36.9970588684082
              ],
              [
                126.7374496459961,
                36.932613372802734
              ],
              [
                127.70452117919922,
                36.9970588684082
              ],
              [
                127.67139434814453,
                36.932613372802734
              ],
              [
                127.9496078491211,
                36.8681755065918
              ],
              [
                127.89594268798828,
                36.61045455932617
              ],
              [
                128.0187225341797,
                36.5460319519043
              ],
              [
                127.95372009277344,
                36.417205810546875
              ],
              [
                128.04432678222656,
                36.28839111328125
              ],
              [
                128.0121307373047,
                36.2239875793457
              ],
              [
                128.0897216796875,
                36.2239875793457
              ],
              [
                127.89839172363281,
                35.837650299072266
              ]
            ]
          ],
          [
            [
              [
                60.02655029296875,
                42.041324615478516
              ],
              [
                60.10637664794922,
                42.041324615478516
              ],
              [
                60.08857727050781,
                41.97637939453125
              ],
              [
                60.00878143310547,
                41.97637939453125
              ],
              [
                60.02655029296875,
                42.041324615478516
              ]
            ]
          ]
        ]
      }
    }
  ]
}