{
  "type": "FeatureCollection",
  "name": "territory-256",
  "features": [
    {
      "type": "Feature",
      "properties": {
        "Name": "Gao Kaidao",
        "FromYear": 623,
        "ToYear": 625,
        "Area": 81686.28786196563,
        "Type": "POLITY",
        "Wikipedia": "Gao Kaidao",
        "Wikidata": "Q712564",
        "SeshatID": "",
        "Components": "",
        "MemberOf": ""
      },
      "geometry": {
        "type": "Polygon",
        "coordinates": [
          [
            [
              121.2684097290039,
              40.873565673828125
            ],
            [
              121.1890869140625,
              40.873565673828125
            ],
            [
              120.64734649658203,
              40.4848747253418
            ],
            [
              120.50029754638672,
              40.225894927978516
            ],
            [
              119.38044738769531,
              39.77294921875
            ],
            [
              119.21530151367188,
              39.320335388183594
            ],
            [
              118.44984436035156,
              39.06184005737305
            ],
            [
              118.0568618774414,
              39.06184005737305
            ],
            [
              118.04566192626953,
              39.19107437133789
            ],
            [
              117.88837432861328,
              39.19107437133789
            ],
            [
              117.60940551757812,
              38.80344009399414
            ],
            [
              117.57643127441406,
              38.738853454589844
            ],
            [
              117.07286834716797,
              38.67427444458008
            ],
            [
              117.10558319091797,
              38.738853454589844
            ],
            [
              116.74591064453125,
              38.80344009399414
            ],
            [
              116.93310546875,
              39.320335388183594
            ],
            [
              116.85441589355469,
              39.320335388183594
            ],
            [
              116.9219970703125,
              39.449623107910156
            ],
            [
              116.83247375488281,
              39.57893371582031
            ],
            [
              116.47254180908203,
              39.64360046386719
            ],
            [
              116.16825866699219,
              39.51427459716797
            ],
            [
              116.07843017578125,
              39.64360046386719
            ],
            [
              115.92078399658203,
              39.64360046386719
            ],
            [
              115.94425201416016,
              39.8376350402832
            ],
            [
              115.82075500488281,
              39.90232849121094
            ],
            [
              115.88973999023438,
              40.031734466552734
            ],
            [
              115.66889953613281,
              40.355369567871094
            ],
            [
              115.8675308227539,
              41.00318908691406
            ],
            [
              115.73854064941406,
              41.19768524169922
            ],
            [
              115.57962036132812,
              41.19768524169922
            ],
            [
              115.4878158569336,
              41.45711898803711
            ],
            [
              115.5673828125,
              41.45711898803711
            ],
            [
              116.63911437988281,
              41.521995544433594
            ],
            [
              116.60179138183594,
              41.45711898803711
            ],
            [
              117.59864044189453,
              41.39224624633789
            ],
            [
              117.60334014892578,
              41.26253128051758
            ],
            [
              117.76231384277344,
              41.26253128051758
            ],
            [
              117.84668731689453,
              41.132843017578125
            ],
            [
              117.77824401855469,
              40.873565673828125
            ],
            [
              117.9001693725586,
              40.80876541137695
            ],
            [
              117.82709503173828,
              40.6791877746582
            ],
            [
              117.91288757324219,
              40.54964065551758
            ],
            [
              118.0712661743164,
              40.54964065551758
            ],
            [
              118.2003402709961,
              40.355369567871094
            ],
            [
              118.638916015625,
              40.29063034057617
            ],
            [
              118.60298156738281,
              40.225894927978516
            ],
            [
              118.99825286865234,
              40.225894927978516
            ],
            [
              119.545166015625,
              40.355369567871094
            ],
            [
              120.07857513427734,
              40.873565673828125
            ],
            [
              120.35420227050781,
              40.93837356567383
            ],
            [
              120.78031921386719,
              41.39224624633789
            ],
            [
              121.3733139038086,
              41.71668243408203
            ],
            [
              121.97047424316406,
              41.911441802978516
            ],
            [
              122.36931610107422,
              41.911441802978516
            ],
            [
              122.3293685913086,
              41.84651184082031
            ],
            [
              122.56858825683594,
              41.84651184082031
            ],
            [
              122.52867126464844,
              41.781593322753906
            ],
            [
              122.6083755493164,
              41.781593322753906
            ],
            [
              122.4899673461914,
              41.45711898803711
            ],
            [
              121.93632507324219,
              41.19768524169922
            ],
            [
              121.82366180419922,
              40.873565673828125
            ],
            [
              121.74433898925781,
              40.873565673828125
            ],
            [
              121.2684097290039,
              40.873565673828125
            ]
          ]
        ]
      }
    }
  ]
}