{
  "type": "FeatureCollection",
  "name": "territory-262",
  "features": [
    {
      "type": "Feature",
      "properties": {
        "Name": "Old Great Bulgaria",
        "FromYear": 656,
        "ToYear": 673,
        "Area": 301063.6716313905,
        "Type": "POLITY",
        "Wikipedia": "Old Great Bulgaria",
        "Wikidata": "Q191484",
        "SeshatID": "",
        "Components": "",
        "MemberOf": ""
      },
      "geometry": {
        "type": "MultiPolygon",
        "coordinates": [
          [
            [
              [
                29.57703399658203,
                45.36587905883789
              ],
              [
                29.58445930480957,
                45.431331634521484
              ],
              [
                29.66587257385254,
                45.431331634521484
              ],
              [
                29.658414840698242,
                45.36587905883789
              ],
              [
                29.57703399658203,
                45.36587905883789
              ]
            ]
          ],
          [
            [
              [
                35.01994323730469,
                45.300437927246094
              ],
              [
                36.42308807373047,
                45.431331634521484
              ],
              [
                36.37263107299805,
                45.10417556762695
              ],
              [
                35.87525939941406,
                45.03877639770508
              ],
              [
                35.732418060302734,
                45.169586181640625
              ],
              [
                35.40727996826172,
                45.169586181640625
              ],
              [
                35.297096252441406,
                44.973392486572266
              ],
              [
                34.87226867675781,
                44.842647552490234
              ],
              [
                34.79114532470703,
                44.842647552490234
              ],
              [
                34.4318733215332,
                45.169586181640625
              ],
              [
                34.26930236816406,
                45.169586181640625
              ],
              [
                34.0621337890625,
                45.431331634521484
              ],
              [
                33.89930725097656,
                45.431331634521484
              ],
              [
                33.627967834472656,
                45.82429504394531
              ],
              [
                33.70957565307617,
                45.82429504394531
              ],
              [
                33.73704528808594,
                46.02093505859375
              ],
              [
                34.318397521972656,
                46.08650588989258
              ],
              [
                34.38124465942383,
                45.95537567138672
              ],
              [
                34.61674118041992,
                45.889827728271484
              ],
              [
                34.59776306152344,
                45.75876998901367
              ],
              [
                34.74187088012695,
                45.62776184082031
              ],
              [
                34.82337951660156,
                45.62776184082031
              ],
              [
                34.98639678955078,
                45.62776184082031
              ],
              [
                35.01994323730469,
                45.300437927246094
              ]
            ]
          ],
          [
            [
              [
                41.09982681274414,
                49.051273345947266
              ],
              [
                41.34973907470703,
                49.051273345947266
              ],
              [
                41.48893737792969,
                48.91886520385742
              ],
              [
                41.974464416503906,
                48.852684020996094
              ],
              [
                42.26552963256836,
                48.654239654541016
              ],
              [
                42.445621490478516,
                48.72037124633789
              ],
              [
                42.417816162109375,
                48.5881233215332
              ],
              [
                43.55183410644531,
                48.455936431884766
              ],
              [
                43.63480758666992,
                48.455936431884766
              ],
              [
                43.20491409301758,
                47.993770599365234
              ],
              [
                43.039466857910156,
                47.993770599365234
              ],
              [
                42.35348129272461,
                47.46647262573242
              ],
              [
                41.73762893676758,
                47.26897048950195
              ],
              [
                41.60425567626953,
                47.005828857421875
              ],
              [
                41.32001495361328,
                46.808616638183594
              ],
              [
                40.91496658325195,
                45.95537567138672
              ],
              [
                40.54082107543945,
                45.693260192871094
              ],
              [
                40.226219177246094,
                45.300437927246094
              ],
              [
                40.075748443603516,
                44.908016204833984
              ],
              [
                39.902034759521484,
                44.842647552490234
              ],
              [
                39.93761444091797,
                44.58129119873047
              ],
              [
                39.2014045715332,
                44.05907440185547
              ],
              [
                39.12065505981445,
                44.05907440185547
              ],
              [
                39.06172180175781,
                44.18956756591797
              ],
              [
                38.76011657714844,
                44.32010269165039
              ],
              [
                38.21527862548828,
                44.45067596435547
              ],
              [
                38.014862060546875,
                44.71194839477539
              ],
              [
                37.52848815917969,
                44.71194839477539
              ],
              [
                37.25600814819336,
                45.03877639770508
              ],
              [
                36.778892517089844,
                45.10417556762695
              ],
              [
                36.81986618041992,
                45.36587905883789
              ],
              [
                36.738487243652344,
                45.36587905883789
              ],
              [
                36.911563873291016,
                45.431331634521484
              ],
              [
                36.972293853759766,
                45.300437927246094
              ],
              [
                37.704429626464844,
                45.300437927246094
              ],
              [
                37.67619323730469,
                45.62776184082031
              ],
              [
                37.860713958740234,
                45.75876998901367
              ],
              [
                37.89311981201172,
                45.95537567138672
              ],
              [
                38.334564208984375,
                46.1520881652832
              ],
              [
                38.36785888671875,
                46.348915100097656
              ],
              [
                37.89856719970703,
                46.480194091796875
              ],
              [
                37.83858108520508,
                46.61152267456055
              ],
              [
                38.494598388671875,
                46.61152267456055
              ],
              [
                38.62202453613281,
                46.87434005737305
              ],
              [
                38.78630065917969,
                46.87434005737305
              ],
              [
                38.89152145385742,
                47.005828857421875
              ],
              [
                39.12647247314453,
                46.94007873535156
              ],
              [
                39.26741409301758,
                47.26897048950195
              ],
              [
                39.1968879699707,
                47.33478927612305
              ],
              [
                38.6794548034668,
                47.20316696166992
              ],
              [
                37.51609802246094,
                47.13737487792969
              ],
              [
                37.16523361206055,
                47.005828857421875
              ],
              [
                37.2257080078125,
                46.87434005737305
              ],
              [
                36.90787887573242,
                46.94007873535156
              ],
              [
                36.80437088012695,
                46.808616638183594
              ],
              [
                35.634639739990234,
                46.677207946777344
              ],
              [
                35.24697494506836,
                46.283294677734375
              ],
              [
                34.75596237182617,
                46.283294677734375
              ],
              [
                34.736690521240234,
                46.1520881652832
              ],
              [
                34.0825309753418,
                46.1520881652832
              ],
              [
                34.019439697265625,
                46.283294677734375
              ],
              [
                33.610260009765625,
                46.283294677734375
              ],
              [
                33.59191131591797,
                46.1520881652832
              ],
              [
                32.946651458740234,
                46.21768569946289
              ],
              [
                32.84713363647461,
                46.08650588989258
              ],
              [
                32.683658599853516,
                46.08650588989258
              ],
              [
                32.0639533996582,
                46.348915100097656
              ],
              [
                31.81834602355957,
                46.348915100097656
              ],
              [
                31.835351943969727,
                46.480194091796875
              ],
              [
                32.16309356689453,
                46.480194091796875
              ],
              [
                32.18914794921875,
                46.677207946777344
              ],
              [
                32.03373336791992,
                46.74290466308594
              ],
              [
                31.787527084350586,
                46.74290466308594
              ],
              [
                31.606428146362305,
                46.61152267456055
              ],
              [
                30.87657928466797,
                46.677207946777344
              ],
              [
                30.297666549682617,
                45.95537567138672
              ],
              [
                30.044963836669922,
                45.889827728271484
              ],
              [
                29.85890007019043,
                45.693260192871094
              ],
              [
                29.614274978637695,
                45.693260192871094
              ],
              [
                29.591896057128906,
                45.496795654296875
              ],
              [
                29.58445930480957,
                45.431331634521484
              ],
              [
                29.095985412597656,
                45.431331634521484
              ],
              [
                28.505107879638672,
                45.23500442504883
              ],
              [
                28.207340240478516,
                45.496795654296875
              ],
              [
                28.28878402709961,
                45.496795654296875
              ],
              [
                28.657102584838867,
                45.889827728271484
              ],
              [
                28.589677810668945,
                46.02093505859375
              ],
              [
                28.671382904052734,
                46.02093505859375
              ],
              [
                28.707326889038086,
                46.348915100097656
              ],
              [
                28.632658004760742,
                46.414546966552734
              ],
              [
                28.811044692993164,
                46.54585266113281
              ],
              [
                28.7583065032959,
                46.808616638183594
              ],
              [
                28.92251205444336,
                46.808616638183594
              ],
              [
                28.959793090820312,
                47.13737487792969
              ],
              [
                29.124338150024414,
                47.13737487792969
              ],
              [
                29.31961441040039,
                47.4006233215332
              ],
              [
                30.671463012695312,
                47.664100646972656
              ],
              [
                33.47809600830078,
                47.664100646972656
              ],
              [
                33.62398910522461,
                47.53233337402344
              ],
              [
                34.283817291259766,
                47.53233337402344
              ],
              [
                34.633766174316406,
                47.664100646972656
              ],
              [
                34.778690338134766,
                47.53233337402344
              ],
              [
                35.026123046875,
                47.53233337402344
              ],
              [
                35.19115447998047,
                48.059749603271484
              ],
              [
                35.11882400512695,
                48.1257438659668
              ],
              [
                35.20161819458008,
                48.1257438659668
              ],
              [
                35.3481330871582,
                48.52202224731445
              ],
              [
                36.37448501586914,
                49.18375015258789
              ],
              [
                37.07720947265625,
                49.38258361816406
              ],
              [
                37.68986892700195,
                49.98000717163086
              ],
              [
                37.63133239746094,
                50.11296081542969
              ],
              [
                37.89592742919922,
                50.17946243286133
              ],
              [
                38.806156158447266,
                50.11296081542969
              ],
              [
                39.101829528808594,
                49.91355895996094
              ],
              [
                39.36661911010742,
                49.98000717163086
              ],
              [
                39.326602935791016,
                49.78071212768555
              ],
              [
                39.49404525756836,
                49.78071212768555
              ],
              [
                39.551124572753906,
                49.64793395996094
              ],
              [
                39.96934509277344,
                49.64793395996094
              ],
              [
                40.19322967529297,
                49.51522445678711
              ],
              [
                40.179786682128906,
                49.44889450073242
              ],
              [
                41.09982681274414,
                49.051273345947266
              ]
            ]
          ]
        ]
      }
    }
  ]
}