{
  "type": "FeatureCollection",
  "name": "territory-265",
  "features": [
    {
      "type": "Feature",
      "properties": {
        "Name": "Balasagan",
        "FromYear": 644,
        "ToYear": 646,
        "Area": 74160.87978495826,
        "Type": "POLITY",
        "Wikipedia": "Balasagan",
        "Wikidata": "Q3633213",
        "SeshatID": "",
        "Components": "",
        "MemberOf": ""
      },
      "geometry": {
        "type": "Polygon",
        "coordinates": [
          [
            [
              48.19894790649414,
              41.97637939453125
            ],
            [
              48.278743743896484,
              41.97637939453125
            ],
            [
              49.08600997924805,
              41.26253128051758
            ],
            [
              49.059226989746094,
              41.132843017578125
            ],
            [
              49.270748138427734,
              41.00318908691406
            ],
            [
              49.2441520690918,
              40.873565673828125
            ],
            [
              49.50836181640625,
              40.614410400390625
            ],
            [
              50.04951477050781,
              40.54964065551758
            ],
            [
              50.2603759765625,
              40.42012023925781
            ],
            [
              49.6933479309082,
              40.355369567871094
            ],
            [
              49.50919723510742,
              40.225894927978516
            ],
            [
              49.26664352416992,
              39.38497543334961
            ],
            [
              49.151405334472656,
              39.19107437133789
            ],
            [
              48.994110107421875,
              39.19107437133789
            ],
            [
              48.91546630859375,
              39.19107437133789
            ],
            [
              48.673282623291016,
              39.57893371582031
            ],
            [
              48.44904327392578,
              39.64360046386719
            ],
            [
              47.73964309692383,
              39.64360046386719
            ],
            [
              47.527008056640625,
              39.77294921875
            ],
            [
              47.12083053588867,
              39.70827102661133
            ],
            [
              47.06560134887695,
              39.8376350402832
            ],
            [
              46.90780258178711,
              39.8376350402832
            ],
            [
              46.773597717285156,
              39.9670295715332
            ],
            [
              46.45779800415039,
              39.9670295715332
            ],
            [
              46.48136901855469,
              40.0964469909668
            ],
            [
              46.256134033203125,
              40.16116714477539
            ],
            [
              46.200740814208984,
              40.29063034057617
            ],
            [
              45.59148025512695,
              40.42012023925781
            ],
            [
              45.456661224365234,
              40.54964065551758
            ],
            [
              45.5953483581543,
              40.873565673828125
            ],
            [
              45.03219985961914,
              41.26253128051758
            ],
            [
              44.95271301269531,
              41.26253128051758
            ],
            [
              44.237335205078125,
              41.26253128051758
            ],
            [
              44.3523063659668,
              41.45711898803711
            ],
            [
              44.77427673339844,
              41.586883544921875
            ],
            [
              45.07451629638672,
              41.911441802978516
            ],
            [
              45.313819885253906,
              41.911441802978516
            ],
            [
              45.616233825683594,
              42.236209869384766
            ],
            [
              45.75059127807617,
              42.10627746582031
            ],
            [
              46.29668426513672,
              42.041324615478516
            ],
            [
              46.350799560546875,
              41.911441802978516
            ],
            [
              46.7366943359375,
              41.84651184082031
            ],
            [
              47.27063751220703,
              41.32738494873047
            ],
            [
              47.5628776550293,
              41.19768524169922
            ],
            [
              47.89371109008789,
              41.26253128051758
            ],
            [
              48.18490982055664,
              41.521995544433594
            ],
            [
              48.1719970703125,
              41.84651184082031
            ],
            [
              48.09225845336914,
              41.84651184082031
            ],
            [
              48.19894790649414,
              41.97637939453125
            ]
          ]
        ]
      }
    }
  ]
}