{
  "type": "FeatureCollection",
  "name": "territory-266",
  "features": [
    {
      "type": "Feature",
      "properties": {
        "Name": "Lavo Kingdom",
        "FromYear": 1056,
        "ToYear": 1065,
        "Area": 143091.79210094517,
        "Type": "POLITY",
        "Wikipedia": "Lavo Kingdom",
        "Wikidata": "Q1332305",
        "SeshatID": "th_lavo_k_2",
        "Components": "",
        "MemberOf": ""
      },
      "geometry": {
        "type": "Polygon",
        "coordinates": [
          [
            [
              101.71195220947266,
              12.69316577911377
            ],
            [
              101.5516128540039,
              12.564591407775879
            ],
            [
              100.82551574707031,
              12.628878593444824
            ],
            [
              100.99075317382812,
              13.464617729187012
            ],
            [
              100.5578842163086,
              13.528904914855957
            ],
            [
              100.10314178466797,
              13.40032958984375
            ],
            [
              100.03314208984375,
              12.050291061401367
            ],
            [
              99.8802261352539,
              11.986002922058105
            ],
            [
              99.85491180419922,
              11.728853225708008
            ],
            [
              99.60441589355469,
              11.407415390014648
            ],
            [
              99.28623962402344,
              10.314528465270996
            ],
            [
              99.20209503173828,
              10.185953140258789
            ],
            [
              98.98821258544922,
              10.250240325927734
            ],
            [
              98.97727966308594,
              10.121665954589844
            ],
            [
              98.6116943359375,
              10.121665954589844
            ],
            [
              98.81363677978516,
              10.764540672302246
            ],
            [
              99.46409606933594,
              11.47170352935791
            ],
            [
              99.59364318847656,
              12.050291061401367
            ],
            [
              99.39977264404297,
              12.307440757751465
            ],
            [
              99.35962677001953,
              12.628878593444824
            ],
            [
              99.10037994384766,
              12.950316429138184
            ],
            [
              99.2156982421875,
              13.336042404174805
            ],
            [
              99.14234924316406,
              13.336042404174805
            ],
            [
              99.17839050292969,
              13.657480239868164
            ],
            [
              99.06112670898438,
              13.914630889892578
            ],
            [
              98.40312957763672,
              14.55750846862793
            ],
            [
              98.4188461303711,
              14.686083793640137
            ],
            [
              98.16484832763672,
              15.007523536682129
            ],
            [
              98.19756317138672,
              15.26467514038086
            ],
            [
              98.5903091430664,
              15.457538604736328
            ],
            [
              98.59400939941406,
              16.036130905151367
            ],
            [
              98.75883483886719,
              16.16470718383789
            ],
            [
              98.83246612548828,
              16.16470718383789
            ],
            [
              99.091796875,
              15.907554626464844
            ],
            [
              99.91024780273438,
              15.971842765808105
            ],
            [
              100.08419036865234,
              16.16470718383789
            ],
            [
              100.21356964111328,
              16.036130905151367
            ],
            [
              100.4344253540039,
              16.036130905151367
            ],
            [
              100.55313110351562,
              16.35757064819336
            ],
            [
              100.80160522460938,
              16.550434112548828
            ],
            [
              100.8387222290039,
              16.807586669921875
            ],
            [
              101.32820892333984,
              17.129026412963867
            ],
            [
              101.40194702148438,
              17.129026412963867
            ],
            [
              101.61363220214844,
              17.06473731994629
            ],
            [
              102.00146484375,
              17.193313598632812
            ],
            [
              102.32228088378906,
              16.87187385559082
            ],
            [
              102.22017669677734,
              16.67901039123535
            ],
            [
              102.21077728271484,
              16.614723205566406
            ],
            [
              101.69709014892578,
              15.586114883422852
            ],
            [
              101.5324935913086,
              15.457538604736328
            ],
            [
              101.48114013671875,
              15.07181167602539
            ],
            [
              101.61138153076172,
              14.943235397338867
            ],
            [
              101.61150360107422,
              14.364645004272461
            ],
            [
              101.96285247802734,
              14.236069679260254
            ],
            [
              101.72439575195312,
              13.464617729187012
            ],
            [
              101.68081665039062,
              13.07889175415039
            ],
            [
              101.81324768066406,
              12.950316429138184
            ],
            [
              101.78524780273438,
              12.69316577911377
            ],
            [
              101.71195220947266,
              12.69316577911377
            ]
          ]
        ]
      }
    }
  ]
}