{
  "type": "FeatureCollection",
  "name": "territory-267",
  "features": [
    {
      "type": "Feature",
      "properties": {
        "Name": "Dabuyid Dynasty",
        "FromYear": 644,
        "ToYear": 646,
        "Area": 64825.01204510937,
        "Type": "POLITY",
        "Wikipedia": "Dabuyid dynasty",
        "Wikidata": "Q2816439",
        "SeshatID": "",
        "Components": "",
        "MemberOf": ""
      },
      "geometry": {
        "type": "Polygon",
        "coordinates": [
          [
            [
              48.88429260253906,
              37.706241607666016
            ],
            [
              49.08510208129883,
              37.51277160644531
            ],
            [
              49.998783111572266,
              37.38381576538086
            ],
            [
              50.320892333984375,
              36.9970588684082
            ],
            [
              50.56571960449219,
              37.06150817871094
            ],
            [
              50.632293701171875,
              36.9970588684082
            ],
            [
              50.53199768066406,
              36.8681755065918
            ],
            [
              50.82074737548828,
              36.73930740356445
            ],
            [
              51.6419677734375,
              36.5460319519043
            ],
            [
              52.58595275878906,
              36.61045455932617
            ],
            [
              53.488651275634766,
              36.8681755065918
            ],
            [
              54.033294677734375,
              36.8681755065918
            ],
            [
              54.09466552734375,
              37.1904182434082
            ],
            [
              53.97600173950195,
              37.38381576538086
            ],
            [
              54.37851333618164,
              37.44829177856445
            ],
            [
              54.83383560180664,
              37.38381576538086
            ],
            [
              54.88645935058594,
              37.254878997802734
            ],
            [
              55.40652847290039,
              37.12596130371094
            ],
            [
              55.48442459106445,
              37.12596130371094
            ],
            [
              55.446407318115234,
              36.932613372802734
            ],
            [
              55.18791198730469,
              36.80373764038086
            ],
            [
              55.15068817138672,
              36.61045455932617
            ],
            [
              54.88085174560547,
              36.417205810546875
            ],
            [
              54.30137634277344,
              36.2239875793457
            ],
            [
              53.20351791381836,
              36.15959167480469
            ],
            [
              52.70390701293945,
              35.9664192199707
            ],
            [
              52.33797836303711,
              35.644527435302734
            ],
            [
              52.02837371826172,
              35.644527435302734
            ],
            [
              51.82918167114258,
              35.837650299072266
            ],
            [
              51.087215423583984,
              36.03080368041992
            ],
            [
              50.467002868652344,
              36.03080368041992
            ],
            [
              50.27750015258789,
              36.28839111328125
            ],
            [
              49.18772506713867,
              36.73930740356445
            ],
            [
              49.14228820800781,
              36.932613372802734
            ],
            [
              48.852516174316406,
              37.06150817871094
            ],
            [
              48.39375305175781,
              37.5772590637207
            ],
            [
              48.191890716552734,
              38.22237777709961
            ],
            [
              47.99068832397461,
              38.416015625
            ],
            [
              48.02470397949219,
              38.60969924926758
            ],
            [
              47.94627380371094,
              38.60969924926758
            ],
            [
              47.99210739135742,
              38.8680305480957
            ],
            [
              48.25099563598633,
              38.997230529785156
            ],
            [
              48.23134994506836,
              39.320335388183594
            ],
            [
              48.44904327392578,
              39.64360046386719
            ],
            [
              48.673282623291016,
              39.57893371582031
            ],
            [
              48.91546630859375,
              39.19107437133789
            ],
            [
              48.90345764160156,
              39.1264533996582
            ],
            [
              48.74217987060547,
              38.67427444458008
            ],
            [
              48.82062911987305,
              38.67427444458008
            ],
            [
              48.76274490356445,
              38.351463317871094
            ],
            [
              48.8410758972168,
              38.351463317871094
            ],
            [
              48.89546203613281,
              37.7707405090332
            ],
            [
              48.88429260253906,
              37.706241607666016
            ]
          ]
        ]
      }
    }
  ]
}