{
  "type": "FeatureCollection",
  "name": "territory-268",
  "features": [
    {
      "type": "Feature",
      "properties": {
        "Name": "Khadga Dynasty",
        "FromYear": 656,
        "ToYear": 691,
        "Area": 90426.59830967197,
        "Type": "POLITY",
        "Wikipedia": "Khadga Dynasty",
        "Wikidata": "Q6398879",
        "SeshatID": "bd_khadga_dyn",
        "Components": "",
        "MemberOf": ""
      },
      "geometry": {
        "type": "Polygon",
        "coordinates": [
          [
            [
              90.417,
              25.185
            ],
            [
              90.423,
              25.185
            ],
            [
              91.072,
              24.187
            ],
            [
              91.312,
              24.153
            ],
            [
              91.583,
              23.946
            ],
            [
              91.768,
              23.337
            ],
            [
              91.64,
              22.835
            ],
            [
              91.435,
              22.692
            ],
            [
              91.58,
              22.48
            ],
            [
              91.546,
              22.35
            ],
            [
              91.386,
              22.502
            ],
            [
              91.447,
              22.352
            ],
            [
              91.343,
              22.457
            ],
            [
              91.146,
              22.432
            ],
            [
              91.208,
              22.245
            ],
            [
              91.121,
              22.044
            ],
            [
              90.989,
              22.009
            ],
            [
              90.964,
              22.109
            ],
            [
              90.848,
              21.868
            ],
            [
              90.576,
              21.873
            ],
            [
              90.476,
              21.751
            ],
            [
              90.289,
              21.871
            ],
            [
              90.107,
              21.804
            ],
            [
              90.025,
              21.966
            ],
            [
              89.593,
              21.691
            ],
            [
              89.474,
              21.717
            ],
            [
              89.526,
              21.947
            ],
            [
              89.35,
              21.683
            ],
            [
              88.538,
              21.533
            ],
            [
              88.036,
              21.633
            ],
            [
              88.067,
              21.804
            ],
            [
              87.982,
              21.829
            ],
            [
              87.739,
              21.665
            ],
            [
              87.503,
              21.611
            ],
            [
              87.114,
              21.982
            ],
            [
              87.501,
              21.613
            ],
            [
              87.824,
              21.727
            ],
            [
              88.159,
              22.122
            ],
            [
              87.941,
              22.374
            ],
            [
              88.192,
              22.11
            ],
            [
              88.254,
              22.362
            ],
            [
              88.559,
              22.571
            ],
            [
              88.619,
              23.035
            ],
            [
              88.825,
              23.353
            ],
            [
              89.701,
              24.021
            ],
            [
              89.528,
              24.939
            ],
            [
              89.674,
              25.393
            ],
            [
              90.417,
              25.185
            ]
          ]
        ]
      }
    }
  ]
}