{
  "type": "FeatureCollection",
  "name": "territory-272",
  "features": [
    {
      "type": "Feature",
      "properties": {
        "Name": "Sunda Kingdom",
        "FromYear": 732,
        "ToYear": 740,
        "Area": 121224.63641494575,
        "Type": "POLITY",
        "Wikipedia": "Sunda Kingdom",
        "Wikidata": "Q1469742",
        "SeshatID": "",
        "Components": "",
        "MemberOf": ""
      },
      "geometry": {
        "type": "Polygon",
        "coordinates": [
          [
            [
              108.04115295410156,
              -6.271672248840332
            ],
            [
              108.11407470703125,
              -6.271672248840332
            ],
            [
              108.33635711669922,
              -6.335959911346436
            ],
            [
              108.5806655883789,
              -6.78597354888916
            ],
            [
              110.33898162841797,
              -6.914548873901367
            ],
            [
              110.53135681152344,
              -6.464535236358643
            ],
            [
              110.89232635498047,
              -6.400247573852539
            ],
            [
              111.05307006835938,
              -6.657398223876953
            ],
            [
              111.48690795898438,
              -6.59311056137085
            ],
            [
              111.64424133300781,
              -6.78597354888916
            ],
            [
              111.93600463867188,
              -6.78597354888916
            ],
            [
              112.16267395019531,
              -6.914548873901367
            ],
            [
              112.5234603881836,
              -6.850261211395264
            ],
            [
              112.71458435058594,
              -7.557425022125244
            ],
            [
              113.01515197753906,
              -7.685999870300293
            ],
            [
              112.95095825195312,
              -7.8145751953125
            ],
            [
              113.13346099853516,
              -8.328875541687012
            ],
            [
              112.85083770751953,
              -8.457450866699219
            ],
            [
              112.26666259765625,
              -8.457450866699219
            ],
            [
              111.8922119140625,
              -8.328875541687012
            ],
            [
              110.64639282226562,
              -8.264588356018066
            ],
            [
              109.89408111572266,
              -7.943150520324707
            ],
            [
              108.78215026855469,
              -7.685999870300293
            ],
            [
              108.13792419433594,
              -7.878862857818604
            ],
            [
              107.16431427001953,
              -7.493137359619141
            ],
            [
              106.43457794189453,
              -7.493137359619141
            ],
            [
              106.28465270996094,
              -7.428849697113037
            ],
            [
              106.3343734741211,
              -7.043123722076416
            ],
            [
              105.8854751586914,
              -6.850261211395264
            ],
            [
              105.37486267089844,
              -6.850261211395264
            ],
            [
              105.42984771728516,
              -6.528822898864746
            ],
            [
              105.64512634277344,
              -6.464535236358643
            ],
            [
              105.69756317138672,
              -6.078809261322021
            ],
            [
              105.90641784667969,
              -5.885946750640869
            ],
            [
              106.79126739501953,
              -6.078809261322021
            ],
            [
              106.85420227050781,
              -5.885946750640869
            ],
            [
              107.00001525878906,
              -5.885946750640869
            ],
            [
              107.37120056152344,
              -6.014522075653076
            ],
            [
              107.5272445678711,
              -6.207384586334229
            ],
            [
              108.04115295410156,
              -6.271672248840332
            ]
          ]
        ]
      }
    }
  ]
}