{
  "type": "FeatureCollection",
  "name": "territory-278",
  "features": [
    {
      "type": "Feature",
      "properties": {
        "Name": "Republic of Venice",
        "FromYear": 1687,
        "ToYear": 1690,
        "Area": 65217.75734799089,
        "Type": "POLITY",
        "Wikipedia": "Republic of Venice",
        "Wikidata": "Q4948",
        "SeshatID": "it_venetian_rep_4",
        "Components": "",
        "MemberOf": ""
      },
      "geometry": {
        "type": "MultiPolygon",
        "coordinates": [
          [
            [
              [
                17.588058471679688,
                42.75628662109375
              ],
              [
                17.50791358947754,
                42.75628662109375
              ],
              [
                17.510494232177734,
                42.82133865356445
              ],
              [
                17.590667724609375,
                42.82133865356445
              ],
              [
                17.588058471679688,
                42.75628662109375
              ]
            ]
          ],
          [
            [
              [
                17.35774040222168,
                43.016544342041016
              ],
              [
                17.36028289794922,
                43.08163070678711
              ],
              [
                17.520870208740234,
                43.08163070678711
              ],
              [
                17.515670776367188,
                42.95146560668945
              ],
              [
                17.35774040222168,
                43.016544342041016
              ]
            ]
          ],
          [
            [
              [
                17.12186050415039,
                43.146724700927734
              ],
              [
                17.05129051208496,
                43.407203674316406
              ],
              [
                16.727190017700195,
                43.342071533203125
              ],
              [
                16.734172821044922,
                43.53750228881836
              ],
              [
                16.575437545776367,
                43.6026611328125
              ],
              [
                15.927099227905273,
                43.472347259521484
              ],
              [
                16.01169204711914,
                43.6026611328125
              ],
              [
                15.856636047363281,
                43.79821014404297
              ],
              [
                15.695383071899414,
                43.79821014404297
              ],
              [
                15.618592262268066,
                43.92862319946289
              ],
              [
                15.374701499938965,
                43.86341094970703
              ],
              [
                15.459075927734375,
                43.99384307861328
              ],
              [
                15.218687057495117,
                44.05907440185547
              ],
              [
                15.223997116088867,
                44.25482940673828
              ],
              [
                15.065731048583984,
                44.38538360595703
              ],
              [
                15.148378372192383,
                44.45067596435547
              ],
              [
                15.229314804077148,
                44.45067596435547
              ],
              [
                15.22576904296875,
                44.32010269165039
              ],
              [
                15.547369003295898,
                44.25482940673828
              ],
              [
                15.624360084533691,
                44.12431716918945
              ],
              [
                16.429935455322266,
                44.05907440185547
              ],
              [
                16.97568702697754,
                43.53750228881836
              ],
              [
                17.05619239807129,
                43.53750228881836
              ],
              [
                17.053739547729492,
                43.472347259521484
              ],
              [
                17.36538314819336,
                43.211830139160156
              ],
              [
                17.2850284576416,
                43.211830139160156
              ],
              [
                17.12186050415039,
                43.146724700927734
              ]
            ]
          ],
          [
            [
              [
                15.067441940307617,
                44.45067596435547
              ],
              [
                14.986505508422852,
                44.45067596435547
              ],
              [
                14.988184928894043,
                44.5159797668457
              ],
              [
                15.06915283203125,
                44.5159797668457
              ],
              [
                15.067441940307617,
                44.45067596435547
              ]
            ]
          ],
          [
            [
              [
                14.260871887207031,
                44.58129119873047
              ],
              [
                14.269240379333496,
                44.973392486572266
              ],
              [
                14.350428581237793,
                44.973392486572266
              ],
              [
                14.51131820678711,
                44.908016204833984
              ],
              [
                14.502378463745117,
                44.5159797668457
              ],
              [
                14.260871887207031,
                44.58129119873047
              ]
            ]
          ],
          [
            [
              [
                14.515777587890625,
                45.10417556762695
              ],
              [
                14.517261505126953,
                45.169586181640625
              ],
              [
                14.679829597473145,
                45.169586181640625
              ],
              [
                14.757953643798828,
                45.03877639770508
              ],
              [
                14.515777587890625,
                45.10417556762695
              ]
            ]
          ],
          [
            [
              [
                13.945749282836914,
                45.03877639770508
              ],
              [
                13.943220138549805,
                44.908016204833984
              ],
              [
                13.780906677246094,
                44.908016204833984
              ],
              [
                13.705584526062012,
                45.23500442504883
              ],
              [
                13.544051170349121,
                45.300437927246094
              ],
              [
                13.547340393066406,
                45.496795654296875
              ],
              [
                13.628785133361816,
                45.496795654296875
              ],
              [
                13.710229873657227,
                45.496795654296875
              ],
              [
                14.117451667785645,
                45.496795654296875
              ],
              [
                13.786900520324707,
                45.23500442504883
              ],
              [
                14.026969909667969,
                45.03877639770508
              ],
              [
                13.945749282836914,
                45.03877639770508
              ]
            ]
          ],
          [
            [
              [
                12.160021781921387,
                45.169586181640625
              ],
              [
                12.40256118774414,
                45.03877639770508
              ],
              [
                12.399906158447266,
                44.77729415893555
              ],
              [
                12.23771858215332,
                44.77729415893555
              ],
              [
                12.238323211669922,
                44.842647552490234
              ],
              [
                12.239523887634277,
                44.973392486572266
              ],
              [
                11.34644889831543,
                44.973392486572266
              ],
              [
                10.61540412902832,
                45.431331634521484
              ],
              [
                10.452703475952148,
                45.36587905883789
              ],
              [
                10.453055381774902,
                45.169586181640625
              ],
              [
                9.883387565612793,
                45.300437927246094
              ],
              [
                9.71903133392334,
                45.56227111816406
              ],
              [
                9.55607795715332,
                45.56227111816406
              ],
              [
                9.474601745605469,
                45.56227111816406
              ],
              [
                9.310473442077637,
                45.693260192871094
              ],
              [
                9.308683395385742,
                45.889827728271484
              ],
              [
                9.470881462097168,
                46.02093505859375
              ],
              [
                10.124515533447266,
                46.02093505859375
              ],
              [
                10.368688583374023,
                46.348915100097656
              ],
              [
                10.532551765441895,
                46.283294677734375
              ],
              [
                10.45177173614502,
                45.82429504394531
              ],
              [
                10.778217315673828,
                45.693260192871094
              ],
              [
                11.022930145263672,
                45.75876998901367
              ],
              [
                11.350288391113281,
                46.08650588989258
              ],
              [
                11.677236557006836,
                46.08650588989258
              ],
              [
                11.841521263122559,
                46.21768569946289
              ],
              [
                11.843135833740234,
                46.480194091796875
              ],
              [
                12.09045124053955,
                46.677207946777344
              ],
              [
                13.564879417419434,
                46.54585266113281
              ],
              [
                13.562676429748535,
                46.414546966552734
              ],
              [
                13.397838592529297,
                46.348915100097656
              ],
              [
                13.47651481628418,
                46.1520881652832
              ],
              [
                13.31197738647461,
                46.08650588989258
              ],
              [
                13.307992935180664,
                45.82429504394531
              ],
              [
                13.226387023925781,
                45.82429504394531
              ],
              [
                13.144780158996582,
                45.82429504394531
              ],
              [
                13.14384937286377,
                45.75876998901367
              ],
              [
                13.14291763305664,
                45.693260192871094
              ],
              [
                13.061376571655273,
                45.693260192871094
              ],
              [
                13.060476303100586,
                45.62776184082031
              ],
              [
                12.816752433776855,
                45.693260192871094
              ],
              [
                12.652192115783691,
                45.56227111816406
              ],
              [
                12.162785530090332,
                45.496795654296875
              ],
              [
                12.160021781921387,
                45.169586181640625
              ]
            ]
          ],
          [
            [
              [
                22.87404441833496,
                36.15959167480469
              ],
              [
                22.887205123901367,
                36.417205810546875
              ],
              [
                22.964859008789062,
                36.417205810546875
              ],
              [
                23.116798400878906,
                36.3527946472168
              ],
              [
                23.10675048828125,
                36.15959167480469
              ],
              [
                22.87404441833496,
                36.15959167480469
              ]
            ]
          ],
          [
            [
              [
                22.853219985961914,
                37.254878997802734
              ],
              [
                23.056013107299805,
                36.67487716674805
              ],
              [
                22.83283233642578,
                36.8681755065918
              ],
              [
                22.59941291809082,
                36.8681755065918
              ],
              [
                22.51182746887207,
                36.67487716674805
              ],
              [
                22.35634422302246,
                36.67487716674805
              ],
              [
                22.21999168395996,
                37.06150817871094
              ],
              [
                21.90850067138672,
                37.06150817871094
              ],
              [
                21.899152755737305,
                36.8681755065918
              ],
              [
                21.743539810180664,
                36.8681755065918
              ],
              [
                21.681032180786133,
                37.1904182434082
              ],
              [
                21.60311508178711,
                37.1904182434082
              ],
              [
                21.696598052978516,
                37.51277160644531
              ],
              [
                21.243581771850586,
                37.835243225097656
              ],
              [
                21.249725341796875,
                37.96426773071289
              ],
              [
                21.415550231933594,
                38.157840728759766
              ],
              [
                21.728593826293945,
                38.157840728759766
              ],
              [
                21.741735458374023,
                38.416015625
              ],
              [
                22.13351058959961,
                38.416015625
              ],
              [
                22.28675079345703,
                38.351463317871094
              ],
              [
                22.279848098754883,
                38.22237777709961
              ],
              [
                22.439908981323242,
                38.28691864013672
              ],
              [
                22.432939529418945,
                38.157840728759766
              ],
              [
                22.589460372924805,
                38.157840728759766
              ],
              [
                22.657155990600586,
                37.96426773071289
              ],
              [
                23.051733016967773,
                38.028785705566406
              ],
              [
                23.037315368652344,
                37.7707405090332
              ],
              [
                23.108261108398438,
                37.641746520996094
              ],
              [
                23.342487335205078,
                37.641746520996094
              ],
              [
                23.402393341064453,
                37.3193473815918
              ],
              [
                23.168506622314453,
                37.3193473815918
              ],
              [
                23.101137161254883,
                37.51277160644531
              ],
              [
                22.870534896850586,
                37.5772590637207
              ],
              [
                22.792482376098633,
                37.5772590637207
              ],
              [
                22.71442985534668,
                37.5772590637207
              ],
              [
                22.700735092163086,
                37.3193473815918
              ],
              [
                22.853219985961914,
                37.254878997802734
              ]
            ]
          ],
          [
            [
              [
                25.0518856048584,
                37.51277160644531
              ],
              [
                24.986202239990234,
                37.706241607666016
              ],
              [
                25.064300537109375,
                37.706241607666016
              ],
              [
                25.220497131347656,
                37.706241607666016
              ],
              [
                25.285974502563477,
                37.51277160644531
              ],
              [
                25.0518856048584,
                37.51277160644531
              ]
            ]
          ],
          [
            [
              [
                20.612695693969727,
                37.706241607666016
              ],
              [
                20.621307373046875,
                37.89975357055664
              ],
              [
                20.69947624206543,
                37.89975357055664
              ],
              [
                20.933977127075195,
                37.89975357055664
              ],
              [
                20.922147750854492,
                37.641746520996094
              ],
              [
                20.612695693969727,
                37.706241607666016
              ]
            ]
          ],
          [
            [
              [
                23.595443725585938,
                37.96426773071289
              ],
              [
                23.6030330657959,
                38.09331130981445
              ],
              [
                23.837743759155273,
                38.09331130981445
              ],
              [
                23.904340744018555,
                37.89975357055664
              ],
              [
                23.826171875,
                37.89975357055664
              ],
              [
                23.748004913330078,
                37.89975357055664
              ],
              [
                23.7518253326416,
                37.96426773071289
              ],
              [
                23.673633575439453,
                37.96426773071289
              ],
              [
                23.595443725585938,
                37.96426773071289
              ]
            ]
          ],
          [
            [
              [
                20.319902420043945,
                38.157840728759766
              ],
              [
                20.328466415405273,
                38.351463317871094
              ],
              [
                20.488054275512695,
                38.416015625
              ],
              [
                20.566410064697266,
                38.416015625
              ],
              [
                20.795446395874023,
                38.28691864013672
              ],
              [
                20.7864933013916,
                38.09331130981445
              ],
              [
                20.319902420043945,
                38.157840728759766
              ]
            ]
          ],
          [
            [
              [
                20.587390899658203,
                38.8680305480957
              ],
              [
                20.66591453552246,
                38.8680305480957
              ],
              [
                20.732181549072266,
                38.60969924926758
              ],
              [
                20.49690055847168,
                38.60969924926758
              ],
              [
                20.587390899658203,
                38.8680305480957
              ]
            ]
          ],
          [
            [
              [
                19.921405792236328,
                39.77294921875
              ],
              [
                19.918411254882812,
                39.70827102661133
              ],
              [
                19.912464141845703,
                39.57893371582031
              ],
              [
                19.75778579711914,
                39.64360046386719
              ],
              [
                19.76365852355957,
                39.77294921875
              ],
              [
                19.921405792236328,
                39.77294921875
              ]
            ]
          ],
          [
            [
              [
                18.77206039428711,
                42.36617660522461
              ],
              [
                18.303630828857422,
                42.62621307373047
              ],
              [
                18.306493759155273,
                42.691246032714844
              ],
              [
                18.71311378479004,
                42.82133865356445
              ],
              [
                18.85202980041504,
                42.36617660522461
              ],
              [
                18.77206039428711,
                42.36617660522461
              ]
            ]
          ]
        ]
      }
    }
  ]
}