{
  "type": "FeatureCollection",
  "name": "territory-284",
  "features": [
    {
      "type": "Feature",
      "properties": {
        "Name": "Kingdom of Neustria",
        "FromYear": 724,
        "ToYear": 731,
        "Area": 131302.5021754164,
        "Type": "POLITY",
        "Wikipedia": "Neustria",
        "Wikidata": "Q106577",
        "SeshatID": "",
        "Components": "",
        "MemberOf": ""
      },
      "geometry": {
        "type": "Polygon",
        "coordinates": [
          [
            [
              4.328337669372559,
              49.84712600708008
            ],
            [
              4.331242084503174,
              49.78071212768555
            ],
            [
              4.432048320770264,
              49.38258361816406
            ],
            [
              4.865273475646973,
              48.98506164550781
            ],
            [
              4.875685691833496,
              48.72037124633789
            ],
            [
              3.730523109436035,
              48.323814392089844
            ],
            [
              3.66914439201355,
              47.86185836791992
            ],
            [
              3.586491346359253,
              47.86185836791992
            ],
            [
              3.516257286071777,
              47.598209381103516
            ],
            [
              2.618989706039429,
              47.4006233215332
            ],
            [
              2.034730672836304,
              47.53233337402344
            ],
            [
              1.877305626869202,
              47.4006233215332
            ],
            [
              1.630077600479126,
              47.4006233215332
            ],
            [
              1.147775530815125,
              47.20316696166992
            ],
            [
              0.843393325805664,
              46.808616638183594
            ],
            [
              0.00897871889174,
              47.005828857421875
            ],
            [
              -0.25605496764183,
              47.26897048950195
            ],
            [
              -2.232228517532349,
              47.26897048950195
            ],
            [
              -2.314568996429443,
              47.26897048950195
            ],
            [
              -2.561590671539307,
              47.26897048950195
            ],
            [
              -2.578423976898193,
              47.46647262573242
            ],
            [
              -2.831500053405762,
              47.53233337402344
            ],
            [
              -2.837259292602539,
              47.598209381103516
            ],
            [
              -2.447182655334473,
              47.86185836791992
            ],
            [
              -1.796727180480957,
              47.993770599365234
            ],
            [
              -1.647326707839966,
              48.191749572753906
            ],
            [
              -1.652703642845154,
              48.257774353027344
            ],
            [
              -1.668919563293457,
              48.455936431884766
            ],
            [
              -1.508333325386047,
              48.52202224731445
            ],
            [
              -1.602181315422058,
              48.654239654541016
            ],
            [
              -1.607621908187866,
              48.72037124633789
            ],
            [
              -1.718345284461975,
              49.051273345947266
            ],
            [
              -1.635041356086731,
              49.051273345947266
            ],
            [
              -1.651668906211853,
              49.2500114440918
            ],
            [
              -1.913302421569824,
              49.38258361816406
            ],
            [
              -2.031550645828247,
              49.78071212768555
            ],
            [
              -1.361783027648926,
              49.78071212768555
            ],
            [
              -1.250783205032349,
              49.44889450073242
            ],
            [
              0.007001183927059,
              49.38258361816406
            ],
            [
              -0.012448177672923,
              49.64793395996094
            ],
            [
              0.224112883210182,
              49.84712600708008
            ],
            [
              1.052847385406494,
              49.98000717163086
            ],
            [
              1.370972871780396,
              50.2459831237793
            ],
            [
              1.454967975616455,
              50.2459831237793
            ],
            [
              1.967018127441406,
              50.11296081542969
            ],
            [
              3.984085559844971,
              50.04647445678711
            ],
            [
              4.322512626647949,
              49.98000717163086
            ],
            [
              4.328337669372559,
              49.84712600708008
            ]
          ]
        ]
      }
    }
  ]
}