{
  "type": "FeatureCollection",
  "name": "territory-285",
  "features": [
    {
      "type": "Feature",
      "properties": {
        "Name": "Kannauj-Varman Dynasty",
        "FromYear": 741,
        "ToYear": 750,
        "Area": 573391.1755689608,
        "Type": "POLITY",
        "Wikipedia": "Kannauj",
        "Wikidata": "Q614890",
        "SeshatID": "in_kannauj_varman_dyn",
        "Components": "",
        "MemberOf": ""
      },
      "geometry": {
        "type": "Polygon",
        "coordinates": [
          [
            [
              86.17000980889718,
              24.44319816475986
            ],
            [
              85.5121907684349,
              24.11611653153849
            ],
            [
              84.86,
              24.33
            ],
            [
              83.572,
              24.986
            ],
            [
              83.208,
              25.296
            ],
            [
              82.341,
              25.5
            ],
            [
              81.253,
              24.685
            ],
            [
              80.882,
              24.666
            ],
            [
              80.322,
              24.933
            ],
            [
              79.14,
              25.123
            ],
            [
              78.263,
              25.406
            ],
            [
              77.416,
              25.854
            ],
            [
              76.84,
              25.988
            ],
            [
              75.179,
              27.142
            ],
            [
              74.887,
              26.963
            ],
            [
              74.497,
              27.27
            ],
            [
              74.078,
              27.15
            ],
            [
              74.162,
              27.904
            ],
            [
              75.446,
              28.367
            ],
            [
              74.847,
              29.664
            ],
            [
              74.692,
              32.658
            ],
            [
              74.755,
              33.024
            ],
            [
              75.103,
              33.128
            ],
            [
              75.627,
              33.095
            ],
            [
              76.277,
              32.509
            ],
            [
              76.377,
              32.571
            ],
            [
              76.568,
              33.374
            ],
            [
              77.511,
              32.596
            ],
            [
              80.916,
              30.214
            ],
            [
              80.093,
              28.886
            ],
            [
              82.306,
              27.744
            ],
            [
              83.531,
              27.415
            ],
            [
              84.078,
              27.469
            ],
            [
              85.40455445598175,
              27.17053575818753
            ],
            [
              86.25711810506073,
              26.1437763322547
            ],
            [
              86.4376741555857,
              25.33870147563804
            ],
            [
              86.17000980889718,
              24.44319816475986
            ]
          ]
        ]
      }
    }
  ]
}