{
  "type": "FeatureCollection",
  "name": "territory-286",
  "features": [
    {
      "type": "Feature",
      "properties": {
        "Name": "Gurjara-Pratihara Dynasty",
        "FromYear": 783,
        "ToYear": 787,
        "Area": 919186.7233897249,
        "Type": "POLITY",
        "Wikipedia": "Gurjara-Pratihara dynasty",
        "Wikidata": "Q5324",
        "SeshatID": "in_gurjara_pratihara_dyn",
        "Components": "",
        "MemberOf": ""
      },
      "geometry": {
        "type": "Polygon",
        "coordinates": [
          [
            [
              78.3209228515625,
              27.736658096313477
            ],
            [
              78.30915069580078,
              27.6723690032959
            ],
            [
              78.83615112304688,
              27.6723690032959
            ],
            [
              80.13166046142578,
              27.35091781616211
            ],
            [
              81.60023498535156,
              27.158044815063477
            ],
            [
              82.5933609008789,
              26.836584091186523
            ],
            [
              84.04832458496094,
              26.57941436767578
            ],
            [
              84.17506408691406,
              26.450830459594727
            ],
            [
              85.49063110351562,
              26.257951736450195
            ],
            [
              87.11101531982422,
              25.67931365966797
            ],
            [
              87.21577453613281,
              25.422143936157227
            ],
            [
              87.35437774658203,
              25.357851028442383
            ],
            [
              87.29010772705078,
              24.522062301635742
            ],
            [
              86.91082000732422,
              24.00774574279785
            ],
            [
              86.00405883789062,
              23.429147720336914
            ],
            [
              83.46039581298828,
              23.36486053466797
            ],
            [
              79.82366180419922,
              22.914846420288086
            ],
            [
              79.74919128417969,
              22.914846420288086
            ],
            [
              79.07891082763672,
              22.914846420288086
            ],
            [
              77.70645904541016,
              22.657697677612305
            ],
            [
              77.2363510131836,
              22.46483612060547
            ],
            [
              76.49221801757812,
              22.46483612060547
            ],
            [
              74.52780151367188,
              22.20768928527832
            ],
            [
              73.51766204833984,
              21.821969985961914
            ],
            [
              72.76029968261719,
              21.693397521972656
            ],
            [
              72.68598937988281,
              21.693397521972656
            ],
            [
              72.54438781738281,
              21.7576847076416
            ],
            [
              72.5655288696289,
              21.950544357299805
            ],
            [
              72.4911880493164,
              21.950544357299805
            ],
            [
              72.52674865722656,
              22.271976470947266
            ],
            [
              72.37797546386719,
              22.271976470947266
            ],
            [
              72.34249877929688,
              21.950544357299805
            ],
            [
              72.11245727539062,
              21.88625717163086
            ],
            [
              72.17279815673828,
              21.7576847076416
            ],
            [
              72.3214340209961,
              21.7576847076416
            ],
            [
              72.18476104736328,
              21.179107666015625
            ],
            [
              71.4084701538086,
              20.857677459716797
            ],
            [
              71.32078552246094,
              20.72910499572754
            ],
            [
              70.72064208984375,
              20.664819717407227
            ],
            [
              70.29546356201172,
              20.857677459716797
            ],
            [
              69.76790618896484,
              21.500539779663086
            ],
            [
              69.01040649414062,
              22.079116821289062
            ],
            [
              68.97650909423828,
              22.46483612060547
            ],
            [
              69.40931701660156,
              22.33626365661621
            ],
            [
              69.49740600585938,
              22.46483612060547
            ],
            [
              70.18106079101562,
              22.59341049194336
            ],
            [
              70.35816192626953,
              22.85055923461914
            ],
            [
              70.0673828125,
              22.914846420288086
            ],
            [
              69.74840545654297,
              22.72198486328125
            ],
            [
              69.45060729980469,
              22.72198486328125
            ],
            [
              68.80825805664062,
              22.97913360595703
            ],
            [
              68.55245971679688,
              23.36486053466797
            ],
            [
              68.3359375,
              23.429147720336914
            ],
            [
              68.35022735595703,
              23.557723999023438
            ],
            [
              68.84165954589844,
              23.943456649780273
            ],
            [
              69.28982543945312,
              25.164974212646484
            ],
            [
              69.85176849365234,
              26.000778198242188
            ],
            [
              70.17903137207031,
              26.19365882873535
            ],
            [
              70.79773712158203,
              26.32224464416504
            ],
            [
              71.14571380615234,
              26.643707275390625
            ],
            [
              71.54613494873047,
              27.2866268157959
            ],
            [
              72.64125061035156,
              27.54378890991211
            ],
            [
              75.49369049072266,
              27.92952537536621
            ],
            [
              76.69912719726562,
              27.92952537536621
            ],
            [
              77.44073486328125,
              27.865236282348633
            ],
            [
              77.7185287475586,
              27.736658096313477
            ],
            [
              78.3209228515625,
              27.736658096313477
            ]
          ]
        ]
      }
    }
  ]
}