{
  "type": "FeatureCollection",
  "name": "territory-287",
  "features": [
    {
      "type": "Feature",
      "properties": {
        "Name": "Mataram Kingdom",
        "FromYear": 741,
        "ToYear": 1002,
        "Area": 59609.689678324154,
        "Type": "POLITY",
        "Wikipedia": "Mataram Kingdom",
        "Wikidata": "Q402580",
        "SeshatID": "id_medang_k",
        "Components": "",
        "MemberOf": ""
      },
      "geometry": {
        "type": "Polygon",
        "coordinates": [
          [
            [
              112.61239624023438,
              -7.10741138458252
            ],
            [
              112.71458435058594,
              -7.557425022125244
            ],
            [
              113.01515197753906,
              -7.685999870300293
            ],
            [
              112.95095825195312,
              -7.8145751953125
            ],
            [
              113.12877655029297,
              -8.264588356018066
            ],
            [
              112.85083770751953,
              -8.457450866699219
            ],
            [
              110.64639282226562,
              -8.264588356018066
            ],
            [
              109.89845275878906,
              -8.007437705993652
            ],
            [
              109.89408111572266,
              -7.943150520324707
            ],
            [
              110.01444244384766,
              -7.557425022125244
            ],
            [
              109.49128723144531,
              -7.364562034606934
            ],
            [
              109.40232849121094,
              -7.10741138458252
            ],
            [
              109.25250244140625,
              -7.043123722076416
            ],
            [
              109.2409439086914,
              -6.850261211395264
            ],
            [
              109.31388854980469,
              -6.850261211395264
            ],
            [
              110.33898162841797,
              -6.914548873901367
            ],
            [
              110.53135681152344,
              -6.464535236358643
            ],
            [
              110.89232635498047,
              -6.400247573852539
            ],
            [
              111.05307006835938,
              -6.657398223876953
            ],
            [
              111.48690795898438,
              -6.59311056137085
            ],
            [
              111.64424133300781,
              -6.78597354888916
            ],
            [
              111.93600463867188,
              -6.78597354888916
            ],
            [
              112.16267395019531,
              -6.914548873901367
            ],
            [
              112.5234603881836,
              -6.850261211395264
            ],
            [
              112.60835266113281,
              -7.043123722076416
            ],
            [
              112.61239624023438,
              -7.10741138458252
            ]
          ]
        ]
      }
    }
  ]
}