{
  "type": "FeatureCollection",
  "name": "territory-29",
  "features": [
    {
      "type": "Feature",
      "properties": {
        "Name": "Jin",
        "FromYear": -450,
        "ToYear": -405,
        "Area": 152875.75505191088,
        "Type": "POLITY",
        "Wikipedia": "Jin (Chinese state)",
        "Wikidata": "Q6201794",
        "SeshatID": "cn_jin_spring_and_autumn",
        "Components": "",
        "MemberOf": "(Warring States China)"
      },
      "geometry": {
        "type": "Polygon",
        "coordinates": [
          [
            [
              116.85321044921875,
              36.932613372802734
            ],
            [
              116.04647064208984,
              35.837650299072266
            ],
            [
              115.76497650146484,
              35.902034759521484
            ],
            [
              115.80168914794922,
              36.15959167480469
            ],
            [
              115.64655303955078,
              36.15959167480469
            ],
            [
              115.63568878173828,
              36.48161697387695
            ],
            [
              115.3638916015625,
              36.73930740356445
            ],
            [
              114.60979461669922,
              36.09519577026367
            ],
            [
              114.5815200805664,
              36.03080368041992
            ],
            [
              114.7510757446289,
              35.708900451660156
            ],
            [
              114.30327606201172,
              35.38706970214844
            ],
            [
              113.53009033203125,
              35.38706970214844
            ],
            [
              112.3199234008789,
              35.45143127441406
            ],
            [
              112.15945434570312,
              35.065311431884766
            ],
            [
              112.13297271728516,
              35.00096893310547
            ],
            [
              113.26419830322266,
              34.93662643432617
            ],
            [
              113.13385009765625,
              34.80794906616211
            ],
            [
              113.28812408447266,
              34.80794906616211
            ],
            [
              113.2858657836914,
              34.614952087402344
            ],
            [
              111.35895538330078,
              34.614952087402344
            ],
            [
              110.5883560180664,
              34.80794906616211
            ],
            [
              111.02936553955078,
              35.32271194458008
            ],
            [
              111.05589294433594,
              35.38706970214844
            ],
            [
              111.23026275634766,
              36.3527946472168
            ],
            [
              111.41331481933594,
              36.417205810546875
            ],
            [
              112.17218017578125,
              37.254878997802734
            ],
            [
              112.20132446289062,
              37.3193473815918
            ],
            [
              113.26740264892578,
              37.7707405090332
            ],
            [
              114.10688781738281,
              38.54513168334961
            ],
            [
              114.09173583984375,
              38.67427444458008
            ],
            [
              114.35895538330078,
              38.738853454589844
            ],
            [
              115.4478530883789,
              39.64360046386719
            ],
            [
              115.83116149902344,
              39.77294921875
            ],
            [
              115.8996810913086,
              39.90232849121094
            ],
            [
              116.02315521240234,
              39.8376350402832
            ],
            [
              116.10205078125,
              39.8376350402832
            ],
            [
              115.8647689819336,
              39.38497543334961
            ],
            [
              116.1009292602539,
              39.38497543334961
            ],
            [
              116.09193420410156,
              39.06184005737305
            ],
            [
              116.2618408203125,
              38.93262481689453
            ],
            [
              116.16387939453125,
              38.738853454589844
            ],
            [
              116.39930725097656,
              38.738853454589844
            ],
            [
              116.1453628540039,
              38.54513168334961
            ],
            [
              117.19712829589844,
              38.60969924926758
            ],
            [
              116.6283187866211,
              37.44829177856445
            ],
            [
              116.7063217163086,
              37.44829177856445
            ],
            [
              116.632080078125,
              37.12596130371094
            ],
            [
              116.85321044921875,
              36.932613372802734
            ]
          ]
        ]
      }
    }
  ]
}