{
  "type": "FeatureCollection",
  "name": "territory-296",
  "features": [
    {
      "type": "Feature",
      "properties": {
        "Name": "Rashtrakuta Dynasty",
        "FromYear": 788,
        "ToYear": 792,
        "Area": 1144235.609012034,
        "Type": "POLITY",
        "Wikipedia": "Rashtrakuta dynasty",
        "Wikidata": "Q856691",
        "SeshatID": "in_rashtrakuta_emp",
        "Components": "",
        "MemberOf": ""
      },
      "geometry": {
        "type": "Polygon",
        "coordinates": [
          [
            [
              76.94700622558594,
              12.821741104125977
            ],
            [
              75.530029296875,
              11.535990715026855
            ],
            [
              74.74769592285156,
              12.821741104125977
            ],
            [
              74.66364288330078,
              13.593193054199219
            ],
            [
              74.4706802368164,
              13.914630889892578
            ],
            [
              74.3744888305664,
              14.493220329284668
            ],
            [
              73.97454071044922,
              14.943235397338867
            ],
            [
              73.93107604980469,
              15.26467514038086
            ],
            [
              73.79009246826172,
              15.328963279724121
            ],
            [
              73.74736785888672,
              15.650403022766113
            ],
            [
              73.53911590576172,
              15.77897834777832
            ],
            [
              73.25418853759766,
              16.614723205566406
            ],
            [
              73.30036163330078,
              17.06473731994629
            ],
            [
              72.95886993408203,
              18.029054641723633
            ],
            [
              72.87482452392578,
              19.314802169799805
            ],
            [
              72.73371887207031,
              19.379087448120117
            ],
            [
              72.7613525390625,
              19.6362361907959
            ],
            [
              72.63394165039062,
              19.8290958404541
            ],
            [
              72.8372573852539,
              20.343387603759766
            ],
            [
              72.89940643310547,
              20.921964645385742
            ],
            [
              72.56289672851562,
              21.24339485168457
            ],
            [
              72.7532730102539,
              21.629112243652344
            ],
            [
              72.76029968261719,
              21.693397521972656
            ],
            [
              73.21324920654297,
              21.7576847076416
            ],
            [
              73.3976821899414,
              22.079116821289062
            ],
            [
              73.55363464355469,
              22.143402099609375
            ],
            [
              74.0451431274414,
              23.171995162963867
            ],
            [
              74.201904296875,
              23.236284255981445
            ],
            [
              74.22531127929688,
              23.429147720336914
            ],
            [
              74.3823013305664,
              23.493436813354492
            ],
            [
              74.67892456054688,
              24.07203483581543
            ],
            [
              74.9195785522461,
              24.200613021850586
            ],
            [
              75.22132110595703,
              24.779226303100586
            ],
            [
              76.40898895263672,
              25.743606567382812
            ],
            [
              76.42871856689453,
              25.8721923828125
            ],
            [
              77.53858947753906,
              26.70800018310547
            ],
            [
              77.93589782714844,
              26.836584091186523
            ],
            [
              77.95794677734375,
              26.96516990661621
            ],
            [
              78.89961242675781,
              27.608078002929688
            ],
            [
              78.97489166259766,
              27.608078002929688
            ],
            [
              79.05016326904297,
              27.608078002929688
            ],
            [
              79.12543487548828,
              27.608078002929688
            ],
            [
              79.2007064819336,
              27.608078002929688
            ],
            [
              79.64044952392578,
              27.54378890991211
            ],
            [
              79.75555419921875,
              27.35091781616211
            ],
            [
              79.90599822998047,
              27.35091781616211
            ],
            [
              79.96414184570312,
              26.836584091186523
            ],
            [
              80.03926849365234,
              26.836584091186523
            ],
            [
              79.94055938720703,
              25.807899475097656
            ],
            [
              79.93018341064453,
              25.743606567382812
            ],
            [
              79.95404052734375,
              25.422143936157227
            ],
            [
              80.02890014648438,
              25.422143936157227
            ],
            [
              79.87532043457031,
              24.907808303833008
            ],
            [
              79.9500961303711,
              24.907808303833008
            ],
            [
              79.85652160644531,
              24.264904022216797
            ],
            [
              79.93119812011719,
              24.264904022216797
            ],
            [
              79.67471313476562,
              22.914846420288086
            ],
            [
              79.94783782958984,
              22.72198486328125
            ],
            [
              79.99774932861328,
              22.529123306274414
            ],
            [
              80.28728485107422,
              22.46483612060547
            ],
            [
              80.47804260253906,
              22.20768928527832
            ],
            [
              81.27179718017578,
              22.014829635620117
            ],
            [
              81.1492691040039,
              21.629112243652344
            ],
            [
              81.1601791381836,
              21.114822387695312
            ],
            [
              80.98036193847656,
              20.857677459716797
            ],
            [
              81.92122650146484,
              20.664819717407227
            ],
            [
              82.58880615234375,
              20.664819717407227
            ],
            [
              83.29031372070312,
              20.343387603759766
            ],
            [
              83.48045349121094,
              20.08624267578125
            ],
            [
              85.0939712524414,
              19.379087448120117
            ],
            [
              84.37962341308594,
              18.414779663085938
            ],
            [
              84.0519027709961,
              18.157629013061523
            ],
            [
              83.66666412353516,
              18.029054641723633
            ],
            [
              83.5611572265625,
              17.77190399169922
            ],
            [
              83.15304565429688,
              17.450464248657227
            ],
            [
              82.4507827758789,
              17.129026412963867
            ],
            [
              82.34681701660156,
              16.87187385559082
            ],
            [
              82.42052459716797,
              16.87187385559082
            ],
            [
              82.3832015991211,
              16.550434112548828
            ],
            [
              82.06647491455078,
              16.35757064819336
            ],
            [
              81.32273864746094,
              16.293283462524414
            ],
            [
              81.11875915527344,
              15.77897834777832
            ],
            [
              80.45646667480469,
              15.77897834777832
            ],
            [
              80.20161437988281,
              15.457538604736328
            ],
            [
              80.1749038696289,
              15.200387001037598
            ],
            [
              80.10942041173651,
              15.200387001037598
            ],
            [
              80.21469969582778,
              15.53077905148616
            ],
            [
              79.6065543975283,
              15.57766946347153
            ],
            [
              79.0625763869851,
              15.40150905867558
            ],
            [
              78.8743374550275,
              15.12547100831965
            ],
            [
              79.23544197879093,
              14.60328630226691
            ],
            [
              78.95544576566107,
              14.32246301321029
            ],
            [
              77.44098323786332,
              14.46218480994551
            ],
            [
              76.9618066421868,
              12.821741104125977
            ],
            [
              76.94700622558594,
              12.821741104125977
            ]
          ]
        ]
      }
    }
  ]
}