{
  "type": "FeatureCollection",
  "name": "territory-299",
  "features": [
    {
      "type": "Feature",
      "properties": {
        "Name": "Principality of Serbia",
        "FromYear": 922,
        "ToYear": 925,
        "Area": 61327.9160657922,
        "Type": "POLITY",
        "Wikipedia": "Principality of Serbia",
        "Wikidata": "Q1311990",
        "SeshatID": "",
        "Components": "",
        "MemberOf": ""
      },
      "geometry": {
        "type": "Polygon",
        "coordinates": [
          [
            [
              19.343629837036133,
              44.18956756591797
            ],
            [
              19.34027862548828,
              44.12431716918945
            ],
            [
              19.495025634765625,
              43.99384307861328
            ],
            [
              19.817901611328125,
              43.99384307861328
            ],
            [
              19.884435653686523,
              43.73301696777344
            ],
            [
              20.50290298461914,
              43.276947021484375
            ],
            [
              20.495450973510742,
              43.146724700927734
            ],
            [
              20.331148147583008,
              43.08163070678711
            ],
            [
              20.32023048400879,
              42.88639831542969
            ],
            [
              19.97850227355957,
              42.496177673339844
            ],
            [
              19.178226470947266,
              42.496177673339844
            ],
            [
              19.09819984436035,
              42.496177673339844
            ],
            [
              19.015066146850586,
              42.43117141723633
            ],
            [
              18.70105743408203,
              42.56119155883789
            ],
            [
              18.615074157714844,
              42.43117141723633
            ],
            [
              18.143457412719727,
              42.62621307373047
            ],
            [
              18.15188980102539,
              42.82133865356445
            ],
            [
              17.515670776367188,
              42.95146560668945
            ],
            [
              17.29008674621582,
              43.342071533203125
            ],
            [
              16.8217830657959,
              43.73301696777344
            ],
            [
              16.741186141967773,
              43.73301696777344
            ],
            [
              16.506162643432617,
              43.92862319946289
            ],
            [
              16.441120147705078,
              44.38538360595703
            ],
            [
              16.943588256835938,
              44.842647552490234
            ],
            [
              17.105838775634766,
              44.842647552490234
            ],
            [
              17.18696403503418,
              44.842647552490234
            ],
            [
              17.684614181518555,
              45.10417556762695
            ],
            [
              18.337615966796875,
              45.169586181640625
            ],
            [
              18.418899536132812,
              45.169586181640625
            ],
            [
              18.73775291442871,
              45.03877639770508
            ],
            [
              18.890594482421875,
              44.842647552490234
            ],
            [
              19.14055824279785,
              44.973392486572266
            ],
            [
              19.296220779418945,
              44.842647552490234
            ],
            [
              19.107723236083984,
              44.32010269165039
            ],
            [
              19.343629837036133,
              44.18956756591797
            ]
          ]
        ]
      }
    }
  ]
}