{
  "type": "FeatureCollection",
  "name": "territory-3",
  "features": [
    {
      "type": "Feature",
      "properties": {
        "Name": "Early Dynastic Period of Egypt",
        "FromYear": -3000,
        "ToYear": -2701,
        "Area": 93286.0629244843,
        "Type": "POLITY",
        "Wikipedia": "Early Dynastic Period (Egypt)",
        "Wikidata": "Q187979",
        "SeshatID": "eg_dynasty_1",
        "Components": "",
        "MemberOf": ""
      },
      "geometry": {
        "type": "Polygon",
        "coordinates": [
          [
            [
              31.100712813184785,
              31.601398909376332
            ],
            [
              31.103098511956162,
              31.601133686728325
            ],
            [
              31.55694512751292,
              31.44221803626223
            ],
            [
              31.87170017735304,
              31.534918030038103
            ],
            [
              31.9214823111845,
              31.529882183453562
            ],
            [
              32.20249114810904,
              31.290936083305773
            ],
            [
              32.0172182301798,
              31.380554051378187
            ],
            [
              31.909654105433173,
              31.527564250767764
            ],
            [
              31.777463277057542,
              31.27739109480343
            ],
            [
              32.14306328711131,
              31.0741641409831
            ],
            [
              32.27979123936085,
              31.124300158646317
            ],
            [
              32.21475403958888,
              31.282427109872735
            ],
            [
              32.32958225752087,
              31.269300044308867
            ],
            [
              32.68537449575814,
              31.04491985873768
            ],
            [
              32.762468338735985,
              30.867648168919068
            ],
            [
              32.72910154311648,
              30.558076823234998
            ],
            [
              32.84801885076164,
              30.16182550154576
            ],
            [
              32.47763617301253,
              29.936800058803303
            ],
            [
              32.3408270836643,
              29.594864173234686
            ],
            [
              32.53772168551441,
              29.407499535929993
            ],
            [
              31.87211118809071,
              29.267181378985402
            ],
            [
              31.37019594180969,
              29.305804680081025
            ],
            [
              31.001844706188294,
              28.51000486287415
            ],
            [
              30.930940053842043,
              28.03348833833653
            ],
            [
              30.980737285993307,
              27.416592999634588
            ],
            [
              31.383178339626408,
              27.26633843787617
            ],
            [
              31.524272601943938,
              26.998793286445707
            ],
            [
              32.171805682304054,
              26.41109001945793
            ],
            [
              32.90137901724346,
              26.194896404784057
            ],
            [
              32.947769292131625,
              25.89087413654745
            ],
            [
              32.69416545397499,
              25.493956176070828
            ],
            [
              32.895238332730926,
              25.16628773201873
            ],
            [
              33.108127742127095,
              25.044678825285935
            ],
            [
              33.1323302880233,
              23.995802001554413
            ],
            [
              32.7481902860308,
              24.000722843443253
            ],
            [
              32.76496131174994,
              24.712365595545613
            ],
            [
              32.63707079901521,
              25.005303718371426
            ],
            [
              32.24184161392235,
              25.306159087785502
            ],
            [
              32.347672562234614,
              25.725773156022026
            ],
            [
              32.54328787225204,
              25.892914350652624
            ],
            [
              31.84759135794851,
              25.944417362442707
            ],
            [
              31.619609768703235,
              26.434736194336566
            ],
            [
              30.74802596902192,
              27.232689084040377
            ],
            [
              30.448412711608604,
              28.71085510726299
            ],
            [
              30.052122451793366,
              28.77325026984942
            ],
            [
              29.94601875462713,
              28.915036982428212
            ],
            [
              30.02923075937185,
              29.18600714528452
            ],
            [
              30.38526836739363,
              29.422147580137334
            ],
            [
              30.37513545877673,
              29.720170380093034
            ],
            [
              30.115655180987133,
              30.06689028785865
            ],
            [
              29.502583909813826,
              30.502766742745933
            ],
            [
              29.497160077412527,
              30.94561350529802
            ],
            [
              30.064445171497525,
              31.32027307975135
            ],
            [
              30.289718207709452,
              31.23735409662011
            ],
            [
              30.35544506854661,
              31.50284501322864
            ],
            [
              30.95610918281863,
              31.575691127543095
            ],
            [
              30.54416328369458,
              31.393191110728825
            ],
            [
              30.90250020747968,
              31.420273208275432
            ],
            [
              31.126454099179075,
              31.496664196680797
            ],
            [
              30.97784513487638,
              31.583536085866363
            ],
            [
              31.100712813184785,
              31.601398909376332
            ]
          ]
        ]
      }
    }
  ]
}