{
  "type": "FeatureCollection",
  "name": "territory-300",
  "features": [
    {
      "type": "Feature",
      "properties": {
        "Name": "Duchy of Gascony",
        "FromYear": 778,
        "ToYear": 782,
        "Area": 56472.22777974435,
        "Type": "POLITY",
        "Wikipedia": "Duchy of Gascony",
        "Wikidata": "Q2295939",
        "SeshatID": "",
        "Components": "",
        "MemberOf": ""
      },
      "geometry": {
        "type": "Polygon",
        "coordinates": [
          [
            [
              1.485537886619568,
              42.62621307373047
            ],
            [
              1.492141246795654,
              42.496177673339844
            ],
            [
              1.412113666534424,
              42.496177673339844
            ],
            [
              1.425328612327576,
              42.236209869384766
            ],
            [
              1.03602147102356,
              42.041324615478516
            ],
            [
              0.716722190380096,
              42.041324615478516
            ],
            [
              -1.397563576698303,
              42.62621307373047
            ],
            [
              -1.726904630661011,
              42.75628662109375
            ],
            [
              -2.127629995346069,
              42.75628662109375
            ],
            [
              -2.198425054550171,
              42.62621307373047
            ],
            [
              -2.27851128578186,
              42.62621307373047
            ],
            [
              -2.919200420379639,
              42.62621307373047
            ],
            [
              -2.999286651611328,
              42.62621307373047
            ],
            [
              -2.934040546417236,
              42.82133865356445
            ],
            [
              -3.014215230941772,
              42.82133865356445
            ],
            [
              -3.029263496398926,
              43.016544342041016
            ],
            [
              -3.194893360137939,
              43.08163070678711
            ],
            [
              -3.140162944793701,
              43.407203674316406
            ],
            [
              -3.05971884727478,
              43.407203674316406
            ],
            [
              -1.687574744224548,
              43.342071533203125
            ],
            [
              -1.388410806655884,
              43.6678352355957
            ],
            [
              -1.214578628540039,
              44.64661407470703
            ],
            [
              -1.219197273254395,
              44.71194839477539
            ],
            [
              -1.06164026260376,
              44.77729415893555
            ],
            [
              -0.638602375984192,
              44.5159797668457
            ],
            [
              0.017356038093567,
              44.38538360595703
            ],
            [
              0.279955476522446,
              44.05907440185547
            ],
            [
              0.441455274820328,
              44.05907440185547
            ],
            [
              0.541362702846527,
              43.73301696777344
            ],
            [
              1.214309453964233,
              43.211830139160156
            ],
            [
              1.321991443634033,
              42.691246032714844
            ],
            [
              1.485537886619568,
              42.62621307373047
            ]
          ]
        ]
      }
    }
  ]
}