{
  "type": "FeatureCollection",
  "name": "territory-310",
  "features": [
    {
      "type": "Feature",
      "properties": {
        "Name": "Shirvan",
        "FromYear": 825,
        "ToYear": 839,
        "Area": 113084.43598758927,
        "Type": "POLITY",
        "Wikipedia": "Shirvan",
        "Wikidata": "Q638064",
        "SeshatID": "",
        "Components": "",
        "MemberOf": ""
      },
      "geometry": {
        "type": "Polygon",
        "coordinates": [
          [
            [
              43.57847213745117,
              41.132843017578125
            ],
            [
              44.781822204589844,
              41.19768524169922
            ],
            [
              45.21540451049805,
              41.39224624633789
            ],
            [
              45.69265365600586,
              41.39224624633789
            ],
            [
              45.89424514770508,
              41.19768524169922
            ],
            [
              46.29153823852539,
              41.19768524169922
            ],
            [
              46.504981994628906,
              41.06801223754883
            ],
            [
              46.67628860473633,
              41.132843017578125
            ],
            [
              46.71403884887695,
              41.32738494873047
            ],
            [
              46.20754623413086,
              41.586883544921875
            ],
            [
              46.41773986816406,
              41.84651184082031
            ],
            [
              46.7366943359375,
              41.84651184082031
            ],
            [
              47.27063751220703,
              41.32738494873047
            ],
            [
              47.721797943115234,
              41.19768524169922
            ],
            [
              48.18490982055664,
              41.521995544433594
            ],
            [
              48.1719970703125,
              41.84651184082031
            ],
            [
              48.09225845336914,
              41.84651184082031
            ],
            [
              48.19894790649414,
              41.97637939453125
            ],
            [
              48.278743743896484,
              41.97637939453125
            ],
            [
              49.08600997924805,
              41.26253128051758
            ],
            [
              49.059226989746094,
              41.132843017578125
            ],
            [
              49.270748138427734,
              41.00318908691406
            ],
            [
              49.2441520690918,
              40.873565673828125
            ],
            [
              49.50836181640625,
              40.614410400390625
            ],
            [
              50.04951477050781,
              40.54964065551758
            ],
            [
              50.2603759765625,
              40.42012023925781
            ],
            [
              49.6933479309082,
              40.355369567871094
            ],
            [
              49.40445327758789,
              40.0964469909668
            ],
            [
              49.26664352416992,
              39.38497543334961
            ],
            [
              49.151405334472656,
              39.19107437133789
            ],
            [
              48.91546630859375,
              39.19107437133789
            ],
            [
              48.801002502441406,
              38.997230529785156
            ],
            [
              48.7973518371582,
              38.54513168334961
            ],
            [
              48.78577423095703,
              38.48057174682617
            ],
            [
              48.326934814453125,
              38.54513168334961
            ],
            [
              48.059085845947266,
              38.80344009399414
            ],
            [
              48.082218170166016,
              38.93262481689453
            ],
            [
              48.25099563598633,
              38.997230529785156
            ],
            [
              48.21947479248047,
              39.25570297241211
            ],
            [
              48.333980560302734,
              39.449623107910156
            ],
            [
              48.13375473022461,
              39.64360046386719
            ],
            [
              47.491329193115234,
              39.57893371582031
            ],
            [
              46.668357849121094,
              38.93262481689453
            ],
            [
              45.871971130371094,
              38.8680305480957
            ],
            [
              45.50095748901367,
              38.997230529785156
            ],
            [
              45.4441032409668,
              39.1264533996582
            ],
            [
              45.286861419677734,
              39.1264533996582
            ],
            [
              44.869144439697266,
              39.449623107910156
            ],
            [
              44.834251403808594,
              39.70827102661133
            ],
            [
              44.56298828125,
              39.9670295715332
            ],
            [
              43.86334228515625,
              40.031734466552734
            ],
            [
              43.648197174072266,
              40.16116714477539
            ],
            [
              43.63535690307617,
              40.54964065551758
            ],
            [
              43.77094650268555,
              40.873565673828125
            ],
            [
              43.56704330444336,
              41.06801223754883
            ],
            [
              43.57847213745117,
              41.132843017578125
            ]
          ]
        ]
      }
    }
  ]
}