{
  "type": "FeatureCollection",
  "name": "territory-311",
  "features": [
    {
      "type": "Feature",
      "properties": {
        "Name": "Magyars",
        "FromYear": 896,
        "ToYear": 897,
        "Area": 418271.988212329,
        "Type": "POLITY",
        "Wikipedia": "Hungarians",
        "Wikidata": "Q133032",
        "SeshatID": "",
        "Components": "",
        "MemberOf": ""
      },
      "geometry": {
        "type": "MultiPolygon",
        "coordinates": [
          [
            [
              [
                29.57703399658203,
                45.36587905883789
              ],
              [
                29.58445930480957,
                45.431331634521484
              ],
              [
                29.66587257385254,
                45.431331634521484
              ],
              [
                29.658414840698242,
                45.36587905883789
              ],
              [
                29.57703399658203,
                45.36587905883789
              ]
            ]
          ],
          [
            [
              [
                30.96399688720703,
                49.2500114440918
              ],
              [
                31.047412872314453,
                49.2500114440918
              ],
              [
                31.001998901367188,
                48.91886520385742
              ],
              [
                31.085229873657227,
                48.91886520385742
              ],
              [
                30.95741844177246,
                48.5881233215332
              ],
              [
                31.04046630859375,
                48.5881233215332
              ],
              [
                31.005218505859375,
                48.323814392089844
              ],
              [
                31.08812141418457,
                48.323814392089844
              ],
              [
                30.979095458984375,
                48.1257438659668
              ],
              [
                31.0618896484375,
                48.1257438659668
              ],
              [
                31.08420181274414,
                47.664100646972656
              ],
              [
                33.47809600830078,
                47.664100646972656
              ],
              [
                33.62398910522461,
                47.53233337402344
              ],
              [
                34.036380767822266,
                47.53233337402344
              ],
              [
                34.11886215209961,
                47.53233337402344
              ],
              [
                34.079959869384766,
                47.26897048950195
              ],
              [
                33.69384002685547,
                46.87434005737305
              ],
              [
                32.918460845947266,
                46.61152267456055
              ],
              [
                32.171756744384766,
                46.54585266113281
              ],
              [
                32.180442810058594,
                46.61152267456055
              ],
              [
                32.03373336791992,
                46.74290466308594
              ],
              [
                31.787527084350586,
                46.74290466308594
              ],
              [
                31.606428146362305,
                46.61152267456055
              ],
              [
                30.87657928466797,
                46.677207946777344
              ],
              [
                30.297666549682617,
                45.95537567138672
              ],
              [
                30.044963836669922,
                45.889827728271484
              ],
              [
                29.85890007019043,
                45.693260192871094
              ],
              [
                29.614274978637695,
                45.693260192871094
              ],
              [
                29.591896057128906,
                45.496795654296875
              ],
              [
                29.58445930480957,
                45.431331634521484
              ],
              [
                29.095985412597656,
                45.431331634521484
              ],
              [
                28.505107879638672,
                45.23500442504883
              ],
              [
                28.281864166259766,
                45.431331634521484
              ],
              [
                28.037626266479492,
                45.431331634521484
              ],
              [
                27.773263931274414,
                45.23500442504883
              ],
              [
                27.19758415222168,
                45.169586181640625
              ],
              [
                27.022235870361328,
                45.03877639770508
              ],
              [
                26.70361328125,
                45.10417556762695
              ],
              [
                26.609912872314453,
                44.973392486572266
              ],
              [
                26.210031509399414,
                45.03877639770508
              ],
              [
                24.40176773071289,
                44.77729415893555
              ],
              [
                24.16899299621582,
                44.908016204833984
              ],
              [
                23.844364166259766,
                44.908016204833984
              ],
              [
                23.61602783203125,
                45.10417556762695
              ],
              [
                23.595491409301758,
                45.889827728271484
              ],
              [
                23.513851165771484,
                45.889827728271484
              ],
              [
                23.467716217041016,
                46.348915100097656
              ],
              [
                23.31407928466797,
                46.480194091796875
              ],
              [
                23.27787208557129,
                47.07159423828125
              ],
              [
                22.97409439086914,
                47.4006233215332
              ],
              [
                22.64445686340332,
                47.4006233215332
              ],
              [
                22.411781311035156,
                47.598209381103516
              ],
              [
                21.499652862548828,
                47.53233337402344
              ],
              [
                21.430559158325195,
                47.730003356933594
              ],
              [
                21.02195930480957,
                47.79592514038086
              ],
              [
                20.94794273376465,
                47.92780685424805
              ],
              [
                20.286436080932617,
                47.92780685424805
              ],
              [
                19.8576717376709,
                47.664100646972656
              ],
              [
                19.444931030273438,
                47.664100646972656
              ],
              [
                19.121746063232422,
                47.79592514038086
              ],
              [
                19.128801345825195,
                47.92780685424805
              ],
              [
                19.29417610168457,
                47.92780685424805
              ],
              [
                19.387855529785156,
                48.1257438659668
              ],
              [
                19.557205200195312,
                48.191749572753906
              ],
              [
                19.497020721435547,
                48.5881233215332
              ],
              [
                19.678802490234375,
                48.852684020996094
              ],
              [
                19.611412048339844,
                49.11750411987305
              ],
              [
                19.615406036376953,
                49.18375015258789
              ],
              [
                20.036497116088867,
                49.2500114440918
              ],
              [
                20.299795150756836,
                49.44889450073242
              ],
              [
                22.137441635131836,
                49.44889450073242
              ],
              [
                22.655052185058594,
                49.64793395996094
              ],
              [
                23.648340225219727,
                50.445655822753906
              ],
              [
                23.991239547729492,
                50.51224899291992
              ],
              [
                24.010730743408203,
                50.71213912963867
              ],
              [
                25.47995376586914,
                51.04566955566406
              ],
              [
                25.89478874206543,
                50.97892379760742
              ],
              [
                25.979228973388672,
                50.97892379760742
              ],
              [
                26.140443801879883,
                50.912200927734375
              ],
              [
                26.270978927612305,
                50.578861236572266
              ],
              [
                26.760583877563477,
                50.445655822753906
              ],
              [
                28.788066864013672,
                50.51224899291992
              ],
              [
                30.704360961914062,
                50.37908172607422
              ],
              [
                30.862855911254883,
                50.312522888183594
              ],
              [
                30.880159378051758,
                49.84712600708008
              ],
              [
                31.03822898864746,
                49.78071212768555
              ],
              [
                30.935800552368164,
                49.64793395996094
              ],
              [
                30.973146438598633,
                49.316287994384766
              ],
              [
                30.96399688720703,
                49.2500114440918
              ]
            ]
          ]
        ]
      }
    }
  ]
}