{
  "type": "FeatureCollection",
  "name": "territory-317",
  "features": [
    {
      "type": "Feature",
      "properties": {
        "Name": "Puebloans - Chaco Regional System",
        "FromYear": 1040,
        "ToYear": 1146,
        "Area": 64974.31752292462,
        "Type": "POLITY",
        "Wikipedia": "Ancestral Puebloans",
        "Wikidata": "Q478805",
        "SeshatID": "us_chaco_2",
        "Components": "",
        "MemberOf": ""
      },
      "geometry": {
        "type": "Polygon",
        "coordinates": [
          [
            [
              -107.305924318682,
              37.2007023878802
            ],
            [
              -107.302470878246,
              37.2001535664225
            ],
            [
              -107.779395164696,
              36.0925521302628
            ],
            [
              -107.116259220754,
              35.5150669760503
            ],
            [
              -107.963587171651,
              34.6538003941007
            ],
            [
              -108.537591041909,
              34.2941534802468
            ],
            [
              -109.018411419304,
              34.4079470320479
            ],
            [
              -109.797212531333,
              35.0068463808224
            ],
            [
              -110.02998416601,
              35.9461367804906
            ],
            [
              -109.220245898488,
              36.5818378443039
            ],
            [
              -109.56357926986,
              37.2801586133012
            ],
            [
              -109.949011634397,
              37.5462354645238
            ],
            [
              -109.703251628257,
              37.7193832431721
            ],
            [
              -108.868854258534,
              37.6958765119905
            ],
            [
              -108.538826546207,
              37.4848435866619
            ],
            [
              -107.305924318682,
              37.2007023878802
            ]
          ]
        ]
      }
    }
  ]
}