{
  "type": "FeatureCollection",
  "name": "territory-318",
  "features": [
    {
      "type": "Feature",
      "properties": {
        "Name": "East Franks",
        "FromYear": 896,
        "ToYear": 897,
        "Area": 730847.7048746805,
        "Type": "POLITY",
        "Wikipedia": "East Francia",
        "Wikidata": "Q153080",
        "SeshatID": "de_east_francia",
        "Components": "",
        "MemberOf": "(Carolingian Empire)"
      },
      "geometry": {
        "type": "MultiPolygon",
        "coordinates": [
          [
            [
              [
                14.689077377319336,
                42.17123794555664
              ],
              [
                14.768959999084473,
                42.17123794555664
              ],
              [
                14.76742172241211,
                42.10627746582031
              ],
              [
                14.687567710876465,
                42.10627746582031
              ],
              [
                14.689077377319336,
                42.17123794555664
              ]
            ]
          ],
          [
            [
              [
                9.491888999938965,
                43.016544342041016
              ],
              [
                9.49340534210205,
                42.75628662109375
              ],
              [
                9.5735502243042,
                42.75628662109375
              ],
              [
                9.577608108520508,
                41.97637939453125
              ],
              [
                9.497812271118164,
                41.97637939453125
              ],
              [
                9.49889087677002,
                41.781593322753906
              ],
              [
                9.262411117553711,
                41.39224624633789
              ],
              [
                9.1038236618042,
                41.32738494873047
              ],
              [
                8.783942222595215,
                41.521995544433594
              ],
              [
                8.782108306884766,
                41.71668243408203
              ],
              [
                8.622743606567383,
                41.71668243408203
              ],
              [
                8.700496673583984,
                41.911441802978516
              ],
              [
                8.538846015930176,
                42.10627746582031
              ],
              [
                8.534564018249512,
                42.496177673339844
              ],
              [
                8.772740364074707,
                42.691246032714844
              ],
              [
                9.17282485961914,
                42.75628662109375
              ],
              [
                9.251097679138184,
                43.016544342041016
              ],
              [
                9.331360816955566,
                43.016544342041016
              ],
              [
                9.491888999938965,
                43.016544342041016
              ]
            ]
          ],
          [
            [
              [
                10.45510196685791,
                42.88639831542969
              ],
              [
                10.455166816711426,
                42.691246032714844
              ],
              [
                10.21481990814209,
                42.691246032714844
              ],
              [
                10.134284973144531,
                42.88639831542969
              ],
              [
                10.214488983154297,
                42.88639831542969
              ],
              [
                10.45510196685791,
                42.88639831542969
              ]
            ]
          ],
          [
            [
              [
                11.804113388061523,
                51.98215103149414
              ],
              [
                11.547623634338379,
                51.84812545776367
              ],
              [
                11.545768737792969,
                51.64724349975586
              ],
              [
                11.375528335571289,
                51.580322265625
              ],
              [
                11.289310455322266,
                51.37968063354492
              ],
              [
                12.131903648376465,
                51.04566955566406
              ],
              [
                12.129409790039062,
                50.84549331665039
              ],
              [
                12.297226905822754,
                50.77880859375
              ],
              [
                12.295454025268555,
                50.64549255371094
              ],
              [
                11.957094192504883,
                50.51224899291992
              ],
              [
                11.955707550048828,
                50.37908172607422
              ],
              [
                12.123095512390137,
                50.312522888183594
              ],
              [
                12.12234115600586,
                50.2459831237793
              ],
              [
                12.204005241394043,
                50.04647445678711
              ],
              [
                12.370920181274414,
                49.98000717163086
              ],
              [
                12.36764907836914,
                49.71431350708008
              ],
              [
                12.534139633178711,
                49.64793395996094
              ],
              [
                12.532414436340332,
                49.51522445678711
              ],
              [
                14.182053565979004,
                48.5881233215332
              ],
              [
                14.597285270690918,
                48.5881233215332
              ],
              [
                14.850005149841309,
                48.72037124633789
              ],
              [
                14.940543174743652,
                48.98506164550781
              ],
              [
                15.273609161376953,
                48.98506164550781
              ],
              [
                15.269585609436035,
                48.852684020996094
              ],
              [
                14.929471015930176,
                48.5881233215332
              ],
              [
                14.92226791381836,
                48.323814392089844
              ],
              [
                15.498525619506836,
                48.191749572753906
              ],
              [
                16.663206100463867,
                48.323814392089844
              ],
              [
                17.064254760742188,
                47.993770599365234
              ],
              [
                17.714326858520508,
                47.730003356933594
              ],
              [
                18.95307159423828,
                47.730003356933594
              ],
              [
                19.025299072265625,
                47.53233337402344
              ],
              [
                19.186756134033203,
                47.46647262573242
              ],
              [
                19.1728572845459,
                47.20316696166992
              ],
              [
                18.83701515197754,
                47.07159423828125
              ],
              [
                18.81411361694336,
                46.61152267456055
              ],
              [
                19.05011558532715,
                46.414546966552734
              ],
              [
                18.86043357849121,
                45.889827728271484
              ],
              [
                18.77879524230957,
                45.889827728271484
              ],
              [
                18.9258975982666,
                45.56227111816406
              ],
              [
                18.92267417907715,
                45.496795654296875
              ],
              [
                19.004117965698242,
                45.496795654296875
              ],
              [
                18.997617721557617,
                45.36587905883789
              ],
              [
                19.23841667175293,
                45.300437927246094
              ],
              [
                19.13726234436035,
                44.908016204833984
              ],
              [
                19.056106567382812,
                44.908016204833984
              ],
              [
                18.80946922302246,
                44.842647552490234
              ],
              [
                18.73775291442871,
                45.03877639770508
              ],
              [
                18.49713706970215,
                45.10417556762695
              ],
              [
                16.864870071411133,
                44.908016204833984
              ],
              [
                16.78371238708496,
                44.908016204833984
              ],
              [
                16.537961959838867,
                44.842647552490234
              ],
              [
                16.461332321166992,
                44.973392486572266
              ],
              [
                16.136579513549805,
                44.973392486572266
              ],
              [
                15.978317260742188,
                45.10417556762695
              ],
              [
                15.57205581665039,
                45.10417556762695
              ],
              [
                15.415056228637695,
                45.300437927246094
              ],
              [
                15.089664459228516,
                45.300437927246094
              ],
              [
                14.930253028869629,
                45.431331634521484
              ],
              [
                14.277569770812988,
                45.36587905883789
              ],
              [
                14.196189880371094,
                45.36587905883789
              ],
              [
                14.189410209655762,
                45.03877639770508
              ],
              [
                14.026969909667969,
                45.03877639770508
              ],
              [
                13.945749282836914,
                45.03877639770508
              ],
              [
                13.628785133361816,
                45.496795654296875
              ],
              [
                13.710229873657227,
                45.496795654296875
              ],
              [
                13.714865684509277,
                45.75876998901367
              ],
              [
                13.144780158996582,
                45.82429504394531
              ],
              [
                13.061376571655273,
                45.693260192871094
              ],
              [
                12.9815673828125,
                45.82429504394531
              ],
              [
                12.818355560302734,
                45.82429504394531
              ],
              [
                12.736748695373535,
                45.82429504394531
              ],
              [
                12.164421081542969,
                45.693260192871094
              ],
              [
                12.000378608703613,
                45.56227111816406
              ],
              [
                11.998926162719727,
                45.36587905883789
              ],
              [
                12.161685943603516,
                45.36587905883789
              ],
              [
                12.161133766174316,
                45.300437927246094
              ],
              [
                12.160021781921387,
                45.169586181640625
              ],
              [
                12.40256118774414,
                45.03877639770508
              ],
              [
                12.399906158447266,
                44.77729415893555
              ],
              [
                12.157197952270508,
                44.842647552490234
              ],
              [
                12.153728485107422,
                44.45067596435547
              ],
              [
                12.312999725341797,
                44.18956756591797
              ],
              [
                12.873446464538574,
                43.79821014404297
              ],
              [
                13.035634994506836,
                43.86341094970703
              ],
              [
                13.033763885498047,
                43.73301696777344
              ],
              [
                13.355091094970703,
                43.6678352355957
              ],
              [
                13.672640800476074,
                43.407203674316406
              ],
              [
                13.747068405151367,
                43.08163070678711
              ],
              [
                13.98537540435791,
                42.95146560668945
              ],
              [
                13.901384353637695,
                42.75628662109375
              ],
              [
                14.056464195251465,
                42.496177673339844
              ],
              [
                14.607714653015137,
                42.10627746582031
              ],
              [
                14.687567710876465,
                42.10627746582031
              ],
              [
                14.365377426147461,
                41.97637939453125
              ],
              [
                14.120827674865723,
                41.71668243408203
              ],
              [
                13.96146297454834,
                41.71668243408203
              ],
              [
                13.804443359375,
                41.84651184082031
              ],
              [
                13.327016830444336,
                41.911441802978516
              ],
              [
                13.328027725219727,
                41.97637939453125
              ],
              [
                13.00974178314209,
                42.041324615478516
              ],
              [
                12.615199089050293,
                42.43117141723633
              ],
              [
                12.375204086303711,
                42.43117141723633
              ],
              [
                12.301782608032227,
                43.08163070678711
              ],
              [
                12.141195297241211,
                43.08163070678711
              ],
              [
                12.224648475646973,
                43.407203674316406
              ],
              [
                11.82194709777832,
                43.342071533203125
              ],
              [
                11.820984840393066,
                43.211830139160156
              ],
              [
                11.981149673461914,
                43.146724700927734
              ],
              [
                12.0580472946167,
                42.75628662109375
              ],
              [
                11.736565589904785,
                42.62621307373047
              ],
              [
                11.574831008911133,
                42.36617660522461
              ],
              [
                11.494861602783203,
                42.36617660522461
              ],
              [
                11.255227088928223,
                42.43117141723633
              ],
              [
                11.175962448120117,
                42.62621307373047
              ],
              [
                11.015789985656738,
                42.62621307373047
              ],
              [
                11.01634693145752,
                42.82133865356445
              ],
              [
                10.535322189331055,
                43.08163070678711
              ],
              [
                10.212339401245117,
                43.99384307861328
              ],
              [
                9.889463424682617,
                43.99384307861328
              ],
              [
                9.969700813293457,
                44.12431716918945
              ],
              [
                9.7273588180542,
                44.12431716918945
              ],
              [
                9.159077644348145,
                44.45067596435547
              ],
              [
                8.431501388549805,
                44.38538360595703
              ],
              [
                8.033902168273926,
                43.92862319946289
              ],
              [
                7.632706642150879,
                43.79821014404297
              ],
              [
                7.552080154418945,
                43.79821014404297
              ],
              [
                7.625912189483643,
                44.18956756591797
              ],
              [
                7.303933143615723,
                44.12431716918945
              ],
              [
                6.978019714355469,
                44.25482940673828
              ],
              [
                6.888483047485352,
                44.64661407470703
              ],
              [
                6.969513416290283,
                44.64661407470703
              ],
              [
                6.965181350708008,
                44.842647552490234
              ],
              [
                6.637507915496826,
                44.973392486572266
              ],
              [
                6.634309768676758,
                45.10417556762695
              ],
              [
                7.037666320800781,
                45.23500442504883
              ],
              [
                7.114676952362061,
                45.431331634521484
              ],
              [
                7.356207847595215,
                45.56227111816406
              ],
              [
                8.006918907165527,
                45.62776184082031
              ],
              [
                7.918499946594238,
                46.02093505859375
              ],
              [
                8.40284538269043,
                46.414546966552734
              ],
              [
                8.39684009552002,
                46.808616638183594
              ],
              [
                8.312644004821777,
                46.94007873535156
              ],
              [
                7.983963489532471,
                46.94007873535156
              ],
              [
                7.901793003082275,
                46.94007873535156
              ],
              [
                7.652635097503662,
                47.07159423828125
              ],
              [
                7.728368282318115,
                47.4006233215332
              ],
              [
                7.478310585021973,
                47.53233337402344
              ],
              [
                7.149951457977295,
                47.46647262573242
              ],
              [
                6.975266933441162,
                47.86185836791992
              ],
              [
                6.310186386108398,
                47.993770599365234
              ],
              [
                5.818123817443848,
                47.86185836791992
              ],
              [
                5.646180152893066,
                48.059749603271484
              ],
              [
                5.480661869049072,
                48.059749603271484
              ],
              [
                5.47376823425293,
                48.257774353027344
              ],
              [
                5.217910766601562,
                48.455936431884766
              ],
              [
                4.883440971374512,
                48.52202224731445
              ],
              [
                4.865273475646973,
                48.98506164550781
              ],
              [
                5.026719093322754,
                49.11750411987305
              ],
              [
                4.679802417755127,
                49.44889450073242
              ],
              [
                4.576823711395264,
                49.91355895996094
              ],
              [
                3.816332101821899,
                50.04647445678711
              ],
              [
                3.635580539703369,
                50.312522888183594
              ],
              [
                3.632314682006836,
                50.37908172607422
              ],
              [
                3.548239946365356,
                50.37908172607422
              ],
              [
                3.538282871246338,
                50.578861236572266
              ],
              [
                4.034165859222412,
                50.77880859375
              ],
              [
                4.263070583343506,
                51.31283950805664
              ],
              [
                3.504641532897949,
                51.24601745605469
              ],
              [
                3.409677743911743,
                51.44654083251953
              ],
              [
                3.494410037994385,
                51.44654083251953
              ],
              [
                3.74860668182373,
                51.44654083251953
              ],
              [
                3.40621018409729,
                51.51342010498047
              ],
              [
                3.399252653121948,
                51.64724349975586
              ],
              [
                3.738690614700317,
                51.64724349975586
              ],
              [
                3.647099733352661,
                51.78114318847656
              ],
              [
                3.81699013710022,
                51.78114318847656
              ],
              [
                3.810401916503906,
                51.91512680053711
              ],
              [
                3.980464458465576,
                51.91512680053711
              ],
              [
                3.974021434783936,
                52.0491943359375
              ],
              [
                4.223166942596436,
                52.18334197998047
              ],
              [
                4.21693229675293,
                52.31757736206055
              ],
              [
                4.463808536529541,
                52.51908493041992
              ],
              [
                4.454747676849365,
                52.720787048339844
              ],
              [
                4.699799060821533,
                52.99003219604492
              ],
              [
                4.871281623840332,
                52.99003219604492
              ],
              [
                4.879741191864014,
                52.78806686401367
              ],
              [
                5.056382656097412,
                52.653533935546875
              ],
              [
                5.136557102203369,
                52.78806686401367
              ],
              [
                5.390830039978027,
                52.85536575317383
              ],
              [
                5.385728359222412,
                52.99003219604492
              ],
              [
                5.20894193649292,
                53.124786376953125
              ],
              [
                5.542333602905273,
                53.39456558227539
              ],
              [
                6.226210117340088,
                53.52959060668945
              ],
              [
                6.916844367980957,
                53.462066650390625
              ],
              [
                6.913325786590576,
                53.597137451171875
              ],
              [
                7.082295417785645,
                53.732303619384766
              ],
              [
                7.944795608520508,
                53.732303619384766
              ],
              [
                8.205669403076172,
                53.597137451171875
              ],
              [
                8.37701416015625,
                53.664710998535156
              ],
              [
                8.459527015686035,
                53.93522644042969
              ],
              [
                8.892172813415527,
                53.86756134033203
              ],
              [
                8.80289077758789,
                54.138362884521484
              ],
              [
                8.802155494689941,
                54.20612335205078
              ],
              [
                8.887362480163574,
                54.341712951660156
              ],
              [
                9.148486137390137,
                54.20612335205078
              ],
              [
                10.100866317749023,
                54.341712951660156
              ],
              [
                10.014577865600586,
                53.93522644042969
              ],
              [
                10.187337875366211,
                53.86756134033203
              ],
              [
                10.187278747558594,
                53.664710998535156
              ],
              [
                10.359575271606445,
                53.597137451171875
              ],
              [
                10.35936450958252,
                53.462066650390625
              ],
              [
                11.7313871383667,
                53.057395935058594
              ],
              [
                11.730573654174805,
                52.99003219604492
              ],
              [
                11.55083179473877,
                52.18334197998047
              ],
              [
                11.804113388061523,
                51.98215103149414
              ]
            ]
          ]
        ]
      }
    }
  ]
}