{
  "type": "FeatureCollection",
  "name": "territory-319",
  "features": [
    {
      "type": "Feature",
      "properties": {
        "Name": "(Allegiance of East Franks to Carolingian Empire)",
        "FromYear": 850,
        "ToYear": 859,
        "Area": 1247012.0305147474,
        "Type": "RELATION",
        "Wikipedia": "East Francia",
        "Wikidata": "Q153080",
        "SeshatID": "de_east_francia;fr_carolingian_emp_2",
        "Components": "East Franks;(Carolingian Empire);West Franks;Middle Franks",
        "MemberOf": ""
      },
      "geometry": {
        "type": "MultiPolygon",
        "coordinates": [
          [
            [
              [
                14.768959999084473,
                42.17123794555664
              ],
              [
                14.76742172241211,
                42.10627746582031
              ],
              [
                14.687567710876465,
                42.10627746582031
              ],
              [
                14.689077377319336,
                42.17123794555664
              ],
              [
                14.768959999084473,
                42.17123794555664
              ]
            ]
          ],
          [
            [
              [
                9.49340534210205,
                42.75628662109375
              ],
              [
                9.5735502243042,
                42.75628662109375
              ],
              [
                9.577608108520508,
                41.97637939453125
              ],
              [
                9.497812271118164,
                41.97637939453125
              ],
              [
                9.49889087677002,
                41.781593322753906
              ],
              [
                9.262411117553711,
                41.39224624633789
              ],
              [
                9.1038236618042,
                41.32738494873047
              ],
              [
                8.783942222595215,
                41.521995544433594
              ],
              [
                8.782108306884766,
                41.71668243408203
              ],
              [
                8.622743606567383,
                41.71668243408203
              ],
              [
                8.700496673583984,
                41.911441802978516
              ],
              [
                8.538846015930176,
                42.10627746582031
              ],
              [
                8.534564018249512,
                42.496177673339844
              ],
              [
                8.772740364074707,
                42.691246032714844
              ],
              [
                9.17282485961914,
                42.75628662109375
              ],
              [
                9.251097679138184,
                43.016544342041016
              ],
              [
                9.331360816955566,
                43.016544342041016
              ],
              [
                9.491888999938965,
                43.016544342041016
              ],
              [
                9.49340534210205,
                42.75628662109375
              ]
            ]
          ],
          [
            [
              [
                10.455166816711426,
                42.691246032714844
              ],
              [
                10.21481990814209,
                42.691246032714844
              ],
              [
                10.134284973144531,
                42.88639831542969
              ],
              [
                10.214488983154297,
                42.88639831542969
              ],
              [
                10.45510196685791,
                42.88639831542969
              ],
              [
                10.455166816711426,
                42.691246032714844
              ]
            ]
          ],
          [
            [
              [
                -1.531282067298889,
                43.407203674316406
              ],
              [
                -1.526747107505798,
                43.342071533203125
              ],
              [
                -1.607160925865173,
                43.342071533203125
              ],
              [
                -1.602607727050781,
                43.276947021484375
              ],
              [
                -1.6829913854599,
                43.276947021484375
              ],
              [
                -1.687574744224548,
                43.342071533203125
              ],
              [
                -1.692170143127441,
                43.407203674316406
              ],
              [
                -1.61172616481781,
                43.407203674316406
              ],
              [
                -1.531282067298889,
                43.407203674316406
              ]
            ]
          ],
          [
            [
              [
                3.850892543792725,
                43.6026611328125
              ],
              [
                2.984907388687134,
                43.146724700927734
              ],
              [
                3.009923458099365,
                42.56119155883789
              ],
              [
                3.178062200546265,
                42.36617660522461
              ],
              [
                3.116764783859253,
                41.911441802978516
              ],
              [
                2.572504997253418,
                41.586883544921875
              ],
              [
                2.333626985549927,
                41.586883544921875
              ],
              [
                2.106574535369873,
                41.32738494873047
              ],
              [
                1.871051788330078,
                41.26253128051758
              ],
              [
                1.791565299034119,
                41.26253128051758
              ],
              [
                1.365143060684204,
                41.84651184082031
              ],
              [
                0.723737120628357,
                41.911441802978516
              ],
              [
                0.557072579860687,
                42.041324615478516
              ],
              [
                0.161661341786385,
                41.97637939453125
              ],
              [
                0.074372105300426,
                42.10627746582031
              ],
              [
                -0.492540627717972,
                42.236209869384766
              ],
              [
                -0.18843699991703,
                42.496177673339844
              ],
              [
                -0.124003164470196,
                42.75628662109375
              ],
              [
                -0.773497939109802,
                42.88639831542969
              ],
              [
                -1.441840410232544,
                43.276947021484375
              ],
              [
                -1.213931798934937,
                43.472347259521484
              ],
              [
                -1.222818613052368,
                43.6026611328125
              ],
              [
                -1.388410806655884,
                43.6678352355957
              ],
              [
                -1.392944693565369,
                43.73301696777344
              ],
              [
                -1.223827600479126,
                44.77729415893555
              ],
              [
                -1.228469848632812,
                44.842647552490234
              ],
              [
                -0.822843551635742,
                44.842647552490234
              ],
              [
                -0.732824623584747,
                44.71194839477539
              ],
              [
                -0.404272526502609,
                44.64661407470703
              ],
              [
                -0.421554744243622,
                44.908016204833984
              ],
              [
                -0.67392486333847,
                45.03877639770508
              ],
              [
                -0.777755081653595,
                45.36587905883789
              ],
              [
                -1.035891175270081,
                45.56227111816406
              ],
              [
                -1.04058039188385,
                45.62776184082031
              ],
              [
                -1.213142395019531,
                45.75876998901367
              ],
              [
                -1.141096234321594,
                45.889827728271484
              ],
              [
                -1.222735166549683,
                45.889827728271484
              ],
              [
                -1.251809358596802,
                46.283294677734375
              ],
              [
                -1.666043281555176,
                46.348915100097656
              ],
              [
                -2.014399528503418,
                46.61152267456055
              ],
              [
                -2.024919986724854,
                46.74290466308594
              ],
              [
                -2.194406032562256,
                46.808616638183594
              ],
              [
                -2.139080047607422,
                47.13737487792969
              ],
              [
                -2.232228517532349,
                47.26897048950195
              ],
              [
                -2.561590671539307,
                47.26897048950195
              ],
              [
                -2.578423976898193,
                47.46647262573242
              ],
              [
                -2.831500053405762,
                47.53233337402344
              ],
              [
                -2.837259292602539,
                47.598209381103516
              ],
              [
                -2.447182655334473,
                47.86185836791992
              ],
              [
                -1.796727180480957,
                47.993770599365234
              ],
              [
                -1.647326707839966,
                48.191749572753906
              ],
              [
                -1.652703642845154,
                48.257774353027344
              ],
              [
                -1.668919563293457,
                48.455936431884766
              ],
              [
                -1.508333325386047,
                48.52202224731445
              ],
              [
                -1.602181315422058,
                48.654239654541016
              ],
              [
                -1.607621908187866,
                48.72037124633789
              ],
              [
                -1.718345284461975,
                49.051273345947266
              ],
              [
                -1.635041356086731,
                49.051273345947266
              ],
              [
                -1.651668906211853,
                49.2500114440918
              ],
              [
                -1.913302421569824,
                49.38258361816406
              ],
              [
                -2.031550645828247,
                49.78071212768555
              ],
              [
                -1.361783027648926,
                49.78071212768555
              ],
              [
                -1.250783205032349,
                49.44889450073242
              ],
              [
                0.007001183927059,
                49.38258361816406
              ],
              [
                -0.012448177672923,
                49.64793395996094
              ],
              [
                0.224112883210182,
                49.84712600708008
              ],
              [
                1.052847385406494,
                49.98000717163086
              ],
              [
                1.454967975616455,
                50.2459831237793
              ],
              [
                1.424705147743225,
                50.71213912963867
              ],
              [
                1.656218767166138,
                51.04566955566406
              ],
              [
                2.577829360961914,
                51.17921447753906
              ],
              [
                2.73940634727478,
                51.31283950805664
              ],
              [
                3.324945688247681,
                51.44654083251953
              ],
              [
                3.409677743911743,
                51.44654083251953
              ],
              [
                3.494410037994385,
                51.44654083251953
              ],
              [
                3.74530816078186,
                51.51342010498047
              ],
              [
                3.40621018409729,
                51.51342010498047
              ],
              [
                3.399252653121948,
                51.64724349975586
              ],
              [
                3.738690614700317,
                51.64724349975586
              ],
              [
                3.647099733352661,
                51.78114318847656
              ],
              [
                3.81699013710022,
                51.78114318847656
              ],
              [
                3.810401916503906,
                51.91512680053711
              ],
              [
                3.895433187484741,
                51.91512680053711
              ],
              [
                3.980464458465576,
                51.91512680053711
              ],
              [
                4.150527000427246,
                51.91512680053711
              ],
              [
                4.244784832000732,
                51.71418380737305
              ],
              [
                4.499491691589355,
                51.71418380737305
              ],
              [
                4.493966381399328,
                51.83991300569443
              ],
              [
                4.493605136871338,
                51.84812545776367
              ],
              [
                4.646299362182617,
                52.250450134277344
              ],
              [
                4.987296104431152,
                52.250450134277344
              ],
              [
                5.051530512645154,
                52.250450134277344
              ],
              [
                5.149869918823242,
                52.4518928527832
              ],
              [
                5.320633411407471,
                52.4518928527832
              ],
              [
                5.227413654327393,
                52.653533935546875
              ],
              [
                5.224790573120117,
                52.720787048339844
              ],
              [
                5.222162246704102,
                52.78806686401367
              ],
              [
                5.307767868041992,
                52.78806686401367
              ],
              [
                5.305179595947266,
                52.85536575317383
              ],
              [
                5.390830039978027,
                52.85536575317383
              ],
              [
                5.38828182220459,
                52.92268753051758
              ],
              [
                5.559673309326172,
                52.92268753051758
              ],
              [
                5.654990673065186,
                52.653533935546875
              ],
              [
                5.911537170410156,
                52.653533935546875
              ],
              [
                6.332984924316406,
                52.85536575317383
              ],
              [
                6.326824188232422,
                53.057395935058594
              ],
              [
                6.4964280128479,
                53.124786376953125
              ],
              [
                6.668092727661133,
                53.124786376953125
              ],
              [
                6.845108985900879,
                52.92268753051758
              ],
              [
                7.102196216583252,
                52.92268753051758
              ],
              [
                7.184690952301025,
                53.057395935058594
              ],
              [
                8.29688835144043,
                53.25962829589844
              ],
              [
                8.466897964477539,
                53.39456558227539
              ],
              [
                8.37701416015625,
                53.664710998535156
              ],
              [
                8.376045227050781,
                53.732303619384766
              ],
              [
                8.459527015686035,
                53.93522644042969
              ],
              [
                8.892172813415527,
                53.86756134033203
              ],
              [
                8.80289077758789,
                54.138362884521484
              ],
              [
                8.802155494689941,
                54.20612335205078
              ],
              [
                8.887362480163574,
                54.341712951660156
              ],
              [
                9.148486137390137,
                54.20612335205078
              ],
              [
                10.100866317749023,
                54.341712951660156
              ],
              [
                10.014577865600586,
                53.93522644042969
              ],
              [
                10.187337875366211,
                53.86756134033203
              ],
              [
                10.187278747558594,
                53.664710998535156
              ],
              [
                10.359575271606445,
                53.597137451171875
              ],
              [
                10.35936450958252,
                53.462066650390625
              ],
              [
                11.7313871383667,
                53.057395935058594
              ],
              [
                11.730573654174805,
                52.99003219604492
              ],
              [
                11.55083179473877,
                52.18334197998047
              ],
              [
                11.804113388061523,
                51.98215103149414
              ],
              [
                11.547623634338379,
                51.84812545776367
              ],
              [
                11.545768737792969,
                51.64724349975586
              ],
              [
                11.375528335571289,
                51.580322265625
              ],
              [
                11.289310455322266,
                51.37968063354492
              ],
              [
                12.131903648376465,
                51.04566955566406
              ],
              [
                12.129409790039062,
                50.84549331665039
              ],
              [
                12.297226905822754,
                50.77880859375
              ],
              [
                12.295454025268555,
                50.64549255371094
              ],
              [
                12.04199504852295,
                50.578861236572266
              ],
              [
                12.013224310932392,
                50.51224899291992
              ],
              [
                12.04124927520752,
                50.51224899291992
              ],
              [
                12.040512084960938,
                50.445655822753906
              ],
              [
                12.039782524108887,
                50.37908172607422
              ],
              [
                11.955707550048828,
                50.37908172607422
              ],
              [
                12.454757690429688,
                49.98000717163086
              ],
              [
                12.368453979492188,
                49.78071212768555
              ],
              [
                12.535013198852539,
                49.71431350708008
              ],
              [
                12.533272743225098,
                49.58156967163086
              ],
              [
                13.02955150604248,
                49.2500114440918
              ],
              [
                13.196383476257324,
                49.2500114440918
              ],
              [
                13.359648704528809,
                49.051273345947266
              ],
              [
                13.526256561279297,
                49.051273345947266
              ],
              [
                13.688922882080078,
                48.852684020996094
              ],
              [
                14.266631126403809,
                48.654239654541016
              ],
              [
                14.180566787719727,
                48.52202224731445
              ],
              [
                14.346587181091309,
                48.52202224731445
              ],
              [
                14.509366989135742,
                48.38986587524414
              ],
              [
                14.506157875061035,
                48.257774353027344
              ],
              [
                14.756464004516602,
                48.323814392089844
              ],
              [
                14.83936595916748,
                48.323814392089844
              ],
              [
                16.078336715698242,
                48.191749572753906
              ],
              [
                16.663206100463867,
                48.323814392089844
              ],
              [
                17.064254760742188,
                47.993770599365234
              ],
              [
                17.714326858520508,
                47.730003356933594
              ],
              [
                18.95307159423828,
                47.730003356933594
              ],
              [
                19.025299072265625,
                47.53233337402344
              ],
              [
                19.186756134033203,
                47.46647262573242
              ],
              [
                19.087135314941406,
                47.13737487792969
              ],
              [
                19.004863739013672,
                47.13737487792969
              ],
              [
                18.922592163085938,
                47.13737487792969
              ],
              [
                18.919252395629883,
                47.07159423828125
              ],
              [
                18.81411361694336,
                46.61152267456055
              ],
              [
                18.974809646606445,
                46.54585266113281
              ],
              [
                19.043479919433594,
                46.283294677734375
              ],
              [
                18.96164321899414,
                46.283294677734375
              ],
              [
                18.775617599487305,
                45.82429504394531
              ],
              [
                18.857223510742188,
                45.82429504394531
              ],
              [
                18.9258975982666,
                45.56227111816406
              ],
              [
                18.92267417907715,
                45.496795654296875
              ],
              [
                19.004117965698242,
                45.496795654296875
              ],
              [
                18.997617721557617,
                45.36587905883789
              ],
              [
                19.23841667175293,
                45.300437927246094
              ],
              [
                19.13726234436035,
                44.908016204833984
              ],
              [
                19.056106567382812,
                44.908016204833984
              ],
              [
                18.80946922302246,
                44.842647552490234
              ],
              [
                18.73775291442871,
                45.03877639770508
              ],
              [
                17.92837142944336,
                45.10417556762695
              ],
              [
                17.760351181030273,
                44.973392486572266
              ],
              [
                17.519447326660156,
                45.03877639770508
              ],
              [
                17.189496994018555,
                44.908016204833984
              ],
              [
                17.108339309692383,
                44.908016204833984
              ],
              [
                16.537961959838867,
                44.842647552490234
              ],
              [
                16.461332321166992,
                44.973392486572266
              ],
              [
                15.57205581665039,
                45.10417556762695
              ],
              [
                15.415056228637695,
                45.300437927246094
              ],
              [
                15.089664459228516,
                45.300437927246094
              ],
              [
                14.930253028869629,
                45.431331634521484
              ],
              [
                14.278955459594727,
                45.431331634521484
              ],
              [
                14.277569770812988,
                45.36587905883789
              ],
              [
                14.196189880371094,
                45.36587905883789
              ],
              [
                14.189410209655762,
                45.03877639770508
              ],
              [
                14.026969909667969,
                45.03877639770508
              ],
              [
                13.945749282836914,
                45.03877639770508
              ],
              [
                13.628785133361816,
                45.496795654296875
              ],
              [
                13.710229873657227,
                45.496795654296875
              ],
              [
                13.714865684509277,
                45.75876998901367
              ],
              [
                13.144780158996582,
                45.82429504394531
              ],
              [
                13.061376571655273,
                45.693260192871094
              ],
              [
                12.9815673828125,
                45.82429504394531
              ],
              [
                12.818355560302734,
                45.82429504394531
              ],
              [
                12.736748695373535,
                45.82429504394531
              ],
              [
                12.164421081542969,
                45.693260192871094
              ],
              [
                12.000378608703613,
                45.56227111816406
              ],
              [
                11.998926162719727,
                45.36587905883789
              ],
              [
                12.161685943603516,
                45.36587905883789
              ],
              [
                12.161133766174316,
                45.300437927246094
              ],
              [
                12.160021781921387,
                45.169586181640625
              ],
              [
                12.40256118774414,
                45.03877639770508
              ],
              [
                12.399906158447266,
                44.77729415893555
              ],
              [
                12.157197952270508,
                44.842647552490234
              ],
              [
                12.153728485107422,
                44.45067596435547
              ],
              [
                12.312999725341797,
                44.18956756591797
              ],
              [
                12.873446464538574,
                43.79821014404297
              ],
              [
                13.035634994506836,
                43.86341094970703
              ],
              [
                13.033763885498047,
                43.73301696777344
              ],
              [
                13.355091094970703,
                43.6678352355957
              ],
              [
                13.672640800476074,
                43.407203674316406
              ],
              [
                13.747068405151367,
                43.08163070678711
              ],
              [
                13.98537540435791,
                42.95146560668945
              ],
              [
                13.901384353637695,
                42.75628662109375
              ],
              [
                14.056464195251465,
                42.496177673339844
              ],
              [
                14.607714653015137,
                42.10627746582031
              ],
              [
                14.687567710876465,
                42.10627746582031
              ],
              [
                14.365377426147461,
                41.97637939453125
              ],
              [
                14.120827674865723,
                41.71668243408203
              ],
              [
                13.96146297454834,
                41.71668243408203
              ],
              [
                13.804443359375,
                41.84651184082031
              ],
              [
                13.40574836730957,
                41.84651184082031
              ],
              [
                13.328027725219727,
                41.97637939453125
              ],
              [
                13.00974178314209,
                42.041324615478516
              ],
              [
                12.615199089050293,
                42.43117141723633
              ],
              [
                12.375204086303711,
                42.43117141723633
              ],
              [
                12.301782608032227,
                43.08163070678711
              ],
              [
                12.141195297241211,
                43.08163070678711
              ],
              [
                12.224648475646973,
                43.407203674316406
              ],
              [
                11.82194709777832,
                43.342071533203125
              ],
              [
                11.820984840393066,
                43.211830139160156
              ],
              [
                11.981149673461914,
                43.146724700927734
              ],
              [
                12.0580472946167,
                42.75628662109375
              ],
              [
                11.736565589904785,
                42.62621307373047
              ],
              [
                11.574831008911133,
                42.36617660522461
              ],
              [
                11.494861602783203,
                42.36617660522461
              ],
              [
                11.255227088928223,
                42.43117141723633
              ],
              [
                11.175962448120117,
                42.62621307373047
              ],
              [
                11.015789985656738,
                42.62621307373047
              ],
              [
                11.01634693145752,
                42.82133865356445
              ],
              [
                10.535322189331055,
                43.08163070678711
              ],
              [
                10.212339401245117,
                43.99384307861328
              ],
              [
                9.889463424682617,
                43.99384307861328
              ],
              [
                9.969700813293457,
                44.12431716918945
              ],
              [
                9.7273588180542,
                44.12431716918945
              ],
              [
                9.159077644348145,
                44.45067596435547
              ],
              [
                8.431501388549805,
                44.38538360595703
              ],
              [
                8.033902168273926,
                43.92862319946289
              ],
              [
                7.150246143341064,
                43.73301696777344
              ],
              [
                6.993107318878174,
                43.53750228881836
              ],
              [
                6.67255163192749,
                43.472347259521484
              ],
              [
                6.517646789550781,
                43.211830139160156
              ],
              [
                6.278174877166748,
                43.146724700927734
              ],
              [
                5.796233177185059,
                43.146724700927734
              ],
              [
                5.631923198699951,
                43.276947021484375
              ],
              [
                5.390771865844727,
                43.276947021484375
              ],
              [
                5.386905193328857,
                43.407203674316406
              ],
              [
                5.063065528869629,
                43.472347259521484
              ],
              [
                4.419270515441895,
                43.472347259521484
              ],
              [
                4.338796615600586,
                43.472347259521484
              ],
              [
                4.258322238922119,
                43.472347259521484
              ],
              [
                4.173032760620117,
                43.6026611328125
              ],
              [
                3.850892543792725,
                43.6026611328125
              ]
            ],
            [
              [
                6.699635028839111,
                51.98215103149414
              ],
              [
                6.697800159454346,
                52.0491943359375
              ],
              [
                6.612682342529297,
                52.0491943359375
              ],
              [
                6.614560127258301,
                51.98215103149414
              ],
              [
                6.699635028839111,
                51.98215103149414
              ]
            ]
          ]
        ]
      }
    }
  ]
}