{
  "type": "FeatureCollection",
  "name": "territory-32",
  "features": [
    {
      "type": "Feature",
      "properties": {
        "Name": "Etruscans",
        "FromYear": -530,
        "ToYear": -481,
        "Area": 65835.26030115705,
        "Type": "POLITY",
        "Wikipedia": "Etruscan civilization",
        "Wikidata": "Q17161",
        "SeshatID": "",
        "Components": "",
        "MemberOf": ""
      },
      "geometry": {
        "type": "MultiPolygon",
        "coordinates": [
          [
            [
              [
                9.491888999938965,
                43.016544342041016
              ],
              [
                9.49340534210205,
                42.75628662109375
              ],
              [
                9.5735502243042,
                42.75628662109375
              ],
              [
                9.577608108520508,
                41.97637939453125
              ],
              [
                9.497812271118164,
                41.97637939453125
              ],
              [
                9.49889087677002,
                41.781593322753906
              ],
              [
                9.262411117553711,
                41.39224624633789
              ],
              [
                9.1038236618042,
                41.32738494873047
              ],
              [
                8.783942222595215,
                41.521995544433594
              ],
              [
                8.782108306884766,
                41.71668243408203
              ],
              [
                8.622743606567383,
                41.71668243408203
              ],
              [
                8.700496673583984,
                41.911441802978516
              ],
              [
                8.538846015930176,
                42.10627746582031
              ],
              [
                8.534564018249512,
                42.496177673339844
              ],
              [
                8.772740364074707,
                42.691246032714844
              ],
              [
                9.17282485961914,
                42.75628662109375
              ],
              [
                9.251097679138184,
                43.016544342041016
              ],
              [
                9.331360816955566,
                43.016544342041016
              ],
              [
                9.491888999938965,
                43.016544342041016
              ]
            ]
          ],
          [
            [
              [
                10.45510196685791,
                42.88639831542969
              ],
              [
                10.455166816711426,
                42.691246032714844
              ],
              [
                10.21481990814209,
                42.691246032714844
              ],
              [
                10.134284973144531,
                42.88639831542969
              ],
              [
                10.214488983154297,
                42.88639831542969
              ],
              [
                10.45510196685791,
                42.88639831542969
              ]
            ]
          ],
          [
            [
              [
                11.654799461364746,
                42.36617660522461
              ],
              [
                11.494501113891602,
                42.30118942260742
              ],
              [
                11.415224075317383,
                42.43117141723633
              ],
              [
                11.255227088928223,
                42.43117141723633
              ],
              [
                11.175962448120117,
                42.62621307373047
              ],
              [
                11.015789985656738,
                42.62621307373047
              ],
              [
                11.01634693145752,
                42.82133865356445
              ],
              [
                10.535322189331055,
                43.08163070678711
              ],
              [
                10.535326957702637,
                43.276947021484375
              ],
              [
                10.454943656921387,
                43.276947021484375
              ],
              [
                10.13126277923584,
                44.12431716918945
              ],
              [
                10.292703628540039,
                44.18956756591797
              ],
              [
                10.292451858520508,
                44.32010269165039
              ],
              [
                10.535037994384766,
                44.38538360595703
              ],
              [
                10.615870475769043,
                44.71194839477539
              ],
              [
                9.721156413586531,
                45.22529954563432
              ],
              [
                9.721497535705566,
                45.169586181640625
              ],
              [
                9.640213966369629,
                45.169586181640625
              ],
              [
                9.63978099822998,
                45.23500442504883
              ],
              [
                9.704241886231488,
                45.23500442504883
              ],
              [
                9.476141929626465,
                45.36587905883789
              ],
              [
                9.392571449279785,
                45.62776184082031
              ],
              [
                9.473555564880371,
                45.693260192871094
              ],
              [
                10.533594131469727,
                45.693260192871094
              ],
              [
                10.533798217773438,
                45.56227111816406
              ],
              [
                12.161685943603516,
                45.36587905883789
              ],
              [
                12.160021781921387,
                45.169586181640625
              ],
              [
                12.40256118774414,
                45.03877639770508
              ],
              [
                12.399906158447266,
                44.77729415893555
              ],
              [
                12.157197952270508,
                44.842647552490234
              ],
              [
                12.153728485107422,
                44.45067596435547
              ],
              [
                12.312999725341797,
                44.18956756591797
              ],
              [
                11.988690376281738,
                44.05907440185547
              ],
              [
                11.905418395996094,
                43.73301696777344
              ],
              [
                12.306416511535645,
                43.53750228881836
              ],
              [
                12.451669692993164,
                42.10627746582031
              ],
              [
                11.972548484802246,
                42.10627746582031
              ],
              [
                11.892694473266602,
                42.10627746582031
              ],
              [
                11.733430862426758,
                42.17123794555664
              ],
              [
                11.654799461364746,
                42.36617660522461
              ]
            ]
          ],
          [
            [
              [
                10.050901412963867,
                43.99384307861328
              ],
              [
                9.889463424682617,
                43.99384307861328
              ],
              [
                9.889193534851074,
                44.05907440185547
              ],
              [
                10.050481796264648,
                44.12431716918945
              ],
              [
                10.050901412963867,
                43.99384307861328
              ]
            ]
          ]
        ]
      }
    }
  ]
}