{
  "type": "FeatureCollection",
  "name": "territory-322",
  "features": [
    {
      "type": "Feature",
      "properties": {
        "Name": "Lower Burgundy",
        "FromYear": 860,
        "ToYear": 865,
        "Area": 209031.9334583587,
        "Type": "POLITY",
        "Wikipedia": "Lower Burgundy",
        "Wikidata": "Q33242",
        "SeshatID": "",
        "Components": "",
        "MemberOf": ""
      },
      "geometry": {
        "type": "Polygon",
        "coordinates": [
          [
            [
              6.67255163192749,
              43.472347259521484
            ],
            [
              6.596527099609375,
              43.276947021484375
            ],
            [
              6.278174877166748,
              43.146724700927734
            ],
            [
              5.796233177185059,
              43.146724700927734
            ],
            [
              5.631923198699951,
              43.276947021484375
            ],
            [
              5.390771865844727,
              43.276947021484375
            ],
            [
              5.386905193328857,
              43.407203674316406
            ],
            [
              5.063065528869629,
              43.472347259521484
            ],
            [
              4.419270515441895,
              43.472347259521484
            ],
            [
              4.338796615600586,
              43.472347259521484
            ],
            [
              4.409977436065674,
              43.73301696777344
            ],
            [
              4.571169853210449,
              43.73301696777344
            ],
            [
              4.725685596466064,
              43.92862319946289
            ],
            [
              4.476603984832764,
              44.12431716918945
            ],
            [
              4.469520568847656,
              44.32010269165039
            ],
            [
              4.224428653717041,
              44.38538360595703
            ],
            [
              3.971380710601807,
              44.64661407470703
            ],
            [
              3.96091890335083,
              44.908016204833984
            ],
            [
              4.123232841491699,
              44.908016204833984
            ],
            [
              4.359247207641602,
              45.10417556762695
            ],
            [
              4.351718902587891,
              45.300437927246094
            ],
            [
              3.9422926902771,
              45.36587905883789
            ],
            [
              4.012977600097656,
              45.62776184082031
            ],
            [
              3.931468486785889,
              45.62776184082031
            ],
            [
              3.917757511138916,
              45.95537567138672
            ],
            [
              4.326115131378174,
              45.95537567138672
            ],
            [
              4.402639865875244,
              46.08650588989258
            ],
            [
              4.64785099029541,
              46.08650588989258
            ],
            [
              4.816144466400146,
              45.95537567138672
            ],
            [
              4.888279914855957,
              46.21768569946289
            ],
            [
              5.047208309173584,
              46.348915100097656
            ],
            [
              5.044859886169434,
              46.414546966552734
            ],
            [
              5.126761913299561,
              46.414546966552734
            ],
            [
              5.208663940429688,
              46.414546966552734
            ],
            [
              5.206375122070312,
              46.480194091796875
            ],
            [
              5.288310527801514,
              46.480194091796875
            ],
            [
              5.370245456695557,
              46.480194091796875
            ],
            [
              5.368017196655273,
              46.54585266113281
            ],
            [
              5.286048412322998,
              46.54585266113281
            ],
            [
              5.194835662841797,
              46.808616638183594
            ],
            [
              5.594502449035645,
              47.13737487792969
            ],
            [
              5.576864242553711,
              47.664100646972656
            ],
            [
              5.822384834289551,
              47.730003356933594
            ],
            [
              5.818123817443848,
              47.86185836791992
            ],
            [
              5.646180152893066,
              48.059749603271484
            ],
            [
              5.480661869049072,
              48.059749603271484
            ],
            [
              5.47376823425293,
              48.257774353027344
            ],
            [
              5.217910766601562,
              48.455936431884766
            ],
            [
              4.883440971374512,
              48.52202224731445
            ],
            [
              4.865273475646973,
              48.98506164550781
            ],
            [
              5.026719093322754,
              49.11750411987305
            ],
            [
              4.679802417755127,
              49.44889450073242
            ],
            [
              4.576823711395264,
              49.91355895996094
            ],
            [
              3.987162351608276,
              49.98000717163086
            ],
            [
              3.638839721679688,
              50.2459831237793
            ],
            [
              3.635580539703369,
              50.312522888183594
            ],
            [
              3.538282871246338,
              50.578861236572266
            ],
            [
              4.034165859222412,
              50.77880859375
            ],
            [
              4.263070583343506,
              51.31283950805664
            ],
            [
              3.504641532897949,
              51.24601745605469
            ],
            [
              3.409677743911743,
              51.44654083251953
            ],
            [
              3.494410037994385,
              51.44654083251953
            ],
            [
              3.74530816078186,
              51.51342010498047
            ],
            [
              3.40621018409729,
              51.51342010498047
            ],
            [
              3.399252653121948,
              51.64724349975586
            ],
            [
              3.738690614700317,
              51.64724349975586
            ],
            [
              3.647099733352661,
              51.78114318847656
            ],
            [
              3.81699013710022,
              51.78114318847656
            ],
            [
              3.810401916503906,
              51.91512680053711
            ],
            [
              3.895433187484741,
              51.91512680053711
            ],
            [
              3.980464458465576,
              51.91512680053711
            ],
            [
              4.150527000427246,
              51.91512680053711
            ],
            [
              4.244784832000732,
              51.71418380737305
            ],
            [
              4.499491691589355,
              51.71418380737305
            ],
            [
              4.496551513671875,
              51.78114318847656
            ],
            [
              4.646299362182617,
              52.250450134277344
            ],
            [
              4.987296104431152,
              52.250450134277344
            ],
            [
              5.051530512645154,
              52.250450134277344
            ],
            [
              5.149869918823242,
              52.4518928527832
            ],
            [
              5.320633411407471,
              52.4518928527832
            ],
            [
              5.227413654327393,
              52.653533935546875
            ],
            [
              5.224790573120117,
              52.720787048339844
            ],
            [
              5.222162246704102,
              52.78806686401367
            ],
            [
              5.307767868041992,
              52.78806686401367
            ],
            [
              5.305179595947266,
              52.85536575317383
            ],
            [
              5.390830039978027,
              52.85536575317383
            ],
            [
              5.38828182220459,
              52.92268753051758
            ],
            [
              5.559673309326172,
              52.92268753051758
            ],
            [
              5.654990673065186,
              52.653533935546875
            ],
            [
              5.911537170410156,
              52.653533935546875
            ],
            [
              6.332984924316406,
              52.85536575317383
            ],
            [
              6.508195400238037,
              52.720787048339844
            ],
            [
              6.438507556915283,
              52.18334197998047
            ],
            [
              6.612682342529297,
              52.0491943359375
            ],
            [
              6.614560127258301,
              51.98215103149414
            ],
            [
              6.699635028839111,
              51.98215103149414
            ],
            [
              6.705125331878662,
              51.78114318847656
            ],
            [
              6.878493785858154,
              51.64724349975586
            ],
            [
              6.80073881149292,
              51.37968063354492
            ],
            [
              6.973492622375488,
              51.24601745605469
            ],
            [
              7.064663410186768,
              50.97892379760742
            ],
            [
              7.235099792480469,
              50.912200927734375
            ],
            [
              7.328577518463135,
              50.51224899291992
            ],
            [
              7.761168956756592,
              49.91355895996094
            ],
            [
              7.177754878997803,
              49.78071212768555
            ],
            [
              7.018624782562256,
              49.44889450073242
            ],
            [
              7.360270023345947,
              49.11750411987305
            ],
            [
              8.112674713134766,
              48.98506164550781
            ],
            [
              8.115007400512695,
              48.852684020996094
            ],
            [
              7.786173820495605,
              48.654239654541016
            ],
            [
              7.709810256958008,
              48.323814392089844
            ],
            [
              7.626908302307129,
              48.323814392089844
            ],
            [
              7.56217098236084,
              47.46647262573242
            ],
            [
              7.728368282318115,
              47.4006233215332
            ],
            [
              7.730979442596436,
              47.26897048950195
            ],
            [
              7.567667961120605,
              47.20316696166992
            ],
            [
              7.410192012786865,
              46.87434005737305
            ],
            [
              7.906641483306885,
              46.677207946777344
            ],
            [
              7.991013050079346,
              46.54585266113281
            ],
            [
              8.318887710571289,
              46.54585266113281
            ],
            [
              8.320942878723145,
              46.414546966552734
            ],
            [
              8.078590393066406,
              46.21768569946289
            ],
            [
              8.080806732177734,
              46.08650588989258
            ],
            [
              7.837991714477539,
              45.95537567138672
            ],
            [
              6.939604759216309,
              45.95537567138672
            ],
            [
              6.779487133026123,
              45.82429504394531
            ],
            [
              6.782690525054932,
              45.693260192871094
            ],
            [
              7.113230228424072,
              45.496795654296875
            ],
            [
              7.117553234100342,
              45.300437927246094
            ],
            [
              6.713985443115234,
              45.169586181640625
            ],
            [
              6.637507915496826,
              44.973392486572266
            ],
            [
              6.965181350708008,
              44.842647552490234
            ],
            [
              6.969513416290283,
              44.64661407470703
            ],
            [
              6.888483047485352,
              44.64661407470703
            ],
            [
              6.978019714355469,
              44.25482940673828
            ],
            [
              7.303933143615723,
              44.12431716918945
            ],
            [
              7.625912189483643,
              44.18956756591797
            ],
            [
              7.552080154418945,
              43.79821014404297
            ],
            [
              7.471453189849854,
              43.79821014404297
            ],
            [
              6.67255163192749,
              43.472347259521484
            ]
          ]
        ]
      }
    }
  ]
}