{
  "type": "FeatureCollection",
  "name": "territory-326",
  "features": [
    {
      "type": "Feature",
      "properties": {
        "Name": "Sind-Habbari Dynasty",
        "FromYear": 860,
        "ToYear": 874,
        "Area": 229914.77238805965,
        "Type": "POLITY",
        "Wikipedia": "Habbari dynasty",
        "Wikidata": "Q5636647",
        "SeshatID": "pk_sind_abbasid_fatimid",
        "Components": "",
        "MemberOf": ""
      },
      "geometry": {
        "type": "Polygon",
        "coordinates": [
          [
            [
              70.003,
              29.812
            ],
            [
              70.27924664157528,
              29.95434403023164
            ],
            [
              71.49250167823537,
              29.96278152727261
            ],
            [
              72.12092655184443,
              29.84783243513933
            ],
            [
              72.36469346316119,
              29.36126075756646
            ],
            [
              72.3301263299842,
              28.9699317176398
            ],
            [
              71.45559051032481,
              27.24925646652258
            ],
            [
              70.76937423695051,
              26.32224464416504
            ],
            [
              70.40570963763983,
              25.84148193605792
            ],
            [
              69.34327469696754,
              25.02264574048315
            ],
            [
              69.22118923592298,
              24.7786693124317
            ],
            [
              69.12025358378516,
              24.70103032068187
            ],
            [
              68.9172254961288,
              23.93763917107358
            ],
            [
              68.2818887852733,
              23.5610759751807
            ],
            [
              68.181,
              23.584
            ],
            [
              68.17284295411132,
              23.74470443296153
            ],
            [
              68.05320952116516,
              23.72270150808626
            ],
            [
              68.0389672119493,
              23.87545612984522
            ],
            [
              68.02628255742556,
              23.74599609046575
            ],
            [
              67.852,
              23.908
            ],
            [
              67.685,
              23.785
            ],
            [
              67.4221383049033,
              23.96800918692524
            ],
            [
              67.09895411496873,
              24.76299228767003
            ],
            [
              66.658,
              24.829
            ],
            [
              66.66686433397464,
              24.86426889276107
            ],
            [
              66.6714054112437,
              25.02740957593902
            ],
            [
              67.03425310803958,
              25.5534989750413
            ],
            [
              67.15658170513986,
              26.09928693063883
            ],
            [
              67.168,
              27.448
            ],
            [
              67.502,
              28.366
            ],
            [
              67.522,
              29.123
            ],
            [
              67.643,
              29.277
            ],
            [
              68.13159206148322,
              29.39023856890966
            ],
            [
              68.693,
              29.191
            ],
            [
              69.638,
              29.361
            ],
            [
              70.003,
              29.812
            ]
          ]
        ]
      }
    }
  ]
}