{
  "type": "FeatureCollection",
  "name": "territory-33",
  "features": [
    {
      "type": "Feature",
      "properties": {
        "Name": "(Spring and Autumn States)",
        "FromYear": -750,
        "ToYear": -551,
        "Area": 1008534.3963654933,
        "Type": "POLITY",
        "Wikipedia": "Spring and Autumn Period",
        "Wikidata": "Q185047",
        "SeshatID": "",
        "Components": "Teng;Qin;Zhu;Cai;Jin;Lu;Zheng;Xu;Yan;Cao;Wey;Qi;Song;Chen;Chu;Wu;Later Zhou",
        "MemberOf": ""
      },
      "geometry": {
        "type": "Polygon",
        "coordinates": [
          [
            [
              116.04265594482422,
              30.372163772583008
            ],
            [
              114.11265563964844,
              30.500701904296875
            ],
            [
              113.95056915283203,
              30.243623733520508
            ],
            [
              113.58361053466797,
              30.050809860229492
            ],
            [
              113.26678466796875,
              29.536611557006836
            ],
            [
              112.90369415283203,
              29.34377670288086
            ],
            [
              111.99589538574219,
              29.34377670288086
            ],
            [
              111.80860900878906,
              29.472333908081055
            ],
            [
              111.29871368408203,
              29.536611557006836
            ],
            [
              110.66183471679688,
              29.922264099121094
            ],
            [
              110.22734069824219,
              29.986536026000977
            ],
            [
              110.4056167602539,
              30.307893753051758
            ],
            [
              109.91582489013672,
              30.436433792114258
            ],
            [
              109.4763412475586,
              30.950578689575195
            ],
            [
              109.48612213134766,
              31.20764923095703
            ],
            [
              109.35553741455078,
              31.271915435791016
            ],
            [
              109.4751968383789,
              31.40045166015625
            ],
            [
              109.3124771118164,
              31.593257904052734
            ],
            [
              109.62882995605469,
              32.493072509765625
            ],
            [
              109.55238342285156,
              32.493072509765625
            ],
            [
              109.81649017333984,
              33.00732421875
            ],
            [
              109.71090698242188,
              33.13589859008789
            ],
            [
              109.78289031982422,
              33.32876968383789
            ],
            [
              110.21489715576172,
              33.45735549926758
            ],
            [
              110.21150970458984,
              33.65024948120117
            ],
            [
              110.49124145507812,
              33.77885055541992
            ],
            [
              110.4889907836914,
              33.971771240234375
            ],
            [
              110.87198638916016,
              34.164703369140625
            ],
            [
              110.89728546142578,
              34.22901916503906
            ],
            [
              110.82032775878906,
              34.22901916503906
            ],
            [
              110.74337005615234,
              34.22901916503906
            ],
            [
              110.35858154296875,
              34.22901916503906
            ],
            [
              109.68960571289062,
              34.48630142211914
            ],
            [
              107.94264221191406,
              34.55062484741211
            ],
            [
              108.45275115966797,
              35.258358001708984
            ],
            [
              108.2981948852539,
              35.258358001708984
            ],
            [
              108.34974670410156,
              35.38706970214844
            ],
            [
              108.16950988769531,
              35.51579284667969
            ],
            [
              108.22152709960938,
              35.644527435302734
            ],
            [
              108.78959655761719,
              35.708900451660156
            ],
            [
              109.65463256835938,
              36.48161697387695
            ],
            [
              112.09423828125,
              37.254878997802734
            ],
            [
              112.17218017578125,
              37.254878997802734
            ],
            [
              112.20132446289062,
              37.3193473815918
            ],
            [
              113.26740264892578,
              37.7707405090332
            ],
            [
              114.10688781738281,
              38.54513168334961
            ],
            [
              114.09173583984375,
              38.67427444458008
            ],
            [
              114.35895538330078,
              38.738853454589844
            ],
            [
              115.4478530883789,
              39.64360046386719
            ],
            [
              115.83116149902344,
              39.77294921875
            ],
            [
              115.8996810913086,
              39.90232849121094
            ],
            [
              116.02315521240234,
              39.8376350402832
            ],
            [
              116.10205078125,
              39.8376350402832
            ],
            [
              116.1364517211914,
              39.90232849121094
            ],
            [
              116.45215606689453,
              39.90232849121094
            ],
            [
              117.5674819946289,
              40.355369567871094
            ],
            [
              119.34424591064453,
              40.42012023925781
            ],
            [
              121.22704315185547,
              40.93837356567383
            ],
            [
              120.64734649658203,
              40.4848747253418
            ],
            [
              120.50029754638672,
              40.225894927978516
            ],
            [
              119.38044738769531,
              39.77294921875
            ],
            [
              119.3191146850586,
              39.51427459716797
            ],
            [
              119.28438568115234,
              39.449623107910156
            ],
            [
              118.98941802978516,
              39.19107437133789
            ],
            [
              118.44984436035156,
              39.06184005737305
            ],
            [
              118.0568618774414,
              39.06184005737305
            ],
            [
              118.04566192626953,
              39.19107437133789
            ],
            [
              117.88837432861328,
              39.19107437133789
            ],
            [
              117.67569732666016,
              38.93262481689453
            ],
            [
              117.62202453613281,
              38.67427444458008
            ],
            [
              117.60245513916016,
              38.48057174682617
            ],
            [
              118.05360412597656,
              38.28691864013672
            ],
            [
              118.06742095947266,
              38.157840728759766
            ],
            [
              118.58300018310547,
              38.09331130981445
            ],
            [
              118.64759826660156,
              38.22237777709961
            ],
            [
              118.80416870117188,
              38.22237777709961
            ],
            [
              118.77176666259766,
              38.157840728759766
            ],
            [
              119.13066101074219,
              38.09331130981445
            ],
            [
              119.20889282226562,
              38.09331130981445
            ],
            [
              119.17657470703125,
              38.028785705566406
            ],
            [
              119.4571304321289,
              37.96426773071289
            ],
            [
              119.3928451538086,
              37.835243225097656
            ],
            [
              119.23655700683594,
              37.835243225097656
            ],
            [
              118.98403930664062,
              37.3193473815918
            ],
            [
              119.13996124267578,
              37.3193473815918
            ],
            [
              119.15568542480469,
              37.1904182434082
            ],
            [
              119.70111083984375,
              37.1904182434082
            ],
            [
              119.82661437988281,
              37.44829177856445
            ],
            [
              120.20220184326172,
              37.5772590637207
            ],
            [
              120.18807220458984,
              37.706241607666016
            ],
            [
              120.75377655029297,
              37.89975357055664
            ],
            [
              121.11202239990234,
              37.835243225097656
            ],
            [
              121.17103576660156,
              37.641746520996094
            ],
            [
              121.48333740234375,
              37.641746520996094
            ],
            [
              121.49687957763672,
              37.51277160644531
            ],
            [
              122.15351867675781,
              37.5772590637207
            ],
            [
              122.1211166381836,
              37.51277160644531
            ],
            [
              122.71288299560547,
              37.44829177856445
            ],
            [
              122.47421264648438,
              37.12596130371094
            ],
            [
              122.56636810302734,
              36.9970588684082
            ],
            [
              122.39389038085938,
              36.80373764038086
            ],
            [
              121.91207885742188,
              36.932613372802734
            ],
            [
              121.21208190917969,
              36.61045455932617
            ],
            [
              120.97892761230469,
              36.61045455932617
            ],
            [
              120.96481323242188,
              36.417205810546875
            ],
            [
              120.80950927734375,
              36.417205810546875
            ],
            [
              120.73184967041016,
              36.417205810546875
            ],
            [
              120.70149230957031,
              36.3527946472168
            ],
            [
              120.65852355957031,
              36.09519577026367
            ],
            [
              120.31848907470703,
              36.03080368041992
            ],
            [
              119.98648071289062,
              35.644527435302734
            ],
            [
              119.61874389648438,
              35.51579284667969
            ],
            [
              119.25574493408203,
              34.87228775024414
            ],
            [
              119.22760772705078,
              34.80794906616211
            ],
            [
              119.30474853515625,
              34.80794906616211
            ],
            [
              119.71125030517578,
              34.679283142089844
            ],
            [
              119.73230743408203,
              34.55062484741211
            ],
            [
              119.98465728759766,
              34.42197799682617
            ],
            [
              120.3418197631836,
              34.3576545715332
            ],
            [
              120.31398010253906,
              34.2933349609375
            ],
            [
              120.48936462402344,
              34.164703369140625
            ],
            [
              120.55045318603516,
              33.5859489440918
            ],
            [
              120.92630004882812,
              33.20018768310547
            ],
            [
              120.91920471191406,
              32.62162780761719
            ],
            [
              121.40264892578125,
              32.493072509765625
            ],
            [
              121.50330352783203,
              32.171695709228516
            ],
            [
              121.78321075439453,
              32.107421875
            ],
            [
              121.98702239990234,
              31.8503360748291
            ],
            [
              121.83556365966797,
              31.65752601623535
            ],
            [
              121.68311309814453,
              31.65752601623535
            ],
            [
              121.58055877685547,
              31.78606605529785
            ],
            [
              120.99542236328125,
              31.8503360748291
            ],
            [
              120.91914367675781,
              31.8503360748291
            ],
            [
              120.89421844482422,
              31.78606605529785
            ],
            [
              120.97047424316406,
              31.78606605529785
            ],
            [
              121.04673767089844,
              31.78606605529785
            ],
            [
              121.63350677490234,
              31.528987884521484
            ],
            [
              121.58425903320312,
              31.40045166015625
            ],
            [
              121.73657989501953,
              31.40045166015625
            ],
            [
              121.99526977539062,
              31.079113006591797
            ],
            [
              121.89926147460938,
              30.822044372558594
            ],
            [
              121.51921844482422,
              30.822044372558594
            ],
            [
              121.19719696044922,
              30.564971923828125
            ],
            [
              121.04530334472656,
              30.564971923828125
            ],
            [
              120.67976379394531,
              30.179353713989258
            ],
            [
              120.80880737304688,
              30.115081787109375
            ],
            [
              121.10469055175781,
              30.307893753051758
            ],
            [
              121.48409271240234,
              30.307893753051758
            ],
            [
              121.6202392578125,
              30.050809860229492
            ],
            [
              122.02978515625,
              29.922264099121094
            ],
            [
              121.82032775878906,
              29.536611557006836
            ],
            [
              121.41998291015625,
              29.472333908081055
            ],
            [
              121.3124008178711,
              29.600887298583984
            ],
            [
              120.242431640625,
              29.79371452331543
            ],
            [
              119.77836608886719,
              29.986536026000977
            ],
            [
              119.22569274902344,
              29.922264099121094
            ],
            [
              118.35970306396484,
              29.600887298583984
            ],
            [
              117.98114776611328,
              29.600887298583984
            ],
            [
              117.95987701416016,
              29.536611557006836
            ],
            [
              117.88418579101562,
              29.536611557006836
            ],
            [
              117.90544128417969,
              29.600887298583984
            ],
            [
              117.52689361572266,
              29.600887298583984
            ],
            [
              117.19082641601562,
              29.729440689086914
            ],
            [
              116.73638153076172,
              29.729440689086914
            ],
            [
              116.27002716064453,
              29.922264099121094
            ],
            [
              116.09661102294922,
              30.307893753051758
            ],
            [
              116.1185531616211,
              30.372163772583008
            ],
            [
              116.04265594482422,
              30.372163772583008
            ]
          ]
        ]
      }
    }
  ]
}