{
  "type": "FeatureCollection",
  "name": "territory-332",
  "features": [
    {
      "type": "Feature",
      "properties": {
        "Name": "Danelaw",
        "FromYear": 880,
        "ToYear": 885,
        "Area": 55257.39104346308,
        "Type": "POLITY",
        "Wikipedia": "Danelaw",
        "Wikidata": "Q339271",
        "SeshatID": "gb_danelaw",
        "Components": "",
        "MemberOf": ""
      },
      "geometry": {
        "type": "Polygon",
        "coordinates": [
          [
            [
              -0.093252964317799,
              53.93522644042969
            ],
            [
              0.117866292595863,
              53.462066650390625
            ],
            [
              0.29531991481781,
              53.39456558227539
            ],
            [
              0.316494405269623,
              53.124786376953125
            ],
            [
              0.06977716833353,
              52.99003219604492
            ],
            [
              0.166152358055115,
              52.85536575317383
            ],
            [
              0.337453275918961,
              52.85536575317383
            ],
            [
              0.493327647447586,
              53.057395935058594
            ],
            [
              1.093834638595581,
              53.057395935058594
            ],
            [
              1.531973838806152,
              52.92268753051758
            ],
            [
              1.716817617416382,
              52.720787048339844
            ],
            [
              1.739019155502319,
              52.38472366333008
            ],
            [
              1.653681755065918,
              52.38472366333008
            ],
            [
              1.586262822151184,
              52.11625671386719
            ],
            [
              1.425007224082947,
              51.98215103149414
            ],
            [
              1.169783234596252,
              51.98215103149414
            ],
            [
              1.183690190315247,
              51.78114318847656
            ],
            [
              0.843909561634064,
              51.78114318847656
            ],
            [
              0.862975299358368,
              51.51342010498047
            ],
            [
              0.523877322673798,
              51.51342010498047
            ],
            [
              0.528783321380615,
              51.44654083251953
            ],
            [
              0.0203901771456,
              51.44654083251953
            ],
            [
              0.0203901771456,
              51.44654083251953
            ],
            [
              -0.074759759008884,
              51.580322265625
            ],
            [
              -0.578191220760345,
              51.51342010498047
            ],
            [
              -0.764449417591095,
              51.71418380737305
            ],
            [
              -1.104058504104614,
              51.71418380737305
            ],
            [
              -1.115614771842957,
              51.84812545776367
            ],
            [
              -1.291478395462036,
              51.91512680053711
            ],
            [
              -1.309234142303467,
              52.11625671386719
            ],
            [
              -1.479557394981384,
              52.11625671386719
            ],
            [
              -1.455051898956299,
              52.78806686401367
            ],
            [
              -1.632507085800171,
              52.85536575317383
            ],
            [
              -1.571818709373474,
              53.124786376953125
            ],
            [
              -1.947646021842957,
              53.462066650390625
            ],
            [
              -1.894279360771179,
              53.799922943115234
            ],
            [
              -1.993870735168457,
              53.93522644042969
            ],
            [
              -2.648046970367432,
              54.4095458984375
            ],
            [
              -2.676707983016968,
              54.681121826171875
            ],
            [
              -2.502863883972168,
              54.681121826171875
            ],
            [
              -2.495768070220947,
              54.613189697265625
            ],
            [
              -1.887656569480896,
              54.613189697265625
            ],
            [
              -1.894410014152527,
              54.681121826171875
            ],
            [
              -1.894410014152527,
              54.681121826171875
            ],
            [
              -1.546722173690796,
              54.681121826171875
            ],
            [
              -1.459800124168396,
              54.681121826171875
            ],
            [
              -0.671433329582214,
              54.613189697265625
            ],
            [
              -0.202435865998268,
              54.20612335205078
            ],
            [
              -0.17964468896389,
              53.93522644042969
            ],
            [
              -0.093252964317799,
              53.93522644042969
            ]
          ]
        ]
      }
    }
  ]
}