{
  "type": "FeatureCollection",
  "name": "territory-335",
  "features": [
    {
      "type": "Feature",
      "properties": {
        "Name": "Bagratid Armenia",
        "FromYear": 886,
        "ToYear": 891,
        "Area": 99465.61756002367,
        "Type": "POLITY",
        "Wikipedia": "Bagratid Armenia",
        "Wikidata": "Q2622868",
        "SeshatID": "",
        "Components": "",
        "MemberOf": ""
      },
      "geometry": {
        "type": "Polygon",
        "coordinates": [
          [
            [
              42.5683708190918,
              39.8376350402832
            ],
            [
              41.631683349609375,
              39.90232849121094
            ],
            [
              41.75151443481445,
              40.16116714477539
            ],
            [
              42.16761016845703,
              40.29063034057617
            ],
            [
              42.61675262451172,
              40.614410400390625
            ],
            [
              43.10306167602539,
              40.6791877746582
            ],
            [
              43.14754867553711,
              40.93837356567383
            ],
            [
              43.39689636230469,
              41.00318908691406
            ],
            [
              43.47627258300781,
              41.00318908691406
            ],
            [
              43.48763656616211,
              41.06801223754883
            ],
            [
              43.56704330444336,
              41.06801223754883
            ],
            [
              43.57847213745117,
              41.132843017578125
            ],
            [
              45.11168670654297,
              41.26253128051758
            ],
            [
              45.30192947387695,
              41.00318908691406
            ],
            [
              45.5953483581543,
              40.873565673828125
            ],
            [
              45.456661224365234,
              40.54964065551758
            ],
            [
              45.81708526611328,
              40.355369567871094
            ],
            [
              46.44994354248047,
              40.355369567871094
            ],
            [
              46.33516311645508,
              40.16116714477539
            ],
            [
              46.60393142700195,
              39.90232849121094
            ],
            [
              46.63613510131836,
              39.64360046386719
            ],
            [
              47.085670471191406,
              39.51427459716797
            ],
            [
              47.118080139160156,
              39.25570297241211
            ],
            [
              46.668357849121094,
              38.93262481689453
            ],
            [
              46.264591217041016,
              38.8680305480957
            ],
            [
              46.21919631958008,
              39.06184005737305
            ],
            [
              45.949161529541016,
              39.320335388183594
            ],
            [
              45.79176712036133,
              39.320335388183594
            ],
            [
              45.32982635498047,
              39.8376350402832
            ],
            [
              44.66431427001953,
              40.0964469909668
            ],
            [
              44.5518913269043,
              39.90232849121094
            ],
            [
              44.834251403808594,
              39.70827102661133
            ],
            [
              44.869144439697266,
              39.449623107910156
            ],
            [
              45.365482330322266,
              39.1264533996582
            ],
            [
              45.343814849853516,
              38.997230529785156
            ],
            [
              45.108097076416016,
              38.997230529785156
            ],
            [
              44.89808654785156,
              38.67427444458008
            ],
            [
              44.584285736083984,
              38.67427444458008
            ],
            [
              44.485198974609375,
              38.54513168334961
            ],
            [
              44.45452117919922,
              38.351463317871094
            ],
            [
              44.982242584228516,
              38.22237777709961
            ],
            [
              44.961788177490234,
              38.09331130981445
            ],
            [
              44.62871551513672,
              37.96426773071289
            ],
            [
              44.354591369628906,
              37.706241607666016
            ],
            [
              43.78864669799805,
              37.5772590637207
            ],
            [
              42.6959114074707,
              37.5772590637207
            ],
            [
              42.899024963378906,
              37.89975357055664
            ],
            [
              43.064903259277344,
              37.96426773071289
            ],
            [
              43.09374237060547,
              38.157840728759766
            ],
            [
              42.62417984008789,
              38.157840728759766
            ],
            [
              42.64329147338867,
              38.28691864013672
            ],
            [
              42.48667907714844,
              38.28691864013672
            ],
            [
              42.073856353759766,
              38.67427444458008
            ],
            [
              42.23051834106445,
              39.19107437133789
            ],
            [
              42.46645736694336,
              39.19107437133789
            ],
            [
              42.57534408569336,
              39.38497543334961
            ],
            [
              42.92111587524414,
              39.57893371582031
            ],
            [
              42.863059997558594,
              39.70827102661133
            ],
            [
              42.55799865722656,
              39.77294921875
            ],
            [
              42.5683708190918,
              39.8376350402832
            ]
          ]
        ]
      }
    }
  ]
}