{
  "type": "FeatureCollection",
  "name": "territory-34",
  "features": [
    {
      "type": "Feature",
      "properties": {
        "Name": "Qi",
        "FromYear": -284,
        "ToYear": -248,
        "Area": 129840.54491781109,
        "Type": "POLITY",
        "Wikipedia": "Qi (state)",
        "Wikidata": "Q1143524",
        "SeshatID": "cn_qi_warring_states",
        "Components": "",
        "MemberOf": "(Warring States China)"
      },
      "geometry": {
        "type": "Polygon",
        "coordinates": [
          [
            [
              119.13066101074219,
              38.09331130981445
            ],
            [
              119.20889282226562,
              38.09331130981445
            ],
            [
              119.17657470703125,
              38.028785705566406
            ],
            [
              119.4571304321289,
              37.96426773071289
            ],
            [
              119.3928451538086,
              37.835243225097656
            ],
            [
              119.23655700683594,
              37.835243225097656
            ],
            [
              118.98403930664062,
              37.3193473815918
            ],
            [
              119.13996124267578,
              37.3193473815918
            ],
            [
              119.15568542480469,
              37.1904182434082
            ],
            [
              119.70111083984375,
              37.1904182434082
            ],
            [
              119.82661437988281,
              37.44829177856445
            ],
            [
              120.20220184326172,
              37.5772590637207
            ],
            [
              120.18807220458984,
              37.706241607666016
            ],
            [
              120.75377655029297,
              37.89975357055664
            ],
            [
              121.11202239990234,
              37.835243225097656
            ],
            [
              121.17103576660156,
              37.641746520996094
            ],
            [
              121.48333740234375,
              37.641746520996094
            ],
            [
              121.49687957763672,
              37.51277160644531
            ],
            [
              122.15351867675781,
              37.5772590637207
            ],
            [
              122.1211166381836,
              37.51277160644531
            ],
            [
              122.71288299560547,
              37.44829177856445
            ],
            [
              122.44239044189453,
              37.06150817871094
            ],
            [
              122.56636810302734,
              36.9970588684082
            ],
            [
              122.50314331054688,
              36.8681755065918
            ],
            [
              122.16053771972656,
              36.80373764038086
            ],
            [
              122.14556121826172,
              36.932613372802734
            ],
            [
              121.91207885742188,
              36.932613372802734
            ],
            [
              121.21208190917969,
              36.61045455932617
            ],
            [
              120.97892761230469,
              36.61045455932617
            ],
            [
              120.96481323242188,
              36.417205810546875
            ],
            [
              120.73184967041016,
              36.417205810546875
            ],
            [
              120.65852355957031,
              36.09519577026367
            ],
            [
              120.31848907470703,
              36.03080368041992
            ],
            [
              120.07456970214844,
              35.837650299072266
            ],
            [
              120.04512786865234,
              35.77327346801758
            ],
            [
              118.26394653320312,
              35.77327346801758
            ],
            [
              117.50965118408203,
              35.644527435302734
            ],
            [
              117.11494445800781,
              35.45143127441406
            ],
            [
              116.92723846435547,
              35.902034759521484
            ],
            [
              116.42603302001953,
              35.644527435302734
            ],
            [
              116.39779663085938,
              35.58015823364258
            ],
            [
              116.24303436279297,
              35.58015823364258
            ],
            [
              116.18687438964844,
              35.45143127441406
            ],
            [
              116.41234588623047,
              35.258358001708984
            ],
            [
              116.32915496826172,
              35.065311431884766
            ],
            [
              115.80644226074219,
              34.743614196777344
            ],
            [
              114.47205352783203,
              34.87228775024414
            ],
            [
              114.4990234375,
              34.93662643432617
            ],
            [
              114.99391174316406,
              35.194007873535156
            ],
            [
              115.07646179199219,
              35.38706970214844
            ],
            [
              114.82849884033203,
              35.708900451660156
            ],
            [
              115.617919921875,
              36.09519577026367
            ],
            [
              115.60665893554688,
              36.417205810546875
            ],
            [
              116.12299346923828,
              36.8681755065918
            ],
            [
              116.61474609375,
              37.254878997802734
            ],
            [
              117.22977447509766,
              38.67427444458008
            ],
            [
              117.30821990966797,
              38.67427444458008
            ],
            [
              117.62202453613281,
              38.67427444458008
            ],
            [
              117.60245513916016,
              38.48057174682617
            ],
            [
              118.05360412597656,
              38.28691864013672
            ],
            [
              118.06742095947266,
              38.157840728759766
            ],
            [
              118.58300018310547,
              38.09331130981445
            ],
            [
              118.64759826660156,
              38.22237777709961
            ],
            [
              118.80416870117188,
              38.22237777709961
            ],
            [
              118.77176666259766,
              38.157840728759766
            ],
            [
              119.13066101074219,
              38.09331130981445
            ]
          ]
        ]
      }
    }
  ]
}