{
  "type": "FeatureCollection",
  "name": "territory-340",
  "features": [
    {
      "type": "Feature",
      "properties": {
        "Name": "Sajid Dynasty",
        "FromYear": 911,
        "ToYear": 925,
        "Area": 58141.307077685786,
        "Type": "POLITY",
        "Wikipedia": "Sajid dynasty",
        "Wikidata": "Q3432153",
        "SeshatID": "",
        "Components": "",
        "MemberOf": ""
      },
      "geometry": {
        "type": "MultiPolygon",
        "coordinates": [
          [
            [
              [
                48.327980041503906,
                39.8376350402832
              ],
              [
                48.722476959228516,
                39.8376350402832
              ],
              [
                48.77663040161133,
                39.70827102661133
              ],
              [
                49.000797271728516,
                39.64360046386719
              ],
              [
                49.030479431152344,
                39.38497543334961
              ],
              [
                49.17570495605469,
                39.320335388183594
              ],
              [
                49.16353225708008,
                39.25570297241211
              ],
              [
                48.91546630859375,
                39.19107437133789
              ],
              [
                48.801002502441406,
                38.997230529785156
              ],
              [
                48.77423858642578,
                38.416015625
              ],
              [
                48.76274490356445,
                38.351463317871094
              ],
              [
                47.82276916503906,
                38.351463317871094
              ],
              [
                47.25161361694336,
                38.67427444458008
              ],
              [
                46.12089157104492,
                38.48057174682617
              ],
              [
                45.85390853881836,
                38.28691864013672
              ],
              [
                45.634883880615234,
                37.89975357055664
              ],
              [
                45.22376251220703,
                37.7707405090332
              ],
              [
                45.17365264892578,
                37.44829177856445
              ],
              [
                45.25165939331055,
                37.44829177856445
              ],
              [
                45.290000915527344,
                37.1904182434082
              ],
              [
                45.44583511352539,
                37.1904182434082
              ],
              [
                45.2508544921875,
                36.932613372802734
              ],
              [
                44.80312728881836,
                37.06150817871094
              ],
              [
                44.773807525634766,
                37.38381576538086
              ],
              [
                44.627601623535156,
                37.44829177856445
              ],
              [
                44.52067184448242,
                37.7707405090332
              ],
              [
                44.5405387878418,
                37.89975357055664
              ],
              [
                44.961788177490234,
                38.09331130981445
              ],
              [
                44.982242584228516,
                38.22237777709961
              ],
              [
                44.45452117919922,
                38.351463317871094
              ],
              [
                44.485198974609375,
                38.54513168334961
              ],
              [
                44.584285736083984,
                38.67427444458008
              ],
              [
                44.89808654785156,
                38.67427444458008
              ],
              [
                45.108097076416016,
                38.997230529785156
              ],
              [
                45.343814849853516,
                38.997230529785156
              ],
              [
                45.365482330322266,
                39.1264533996582
              ],
              [
                44.869144439697266,
                39.449623107910156
              ],
              [
                44.834251403808594,
                39.70827102661133
              ],
              [
                44.75540542602539,
                39.70827102661133
              ],
              [
                44.5518913269043,
                39.90232849121094
              ],
              [
                44.66431427001953,
                40.0964469909668
              ],
              [
                45.32982635498047,
                39.8376350402832
              ],
              [
                45.79176712036133,
                39.320335388183594
              ],
              [
                45.949161529541016,
                39.320335388183594
              ],
              [
                46.21919631958008,
                39.06184005737305
              ],
              [
                46.264591217041016,
                38.8680305480957
              ],
              [
                46.668357849121094,
                38.93262481689453
              ],
              [
                46.86095428466797,
                39.57893371582031
              ],
              [
                46.63613510131836,
                39.64360046386719
              ],
              [
                46.60393142700195,
                39.90232849121094
              ],
              [
                46.33516311645508,
                40.16116714477539
              ],
              [
                46.44994354248047,
                40.355369567871094
              ],
              [
                46.86980438232422,
                40.4848747253418
              ],
              [
                46.9367561340332,
                40.42012023925781
              ],
              [
                46.79737854003906,
                40.0964469909668
              ],
              [
                46.99855422973633,
                39.90232849121094
              ],
              [
                47.31425094604492,
                39.90232849121094
              ],
              [
                47.412532806396484,
                39.57893371582031
              ],
              [
                47.89728927612305,
                39.64360046386719
              ],
              [
                48.091285705566406,
                39.8376350402832
              ],
              [
                48.24908447265625,
                39.8376350402832
              ],
              [
                48.327980041503906,
                39.8376350402832
              ]
            ]
          ],
          [
            [
              [
                44.78639221191406,
                41.65177917480469
              ],
              [
                44.731021881103516,
                41.781593322753906
              ],
              [
                44.810733795166016,
                41.781593322753906
              ],
              [
                44.89044189453125,
                41.781593322753906
              ],
              [
                44.78639221191406,
                41.65177917480469
              ]
            ]
          ],
          [
            [
              [
                48.47742462158203,
                41.781593322753906
              ],
              [
                48.2778205871582,
                41.586883544921875
              ],
              [
                48.19819259643555,
                41.586883544921875
              ],
              [
                48.118568420410156,
                41.586883544921875
              ],
              [
                48.1719970703125,
                41.84651184082031
              ],
              [
                48.09225845336914,
                41.84651184082031
              ],
              [
                48.19894790649414,
                41.97637939453125
              ],
              [
                48.278743743896484,
                41.97637939453125
              ],
              [
                48.265220642089844,
                41.911441802978516
              ],
              [
                48.34498977661133,
                41.911441802978516
              ],
              [
                48.47742462158203,
                41.781593322753906
              ]
            ]
          ]
        ]
      }
    }
  ]
}