{
  "type": "FeatureCollection",
  "name": "territory-341",
  "features": [
    {
      "type": "Feature",
      "properties": {
        "Name": "Qarmatians",
        "FromYear": 899,
        "ToYear": 969,
        "Area": 64922.815019710695,
        "Type": "POLITY",
        "Wikipedia": "Qarmatians",
        "Wikidata": "Q138803",
        "SeshatID": "",
        "Components": "",
        "MemberOf": ""
      },
      "geometry": {
        "type": "MultiPolygon",
        "coordinates": [
          [
            [
              [
                51.20655059814453,
                25.422143936157227
              ],
              [
                51.13168716430664,
                25.422143936157227
              ],
              [
                51.13753128051758,
                25.48643684387207
              ],
              [
                51.212406158447266,
                25.48643684387207
              ],
              [
                51.20655059814453,
                25.422143936157227
              ]
            ]
          ],
          [
            [
              [
                50.64872360229492,
                25.8721923828125
              ],
              [
                50.42986297607422,
                25.936485290527344
              ],
              [
                50.460208892822266,
                26.257951736450195
              ],
              [
                50.68524169921875,
                26.257951736450195
              ],
              [
                50.672935485839844,
                26.129364013671875
              ],
              [
                50.666831970214844,
                26.06507110595703
              ],
              [
                50.64872360229492,
                25.8721923828125
              ]
            ]
          ],
          [
            [
              [
                48.87215805053711,
                27.6723690032959
              ],
              [
                49.241947174072266,
                27.608078002929688
              ],
              [
                49.35963439941406,
                27.2866268157959
              ],
              [
                50.13496398925781,
                26.772293090820312
              ],
              [
                50.11603546142578,
                26.57941436767578
              ],
              [
                50.2536735534668,
                26.450830459594727
              ],
              [
                50.22300720214844,
                26.129364013671875
              ],
              [
                50.067020416259766,
                26.06507110595703
              ],
              [
                50.21097183227539,
                26.000778198242188
              ],
              [
                50.325462341308594,
                25.615020751953125
              ],
              [
                50.60764694213867,
                25.422143936157227
              ],
              [
                50.654117584228516,
                25.100683212280273
              ],
              [
                50.72892761230469,
                25.100683212280273
              ],
              [
                50.768985748291016,
                25.55072784423828
              ],
              [
                50.92463302612305,
                25.615020751953125
              ],
              [
                50.95453643798828,
                25.936485290527344
              ],
              [
                51.12286376953125,
                26.129364013671875
              ],
              [
                51.42281723022461,
                26.129364013671875
              ],
              [
                51.697906494140625,
                25.8721923828125
              ],
              [
                51.574989318847656,
                25.357851028442383
              ],
              [
                51.71883010864258,
                25.29355812072754
              ],
              [
                51.69002151489258,
                24.97209930419922
              ],
              [
                51.52363204956055,
                24.779226303100586
              ],
              [
                51.41082000732422,
                24.329193115234375
              ],
              [
                51.85354995727539,
                24.264904022216797
              ],
              [
                51.90695571899414,
                24.00774574279785
              ],
              [
                52.28013229370117,
                24.00774574279785
              ],
              [
                52.60029602050781,
                24.264904022216797
              ],
              [
                53.11201095581055,
                24.136323928833008
              ],
              [
                54.082523345947266,
                24.136323928833008
              ],
              [
                54.099464416503906,
                24.329193115234375
              ],
              [
                54.31781005859375,
                24.264904022216797
              ],
              [
                54.55914306640625,
                24.457773208618164
              ],
              [
                54.74416732788086,
                24.843517303466797
              ],
              [
                55.14265441894531,
                25.100683212280273
              ],
              [
                55.41188049316406,
                25.55072784423828
              ],
              [
                55.64311981201172,
                25.615020751953125
              ],
              [
                55.81295394897461,
                25.807899475097656
              ],
              [
                56.059627532958984,
                25.29355812072754
              ],
              [
                56.027706146240234,
                24.97209930419922
              ],
              [
                55.84116744995117,
                24.586353302001953
              ],
              [
                55.62303161621094,
                24.650644302368164
              ],
              [
                54.812095642089844,
                23.943456649780273
              ],
              [
                54.50249481201172,
                23.814878463745117
              ],
              [
                51.88096237182617,
                23.68630027770996
              ],
              [
                51.82186508178711,
                23.879167556762695
              ],
              [
                51.1657829284668,
                24.07203483581543
              ],
              [
                51.10155487060547,
                24.200613021850586
              ],
              [
                51.20280075073242,
                24.522062301635742
              ],
              [
                51.13348388671875,
                24.586353302001953
              ],
              [
                51.293853759765625,
                24.714935302734375
              ],
              [
                51.327396392822266,
                25.100683212280273
              ],
              [
                51.40220642089844,
                25.100683212280273
              ],
              [
                51.26978302001953,
                25.29355812072754
              ],
              [
                51.350433349609375,
                25.357851028442383
              ],
              [
                51.32320022583008,
                25.8721923828125
              ],
              [
                51.173316955566406,
                25.8721923828125
              ],
              [
                51.23017883300781,
                25.67931365966797
              ],
              [
                50.98196029663086,
                25.422143936157227
              ],
              [
                50.96469497680664,
                25.229267120361328
              ],
              [
                51.12009811401367,
                25.29355812072754
              ],
              [
                50.920127868652344,
                24.714935302734375
              ],
              [
                50.615760803222656,
                24.650644302368164
              ],
              [
                50.34384536743164,
                24.97209930419922
              ],
              [
                50.031654357910156,
                25.67931365966797
              ],
              [
                49.674476623535156,
                25.8721923828125
              ],
              [
                49.87843704223633,
                26.450830459594727
              ],
              [
                49.25245666503906,
                26.96516990661621
              ],
              [
                49.26514434814453,
                27.093751907348633
              ],
              [
                49.058799743652344,
                27.2866268157959
              ],
              [
                48.55152893066406,
                27.4794979095459
              ],
              [
                48.52878189086914,
                27.993812561035156
              ],
              [
                48.466854095458984,
                28.12238883972168
              ],
              [
                48.247432708740234,
                28.186676025390625
              ],
              [
                48.2060546875,
                28.508106231689453
              ],
              [
                48.130592346191406,
                28.508106231689453
              ],
              [
                48.0142822265625,
                28.829526901245117
              ],
              [
                47.534664154052734,
                29.279497146606445
              ],
              [
                47.646427154541016,
                29.600887298583984
              ],
              [
                47.8662223815918,
                29.536611557006836
              ],
              [
                47.85892105102539,
                29.472333908081055
              ],
              [
                48.21538543701172,
                29.279497146606445
              ],
              [
                48.19374465942383,
                29.08665657043457
              ],
              [
                48.460411071777344,
                28.765243530273438
              ],
              [
                48.43938446044922,
                28.572391510009766
              ],
              [
                48.583370208740234,
                28.508106231689453
              ],
              [
                48.562652587890625,
                28.315250396728516
              ],
              [
                48.77518844604492,
                28.186676025390625
              ],
              [
                48.76158905029297,
                28.058101654052734
              ],
              [
                48.83695602416992,
                28.058101654052734
              ],
              [
                48.974143981933594,
                27.92952537536621
              ],
              [
                48.87215805053711,
                27.6723690032959
              ]
            ]
          ]
        ]
      }
    }
  ]
}