{
  "type": "FeatureCollection",
  "name": "territory-344",
  "features": [
    {
      "type": "Feature",
      "properties": {
        "Name": "Chandra Dynasty",
        "FromYear": 900,
        "ToYear": 946,
        "Area": 77249.53437557805,
        "Type": "POLITY",
        "Wikipedia": "Chandra dynasty",
        "Wikidata": "Q5032034",
        "SeshatID": "bd_chandra_dyn",
        "Components": "",
        "MemberOf": ""
      },
      "geometry": {
        "type": "Polygon",
        "coordinates": [
          [
            [
              91.67214842229549,
              22.50429610632993
            ],
            [
              91.45120577959972,
              22.75984142597763
            ],
            [
              91.4446661785479,
              22.786272048950195
            ],
            [
              91.37104638852381,
              23.08381572142033
            ],
            [
              91.59561243287135,
              23.17563849227671
            ],
            [
              91.66213948764285,
              23.39860858828119
            ],
            [
              91.32962382744952,
              23.59349184657011
            ],
            [
              91.3962321518843,
              23.90161319539076
            ],
            [
              91.67883891359871,
              24.11406830934415
            ],
            [
              92.08105332240538,
              24.1037007291356
            ],
            [
              92.24112426858423,
              24.03143987242169
            ],
            [
              92.53158299258888,
              23.83815207305382
            ],
            [
              92.72378068570075,
              23.53541682622699
            ],
            [
              93.17135814637695,
              22.30953550212659
            ],
            [
              93.33967599827281,
              21.24432538606867
            ],
            [
              93.66605892512861,
              20.27141259049755
            ],
            [
              94.09881575698515,
              19.95288641911712
            ],
            [
              94.8430635977361,
              19.12863479243623
            ],
            [
              94.73350699291912,
              18.52338137737204
            ],
            [
              94.88320209718624,
              18.10306222614832
            ],
            [
              94.76868057853935,
              18.01619931420207
            ],
            [
              94.45173336433923,
              17.93658632559066
            ],
            [
              94.42155095647966,
              18.23741584519504
            ],
            [
              94.31703466132087,
              18.28173683913868
            ],
            [
              94.38606116222265,
              18.35584635335481
            ],
            [
              94.15221827627956,
              18.79366148835635
            ],
            [
              94.01723820928632,
              18.8477448347883
            ],
            [
              94.03765934344031,
              19.1926339897402
            ],
            [
              93.95279604870655,
              19.11045223530557
            ],
            [
              94.00713715923013,
              18.72888947062426
            ],
            [
              93.4762417946156,
              19.32768306883417
            ],
            [
              93.60131831370293,
              19.42258526150191
            ],
            [
              93.4810415771145,
              19.52435102499909
            ],
            [
              93.59141447967122,
              19.48903393746926
            ],
            [
              93.60382839438279,
              19.64450637773837
            ],
            [
              93.41841040434788,
              19.73220488311836
            ],
            [
              93.3426538047509,
              20.01783177178696
            ],
            [
              93.18378904944373,
              19.99699719916326
            ],
            [
              93.2891148176408,
              19.82037062567966
            ],
            [
              93.04761237166639,
              20.00275603593039
            ],
            [
              93.20404454233571,
              19.72869573331868
            ],
            [
              93.02476662998444,
              19.81613850435944
            ],
            [
              92.57015283795394,
              20.56657532372851
            ],
            [
              92.35288980766514,
              20.72163584604889
            ],
            [
              91.84059320648012,
              21.53803742915699
            ],
            [
              91.84758358839228,
              22.11207149494009
            ],
            [
              91.67214842229549,
              22.50429610632993
            ]
          ]
        ]
      }
    }
  ]
}