{
  "type": "FeatureCollection",
  "name": "territory-346",
  "features": [
    {
      "type": "Feature",
      "properties": {
        "Name": "Yan Kingdom",
        "FromYear": 911,
        "ToYear": 921,
        "Area": 63231.552511867885,
        "Type": "POLITY",
        "Wikipedia": "Yan (Five Dynasties period)",
        "Wikidata": "Q1291919",
        "SeshatID": "cn_five_dyn",
        "Components": "",
        "MemberOf": "(Five Dynasties and Ten Kingdoms)"
      },
      "geometry": {
        "type": "Polygon",
        "coordinates": [
          [
            [
              119.80270385742188,
              39.9670295715332
            ],
            [
              119.76698303222656,
              39.90232849121094
            ],
            [
              119.38044738769531,
              39.77294921875
            ],
            [
              119.21530151367188,
              39.320335388183594
            ],
            [
              118.98941802978516,
              39.19107437133789
            ],
            [
              118.44984436035156,
              39.06184005737305
            ],
            [
              118.0568618774414,
              39.06184005737305
            ],
            [
              118.04566192626953,
              39.19107437133789
            ],
            [
              117.77603912353516,
              39.1264533996582
            ],
            [
              117.57643127441406,
              38.738853454589844
            ],
            [
              117.66768646240234,
              38.60969924926758
            ],
            [
              117.635009765625,
              38.54513168334961
            ],
            [
              116.74591064453125,
              38.80344009399414
            ],
            [
              116.93310546875,
              39.320335388183594
            ],
            [
              116.85441589355469,
              39.320335388183594
            ],
            [
              116.9219970703125,
              39.449623107910156
            ],
            [
              116.83247375488281,
              39.57893371582031
            ],
            [
              116.47254180908203,
              39.64360046386719
            ],
            [
              116.16825866699219,
              39.51427459716797
            ],
            [
              116.07843017578125,
              39.64360046386719
            ],
            [
              115.92078399658203,
              39.64360046386719
            ],
            [
              115.94425201416016,
              39.8376350402832
            ],
            [
              115.82075500488281,
              39.90232849121094
            ],
            [
              115.88973999023438,
              40.031734466552734
            ],
            [
              115.81076049804688,
              40.031734466552734
            ],
            [
              116.17076873779297,
              40.54964065551758
            ],
            [
              115.9970932006836,
              40.80876541137695
            ],
            [
              115.71587371826172,
              40.873565673828125
            ],
            [
              115.751953125,
              40.93837356567383
            ],
            [
              115.43456268310547,
              40.93837356567383
            ],
            [
              114.88697052001953,
              40.80876541137695
            ],
            [
              114.87911987304688,
              40.93837356567383
            ],
            [
              115.40824890136719,
              41.45711898803711
            ],
            [
              116.63911437988281,
              41.521995544433594
            ],
            [
              116.60179138183594,
              41.45711898803711
            ],
            [
              117.59864044189453,
              41.39224624633789
            ],
            [
              117.60334014892578,
              41.26253128051758
            ],
            [
              117.76231384277344,
              41.26253128051758
            ],
            [
              117.84668731689453,
              41.132843017578125
            ],
            [
              117.82709503173828,
              40.6791877746582
            ],
            [
              117.91288757324219,
              40.54964065551758
            ],
            [
              118.0712661743164,
              40.54964065551758
            ],
            [
              118.07810974121094,
              40.42012023925781
            ],
            [
              118.638916015625,
              40.29063034057617
            ],
            [
              118.60298156738281,
              40.225894927978516
            ],
            [
              119.587890625,
              40.29063034057617
            ],
            [
              119.80270385742188,
              39.9670295715332
            ]
          ]
        ]
      }
    }
  ]
}