{
  "type": "FeatureCollection",
  "name": "territory-354",
  "features": [
    {
      "type": "Feature",
      "properties": {
        "Name": "Kingdom of Galicia",
        "FromYear": 1066,
        "ToYear": 1071,
        "Area": 90285.92860615731,
        "Type": "POLITY",
        "Wikipedia": "Kingdom of Galicia",
        "Wikidata": "Q303421",
        "SeshatID": "es_galicia_k",
        "Components": "",
        "MemberOf": ""
      },
      "geometry": {
        "type": "Polygon",
        "coordinates": [
          [
            [
              -6.827987194061279,
              39.90232849121094
            ],
            [
              -6.974339962005615,
              39.77294921875
            ],
            [
              -7.199382305145264,
              39.64360046386719
            ],
            [
              -8.53316593170166,
              39.57893371582031
            ],
            [
              -9.025042533874512,
              39.77294921875
            ],
            [
              -9.031448364257812,
              39.8376350402832
            ],
            [
              -8.978275299072266,
              40.0964469909668
            ],
            [
              -8.899272918701172,
              40.0964469909668
            ],
            [
              -8.925222396850586,
              40.355369567871094
            ],
            [
              -8.846114158630371,
              40.355369567871094
            ],
            [
              -8.872282981872559,
              40.614410400390625
            ],
            [
              -8.72695255279541,
              40.74397277832031
            ],
            [
              -8.956093788146973,
              42.17123794555664
            ],
            [
              -8.65042495727539,
              42.30118942260742
            ],
            [
              -8.9043550491333,
              42.43117141723633
            ],
            [
              -8.918540954589844,
              42.56119155883789
            ],
            [
              -9.078654289245605,
              42.56119155883789
            ],
            [
              -9.30460262298584,
              43.146724700927734
            ],
            [
              -8.851689338684082,
              43.407203674316406
            ],
            [
              -8.369025230407715,
              43.407203674316406
            ],
            [
              -8.39044189453125,
              43.6026611328125
            ],
            [
              -8.243616104125977,
              43.73301696777344
            ],
            [
              -7.276463031768799,
              43.73301696777344
            ],
            [
              -7.343485832214355,
              43.6026611328125
            ],
            [
              -7.175715446472168,
              43.53750228881836
            ],
            [
              -6.129154682159424,
              43.53750228881836
            ],
            [
              -6.048649787902832,
              43.53750228881836
            ],
            [
              -6.085464954376221,
              43.08163070678711
            ],
            [
              -6.165758609771729,
              43.08163070678711
            ],
            [
              -6.048641204833984,
              42.691246032714844
            ],
            [
              -6.128756999969482,
              42.691246032714844
            ],
            [
              -6.136275768280029,
              41.911441802978516
            ],
            [
              -6.277861595153809,
              41.71668243408203
            ],
            [
              -6.254164218902588,
              41.45711898803711
            ],
            [
              -6.927728176116943,
              41.00318908691406
            ],
            [
              -6.868430137634277,
              40.355369567871094
            ],
            [
              -6.947537422180176,
              40.355369567871094
            ],
            [
              -7.00321626663208,
              40.0964469909668
            ],
            [
              -6.839452266693115,
              40.031734466552734
            ],
            [
              -6.827987194061279,
              39.90232849121094
            ]
          ]
        ]
      }
    }
  ]
}