{
  "type": "FeatureCollection",
  "name": "territory-355",
  "features": [
    {
      "type": "Feature",
      "properties": {
        "Name": "Former Shu",
        "FromYear": 911,
        "ToYear": 921,
        "Area": 605136.9977428407,
        "Type": "POLITY",
        "Wikipedia": "Former Shu",
        "Wikidata": "Q571453",
        "SeshatID": "cn_five_dyn",
        "Components": "",
        "MemberOf": "(Five Dynasties and Ten Kingdoms)"
      },
      "geometry": {
        "type": "Polygon",
        "coordinates": [
          [
            [
              110.48149871826172,
              30.307893753051758
            ],
            [
              110.51606750488281,
              30.179353713989258
            ],
            [
              110.47509765625,
              30.050809860229492
            ],
            [
              110.03543853759766,
              29.857990264892578
            ],
            [
              109.80445861816406,
              29.600887298583984
            ],
            [
              109.38613891601562,
              28.700960159301758
            ],
            [
              108.30120849609375,
              28.058101654052734
            ],
            [
              108.26642608642578,
              27.92952537536621
            ],
            [
              107.80455017089844,
              27.608078002929688
            ],
            [
              107.3397445678711,
              26.96516990661621
            ],
            [
              107.26460266113281,
              26.96516990661621
            ],
            [
              106.77047729492188,
              27.093751907348633
            ],
            [
              106.60956573486328,
              27.35091781616211
            ],
            [
              106.45912170410156,
              27.35091781616211
            ],
            [
              106.22381591796875,
              27.608078002929688
            ],
            [
              106.20807647705078,
              28.12238883972168
            ],
            [
              106.1326904296875,
              28.12238883972168
            ],
            [
              106.24258422851562,
              28.25096321105957
            ],
            [
              106.14405822753906,
              28.44382095336914
            ],
            [
              105.52306365966797,
              28.379535675048828
            ],
            [
              105.51264190673828,
              28.058101654052734
            ],
            [
              105.12759399414062,
              27.736658096313477
            ],
            [
              104.61695861816406,
              27.800947189331055
            ],
            [
              104.43353271484375,
              27.6723690032959
            ],
            [
              104.25687408447266,
              27.865236282348633
            ],
            [
              104.63507843017578,
              28.44382095336914
            ],
            [
              103.99048614501953,
              28.572391510009766
            ],
            [
              103.86349487304688,
              28.379535675048828
            ],
            [
              103.99732208251953,
              28.315250396728516
            ],
            [
              103.96347045898438,
              28.186676025390625
            ],
            [
              103.63789367675781,
              27.800947189331055
            ],
            [
              103.4548110961914,
              27.6723690032959
            ],
            [
              103.32039642333984,
              27.736658096313477
            ],
            [
              103.28815460205078,
              27.608078002929688
            ],
            [
              103.28411865234375,
              27.2866268157959
            ],
            [
              103.35932922363281,
              27.2866268157959
            ],
            [
              103.4316635131836,
              26.643707275390625
            ],
            [
              103.50674438476562,
              26.643707275390625
            ],
            [
              103.46222686767578,
              26.450830459594727
            ],
            [
              103.19337463378906,
              26.257951736450195
            ],
            [
              102.90777587890625,
              26.32224464416504
            ],
            [
              102.55054473876953,
              26.06507110595703
            ],
            [
              102.2506332397461,
              26.06507110595703
            ],
            [
              102.20396423339844,
              26.19365882873535
            ],
            [
              102.05396270751953,
              26.19365882873535
            ],
            [
              102.1864242553711,
              26.450830459594727
            ],
            [
              102.08015441894531,
              26.643707275390625
            ],
            [
              101.58399963378906,
              26.772293090820312
            ],
            [
              101.6957778930664,
              27.865236282348633
            ],
            [
              101.36564636230469,
              28.636676788330078
            ],
            [
              101.19561004638672,
              29.40805435180664
            ],
            [
              101.0620346069336,
              29.472333908081055
            ],
            [
              101.05811309814453,
              29.729440689086914
            ],
            [
              100.98237609863281,
              29.729440689086914
            ],
            [
              101.0553207397461,
              29.986536026000977
            ],
            [
              100.95915222167969,
              30.179353713989258
            ],
            [
              101.01528930664062,
              30.372163772583008
            ],
            [
              100.93939971923828,
              30.372163772583008
            ],
            [
              100.99618530273438,
              30.564971923828125
            ],
            [
              100.92024230957031,
              30.564971923828125
            ],
            [
              101.05530548095703,
              31.014846801757812
            ],
            [
              100.97924041748047,
              31.014846801757812
            ],
            [
              101.68687438964844,
              32.75019073486328
            ],
            [
              101.76339721679688,
              32.75019073486328
            ],
            [
              102.55159759521484,
              33.26447677612305
            ],
            [
              103.20997619628906,
              33.393062591552734
            ],
            [
              103.4928207397461,
              33.971771240234375
            ],
            [
              103.35535430908203,
              34.22901916503906
            ],
            [
              103.4793472290039,
              34.3576545715332
            ],
            [
              103.66561889648438,
              35.065311431884766
            ],
            [
              104.35400390625,
              35.45143127441406
            ],
            [
              104.43134307861328,
              35.45143127441406
            ],
            [
              104.49051666259766,
              35.00096893310547
            ],
            [
              104.62045288085938,
              34.93662643432617
            ],
            [
              104.57172393798828,
              34.80794906616211
            ],
            [
              104.6774673461914,
              34.679283142089844
            ],
            [
              104.62920379638672,
              34.55062484741211
            ],
            [
              104.75924682617188,
              34.48630142211914
            ],
            [
              104.71131134033203,
              34.3576545715332
            ],
            [
              105.1904296875,
              33.77885055541992
            ],
            [
              105.64549255371094,
              33.971771240234375
            ],
            [
              105.81803131103516,
              34.22901916503906
            ],
            [
              105.88652038574219,
              34.614952087402344
            ],
            [
              105.6516342163086,
              34.80794906616211
            ],
            [
              105.70092010498047,
              34.93662643432617
            ],
            [
              106.10932922363281,
              35.194007873535156
            ],
            [
              106.36389923095703,
              35.644527435302734
            ],
            [
              106.622314453125,
              35.51579284667969
            ],
            [
              106.47537231445312,
              34.743614196777344
            ],
            [
              107.14454650878906,
              34.679283142089844
            ],
            [
              108.81715393066406,
              34.42197799682617
            ],
            [
              108.92123413085938,
              34.2933349609375
            ],
            [
              109.15216827392578,
              34.2933349609375
            ],
            [
              109.6680908203125,
              34.03607940673828
            ],
            [
              109.85208129882812,
              33.71455001831055
            ],
            [
              110.26374816894531,
              33.5859489440918
            ],
            [
              110.11387634277344,
              33.393062591552734
            ],
            [
              109.85958099365234,
              33.32876968383789
            ],
            [
              109.76367950439453,
              33.07160949707031
            ],
            [
              109.86934661865234,
              32.94303894042969
            ],
            [
              109.67528533935547,
              32.62162780761719
            ],
            [
              109.61325073242188,
              32.23596954345703
            ],
            [
              109.77403259277344,
              32.043148040771484
            ],
            [
              109.76026153564453,
              31.78606605529785
            ],
            [
              109.89041900634766,
              31.7217960357666
            ],
            [
              109.87796020507812,
              31.464719772338867
            ],
            [
              110.00830078125,
              31.40045166015625
            ],
            [
              109.99717712402344,
              31.143381118774414
            ],
            [
              110.12771606445312,
              31.079113006591797
            ],
            [
              110.11796569824219,
              30.822044372558594
            ],
            [
              110.33724975585938,
              30.564971923828125
            ],
            [
              110.3297348022461,
              30.307893753051758
            ],
            [
              110.48149871826172,
              30.307893753051758
            ]
          ]
        ]
      }
    }
  ]
}