{
  "type": "FeatureCollection",
  "name": "territory-362",
  "features": [
    {
      "type": "Feature",
      "properties": {
        "Name": "Qi Kingdom",
        "FromYear": 911,
        "ToYear": 921,
        "Area": 94436.27781696607,
        "Type": "POLITY",
        "Wikipedia": "Qi (Li Maozhen's state)",
        "Wikidata": "Q1319681",
        "SeshatID": "cn_five_dyn",
        "Components": "",
        "MemberOf": "(Five Dynasties and Ten Kingdoms)"
      },
      "geometry": {
        "type": "Polygon",
        "coordinates": [
          [
            [
              107.91340637207031,
              37.3193473815918
            ],
            [
              107.99137115478516,
              37.3193473815918
            ],
            [
              107.92594146728516,
              36.80373764038086
            ],
            [
              108.0269546508789,
              36.67487716674805
            ],
            [
              107.81208801269531,
              36.15959167480469
            ],
            [
              107.88965606689453,
              36.15959167480469
            ],
            [
              107.4492416381836,
              35.065311431884766
            ],
            [
              107.14454650878906,
              34.679283142089844
            ],
            [
              106.47537231445312,
              34.743614196777344
            ],
            [
              106.622314453125,
              35.51579284667969
            ],
            [
              106.36389923095703,
              35.644527435302734
            ],
            [
              106.10932922363281,
              35.194007873535156
            ],
            [
              105.70092010498047,
              34.93662643432617
            ],
            [
              105.6516342163086,
              34.80794906616211
            ],
            [
              105.88652038574219,
              34.614952087402344
            ],
            [
              105.81803131103516,
              34.22901916503906
            ],
            [
              105.64549255371094,
              33.971771240234375
            ],
            [
              105.1904296875,
              33.77885055541992
            ],
            [
              104.71131134033203,
              34.3576545715332
            ],
            [
              104.75924682617188,
              34.48630142211914
            ],
            [
              104.62920379638672,
              34.55062484741211
            ],
            [
              104.6774673461914,
              34.679283142089844
            ],
            [
              104.57172393798828,
              34.80794906616211
            ],
            [
              104.62045288085938,
              34.93662643432617
            ],
            [
              104.49051666259766,
              35.00096893310547
            ],
            [
              104.43134307861328,
              35.45143127441406
            ],
            [
              104.45624542236328,
              35.51579284667969
            ],
            [
              105.74381256103516,
              35.837650299072266
            ],
            [
              106.08024597167969,
              36.28839111328125
            ],
            [
              105.82366943359375,
              36.61045455932617
            ],
            [
              105.8768310546875,
              36.73930740356445
            ],
            [
              105.69690704345703,
              36.8681755065918
            ],
            [
              105.85546875,
              37.06150817871094
            ],
            [
              105.80465698242188,
              37.12596130371094
            ],
            [
              105.08324432373047,
              37.44829177856445
            ],
            [
              104.7440414428711,
              37.38381576538086
            ],
            [
              104.72044372558594,
              37.51277160644531
            ],
            [
              104.8258285522461,
              37.5772590637207
            ],
            [
              104.59166717529297,
              37.5772590637207
            ],
            [
              104.56840515136719,
              37.706241607666016
            ],
            [
              105.88021850585938,
              38.028785705566406
            ],
            [
              106.08653259277344,
              37.96426773071289
            ],
            [
              106.40658569335938,
              38.157840728759766
            ],
            [
              106.52194213867188,
              38.416015625
            ],
            [
              107.31535339355469,
              38.60969924926758
            ],
            [
              107.52104949951172,
              38.54513168334961
            ],
            [
              107.58959197998047,
              38.351463317871094
            ],
            [
              107.93232727050781,
              38.416015625
            ],
            [
              108.05005645751953,
              38.157840728759766
            ],
            [
              108.28484344482422,
              38.157840728759766
            ],
            [
              108.25569152832031,
              38.09331130981445
            ],
            [
              108.33392333984375,
              38.09331130981445
            ],
            [
              108.03327941894531,
              37.7707405090332
            ],
            [
              107.91340637207031,
              37.3193473815918
            ]
          ]
        ]
      }
    }
  ]
}