{
  "type": "FeatureCollection",
  "name": "territory-367",
  "features": [
    {
      "type": "Feature",
      "properties": {
        "Name": "Kingdom of Croatia",
        "FromYear": 990,
        "ToYear": 999,
        "Area": 92789.23296573704,
        "Type": "POLITY",
        "Wikipedia": "Kingdom of Croatia (925–1102)",
        "Wikidata": "Q858841",
        "SeshatID": "hr_croatia_k",
        "Components": "",
        "MemberOf": ""
      },
      "geometry": {
        "type": "MultiPolygon",
        "coordinates": [
          [
            [
              [
                16.729515075683594,
                43.407203674316406
              ],
              [
                16.731842041015625,
                43.472347259521484
              ],
              [
                16.81231689453125,
                43.472347259521484
              ],
              [
                16.80995750427246,
                43.407203674316406
              ],
              [
                16.729515075683594,
                43.407203674316406
              ]
            ]
          ],
          [
            [
              [
                14.51131820678711,
                44.908016204833984
              ],
              [
                14.502378463745117,
                44.5159797668457
              ],
              [
                14.260871887207031,
                44.58129119873047
              ],
              [
                14.269240379333496,
                44.973392486572266
              ],
              [
                14.350428581237793,
                44.973392486572266
              ],
              [
                14.51131820678711,
                44.908016204833984
              ]
            ]
          ],
          [
            [
              [
                19.004117965698242,
                45.496795654296875
              ],
              [
                18.997617721557617,
                45.36587905883789
              ],
              [
                19.23841667175293,
                45.300437927246094
              ],
              [
                19.14055824279785,
                44.973392486572266
              ],
              [
                19.296220779418945,
                44.842647552490234
              ],
              [
                19.28616714477539,
                44.64661407470703
              ],
              [
                19.117544174194336,
                44.5159797668457
              ],
              [
                19.107723236083984,
                44.32010269165039
              ],
              [
                19.262819290161133,
                44.18956756591797
              ],
              [
                19.097936630249023,
                44.12431716918945
              ],
              [
                18.836687088012695,
                43.73301696777344
              ],
              [
                18.648008346557617,
                43.146724700927734
              ],
              [
                18.481433868408203,
                43.016544342041016
              ],
              [
                17.764448165893555,
                43.146724700927734
              ],
              [
                17.678796768188477,
                43.016544342041016
              ],
              [
                17.518268585205078,
                43.016544342041016
              ],
              [
                17.520870208740234,
                43.08163070678711
              ],
              [
                17.2850284576416,
                43.211830139160156
              ],
              [
                17.134214401245117,
                43.472347259521484
              ],
              [
                16.81704330444336,
                43.6026611328125
              ],
              [
                16.734172821044922,
                43.53750228881836
              ],
              [
                16.653669357299805,
                43.53750228881836
              ],
              [
                16.658279418945312,
                43.6678352355957
              ],
              [
                15.933189392089844,
                43.6678352355957
              ],
              [
                15.935225486755371,
                43.73301696777344
              ],
              [
                15.695383071899414,
                43.79821014404297
              ],
              [
                15.618592262268066,
                43.92862319946289
              ],
              [
                15.374701499938965,
                43.86341094970703
              ],
              [
                15.459075927734375,
                43.99384307861328
              ],
              [
                15.218687057495117,
                44.05907440185547
              ],
              [
                15.22045612335205,
                44.12431716918945
              ],
              [
                15.38385009765625,
                44.18956756591797
              ],
              [
                15.387516975402832,
                44.32010269165039
              ],
              [
                15.146636962890625,
                44.38538360595703
              ],
              [
                15.148378372192383,
                44.45067596435547
              ],
              [
                14.908865928649902,
                44.58129119873047
              ],
              [
                14.91874885559082,
                44.973392486572266
              ],
              [
                14.515777587890625,
                45.10417556762695
              ],
              [
                14.603090286254883,
                45.36587905883789
              ],
              [
                14.358949661254883,
                45.36587905883789
              ],
              [
                14.277569770812988,
                45.36587905883789
              ],
              [
                14.44612979888916,
                45.62776184082031
              ],
              [
                15.339118957519531,
                45.496795654296875
              ],
              [
                15.264768600463867,
                45.75876998901367
              ],
              [
                15.678460121154785,
                45.95537567138672
              ],
              [
                15.604452133178711,
                46.21768569946289
              ],
              [
                15.933717727661133,
                46.283294677734375
              ],
              [
                16.019739151000977,
                46.414546966552734
              ],
              [
                16.183542251586914,
                46.414546966552734
              ],
              [
                16.436054229736328,
                46.61152267456055
              ],
              [
                17.151081085205078,
                46.02093505859375
              ],
              [
                17.87512969970703,
                45.75876998901367
              ],
              [
                18.446147918701172,
                45.75876998901367
              ],
              [
                18.77879524230957,
                45.889827728271484
              ],
              [
                18.9258975982666,
                45.56227111816406
              ],
              [
                18.92267417907715,
                45.496795654296875
              ],
              [
                19.004117965698242,
                45.496795654296875
              ]
            ]
          ]
        ]
      }
    }
  ]
}