{
  "type": "FeatureCollection",
  "name": "territory-371",
  "features": [
    {
      "type": "Feature",
      "properties": {
        "Name": "(Kingdom of England)",
        "FromYear": 1702,
        "ToYear": 1705,
        "Area": 569389.385143854,
        "Type": "POLITY",
        "Wikipedia": "Kingdom of England",
        "Wikidata": "Q179876",
        "SeshatID": "",
        "Components": "Kingdom of England;English Colonial Empire",
        "MemberOf": ""
      },
      "geometry": {
        "type": "MultiPolygon",
        "coordinates": [
          [
            [
              [
                -89.10779571533203,
                17.38617706298828
              ],
              [
                -89.03401947021484,
                17.38617706298828
              ],
              [
                -89.1781997680664,
                17.836191177368164
              ],
              [
                -89.05091857910156,
                17.964767456054688
              ],
              [
                -88.75556182861328,
                17.964767456054688
              ],
              [
                -88.3945083618164,
                18.479066848754883
              ],
              [
                -88.2467041015625,
                18.479066848754883
              ],
              [
                -88.23637390136719,
                18.414779663085938
              ],
              [
                -88.07830810546875,
                18.350492477416992
              ],
              [
                -88.02729034423828,
                18.029054641723633
              ],
              [
                -88.18842315673828,
                17.643327713012695
              ],
              [
                -88.13533020019531,
                16.807586669921875
              ],
              [
                -88.20903015136719,
                16.807586669921875
              ],
              [
                -88.23552703857422,
                16.486146926879883
              ],
              [
                -88.30919647216797,
                16.486146926879883
              ],
              [
                -88.82465362548828,
                15.971842765808105
              ],
              [
                -88.81562042236328,
                15.907554626464844
              ],
              [
                -89.11003112792969,
                15.907554626464844
              ],
              [
                -89.10779571533203,
                17.38617706298828
              ]
            ]
          ],
          [
            [
              [
                -77.36641693115234,
                17.836191177368164
              ],
              [
                -77.73553466796875,
                17.836191177368164
              ],
              [
                -78.07617950439453,
                18.157629013061523
              ],
              [
                -78.29776763916016,
                18.157629013061523
              ],
              [
                -78.3900146484375,
                18.286205291748047
              ],
              [
                -78.05752563476562,
                18.543354034423828
              ],
              [
                -77.01364135742188,
                18.479066848754883
              ],
              [
                -76.22962188720703,
                18.157629013061523
              ],
              [
                -76.12023162841797,
                17.90047836303711
              ],
              [
                -76.48053741455078,
                17.836191177368164
              ],
              [
                -76.55435943603516,
                17.836191177368164
              ],
              [
                -76.8585433959961,
                17.90047836303711
              ],
              [
                -77.07112121582031,
                17.836191177368164
              ],
              [
                -77.05337524414062,
                17.707616806030273
              ],
              [
                -77.2748031616211,
                17.707616806030273
              ],
              [
                -77.36641693115234,
                17.836191177368164
              ]
            ]
          ],
          [
            [
              [
                -73.70353698730469,
                22.657697677612305
              ],
              [
                -73.6731185913086,
                22.46483612060547
              ],
              [
                -73.80182647705078,
                22.33626365661621
              ],
              [
                -73.876220703125,
                22.33626365661621
              ],
              [
                -74.15374755859375,
                22.20768928527832
              ],
              [
                -74.04518127441406,
                22.46483612060547
              ],
              [
                -73.89635467529297,
                22.46483612060547
              ],
              [
                -73.93710327148438,
                22.72198486328125
              ],
              [
                -73.70353698730469,
                22.657697677612305
              ]
            ]
          ],
          [
            [
              [
                -74.97868347167969,
                23.171995162963867
              ],
              [
                -74.7445068359375,
                23.107707977294922
              ],
              [
                -74.71284484863281,
                22.914846420288086
              ],
              [
                -74.86180114746094,
                22.914846420288086
              ],
              [
                -74.87232208251953,
                22.97913360595703
              ],
              [
                -75.11701965332031,
                23.107707977294922
              ],
              [
                -75.17095184326172,
                23.429147720336914
              ],
              [
                -75.0218505859375,
                23.429147720336914
              ],
              [
                -74.97868347167969,
                23.171995162963867
              ]
            ]
          ],
          [
            [
              [
                -77.40090942382812,
                23.814878463745117
              ],
              [
                -77.47551727294922,
                23.814878463745117
              ],
              [
                -77.76241302490234,
                23.75058937072754
              ],
              [
                -77.91895294189453,
                24.200613021850586
              ],
              [
                -77.85621643066406,
                24.264904022216797
              ],
              [
                -77.48284149169922,
                24.264904022216797
              ],
              [
                -77.40090942382812,
                23.814878463745117
              ]
            ]
          ],
          [
            [
              [
                -74.3756332397461,
                24.00774574279785
              ],
              [
                -74.51364135742188,
                23.943456649780273
              ],
              [
                -74.547607421875,
                24.136323928833008
              ],
              [
                -74.32363891601562,
                24.136323928833008
              ],
              [
                -74.3010025024414,
                24.00774574279785
              ],
              [
                -74.3756332397461,
                24.00774574279785
              ]
            ]
          ],
          [
            [
              [
                -75.28267669677734,
                24.07203483581543
              ],
              [
                -75.43196105957031,
                24.07203483581543
              ],
              [
                -75.49004364013672,
                24.393482208251953
              ],
              [
                -75.56473541259766,
                24.393482208251953
              ],
              [
                -75.58840942382812,
                24.522062301635742
              ],
              [
                -75.35242462158203,
                24.457773208618164
              ],
              [
                -75.24260711669922,
                24.264904022216797
              ],
              [
                -75.28267669677734,
                24.07203483581543
              ]
            ]
          ],
          [
            [
              [
                -78.09226989746094,
                24.329193115234375
              ],
              [
                -78.11650085449219,
                24.457773208618164
              ],
              [
                -78.35286712646484,
                24.522062301635742
              ],
              [
                -78.3899917602539,
                24.714935302734375
              ],
              [
                -78.2405014038086,
                24.714935302734375
              ],
              [
                -78.19078063964844,
                24.843517303466797
              ],
              [
                -78.20339965820312,
                24.907808303833008
              ],
              [
                -78.19271087646484,
                25.229267120361328
              ],
              [
                -77.8804702758789,
                25.164974212646484
              ],
              [
                -77.617919921875,
                24.586353302001953
              ],
              [
                -77.79352569580078,
                24.329193115234375
              ],
              [
                -78.09226989746094,
                24.329193115234375
              ]
            ]
          ],
          [
            [
              [
                -76.08506774902344,
                24.779226303100586
              ],
              [
                -76.23458099365234,
                24.779226303100586
              ],
              [
                -76.25920104980469,
                24.907808303833008
              ],
              [
                -76.04724884033203,
                24.97209930419922
              ],
              [
                -76.09732055664062,
                24.843517303466797
              ],
              [
                -76.08506774902344,
                24.779226303100586
              ]
            ]
          ],
          [
            [
              [
                -76.33470916748047,
                25.29355812072754
              ],
              [
                -76.48439025878906,
                25.29355812072754
              ],
              [
                -76.5980224609375,
                25.48643684387207
              ],
              [
                -76.3475341796875,
                25.357851028442383
              ],
              [
                -76.33470916748047,
                25.29355812072754
              ]
            ]
          ],
          [
            [
              [
                -76.93746948242188,
                26.386537551879883
              ],
              [
                -77.10681915283203,
                26.129364013671875
              ],
              [
                -77.06575012207031,
                25.936485290527344
              ],
              [
                -77.29061126708984,
                25.936485290527344
              ],
              [
                -77.331787109375,
                26.129364013671875
              ],
              [
                -77.17668914794922,
                26.450830459594727
              ],
              [
                -77.19087219238281,
                26.515121459960938
              ],
              [
                -77.63847351074219,
                26.836584091186523
              ],
              [
                -77.66790008544922,
                26.96516990661621
              ],
              [
                -77.35261535644531,
                26.900876998901367
              ],
              [
                -76.9656982421875,
                26.515121459960938
              ],
              [
                -76.93746948242188,
                26.386537551879883
              ]
            ]
          ],
          [
            [
              [
                -78.60027313232422,
                26.772293090820312
              ],
              [
                -77.98481750488281,
                26.70800018310547
              ],
              [
                -77.97029113769531,
                26.643707275390625
              ],
              [
                -78.16664123535156,
                26.515121459960938
              ],
              [
                -78.6776351928711,
                26.450830459594727
              ],
              [
                -78.79621124267578,
                26.643707275390625
              ],
              [
                -78.64604949951172,
                26.643707275390625
              ],
              [
                -78.60027313232422,
                26.772293090820312
              ]
            ]
          ],
          [
            [
              [
                -81.49494171142578,
                29.79371452331543
              ],
              [
                -81.57012939453125,
                30.050809860229492
              ],
              [
                -81.49430847167969,
                30.050809860229492
              ],
              [
                -81.51329040527344,
                30.115081787109375
              ],
              [
                -81.30479431152344,
                30.179353713989258
              ],
              [
                -81.1919174194336,
                29.79371452331543
              ],
              [
                -81.17337799072266,
                29.729440689086914
              ],
              [
                -81.49494171142578,
                29.79371452331543
              ]
            ]
          ],
          [
            [
              [
                -79.78665161132812,
                33.07160949707031
              ],
              [
                -79.66658020019531,
                32.94303894042969
              ],
              [
                -79.58999633789062,
                32.94303894042969
              ],
              [
                -79.6784439086914,
                32.75019073486328
              ],
              [
                -80.14966583251953,
                32.557350158691406
              ],
              [
                -80.23575592041016,
                32.81447219848633
              ],
              [
                -80.09312438964844,
                33.07160949707031
              ],
              [
                -79.78665161132812,
                33.07160949707031
              ]
            ]
          ],
          [
            [
              [
                -77.6510009765625,
                34.22901916503906
              ],
              [
                -77.7601318359375,
                34.10039138793945
              ],
              [
                -77.83705139160156,
                34.10039138793945
              ],
              [
                -77.92404174804688,
                33.90746307373047
              ],
              [
                -78.15462493896484,
                33.90746307373047
              ],
              [
                -78.21229553222656,
                34.2933349609375
              ],
              [
                -77.7729721069336,
                34.3576545715332
              ],
              [
                -77.6510009765625,
                34.22901916503906
              ]
            ]
          ],
          [
            [
              [
                -82.24374389648438,
                52.51908493041992
              ],
              [
                -81.90204620361328,
                52.51908493041992
              ],
              [
                -81.5881118774414,
                52.31757736206055
              ],
              [
                -81.79646301269531,
                52.250450134277344
              ],
              [
                -81.74908447265625,
                52.18334197998047
              ],
              [
                -82.17510986328125,
                52.18334197998047
              ],
              [
                -82.31835174560547,
                52.38472366333008
              ],
              [
                -82.19564056396484,
                52.4518928527832
              ],
              [
                -82.24374389648438,
                52.51908493041992
              ]
            ]
          ],
          [
            [
              [
                -59.43791198730469,
                13.207467079162598
              ],
              [
                -59.36457061767578,
                13.207467079162598
              ],
              [
                -59.35515594482422,
                13.07889175415039
              ],
              [
                -59.57047653198242,
                13.014603614807129
              ],
              [
                -59.66753387451172,
                13.336042404174805
              ],
              [
                -59.52082824707031,
                13.336042404174805
              ],
              [
                -59.43791198730469,
                13.207467079162598
              ]
            ]
          ],
          [
            [
              [
                -61.86532211303711,
                17.193313598632812
              ],
              [
                -61.64407730102539,
                17.193313598632812
              ],
              [
                -61.616119384765625,
                16.9361629486084
              ],
              [
                -61.763553619384766,
                16.9361629486084
              ],
              [
                -61.85826873779297,
                17.129026412963867
              ],
              [
                -61.86532211303711,
                17.193313598632812
              ]
            ]
          ],
          [
            [
              [
                -64.72740173339844,
                17.707616806030273
              ],
              [
                -64.64604949951172,
                17.643327713012695
              ],
              [
                -64.8674545288086,
                17.643327713012695
              ],
              [
                -64.73497772216797,
                17.77190399169922
              ],
              [
                -64.72740173339844,
                17.707616806030273
              ]
            ]
          ],
          [
            [
              [
                -64.65359497070312,
                17.707616806030273
              ],
              [
                -64.66116333007812,
                17.77190399169922
              ],
              [
                -64.58734893798828,
                17.77190399169922
              ],
              [
                -64.57978820800781,
                17.707616806030273
              ],
              [
                -64.65359497070312,
                17.707616806030273
              ]
            ]
          ],
          [
            [
              [
                -64.73497772216797,
                17.77190399169922
              ],
              [
                -64.74258422851562,
                17.836191177368164
              ],
              [
                -64.66875457763672,
                17.836191177368164
              ],
              [
                -64.66116333007812,
                17.77190399169922
              ],
              [
                -64.73497772216797,
                17.77190399169922
              ]
            ]
          ],
          [
            [
              [
                -72.9679946899414,
                21.24339485168457
              ],
              [
                -72.93984985351562,
                21.050535202026367
              ],
              [
                -73.01407623291016,
                21.050535202026367
              ],
              [
                -73.0047378540039,
                20.986249923706055
              ],
              [
                -73.66329956054688,
                20.921964645385742
              ],
              [
                -73.6915512084961,
                21.114822387695312
              ],
              [
                -73.48774719238281,
                21.24339485168457
              ],
              [
                -72.9679946899414,
                21.24339485168457
              ]
            ]
          ],
          [
            [
              [
                -72.15237426757812,
                21.7576847076416
              ],
              [
                -72.2171630859375,
                21.693397521972656
              ],
              [
                -72.32018280029297,
                21.88625717163086
              ],
              [
                -72.09717559814453,
                21.88625717163086
              ],
              [
                -72.07805633544922,
                21.7576847076416
              ],
              [
                -72.15237426757812,
                21.7576847076416
              ]
            ]
          ],
          [
            [
              [
                -72.82479095458984,
                22.271976470947266
              ],
              [
                -72.92898559570312,
                22.46483612060547
              ],
              [
                -72.6858901977539,
                22.33626365661621
              ],
              [
                -72.67601776123047,
                22.271976470947266
              ],
              [
                -72.82479095458984,
                22.271976470947266
              ]
            ]
          ],
          [
            [
              [
                -64.67342376708984,
                32.171695709228516
              ],
              [
                -64.86115264892578,
                32.30024337768555
              ],
              [
                -64.64949798583984,
                32.36451721191406
              ],
              [
                -64.69085693359375,
                32.23596954345703
              ],
              [
                -64.67342376708984,
                32.171695709228516
              ]
            ]
          ],
          [
            [
              [
                -69.8644027709961,
                41.71668243408203
              ],
              [
                -70.04639434814453,
                41.586883544921875
              ],
              [
                -70.5751724243164,
                41.521995544433594
              ],
              [
                -70.48988342285156,
                41.32738494873047
              ],
              [
                -70.72843170166016,
                41.32738494873047
              ],
              [
                -70.71211242675781,
                41.65177917480469
              ],
              [
                -70.89356994628906,
                41.521995544433594
              ],
              [
                -71.21195983886719,
                41.521995544433594
              ],
              [
                -71.26969146728516,
                41.65177917480469
              ],
              [
                -71.42900085449219,
                41.65177917480469
              ],
              [
                -71.37115478515625,
                41.521995544433594
              ],
              [
                -71.52356719970703,
                41.32738494873047
              ],
              [
                -72.84622192382812,
                41.26253128051758
              ],
              [
                -72.81721496582031,
                41.19768524169922
              ],
              [
                -73.47411346435547,
                41.06801223754883
              ],
              [
                -73.1781997680664,
                40.93837356567383
              ],
              [
                -73.2070083618164,
                41.00318908691406
              ],
              [
                -71.9939956665039,
                41.132843017578125
              ],
              [
                -71.93698120117188,
                41.00318908691406
              ],
              [
                -72.24861907958984,
                40.80876541137695
              ],
              [
                -73.46009063720703,
                40.6791877746582
              ],
              [
                -73.64078521728516,
                40.54964065551758
              ],
              [
                -74.14453887939453,
                40.614410400390625
              ],
              [
                -74.08737182617188,
                40.4848747253418
              ],
              [
                -73.9290542602539,
                40.4848747253418
              ],
              [
                -73.86712646484375,
                40.16116714477539
              ],
              [
                -74.17426300048828,
                39.77294921875
              ],
              [
                -74.11936950683594,
                39.64360046386719
              ],
              [
                -74.53467559814453,
                39.320335388183594
              ],
              [
                -74.48075866699219,
                39.19107437133789
              ],
              [
                -74.63629150390625,
                38.997230529785156
              ],
              [
                -74.92386627197266,
                38.93262481689453
              ],
              [
                -75.03128814697266,
                39.19107437133789
              ],
              [
                -75.40033721923828,
                39.320335388183594
              ],
              [
                -74.94844055175781,
                38.416015625
              ],
              [
                -75.39386749267578,
                37.96426773071289
              ],
              [
                -75.3427963256836,
                37.835243225097656
              ],
              [
                -75.79052734375,
                37.38381576538086
              ],
              [
                -75.74057006835938,
                37.254878997802734
              ],
              [
                -75.84671783447266,
                37.12596130371094
              ],
              [
                -76.00250244140625,
                37.12596130371094
              ],
              [
                -76.07736206054688,
                37.3193473815918
              ],
              [
                -75.99939727783203,
                37.3193473815918
              ],
              [
                -76.07490539550781,
                37.51277160644531
              ],
              [
                -75.89141845703125,
                37.641746520996094
              ],
              [
                -75.9423599243164,
                37.7707405090332
              ],
              [
                -75.81166076660156,
                37.835243225097656
              ],
              [
                -75.91468811035156,
                38.09331130981445
              ],
              [
                -75.83645629882812,
                38.09331130981445
              ],
              [
                -76.25408935546875,
                38.351463317871094
              ],
              [
                -76.3335189819336,
                38.54513168334961
              ],
              [
                -76.23002624511719,
                38.67427444458008
              ],
              [
                -76.38919067382812,
                38.8680305480957
              ],
              [
                -76.23213958740234,
                38.8680305480957
              ],
              [
                -76.31353759765625,
                39.06184005737305
              ],
              [
                -76.23494720458984,
                39.06184005737305
              ],
              [
                -76.42338562011719,
                39.320335388183594
              ],
              [
                -76.3648910522461,
                38.997230529785156
              ],
              [
                -76.52203369140625,
                38.997230529785156
              ],
              [
                -76.44068908691406,
                38.80344009399414
              ],
              [
                -76.5191879272461,
                38.80344009399414
              ],
              [
                -76.25370788574219,
                38.157840728759766
              ],
              [
                -76.38411712646484,
                38.09331130981445
              ],
              [
                -76.17671966552734,
                37.7707405090332
              ],
              [
                -76.35987091064453,
                37.641746520996094
              ],
              [
                -76.18045043945312,
                37.38381576538086
              ],
              [
                -76.33642578125,
                37.38381576538086
              ],
              [
                -76.28614807128906,
                37.254878997802734
              ],
              [
                -76.36408996582031,
                37.254878997802734
              ],
              [
                -76.1865463256836,
                36.9970588684082
              ],
              [
                -75.92835998535156,
                36.932613372802734
              ],
              [
                -75.80631256103516,
                36.61045455932617
              ],
              [
                -75.9375228881836,
                36.5460319519043
              ],
              [
                -75.81749725341797,
                36.2239875793457
              ],
              [
                -75.9726791381836,
                36.2239875793457
              ],
              [
                -76.00263977050781,
                36.09519577026367
              ],
              [
                -76.7303466796875,
                35.9664192199707
              ],
              [
                -77.13653564453125,
                36.2239875793457
              ],
              [
                -76.92316436767578,
                36.48161697387695
              ],
              [
                -76.76780700683594,
                36.48161697387695
              ],
              [
                -76.8943862915039,
                36.61045455932617
              ],
              [
                -76.73894500732422,
                36.61045455932617
              ],
              [
                -76.81272888183594,
                36.80373764038086
              ],
              [
                -77.5574722290039,
                37.51277160644531
              ],
              [
                -77.66102600097656,
                37.7707405090332
              ],
              [
                -77.5829086303711,
                37.7707405090332
              ],
              [
                -77.66139221191406,
                37.96426773071289
              ],
              [
                -77.58319854736328,
                37.96426773071289
              ],
              [
                -77.69343566894531,
                38.60969924926758
              ],
              [
                -77.59088897705078,
                38.738853454589844
              ],
              [
                -77.67304229736328,
                38.93262481689453
              ],
              [
                -77.57109069824219,
                39.06184005737305
              ],
              [
                -77.65452575683594,
                39.25570297241211
              ],
              [
                -77.40153503417969,
                39.57893371582031
              ],
              [
                -76.45597076416016,
                39.57893371582031
              ],
              [
                -76.35450744628906,
                39.70827102661133
              ],
              [
                -76.19680786132812,
                39.70827102661133
              ],
              [
                -76.3321304321289,
                39.8376350402832
              ],
              [
                -75.85873413085938,
                39.8376350402832
              ],
              [
                -75.91529846191406,
                39.9670295715332
              ],
              [
                -75.81425476074219,
                40.0964469909668
              ],
              [
                -75.65625,
                40.0964469909668
              ],
              [
                -75.20338439941406,
                40.6791877746582
              ],
              [
                -75.24127197265625,
                40.93837356567383
              ],
              [
                -74.84343719482422,
                41.45711898803711
              ],
              [
                -74.68429565429688,
                41.45711898803711
              ],
              [
                -74.58507537841797,
                41.586883544921875
              ],
              [
                -74.64534759521484,
                41.71668243408203
              ],
              [
                -74.46675109863281,
                41.84651184082031
              ],
              [
                -74.52754211425781,
                41.97637939453125
              ],
              [
                -74.28131103515625,
                42.30118942260742
              ],
              [
                -74.44982147216797,
                42.82133865356445
              ],
              [
                -74.36964416503906,
                42.82133865356445
              ],
              [
                -74.40103149414062,
                42.88639831542969
              ],
              [
                -74.28639221191406,
                43.146724700927734
              ],
              [
                -74.04541778564453,
                43.146724700927734
              ],
              [
                -74.01390075683594,
                43.08163070678711
              ],
              [
                -73.7773208618164,
                42.75628662109375
              ],
              [
                -73.85746765136719,
                42.75628662109375
              ],
              [
                -73.76455688476562,
                42.56119155883789
              ],
              [
                -73.84461212158203,
                42.56119155883789
              ],
              [
                -73.69121551513672,
                42.236209869384766
              ],
              [
                -73.59239196777344,
                42.36617660522461
              ],
              [
                -73.00227355957031,
                42.30118942260742
              ],
              [
                -72.93346405029297,
                42.496177673339844
              ],
              [
                -71.89311218261719,
                42.496177673339844
              ],
              [
                -71.87337493896484,
                42.62621307373047
              ],
              [
                -71.98375701904297,
                42.691246032714844
              ],
              [
                -71.34283447265625,
                42.691246032714844
              ],
              [
                -71.32301330566406,
                42.82133865356445
              ],
              [
                -71.08248901367188,
                42.82133865356445
              ],
              [
                -71.15377044677734,
                43.146724700927734
              ],
              [
                -70.95448303222656,
                43.407203674316406
              ],
              [
                -71.01592254638672,
                43.53750228881836
              ],
              [
                -70.77440643310547,
                43.53750228881836
              ],
              [
                -70.49141693115234,
                43.276947021484375
              ],
              [
                -70.82196807861328,
                42.95146560668945
              ],
              [
                -70.64234161376953,
                42.56119155883789
              ],
              [
                -70.98307037353516,
                42.43117141723633
              ],
              [
                -70.70513916015625,
                42.17123794555664
              ],
              [
                -70.62525939941406,
                42.17123794555664
              ],
              [
                -70.37123107910156,
                41.781593322753906
              ],
              [
                -70.1321029663086,
                41.781593322753906
              ],
              [
                -70.1098861694336,
                41.911441802978516
              ],
              [
                -69.95034790039062,
                41.911441802978516
              ],
              [
                -69.8644027709961,
                41.71668243408203
              ]
            ]
          ],
          [
            [
              [
                -70.3913803100586,
                43.407203674316406
              ],
              [
                -70.4218521118164,
                43.472347259521484
              ],
              [
                -70.59424591064453,
                43.6678352355957
              ],
              [
                -70.44482421875,
                43.86341094970703
              ],
              [
                -70.28350830078125,
                43.86341094970703
              ],
              [
                -70.14144897460938,
                43.73301696777344
              ],
              [
                -70.3913803100586,
                43.407203674316406
              ]
            ]
          ],
          [
            [
              [
                -69.66107177734375,
                44.25482940673828
              ],
              [
                -69.32645416259766,
                44.05907440185547
              ],
              [
                -69.47693634033203,
                43.86341094970703
              ],
              [
                -69.5575942993164,
                43.86341094970703
              ],
              [
                -69.71891021728516,
                43.86341094970703
              ],
              [
                -69.95346069335938,
                44.18956756591797
              ],
              [
                -69.90359497070312,
                44.25482940673828
              ],
              [
                -69.66107177734375,
                44.25482940673828
              ]
            ]
          ],
          [
            [
              [
                -53.019657135009766,
                46.61152267456055
              ],
              [
                -53.6756706237793,
                46.61152267456055
              ],
              [
                -53.75489044189453,
                46.808616638183594
              ],
              [
                -53.617156982421875,
                46.87434005737305
              ],
              [
                -53.72372055053711,
                47.13737487792969
              ],
              [
                -53.36571502685547,
                47.26897048950195
              ],
              [
                -53.6373291015625,
                47.730003356933594
              ],
              [
                -53.3057746887207,
                48.1257438659668
              ],
              [
                -52.91922378540039,
                48.191749572753906
              ],
              [
                -52.86445617675781,
                48.059749603271484
              ],
              [
                -53.25282669067383,
                47.598209381103516
              ],
              [
                -53.06089782714844,
                47.53233337402344
              ],
              [
                -52.921104431152344,
                47.79592514038086
              ],
              [
                -52.7558708190918,
                47.79592514038086
              ],
              [
                -52.621849060058594,
                47.46647262573242
              ],
              [
                -52.70429229736328,
                47.46647262573242
              ],
              [
                -52.706993103027344,
                47.26897048950195
              ],
              [
                -52.6805534362793,
                47.20316696166992
              ],
              [
                -52.8187255859375,
                47.13737487792969
              ],
              [
                -52.766056060791016,
                47.005828857421875
              ],
              [
                -52.9041633605957,
                46.94007873535156
              ],
              [
                -52.85176086425781,
                46.808616638183594
              ],
              [
                -53.019657135009766,
                46.61152267456055
              ]
            ]
          ],
          [
            [
              [
                -53.22472381591797,
                48.72037124633789
              ],
              [
                -53.05848693847656,
                48.72037124633789
              ],
              [
                -52.9467658996582,
                48.455936431884766
              ],
              [
                -53.25080108642578,
                48.38986587524414
              ],
              [
                -53.2230224609375,
                48.323814392089844
              ],
              [
                -53.388824462890625,
                48.323814392089844
              ],
              [
                -53.36163330078125,
                48.455936431884766
              ],
              [
                -53.583778381347656,
                48.5881233215332
              ],
              [
                -53.25159454345703,
                48.5881233215332
              ],
              [
                -53.22472381591797,
                48.72037124633789
              ]
            ]
          ],
          [
            [
              [
                -6.087455749511719,
                53.52959060668945
              ],
              [
                -6.241942882537842,
                53.39456558227539
              ],
              [
                -6.14714241027832,
                53.32708740234375
              ],
              [
                -6.086330413818359,
                52.85536575317383
              ],
              [
                -6.171980857849121,
                52.85536575317383
              ],
              [
                -6.14614200592041,
                52.653533935546875
              ],
              [
                -6.2316575050354,
                52.653533935546875
              ],
              [
                -6.427507877349854,
                52.18334197998047
              ],
              [
                -7.611197948455811,
                52.11625671386719
              ],
              [
                -8.075331687927246,
                51.78114318847656
              ],
              [
                -8.415112495422363,
                51.78114318847656
              ],
              [
                -8.481083869934082,
                51.64724349975586
              ],
              [
                -9.639079093933105,
                51.44654083251953
              ],
              [
                -9.808544158935547,
                51.44654083251953
              ],
              [
                -9.92369556427002,
                51.64724349975586
              ],
              [
                -10.167977333068848,
                51.580322265625
              ],
              [
                -10.188602447509766,
                51.71418380737305
              ],
              [
                -10.45379638671875,
                51.78114318847656
              ],
              [
                -10.485442161560059,
                51.98215103149414
              ],
              [
                -10.25121021270752,
                52.11625671386719
              ],
              [
                -10.506694793701172,
                52.11625671386719
              ],
              [
                -10.528071403503418,
                52.250450134277344
              ],
              [
                -9.941752433776855,
                52.31757736206055
              ],
              [
                -9.973213195800781,
                52.51908493041992
              ],
              [
                -9.727348327636719,
                52.586299896240234
              ],
              [
                -9.74826431274414,
                52.720787048339844
              ],
              [
                -9.437079429626465,
                52.92268753051758
              ],
              [
                -9.468400001525879,
                53.124786376953125
              ],
              [
                -9.382568359375,
                53.124786376953125
              ],
              [
                -10.209695816040039,
                53.462066650390625
              ],
              [
                -10.231764793395996,
                53.597137451171875
              ],
              [
                -9.984235763549805,
                53.664710998535156
              ],
              [
                -10.006207466125488,
                53.799922943115234
              ],
              [
                -9.833613395690918,
                53.799922943115234
              ],
              [
                -10.084067344665527,
                54.27390670776367
              ],
              [
                -9.49949836730957,
                54.4095458984375
              ],
              [
                -8.697977066040039,
                54.27390670776367
              ],
              [
                -8.642707824707031,
                54.47740173339844
              ],
              [
                -8.316265106201172,
                54.613189697265625
              ],
              [
                -8.837503433227539,
                54.613189697265625
              ],
              [
                -8.869585037231445,
                54.817054748535156
              ],
              [
                -8.532058715820312,
                54.88506317138672
              ],
              [
                -8.56389045715332,
                55.089229583740234
              ],
              [
                -8.41061782836914,
                55.225467681884766
              ],
              [
                -7.886708736419678,
                55.225467681884766
              ],
              [
                -7.819964408874512,
                55.36180877685547
              ],
              [
                -7.120616436004639,
                55.36180877685547
              ],
              [
                -7.013527870178223,
                55.225467681884766
              ],
              [
                -6.149667739868164,
                55.29362487792969
              ],
              [
                -5.929072856903076,
                54.95309066772461
              ],
              [
                -5.745834827423096,
                54.88506317138672
              ],
              [
                -5.727906227111816,
                54.74907684326172
              ],
              [
                -5.553964138031006,
                54.74907684326172
              ],
              [
                -5.527542591094971,
                54.545284271240234
              ],
              [
                -5.440718173980713,
                54.545284271240234
              ],
              [
                -5.4320068359375,
                54.47740173339844
              ],
              [
                -5.899145126342773,
                54.07062530517578
              ],
              [
                -6.331579685211182,
                54.07062530517578
              ],
              [
                -6.286456108093262,
                53.732303619384766
              ],
              [
                -6.087455749511719,
                53.52959060668945
              ]
            ]
          ],
          [
            [
              [
                -7.230959415435791,
                57.28189468383789
              ],
              [
                -7.319843292236328,
                57.28189468383789
              ],
              [
                -7.288100242614746,
                57.07511901855469
              ],
              [
                -7.465542793273926,
                57.07511901855469
              ],
              [
                -7.597294807434082,
                57.35087585449219
              ],
              [
                -7.252153396606445,
                57.41988754272461
              ],
              [
                -7.230959415435791,
                57.28189468383789
              ]
            ]
          ],
          [
            [
              [
                -1.941573143005371,
                4.785795211791992
              ],
              [
                -1.939521670341492,
                5.042945861816406
              ],
              [
                -1.793270826339722,
                5.10723352432251
              ],
              [
                -1.722439050674438,
                4.850082874298096
              ],
              [
                -1.868705272674561,
                4.785795211791992
              ],
              [
                -1.941573143005371,
                4.785795211791992
              ]
            ]
          ],
          [
            [
              [
                -2.52350902557373,
                4.914370536804199
              ],
              [
                -2.960261583328247,
                4.978658199310303
              ],
              [
                -2.959789752960205,
                5.042945861816406
              ],
              [
                -2.958868980407715,
                5.171521186828613
              ],
              [
                -2.813107967376709,
                5.171521186828613
              ],
              [
                -2.739324808120728,
                5.300096035003662
              ],
              [
                -2.52350902557373,
                4.914370536804199
              ]
            ]
          ],
          [
            [
              [
                -1.064486622810364,
                5.10723352432251
              ],
              [
                -1.210243463516235,
                5.10723352432251
              ],
              [
                -1.208254337310791,
                5.364383697509766
              ],
              [
                -1.062479972839355,
                5.364383697509766
              ],
              [
                -1.063974022865295,
                5.171521186828613
              ],
              [
                -1.064486622810364,
                5.10723352432251
              ]
            ]
          ],
          [
            [
              [
                -0.772451758384705,
                5.171521186828613
              ],
              [
                -0.918212890625,
                5.171521186828613
              ],
              [
                -0.916217625141144,
                5.428671360015869
              ],
              [
                -0.770438730716705,
                5.428671360015869
              ],
              [
                -0.771937787532806,
                5.235808849334717
              ],
              [
                -0.772451758384705,
                5.171521186828613
              ]
            ]
          ],
          [
            [
              [
                -0.477418929338455,
                5.62153434753418
              ],
              [
                -0.478386580944061,
                5.492959022521973
              ],
              [
                -0.478881001472473,
                5.428671360015869
              ],
              [
                -0.406495332717896,
                5.364383697509766
              ],
              [
                -0.625661015510559,
                5.300096035003662
              ],
              [
                -0.696107864379883,
                5.62153434753418
              ],
              [
                -0.477418929338455,
                5.62153434753418
              ]
            ]
          ],
          [
            [
              [
                80.11029052734375,
                12.950316429138184
              ],
              [
                80.20027160644531,
                13.143178939819336
              ],
              [
                80.27360534667969,
                13.143178939819336
              ],
              [
                80.3469467163086,
                13.143178939819336
              ],
              [
                80.34135437011719,
                13.07889175415039
              ],
              [
                80.3357925415039,
                13.014603614807129
              ],
              [
                80.33025360107422,
                12.950316429138184
              ],
              [
                80.32475280761719,
                12.886029243469238
              ],
              [
                80.31927490234375,
                12.821741104125977
              ],
              [
                80.31382751464844,
                12.757453918457031
              ],
              [
                80.24052429199219,
                12.757453918457031
              ],
              [
                80.1672134399414,
                12.757453918457031
              ],
              [
                80.11029052734375,
                12.950316429138184
              ]
            ]
          ],
          [
            [
              [
                72.86790466308594,
                19.25051498413086
              ],
              [
                73.08989715576172,
                19.25051498413086
              ],
              [
                72.98817443847656,
                18.993366241455078
              ],
              [
                72.84024810791016,
                18.993366241455078
              ],
              [
                72.8609848022461,
                19.186227798461914
              ],
              [
                72.86790466308594,
                19.25051498413086
              ]
            ]
          ],
          [
            [
              [
                88.3982925415039,
                22.46483612060547
              ],
              [
                88.47270965576172,
                22.46483612060547
              ],
              [
                88.3531265258789,
                22.143402099609375
              ],
              [
                88.19544982910156,
                22.079116821289062
              ],
              [
                88.14794921875,
                22.271976470947266
              ],
              [
                88.3982925415039,
                22.46483612060547
              ]
            ]
          ],
          [
            [
              [
                -4.807900905609131,
                54.341712951660156
              ],
              [
                -4.382591724395752,
                54.4095458984375
              ],
              [
                -4.358400821685791,
                54.20612335205078
              ],
              [
                -4.861302852630615,
                54.07062530517578
              ],
              [
                -4.799596309661865,
                54.27390670776367
              ],
              [
                -4.807900905609131,
                54.341712951660156
              ]
            ]
          ],
          [
            [
              [
                -2.208682298660278,
                56.86860656738281
              ],
              [
                -2.532599925994873,
                56.59365463256836
              ],
              [
                -2.789952516555786,
                56.524986267089844
              ],
              [
                -2.671310901641846,
                56.25059127807617
              ],
              [
                -3.103936910629272,
                56.182064056396484
              ],
              [
                -3.26426100730896,
                56.04508590698242
              ],
              [
                -2.656256437301636,
                56.11355972290039
              ],
              [
                -2.01904296875,
                55.90821838378906
              ],
              [
                -1.734845399856567,
                55.70311737060547
              ],
              [
                -1.606520295143127,
                55.29362487792969
              ],
              [
                -1.519152045249939,
                55.29362487792969
              ],
              [
                -1.486006855964661,
                54.95309066772461
              ],
              [
                -1.398887872695923,
                54.95309066772461
              ],
              [
                -1.285956144332886,
                54.681121826171875
              ],
              [
                -0.671433329582214,
                54.613189697265625
              ],
              [
                -0.202435865998268,
                54.20612335205078
              ],
              [
                -0.17964468896389,
                53.93522644042969
              ],
              [
                0.004257039166987,
                53.799922943115234
              ],
              [
                0.020827349275351,
                53.597137451171875
              ],
              [
                0.29531991481781,
                53.39456558227539
              ],
              [
                0.316494405269623,
                53.124786376953125
              ],
              [
                0.06977716833353,
                52.99003219604492
              ],
              [
                0.166152358055115,
                52.85536575317383
              ],
              [
                0.337453275918961,
                52.85536575317383
              ],
              [
                0.493327647447586,
                53.057395935058594
              ],
              [
                1.093834638595581,
                53.057395935058594
              ],
              [
                1.622210025787354,
                52.85536575317383
              ],
              [
                1.739019155502319,
                52.38472366333008
              ],
              [
                1.653681755065918,
                52.38472366333008
              ],
              [
                1.586262822151184,
                52.11625671386719
              ],
              [
                1.425007224082947,
                51.98215103149414
              ],
              [
                1.169783234596252,
                51.98215103149414
              ],
              [
                1.183690190315247,
                51.78114318847656
              ],
              [
                0.843909561634064,
                51.78114318847656
              ],
              [
                0.862975299358368,
                51.51342010498047
              ],
              [
                0.523877322673798,
                51.51342010498047
              ],
              [
                1.380577206611633,
                51.37968063354492
              ],
              [
                1.313834071159363,
                51.112430572509766
              ],
              [
                0.492853790521622,
                50.77880859375
              ],
              [
                -1.367843627929688,
                50.84549331665039
              ],
              [
                -1.109168291091919,
                50.77880859375
              ],
              [
                -1.176646590232849,
                50.578861236572266
              ],
              [
                -1.513427257537842,
                50.578861236572266
              ],
              [
                -1.524962306022644,
                50.71213912963867
              ],
              [
                -2.607964515686035,
                50.578861236572266
              ],
              [
                -2.789105415344238,
                50.71213912963867
              ],
              [
                -3.12621021270752,
                50.71213912963867
              ],
              [
                -3.456606388092041,
                50.64549255371094
              ],
              [
                -3.584736108779907,
                50.2459831237793
              ],
              [
                -4.088706493377686,
                50.2459831237793
              ],
              [
                -4.186630249023438,
                50.37908172607422
              ],
              [
                -4.354779243469238,
                50.37908172607422
              ],
              [
                -4.928657054901123,
                50.2459831237793
              ],
              [
                -5.151133060455322,
                49.98000717163086
              ],
              [
                -5.745615005493164,
                50.04647445678711
              ],
              [
                -5.768607616424561,
                50.2459831237793
              ],
              [
                -5.279601097106934,
                50.37908172607422
              ],
              [
                -5.133819580078125,
                50.578861236572266
              ],
              [
                -4.881234169006348,
                50.578861236572266
              ],
              [
                -4.819114208221436,
                50.77880859375
              ],
              [
                -4.657799243927002,
                50.84549331665039
              ],
              [
                -4.67988109588623,
                51.04566955566406
              ],
              [
                -4.426436901092529,
                51.04566955566406
              ],
              [
                -4.201729774475098,
                51.31283950805664
              ],
              [
                -3.094635725021362,
                51.24601745605469
              ],
              [
                -3.107994079589844,
                51.37968063354492
              ],
              [
                -2.945236444473267,
                51.44654083251953
              ],
              [
                -3.121426105499268,
                51.51342010498047
              ],
              [
                -3.277374029159546,
                51.37968063354492
              ],
              [
                -3.70082426071167,
                51.37968063354492
              ],
              [
                -3.891522645950317,
                51.580322265625
              ],
              [
                -4.308269023895264,
                51.51342010498047
              ],
              [
                -4.415247440338135,
                51.71418380737305
              ],
              [
                -5.078959941864014,
                51.580322265625
              ],
              [
                -5.264270305633545,
                51.71418380737305
              ],
              [
                -5.295889377593994,
                51.98215103149414
              ],
              [
                -4.893810749053955,
                52.18334197998047
              ],
              [
                -4.39012336730957,
                52.250450134277344
              ],
              [
                -4.156738758087158,
                52.4518928527832
              ],
              [
                -4.29533576965332,
                52.92268753051758
              ],
              [
                -4.793659210205078,
                52.78806686401367
              ],
              [
                -4.809510231018066,
                52.92268753051758
              ],
              [
                -4.490120410919189,
                53.124786376953125
              ],
              [
                -4.669717311859131,
                53.192195892333984
              ],
              [
                -4.701662540435791,
                53.462066650390625
              ],
              [
                -4.271347522735596,
                53.462066650390625
              ],
              [
                -4.162125587463379,
                53.25962829589844
              ],
              [
                -3.317377805709839,
                53.39456558227539
              ],
              [
                -3.152528285980225,
                53.462066650390625
              ],
              [
                -3.095205545425415,
                53.732303619384766
              ],
              [
                -3.196035623550415,
                53.86756134033203
              ],
              [
                -2.96582555770874,
                54.138362884521484
              ],
              [
                -3.304538726806641,
                54.07062530517578
              ],
              [
                -3.319409608840942,
                54.20612335205078
              ],
              [
                -3.586766958236694,
                54.27390670776367
              ],
              [
                -3.71977162361145,
                54.681121826171875
              ],
              [
                -3.569097280502319,
                54.88506317138672
              ],
              [
                -4.423340797424316,
                54.74907684326172
              ],
              [
                -4.953676700592041,
                54.817054748535156
              ],
              [
                -4.936679363250732,
                54.681121826171875
              ],
              [
                -5.206079959869385,
                54.74907684326172
              ],
              [
                -5.32801628112793,
                55.021148681640625
              ],
              [
                -5.153679370880127,
                55.021148681640625
              ],
              [
                -5.171102046966553,
                55.15733337402344
              ],
              [
                -4.768880844116211,
                55.430015563964844
              ],
              [
                -4.794708251953125,
                55.63479995727539
              ],
              [
                -4.978706836700439,
                55.70311737060547
              ],
              [
                -4.996289253234863,
                55.83982467651367
              ],
              [
                -5.444243907928467,
                55.90821838378906
              ],
              [
                -5.426101684570312,
                55.77145767211914
              ],
              [
                -5.162932395935059,
                55.77145767211914
              ],
              [
                -5.118756771087646,
                55.430015563964844
              ],
              [
                -5.381163120269775,
                55.430015563964844
              ],
              [
                -5.574207305908203,
                55.56651306152344
              ],
              [
                -5.625458240509033,
                55.29362487792969
              ],
              [
                -5.887563228607178,
                55.29362487792969
              ],
              [
                -5.915220260620117,
                55.498252868652344
              ],
              [
                -5.689270496368408,
                55.77145767211914
              ],
              [
                -5.80486011505127,
                55.97663879394531
              ],
              [
                -5.89273738861084,
                55.97663879394531
              ],
              [
                -5.952439785003662,
                55.77145767211914
              ],
              [
                -6.127885818481445,
                55.77145767211914
              ],
              [
                -6.187198638916016,
                55.56651306152344
              ],
              [
                -6.362338542938232,
                55.56651306152344
              ],
              [
                -6.381457328796387,
                55.70311737060547
              ],
              [
                -6.634748458862305,
                55.63479995727539
              ],
              [
                -6.507877826690674,
                55.97663879394531
              ],
              [
                -6.068491458892822,
                55.97663879394531
              ],
              [
                -5.920981407165527,
                56.182064056396484
              ],
              [
                -5.656883716583252,
                56.182064056396484
              ],
              [
                -5.684883117675781,
                56.387733459472656
              ],
              [
                -6.292484283447266,
                56.319149017333984
              ],
              [
                -6.23344087600708,
                56.524986267089844
              ],
              [
                -6.341366291046143,
                56.662349700927734
              ],
              [
                -5.908953666687012,
                56.731075286865234
              ],
              [
                -5.947565078735352,
                57.00625228881836
              ],
              [
                -6.055799961090088,
                57.14401626586914
              ],
              [
                -6.410901069641113,
                57.14401626586914
              ],
              [
                -6.618975639343262,
                57.35087585449219
              ],
              [
                -6.796852111816406,
                57.35087585449219
              ],
              [
                -6.817555904388428,
                57.488929748535156
              ],
              [
                -6.471539974212646,
                57.55800247192383
              ],
              [
                -6.502223968505859,
                57.7653923034668
              ],
              [
                -6.323688507080078,
                57.7653923034668
              ],
              [
                -6.11513090133667,
                57.55800247192383
              ],
              [
                -6.085347175598145,
                57.35087585449219
              ],
              [
                -5.808821201324463,
                57.28189468383789
              ],
              [
                -5.700699329376221,
                57.14401626586914
              ],
              [
                -5.729594707489014,
                57.35087585449219
              ],
              [
                -5.917263507843018,
                57.41988754272461
              ],
              [
                -5.887243270874023,
                57.8345832824707
              ],
              [
                -5.728240966796875,
                57.97305679321289
              ],
              [
                -5.459936618804932,
                57.97305679321289
              ],
              [
                -5.418947219848633,
                58.31977081298828
              ],
              [
                -5.239514827728271,
                58.31977081298828
              ],
              [
                -5.258847236633301,
                58.45867156982422
              ],
              [
                -5.169017314910889,
                58.45867156982422
              ],
              [
                -5.198037147521973,
                58.66725540161133
              ],
              [
                -4.019067287445068,
                58.59769821166992
              ],
              [
                -3.676762819290161,
                58.73685073852539
              ],
              [
                -3.136410236358643,
                58.73685073852539
              ],
              [
                -3.021383285522461,
                58.528167724609375
              ],
              [
                -3.428223133087158,
                58.180992126464844
              ],
              [
                -4.118414402008057,
                57.97305679321289
              ],
              [
                -3.930825471878052,
                57.903804779052734
              ],
              [
                -3.994018077850342,
                57.696231842041016
              ],
              [
                -3.726380348205566,
                57.696231842041016
              ],
              [
                -3.734920263290405,
                57.7653923034668
              ],
              [
                -1.852917313575745,
                57.696231842041016
              ],
              [
                -1.823600172996521,
                57.41988754272461
              ],
              [
                -2.075707674026489,
                57.28189468383789
              ],
              [
                -2.208682298660278,
                56.86860656738281
              ]
            ]
          ],
          [
            [
              [
                -7.440887928009033,
                57.488929748535156
              ],
              [
                -7.562519073486328,
                57.696231842041016
              ],
              [
                -7.116456508636475,
                57.696231842041016
              ],
              [
                -7.105842113494873,
                57.62710189819336
              ],
              [
                -7.440887928009033,
                57.488929748535156
              ]
            ]
          ],
          [
            [
              [
                -6.52281665802002,
                57.903804779052734
              ],
              [
                -7.12709903717041,
                57.7653923034668
              ],
              [
                -7.06976318359375,
                57.97305679321289
              ],
              [
                -7.281157493591309,
                58.180992126464844
              ],
              [
                -6.854404926300049,
                58.31977081298828
              ],
              [
                -6.764688491821289,
                58.31977081298828
              ],
              [
                -6.785952091217041,
                58.45867156982422
              ],
              [
                -6.25730562210083,
                58.528167724609375
              ],
              [
                -6.205919742584229,
                58.180992126464844
              ],
              [
                -6.385126113891602,
                58.180992126464844
              ],
              [
                -6.52281665802002,
                57.903804779052734
              ]
            ]
          ],
          [
            [
              [
                -3.376785039901733,
                59.22488784790039
              ],
              [
                -3.195853710174561,
                59.22488784790039
              ],
              [
                -3.088408470153809,
                59.08528518676758
              ],
              [
                -2.809081315994263,
                59.015533447265625
              ],
              [
                -2.792584657669067,
                58.876129150390625
              ],
              [
                -2.972933053970337,
                58.876129150390625
              ],
              [
                -3.063107252120972,
                58.876129150390625
              ],
              [
                -3.415184020996094,
                58.80647277832031
              ],
              [
                -3.531404256820679,
                59.015533447265625
              ],
              [
                -3.441113948822021,
                59.015533447265625
              ],
              [
                -3.376785039901733,
                59.22488784790039
              ]
            ]
          ],
          [
            [
              [
                -2.653059244155884,
                59.22488784790039
              ],
              [
                -2.644851207733154,
                59.15507125854492
              ],
              [
                -2.825665473937988,
                59.15507125854492
              ],
              [
                -2.842337846755981,
                59.294734954833984
              ],
              [
                -2.578956842422485,
                59.36461639404297
              ],
              [
                -2.562593460083008,
                59.22488784790039
              ],
              [
                -2.653059244155884,
                59.22488784790039
              ]
            ]
          ],
          [
            [
              [
                -1.050302863121033,
                60.34645080566406
              ],
              [
                -1.141728639602661,
                60.34645080566406
              ],
              [
                -1.203181028366089,
                60.065250396728516
              ],
              [
                -1.674645304679871,
                60.20578384399414
              ],
              [
                -1.63013768196106,
                60.628211975097656
              ],
              [
                -1.36280632019043,
                60.69873809814453
              ],
              [
                -1.347454905509949,
                60.557716369628906
              ],
              [
                -1.255844354629517,
                60.557716369628906
              ],
              [
                -1.278715848922729,
                60.76930236816406
              ],
              [
                -0.827084124088287,
                60.83990478515625
              ],
              [
                -0.805085599422455,
                60.628211975097656
              ],
              [
                -1.164233803749084,
                60.557716369628906
              ],
              [
                -1.050302863121033,
                60.34645080566406
              ]
            ]
          ]
        ]
      }
    }
  ]
}