{
  "type": "FeatureCollection",
  "name": "territory-375",
  "features": [
    {
      "type": "Feature",
      "properties": {
        "Name": "Hamdanid Emirates",
        "FromYear": 1236,
        "ToYear": 1249,
        "Area": 1101466.4065527862,
        "Type": "POLITY",
        "Wikipedia": "Hamdanid dynasty",
        "Wikidata": "Q837187",
        "SeshatID": "",
        "Components": "",
        "MemberOf": ""
      },
      "geometry": {
        "type": "MultiPolygon",
        "coordinates": [
          [
            [
              [
                50.64872360229492,
                25.8721923828125
              ],
              [
                50.42986297607422,
                25.936485290527344
              ],
              [
                50.460208892822266,
                26.257951736450195
              ],
              [
                50.68524169921875,
                26.257951736450195
              ],
              [
                50.672935485839844,
                26.129364013671875
              ],
              [
                50.666831970214844,
                26.06507110595703
              ],
              [
                50.64872360229492,
                25.8721923828125
              ]
            ]
          ],
          [
            [
              [
                48.43938446044922,
                28.572391510009766
              ],
              [
                48.583370208740234,
                28.508106231689453
              ],
              [
                48.562652587890625,
                28.315250396728516
              ],
              [
                48.974143981933594,
                27.92952537536621
              ],
              [
                48.87215805053711,
                27.6723690032959
              ],
              [
                49.241947174072266,
                27.608078002929688
              ],
              [
                49.35963439941406,
                27.2866268157959
              ],
              [
                50.13496398925781,
                26.772293090820312
              ],
              [
                50.11603546142578,
                26.57941436767578
              ],
              [
                50.2536735534668,
                26.450830459594727
              ],
              [
                50.22300720214844,
                26.129364013671875
              ],
              [
                50.067020416259766,
                26.06507110595703
              ],
              [
                50.21097183227539,
                26.000778198242188
              ],
              [
                50.325462341308594,
                25.615020751953125
              ],
              [
                50.60764694213867,
                25.422143936157227
              ],
              [
                50.654117584228516,
                25.100683212280273
              ],
              [
                50.72892761230469,
                25.100683212280273
              ],
              [
                50.768985748291016,
                25.55072784423828
              ],
              [
                50.92463302612305,
                25.615020751953125
              ],
              [
                50.95453643798828,
                25.936485290527344
              ],
              [
                51.12286376953125,
                26.129364013671875
              ],
              [
                51.42281723022461,
                26.129364013671875
              ],
              [
                51.697906494140625,
                25.8721923828125
              ],
              [
                51.574989318847656,
                25.357851028442383
              ],
              [
                51.71883010864258,
                25.29355812072754
              ],
              [
                51.69002151489258,
                24.97209930419922
              ],
              [
                51.52363204956055,
                24.779226303100586
              ],
              [
                51.41082000732422,
                24.329193115234375
              ],
              [
                51.85354995727539,
                24.264904022216797
              ],
              [
                51.90695571899414,
                24.00774574279785
              ],
              [
                52.28013229370117,
                24.00774574279785
              ],
              [
                52.60029602050781,
                24.264904022216797
              ],
              [
                53.11201095581055,
                24.136323928833008
              ],
              [
                54.082523345947266,
                24.136323928833008
              ],
              [
                54.099464416503906,
                24.329193115234375
              ],
              [
                54.31781005859375,
                24.264904022216797
              ],
              [
                54.55914306640625,
                24.457773208618164
              ],
              [
                54.74416732788086,
                24.843517303466797
              ],
              [
                55.14265441894531,
                25.100683212280273
              ],
              [
                55.41188049316406,
                25.55072784423828
              ],
              [
                55.73131561279297,
                25.743606567382812
              ],
              [
                55.806236267089844,
                25.743606567382812
              ],
              [
                56.05316925048828,
                25.229267120361328
              ],
              [
                56.01519775390625,
                24.843517303466797
              ],
              [
                55.5362663269043,
                24.522062301635742
              ],
              [
                55.461551666259766,
                24.522062301635742
              ],
              [
                54.812095642089844,
                23.943456649780273
              ],
              [
                53.969390869140625,
                23.68630027770996
              ],
              [
                51.88096237182617,
                23.68630027770996
              ],
              [
                51.82186508178711,
                23.879167556762695
              ],
              [
                51.1657829284668,
                24.07203483581543
              ],
              [
                51.17621994018555,
                24.200613021850586
              ],
              [
                50.477046966552734,
                24.779226303100586
              ],
              [
                50.031654357910156,
                25.67931365966797
              ],
              [
                49.674476623535156,
                25.8721923828125
              ],
              [
                49.87843704223633,
                26.450830459594727
              ],
              [
                49.25245666503906,
                26.96516990661621
              ],
              [
                49.26514434814453,
                27.093751907348633
              ],
              [
                49.058799743652344,
                27.2866268157959
              ],
              [
                48.55152893066406,
                27.4794979095459
              ],
              [
                48.52878189086914,
                27.993812561035156
              ],
              [
                48.466854095458984,
                28.12238883972168
              ],
              [
                48.247432708740234,
                28.186676025390625
              ],
              [
                48.2060546875,
                28.508106231689453
              ],
              [
                48.05513000488281,
                28.508106231689453
              ],
              [
                48.1443977355957,
                28.636676788330078
              ],
              [
                47.9317741394043,
                28.765243530273438
              ],
              [
                47.891380310058594,
                29.08665657043457
              ],
              [
                47.45193099975586,
                29.21521759033203
              ],
              [
                47.45903015136719,
                29.279497146606445
              ],
              [
                47.570716857910156,
                29.600887298583984
              ],
              [
                48.069862365722656,
                29.986536026000977
              ],
              [
                48.06229782104492,
                29.922264099121094
              ],
              [
                48.36544418334961,
                29.922264099121094
              ],
              [
                48.40353012084961,
                29.600887298583984
              ],
              [
                47.8662223815918,
                29.536611557006836
              ],
              [
                47.85165023803711,
                29.40805435180664
              ],
              [
                48.078643798828125,
                29.40805435180664
              ],
              [
                48.21538543701172,
                29.279497146606445
              ],
              [
                48.19374465942383,
                29.08665657043457
              ],
              [
                48.460411071777344,
                28.765243530273438
              ],
              [
                48.453369140625,
                28.700960159301758
              ],
              [
                48.43938446044922,
                28.572391510009766
              ]
            ]
          ],
          [
            [
              [
                70.84602355957031,
                32.043148040771484
              ],
              [
                70.39486694335938,
                28.958093643188477
              ],
              [
                70.1657943725586,
                28.508106231689453
              ],
              [
                69.9068832397461,
                28.315250396728516
              ],
              [
                69.83146667480469,
                28.315250396728516
              ],
              [
                69.75604248046875,
                28.315250396728516
              ],
              [
                69.74533081054688,
                28.25096321105957
              ],
              [
                69.23017120361328,
                27.865236282348633
              ],
              [
                68.52191162109375,
                27.6723690032959
              ],
              [
                68.0865478515625,
                27.2866268157959
              ],
              [
                67.91712188720703,
                26.643707275390625
              ],
              [
                67.99220275878906,
                26.643707275390625
              ],
              [
                68.06137084960938,
                26.06507110595703
              ],
              [
                68.19380187988281,
                25.936485290527344
              ],
              [
                68.21728515625,
                25.55072784423828
              ],
              [
                67.76142883300781,
                24.907808303833008
              ],
              [
                67.53521728515625,
                24.264904022216797
              ],
              [
                67.36372375488281,
                24.07203483581543
              ],
              [
                67.28907775878906,
                24.07203483581543
              ],
              [
                67.32612609863281,
                24.393482208251953
              ],
              [
                67.25143432617188,
                24.393482208251953
              ],
              [
                67.2146987915039,
                24.714935302734375
              ],
              [
                66.63204956054688,
                24.843517303466797
              ],
              [
                66.67909240722656,
                25.229267120361328
              ],
              [
                66.34514617919922,
                25.55072784423828
              ],
              [
                66.02147674560547,
                25.357851028442383
              ],
              [
                64.8160629272461,
                25.29355812072754
              ],
              [
                64.80064392089844,
                25.164974212646484
              ],
              [
                64.2845230102539,
                25.229267120361328
              ],
              [
                64.22502136230469,
                25.357851028442383
              ],
              [
                63.62620544433594,
                25.357851028442383
              ],
              [
                63.536216735839844,
                25.229267120361328
              ],
              [
                62.563419342041016,
                25.229267120361328
              ],
              [
                62.47393035888672,
                25.100683212280273
              ],
              [
                62.18195724487305,
                25.164974212646484
              ],
              [
                62.01787185668945,
                25.03639030456543
              ],
              [
                61.71868133544922,
                25.03639030456543
              ],
              [
                61.65822219848633,
                25.164974212646484
              ],
              [
                61.12736892700195,
                25.100683212280273
              ],
              [
                60.91714859008789,
                25.229267120361328
              ],
              [
                60.617828369140625,
                25.229267120361328
              ],
              [
                60.63211441040039,
                25.357851028442383
              ],
              [
                59.060218811035156,
                25.357851028442383
              ],
              [
                58.78172302246094,
                25.55072784423828
              ],
              [
                57.957984924316406,
                25.55072784423828
              ],
              [
                57.7402229309082,
                25.615020751953125
              ],
              [
                57.67921447753906,
                25.743606567382812
              ],
              [
                57.37953567504883,
                25.743606567382812
              ],
              [
                57.11480712890625,
                26.06507110595703
              ],
              [
                57.03743362426758,
                26.70800018310547
              ],
              [
                57.04490661621094,
                26.772293090820312
              ],
              [
                57.503143310546875,
                26.836584091186523
              ],
              [
                58.000667572021484,
                27.222335815429688
              ],
              [
                58.29122543334961,
                27.736658096313477
              ],
              [
                58.988399505615234,
                28.44382095336914
              ],
              [
                59.23011016845703,
                29.08665657043457
              ],
              [
                59.6086311340332,
                29.600887298583984
              ],
              [
                60.02658462524414,
                29.857990264892578
              ],
              [
                60.046546936035156,
                29.986536026000977
              ],
              [
                61.74460220336914,
                31.079113006591797
              ],
              [
                64.4466552734375,
                32.107421875
              ],
              [
                64.82718658447266,
                32.493072509765625
              ],
              [
                65.1222152709961,
                33.20018768310547
              ],
              [
                66.11872100830078,
                33.20018768310547
              ],
              [
                66.2989730834961,
                33.32876968383789
              ],
              [
                66.5921630859375,
                33.26447677612305
              ],
              [
                67.07960510253906,
                33.393062591552734
              ],
              [
                68.21624755859375,
                33.32876968383789
              ],
              [
                68.46038055419922,
                33.393062591552734
              ],
              [
                68.73312377929688,
                33.5859489440918
              ],
              [
                68.86737823486328,
                33.84315490722656
              ],
              [
                69.29545593261719,
                34.03607940673828
              ],
              [
                70.43400573730469,
                33.971771240234375
              ],
              [
                70.54087829589844,
                34.10039138793945
              ],
              [
                72.38694763183594,
                34.10039138793945
              ],
              [
                71.95632934570312,
                33.90746307373047
              ],
              [
                71.6352767944336,
                33.52165222167969
              ],
              [
                71.4844970703125,
                33.20018768310547
              ],
              [
                71.59382629394531,
                33.00732421875
              ],
              [
                71.32064056396484,
                32.81447219848633
              ],
              [
                71.30626678466797,
                32.75019073486328
              ],
              [
                70.84602355957031,
                32.043148040771484
              ]
            ]
          ],
          [
            [
              [
                42.62437438964844,
                41.586883544921875
              ],
              [
                42.86325454711914,
                41.586883544921875
              ],
              [
                43.19264602661133,
                41.19768524169922
              ],
              [
                43.57847213745117,
                41.132843017578125
              ],
              [
                43.55564880371094,
                41.00318908691406
              ],
              [
                43.77094650268555,
                40.873565673828125
              ],
              [
                43.63535690307617,
                40.54964065551758
              ],
              [
                43.648197174072266,
                40.16116714477539
              ],
              [
                43.86334228515625,
                40.031734466552734
              ],
              [
                44.56298828125,
                39.9670295715332
              ],
              [
                44.89103698730469,
                39.57893371582031
              ],
              [
                44.847415924072266,
                39.320335388183594
              ],
              [
                44.52192687988281,
                39.25570297241211
              ],
              [
                44.32237243652344,
                38.997230529785156
              ],
              [
                44.30800247192383,
                38.416015625
              ],
              [
                44.45452117919922,
                38.351463317871094
              ],
              [
                44.30603790283203,
                37.89975357055664
              ],
              [
                44.44255065917969,
                37.7707405090332
              ],
              [
                43.5736083984375,
                37.706241607666016
              ],
              [
                43.55448913574219,
                37.5772590637207
              ],
              [
                43.32033157348633,
                37.5772590637207
              ],
              [
                43.360713958740234,
                37.3193473815918
              ],
              [
                42.73701858520508,
                37.3193473815918
              ],
              [
                41.86069107055664,
                36.61045455932617
              ],
              [
                41.10039138793945,
                36.73930740356445
              ],
              [
                40.9617805480957,
                36.8681755065918
              ],
              [
                40.91804122924805,
                37.12596130371094
              ],
              [
                40.35599899291992,
                36.9970588684082
              ],
              [
                39.43803405761719,
                37.12596130371094
              ],
              [
                39.24200439453125,
                38.028785705566406
              ],
              [
                38.9015007019043,
                38.416015625
              ],
              [
                38.744789123535156,
                38.416015625
              ],
              [
                39.81666564941406,
                38.80344009399414
              ],
              [
                39.834686279296875,
                38.93262481689453
              ],
              [
                39.99177932739258,
                38.93262481689453
              ],
              [
                40.26435852050781,
                39.19107437133789
              ],
              [
                40.74570846557617,
                39.25570297241211
              ],
              [
                40.94149398803711,
                39.51427459716797
              ],
              [
                41.52265167236328,
                39.70827102661133
              ],
              [
                41.573028564453125,
                40.031734466552734
              ],
              [
                41.42521667480469,
                40.0964469909668
              ],
              [
                41.3870735168457,
                40.355369567871094
              ],
              [
                41.149749755859375,
                40.355369567871094
              ],
              [
                41.01192855834961,
                40.4848747253418
              ],
              [
                40.616127014160156,
                40.4848747253418
              ],
              [
                40.59599685668945,
                40.355369567871094
              ],
              [
                40.03242492675781,
                40.29063034057617
              ],
              [
                39.67759704589844,
                40.031734466552734
              ],
              [
                38.98551940917969,
                40.16116714477539
              ],
              [
                38.767127990722656,
                40.29063034057617
              ],
              [
                38.8049430847168,
                40.54964065551758
              ],
              [
                38.66557693481445,
                40.6791877746582
              ],
              [
                40.56735610961914,
                40.6791877746582
              ],
              [
                41.163822174072266,
                40.93837356567383
              ],
              [
                41.29633712768555,
                41.26253128051758
              ],
              [
                41.22755813598633,
                41.32738494873047
              ],
              [
                41.307071685791016,
                41.32738494873047
              ],
              [
                41.31784439086914,
                41.39224624633789
              ],
              [
                41.39738464355469,
                41.39224624633789
              ],
              [
                41.40821838378906,
                41.45711898803711
              ],
              [
                41.487789154052734,
                41.45711898803711
              ],
              [
                41.567359924316406,
                41.45711898803711
              ],
              [
                41.57828140258789,
                41.521995544433594
              ],
              [
                42.442626953125,
                41.45711898803711
              ],
              [
                42.62437438964844,
                41.586883544921875
              ]
            ]
          ],
          [
            [
              [
                48.411216735839844,
                41.84651184082031
              ],
              [
                48.39771270751953,
                41.781593322753906
              ],
              [
                48.47742462158203,
                41.781593322753906
              ],
              [
                48.2778205871582,
                41.586883544921875
              ],
              [
                48.118568420410156,
                41.586883544921875
              ],
              [
                48.131866455078125,
                41.65177917480469
              ],
              [
                48.1191520690918,
                41.97637939453125
              ],
              [
                48.265220642089844,
                41.911441802978516
              ],
              [
                48.34498977661133,
                41.911441802978516
              ],
              [
                48.331478118896484,
                41.84651184082031
              ],
              [
                48.411216735839844,
                41.84651184082031
              ]
            ]
          ]
        ]
      }
    }
  ]
}