{
  "type": "FeatureCollection",
  "name": "territory-38",
  "features": [
    {
      "type": "Feature",
      "properties": {
        "Name": "Hadhramaut",
        "FromYear": 283,
        "ToYear": 298,
        "Area": 98062.03968396905,
        "Type": "POLITY",
        "Wikipedia": "Hadhramaut",
        "Wikidata": "Q1517159",
        "SeshatID": "",
        "Components": "",
        "MemberOf": ""
      },
      "geometry": {
        "type": "MultiPolygon",
        "coordinates": [
          [
            [
              [
                50.84516906738281,
                15.328963279724121
              ],
              [
                50.75175476074219,
                15.007523536682129
              ],
              [
                49.63019943237305,
                14.686083793640137
              ],
              [
                48.535369873046875,
                14.81466007232666
              ],
              [
                48.322261810302734,
                14.943235397338867
              ],
              [
                47.52102279663086,
                15.07181167602539
              ],
              [
                47.52838134765625,
                15.200387001037598
              ],
              [
                46.800392150878906,
                15.328963279724121
              ],
              [
                46.579769134521484,
                15.328963279724121
              ],
              [
                46.49181365966797,
                15.07181167602539
              ],
              [
                46.34123229980469,
                15.007523536682129
              ],
              [
                45.59922790527344,
                14.878947257995605
              ],
              [
                45.59579086303711,
                14.81466007232666
              ],
              [
                45.007877349853516,
                14.81466007232666
              ],
              [
                44.927677154541016,
                14.686083793640137
              ],
              [
                44.56029510498047,
                14.686083793640137
              ],
              [
                44.34646987915039,
                14.81466007232666
              ],
              [
                44.28974151611328,
                15.136098861694336
              ],
              [
                45.024959564208984,
                15.136098861694336
              ],
              [
                45.17897415161133,
                15.26467514038086
              ],
              [
                45.847938537597656,
                15.393251419067383
              ],
              [
                45.85514831542969,
                15.52182674407959
              ],
              [
                46.14939498901367,
                15.52182674407959
              ],
              [
                46.38114929199219,
                15.714691162109375
              ],
              [
                46.46971130371094,
                15.971842765808105
              ],
              [
                46.47349166870117,
                16.036130905151367
              ],
              [
                46.55471420288086,
                16.16470718383789
              ],
              [
                46.698150634765625,
                16.100418090820312
              ],
              [
                48.11691665649414,
                16.421857833862305
              ],
              [
                49.59426498413086,
                16.486146926879883
              ],
              [
                50.11839294433594,
                16.614723205566406
              ],
              [
                50.48252487182617,
                16.550434112548828
              ],
              [
                51.080589294433594,
                16.67901039123535
              ],
              [
                51.88673400878906,
                16.614723205566406
              ],
              [
                51.95158767700195,
                16.486146926879883
              ],
              [
                51.86045455932617,
                16.228994369506836
              ],
              [
                51.24172592163086,
                15.77897834777832
              ],
              [
                51.0780143737793,
                15.52182674407959
              ],
              [
                51.07392501831055,
                15.457538604736328
              ],
              [
                50.84516906738281,
                15.328963279724121
              ]
            ]
          ],
          [
            [
              [
                46.70197677612305,
                16.16470718383789
              ],
              [
                46.62834548950195,
                16.16470718383789
              ],
              [
                46.63217544555664,
                16.228994369506836
              ],
              [
                46.705814361572266,
                16.228994369506836
              ],
              [
                46.70197677612305,
                16.16470718383789
              ]
            ]
          ]
        ]
      }
    }
  ]
}