{
  "type": "FeatureCollection",
  "name": "territory-380",
  "features": [
    {
      "type": "Feature",
      "properties": {
        "Name": "Abbasid Caliphate/Buyid Dynasty",
        "FromYear": 947,
        "ToYear": 959,
        "Area": 735811.7024261286,
        "Type": "POLITY",
        "Wikipedia": "Abbasid Caliphate",
        "Wikidata": "Q12536",
        "SeshatID": "ir_buyid_confederation",
        "Components": "",
        "MemberOf": ""
      },
      "geometry": {
        "type": "Polygon",
        "coordinates": [
          [
            [
              51.087215423583984,
              36.03080368041992
            ],
            [
              51.03292465209961,
              35.708900451660156
            ],
            [
              51.48845291137695,
              35.194007873535156
            ],
            [
              51.40837860107422,
              34.22901916503906
            ],
            [
              51.70587921142578,
              34.164703369140625
            ],
            [
              51.68529510498047,
              34.03607940673828
            ],
            [
              52.01839065551758,
              33.71455001831055
            ],
            [
              51.7352180480957,
              32.878753662109375
            ],
            [
              51.4573860168457,
              32.557350158691406
            ],
            [
              51.41944122314453,
              32.30024337768555
            ],
            [
              51.592384338378906,
              31.91460609436035
            ],
            [
              51.73567581176758,
              31.8503360748291
            ],
            [
              51.717185974121094,
              31.7217960357666
            ],
            [
              51.927452087402344,
              31.593257904052734
            ],
            [
              51.976173400878906,
              31.40045166015625
            ],
            [
              52.12848663330078,
              31.40045166015625
            ],
            [
              52.387489318847656,
              31.079113006591797
            ],
            [
              52.53963851928711,
              31.079113006591797
            ],
            [
              52.865718841552734,
              30.69350814819336
            ],
            [
              53.017669677734375,
              30.69350814819336
            ],
            [
              53.419769287109375,
              30.307893753051758
            ],
            [
              54.084781646728516,
              30.179353713989258
            ],
            [
              54.888511657714844,
              29.40805435180664
            ],
            [
              55.33379364013672,
              29.34377670288086
            ],
            [
              55.467735290527344,
              29.21521759033203
            ],
            [
              55.43348693847656,
              28.958093643188477
            ],
            [
              55.56766128540039,
              28.829526901245117
            ],
            [
              55.6014289855957,
              28.508106231689453
            ],
            [
              55.752357482910156,
              28.508106231689453
            ],
            [
              55.87852096557617,
              28.315250396728516
            ],
            [
              55.76267623901367,
              27.993812561035156
            ],
            [
              55.988739013671875,
              27.993812561035156
            ],
            [
              56.190765380859375,
              27.800947189331055
            ],
            [
              56.341392517089844,
              27.800947189331055
            ],
            [
              56.46818161010742,
              27.608078002929688
            ],
            [
              56.61872482299805,
              27.608078002929688
            ],
            [
              56.805274963378906,
              27.2866268157959
            ],
            [
              56.714656829833984,
              27.158044815063477
            ],
            [
              56.63947296142578,
              27.158044815063477
            ],
            [
              56.188377380371094,
              27.158044815063477
            ],
            [
              56.098140716552734,
              27.029460906982422
            ],
            [
              56.32361602783203,
              27.029460906982422
            ],
            [
              56.30864334106445,
              26.900876998901367
            ],
            [
              56.06119155883789,
              26.70800018310547
            ],
            [
              55.60341262817383,
              26.643707275390625
            ],
            [
              55.439002990722656,
              26.515121459960938
            ],
            [
              55.28888702392578,
              26.515121459960938
            ],
            [
              55.31023025512695,
              26.70800018310547
            ],
            [
              55.542747497558594,
              26.772293090820312
            ],
            [
              55.242313385009766,
              26.772293090820312
            ],
            [
              54.83156204223633,
              26.450830459594727
            ],
            [
              54.463233947753906,
              26.515121459960938
            ],
            [
              54.25889205932617,
              26.70800018310547
            ],
            [
              53.65812301635742,
              26.70800018310547
            ],
            [
              53.46059036254883,
              26.96516990661621
            ],
            [
              52.736968994140625,
              27.222335815429688
            ],
            [
              52.478694915771484,
              27.608078002929688
            ],
            [
              52.04855728149414,
              27.800947189331055
            ],
            [
              51.5966796875,
              27.800947189331055
            ],
            [
              51.31684494018555,
              27.993812561035156
            ],
            [
              51.331298828125,
              28.12238883972168
            ],
            [
              51.06624984741211,
              28.44382095336914
            ],
            [
              51.028076171875,
              28.765243530273438
            ],
            [
              50.80903244018555,
              28.829526901245117
            ],
            [
              50.9150390625,
              29.08665657043457
            ],
            [
              50.620323181152344,
              29.150936126708984
            ],
            [
              50.65126037597656,
              29.40805435180664
            ],
            [
              50.23628234863281,
              29.729440689086914
            ],
            [
              50.0648078918457,
              30.179353713989258
            ],
            [
              49.585899353027344,
              29.986536026000977
            ],
            [
              48.942848205566406,
              30.307893753051758
            ],
            [
              48.987266540527344,
              30.050809860229492
            ],
            [
              48.903682708740234,
              29.986536026000977
            ],
            [
              48.36544418334961,
              29.922264099121094
            ],
            [
              48.40353012084961,
              29.600887298583984
            ],
            [
              47.941917419433594,
              29.536611557006836
            ],
            [
              47.8662223815918,
              29.536611557006836
            ],
            [
              47.646427154541016,
              29.600887298583984
            ],
            [
              47.534664154052734,
              29.279497146606445
            ],
            [
              48.0142822265625,
              28.829526901245117
            ],
            [
              48.130592346191406,
              28.508106231689453
            ],
            [
              48.05513000488281,
              28.508106231689453
            ],
            [
              47.533660888671875,
              28.572391510009766
            ],
            [
              46.98427963256836,
              29.08665657043457
            ],
            [
              46.75750732421875,
              29.08665657043457
            ],
            [
              46.84696578979492,
              29.21521759033203
            ],
            [
              46.69572448730469,
              29.21521759033203
            ],
            [
              46.70965576171875,
              29.34377670288086
            ],
            [
              46.5514030456543,
              29.279497146606445
            ],
            [
              46.56534194946289,
              29.40805435180664
            ],
            [
              46.35935592651367,
              29.600887298583984
            ],
            [
              45.8574104309082,
              29.857990264892578
            ],
            [
              45.6584358215332,
              30.115081787109375
            ],
            [
              45.506771087646484,
              30.115081787109375
            ],
            [
              45.09444046020508,
              30.500701904296875
            ],
            [
              44.51554870605469,
              30.757776260375977
            ],
            [
              44.28044509887695,
              30.69350814819336
            ],
            [
              43.83867645263672,
              30.822044372558594
            ],
            [
              43.23060989379883,
              30.822044372558594
            ],
            [
              42.678192138671875,
              30.629240036010742
            ],
            [
              42.68495178222656,
              30.69350814819336
            ],
            [
              42.54671859741211,
              31.528987884521484
            ],
            [
              42.47052764892578,
              31.528987884521484
            ],
            [
              42.50613021850586,
              31.8503360748291
            ],
            [
              42.42985153198242,
              31.8503360748291
            ],
            [
              42.36363983154297,
              33.26447677612305
            ],
            [
              42.57145309448242,
              33.71455001831055
            ],
            [
              42.89459991455078,
              33.84315490722656
            ],
            [
              43.242584228515625,
              34.164703369140625
            ],
            [
              43.39646530151367,
              34.164703369140625
            ],
            [
              43.660587310791016,
              34.42197799682617
            ],
            [
              43.81462097167969,
              34.42197799682617
            ],
            [
              43.92555618286133,
              34.679283142089844
            ],
            [
              44.1740608215332,
              34.80794906616211
            ],
            [
              44.40733337402344,
              35.38706970214844
            ],
            [
              44.898380279541016,
              35.58015823364258
            ],
            [
              44.94412612915039,
              35.902034759521484
            ],
            [
              45.1176643371582,
              36.03080368041992
            ],
            [
              45.350242614746094,
              36.03080368041992
            ],
            [
              45.62080383300781,
              36.28839111328125
            ],
            [
              45.84403610229492,
              36.2239875793457
            ],
            [
              46.26120376586914,
              36.417205810546875
            ],
            [
              46.814735412597656,
              36.48161697387695
            ],
            [
              46.872501373291016,
              36.3527946472168
            ],
            [
              47.10540008544922,
              36.3527946472168
            ],
            [
              47.280792236328125,
              36.48161697387695
            ],
            [
              47.196571350097656,
              36.932613372802734
            ],
            [
              47.627525329589844,
              37.1904182434082
            ],
            [
              48.08439254760742,
              37.12596130371094
            ],
            [
              48.26158142089844,
              37.254878997802734
            ],
            [
              48.38528060913086,
              37.06150817871094
            ],
            [
              48.79628372192383,
              37.1904182434082
            ],
            [
              48.852516174316406,
              37.06150817871094
            ],
            [
              49.075279235839844,
              36.9970588684082
            ],
            [
              49.18772506713867,
              36.73930740356445
            ],
            [
              50.3551139831543,
              36.28839111328125
            ],
            [
              50.411033630371094,
              36.15959167480469
            ],
            [
              50.809814453125,
              36.2239875793457
            ],
            [
              51.087215423583984,
              36.03080368041992
            ]
          ]
        ]
      }
    }
  ]
}