{
  "type": "FeatureCollection",
  "name": "territory-384",
  "features": [
    {
      "type": "Feature",
      "properties": {
        "Name": "Chandela Kingdom",
        "FromYear": 1210,
        "ToYear": 1215,
        "Area": 80631.30859361328,
        "Type": "POLITY",
        "Wikipedia": "Chandelas of Jejakabhukti",
        "Wikidata": "Q2039087",
        "SeshatID": "in_chandela_k",
        "Components": "",
        "MemberOf": ""
      },
      "geometry": {
        "type": "Polygon",
        "coordinates": [
          [
            [
              79.31006329061967,
              23.29721773634097
            ],
            [
              79.08777321894839,
              23.85294291551917
            ],
            [
              78.99885719027988,
              24.03077497285619
            ],
            [
              78.82102513294285,
              24.386439087530235
            ],
            [
              78.84325414010998,
              24.831019230872794
            ],
            [
              78.82102513294285,
              25.09776731687833
            ],
            [
              79.04331520461413,
              25.320057388549607
            ],
            [
              79.31006329061967,
              25.49788944588663
            ],
            [
              79.53235336229095,
              25.6312634888894
            ],
            [
              79.55458236945807,
              25.94246958922919
            ],
            [
              80.04362052713489,
              26.14253065373334
            ],
            [
              80.97691249767335,
              25.73048926401672
            ],
            [
              81.04392584965564,
              25.72017951755791
            ],
            [
              81.39958996432969,
              25.364515402883864
            ],
            [
              82.46658230835183,
              24.831019230872794
            ],
            [
              83.02230748753003,
              24.786561216538537
            ],
            [
              83.57803266670822,
              24.34198107319598
            ],
            [
              82.93339145886151,
              24.297523058861724
            ],
            [
              82.55549833702034,
              23.875171922686295
            ],
            [
              80.53265868481171,
              23.764026886850655
            ],
            [
              79.31006329061967,
              23.29721773634097
            ]
          ]
        ]
      }
    }
  ]
}