{
  "type": "FeatureCollection",
  "name": "territory-385",
  "features": [
    {
      "type": "Feature",
      "properties": {
        "Name": "Utpala Dynasty",
        "FromYear": 1000,
        "ToYear": 1002,
        "Area": 175379.38241562486,
        "Type": "POLITY",
        "Wikipedia": "Utpala dynasty",
        "Wikidata": "Q1617123",
        "SeshatID": "in_utpala_dyn",
        "Components": "",
        "MemberOf": ""
      },
      "geometry": {
        "type": "Polygon",
        "coordinates": [
          [
            [
              77.27239399476625,
              37.003353311054966
            ],
            [
              77.28548829751243,
              36.167480305728425
            ],
            [
              77.33525355847749,
              35.62728663588648
            ],
            [
              77.34520661067049,
              35.26240563884907
            ],
            [
              76.81769484444094,
              33.363538842994345
            ],
            [
              75.63328163347266,
              33.761635099884224
            ],
            [
              74.9216384016724,
              34.666980641948044
            ],
            [
              73.79684461113206,
              34.81768602041505
            ],
            [
              73.18483079399205,
              34.99785363071757
            ],
            [
              73.0177115602074,
              35.09341553931814
            ],
            [
              72.3885866185512,
              35.45316096664792
            ],
            [
              71.61224854749636,
              35.47748025951215
            ],
            [
              70.97818408690742,
              35.88517290309487
            ],
            [
              70.96124214783505,
              36.917608867362546
            ],
            [
              71.12049098292337,
              37.306526624660385
            ],
            [
              71.26978676581868,
              37.38565195871803
            ],
            [
              71.6280966447674,
              37.559433991172085
            ],
            [
              71.93664126275104,
              37.74855317588346
            ],
            [
              73.07128921275535,
              37.73281164514931
            ],
            [
              74.8230263987269,
              37.51997355972423
            ],
            [
              75.37044426934303,
              37.274853149414916
            ],
            [
              77.27239399476625,
              37.003353311054966
            ]
          ]
        ]
      }
    }
  ]
}