{
  "type": "FeatureCollection",
  "name": "territory-388",
  "features": [
    {
      "type": "Feature",
      "properties": {
        "Name": "Ghaznavid Empire",
        "FromYear": 1028,
        "ToYear": 1033,
        "Area": 2994859.5533886594,
        "Type": "POLITY",
        "Wikipedia": "Ghaznavids",
        "Wikidata": "Q12844800",
        "SeshatID": "af_ghaznavid_emp",
        "Components": "",
        "MemberOf": ""
      },
      "geometry": {
        "type": "Polygon",
        "coordinates": [
          [
            [
              66.64754486083984,
              24.97209930419922
            ],
            [
              66.62029266357422,
              25.357851028442383
            ],
            [
              66.34514617919922,
              25.55072784423828
            ],
            [
              66.02147674560547,
              25.357851028442383
            ],
            [
              64.8160629272461,
              25.29355812072754
            ],
            [
              64.80064392089844,
              25.164974212646484
            ],
            [
              64.2845230102539,
              25.229267120361328
            ],
            [
              64.22502136230469,
              25.357851028442383
            ],
            [
              63.62620544433594,
              25.357851028442383
            ],
            [
              63.536216735839844,
              25.229267120361328
            ],
            [
              62.563419342041016,
              25.229267120361328
            ],
            [
              62.47393035888672,
              25.100683212280273
            ],
            [
              62.18195724487305,
              25.164974212646484
            ],
            [
              62.01787185668945,
              25.03639030456543
            ],
            [
              61.71868133544922,
              25.03639030456543
            ],
            [
              61.65822219848633,
              25.164974212646484
            ],
            [
              61.12736892700195,
              25.100683212280273
            ],
            [
              60.91714859008789,
              25.229267120361328
            ],
            [
              60.617828369140625,
              25.229267120361328
            ],
            [
              60.63211441040039,
              25.357851028442383
            ],
            [
              59.060218811035156,
              25.357851028442383
            ],
            [
              58.78172302246094,
              25.55072784423828
            ],
            [
              57.957984924316406,
              25.55072784423828
            ],
            [
              57.7402229309082,
              25.615020751953125
            ],
            [
              57.67921447753906,
              25.743606567382812
            ],
            [
              57.37953567504883,
              25.743606567382812
            ],
            [
              57.175662994384766,
              25.936485290527344
            ],
            [
              57.05242156982422,
              26.836584091186523
            ],
            [
              56.714656829833984,
              27.158044815063477
            ],
            [
              56.188377380371094,
              27.158044815063477
            ],
            [
              56.098140716552734,
              27.029460906982422
            ],
            [
              56.32361602783203,
              27.029460906982422
            ],
            [
              56.30864334106445,
              26.900876998901367
            ],
            [
              56.06119155883789,
              26.70800018310547
            ],
            [
              55.28888702392578,
              26.515121459960938
            ],
            [
              55.31023025512695,
              26.70800018310547
            ],
            [
              55.542747497558594,
              26.772293090820312
            ],
            [
              55.242313385009766,
              26.772293090820312
            ],
            [
              54.9886474609375,
              26.515121459960938
            ],
            [
              54.68146514892578,
              26.450830459594727
            ],
            [
              54.25889205932617,
              26.70800018310547
            ],
            [
              53.65812301635742,
              26.70800018310547
            ],
            [
              53.46059036254883,
              26.96516990661621
            ],
            [
              52.736968994140625,
              27.222335815429688
            ],
            [
              52.478694915771484,
              27.608078002929688
            ],
            [
              51.385009765625,
              27.92952537536621
            ],
            [
              51.3922004699707,
              27.993812561035156
            ],
            [
              52.06228256225586,
              28.572391510009766
            ],
            [
              52.033172607421875,
              28.958093643188477
            ],
            [
              51.91355895996094,
              29.21521759033203
            ],
            [
              51.77025604248047,
              29.279497146606445
            ],
            [
              51.7266731262207,
              29.536611557006836
            ],
            [
              51.58335494995117,
              29.600887298583984
            ],
            [
              51.599609375,
              29.729440689086914
            ],
            [
              51.38869094848633,
              29.857990264892578
            ],
            [
              51.27006912231445,
              30.115081787109375
            ],
            [
              51.11840057373047,
              30.115081787109375
            ],
            [
              50.88184356689453,
              30.629240036010742
            ],
            [
              50.73839569091797,
              30.69350814819336
            ],
            [
              50.75543975830078,
              30.822044372558594
            ],
            [
              50.28329086303711,
              31.271915435791016
            ],
            [
              50.17465591430664,
              31.593257904052734
            ],
            [
              49.558998107910156,
              32.107421875
            ],
            [
              48.80427169799805,
              32.171695709228516
            ],
            [
              48.51063537597656,
              32.81447219848633
            ],
            [
              48.48830795288086,
              33.20018768310547
            ],
            [
              48.35322570800781,
              33.32876968383789
            ],
            [
              48.253082275390625,
              34.22901916503906
            ],
            [
              48.069610595703125,
              34.55062484741211
            ],
            [
              48.09836959838867,
              34.743614196777344
            ],
            [
              48.02125549316406,
              34.743614196777344
            ],
            [
              48.12850570678711,
              35.45143127441406
            ],
            [
              48.42078399658203,
              35.837650299072266
            ],
            [
              48.76141357421875,
              36.03080368041992
            ],
            [
              49.811832427978516,
              36.28839111328125
            ],
            [
              50.3551139831543,
              36.28839111328125
            ],
            [
              50.411033630371094,
              36.15959167480469
            ],
            [
              50.809814453125,
              36.2239875793457
            ],
            [
              51.37533950805664,
              35.902034759521484
            ],
            [
              51.97303009033203,
              35.77327346801758
            ],
            [
              52.02837371826172,
              35.644527435302734
            ],
            [
              52.33797836303711,
              35.644527435302734
            ],
            [
              52.52635192871094,
              35.837650299072266
            ],
            [
              52.736202239990234,
              35.708900451660156
            ],
            [
              53.52188491821289,
              35.77327346801758
            ],
            [
              54.00981521606445,
              35.902034759521484
            ],
            [
              54.2119140625,
              36.15959167480469
            ],
            [
              53.9192008972168,
              36.67487716674805
            ],
            [
              53.95549011230469,
              36.8681755065918
            ],
            [
              54.033294677734375,
              36.8681755065918
            ],
            [
              54.09466552734375,
              37.1904182434082
            ],
            [
              53.91046905517578,
              37.44829177856445
            ],
            [
              53.90790557861328,
              37.835243225097656
            ],
            [
              53.82976150512695,
              37.835243225097656
            ],
            [
              53.98678207397461,
              38.997230529785156
            ],
            [
              53.5175895690918,
              39.38497543334961
            ],
            [
              53.13750457763672,
              39.449623107910156
            ],
            [
              53.54492950439453,
              39.51427459716797
            ],
            [
              53.498451232910156,
              40.031734466552734
            ],
            [
              52.78766632080078,
              40.031734466552734
            ],
            [
              52.778533935546875,
              40.355369567871094
            ],
            [
              52.69942855834961,
              40.355369567871094
            ],
            [
              52.89295959472656,
              40.873565673828125
            ],
            [
              52.97228240966797,
              40.873565673828125
            ],
            [
              52.943321228027344,
              40.74397277832031
            ],
            [
              53.33966064453125,
              40.74397277832031
            ],
            [
              53.448211669921875,
              40.873565673828125
            ],
            [
              53.40435791015625,
              40.6791877746582
            ],
            [
              54.370140075683594,
              40.74397277832031
            ],
            [
              54.38508224487305,
              40.80876541137695
            ],
            [
              56.82743835449219,
              40.74397277832031
            ],
            [
              57.464874267578125,
              41.39224624633789
            ],
            [
              57.56444549560547,
              41.781593322753906
            ],
            [
              57.95698165893555,
              42.36617660522461
            ],
            [
              58.05148696899414,
              43.016544342041016
            ],
            [
              58.337066650390625,
              43.472347259521484
            ],
            [
              58.41754150390625,
              43.472347259521484
            ],
            [
              58.63294982910156,
              43.6678352355957
            ],
            [
              59.1235237121582,
              43.407203674316406
            ],
            [
              60.287200927734375,
              43.53750228881836
            ],
            [
              60.367706298828125,
              43.53750228881836
            ],
            [
              60.39189529418945,
              43.342071533203125
            ],
            [
              61.008094787597656,
              42.691246032714844
            ],
            [
              61.16832733154297,
              42.691246032714844
            ],
            [
              61.39565658569336,
              42.36617660522461
            ],
            [
              61.55559539794922,
              42.36617660522461
            ],
            [
              61.78269577026367,
              42.041324615478516
            ],
            [
              62.06501388549805,
              41.911441802978516
            ],
            [
              62.13274002075195,
              41.586883544921875
            ],
            [
              62.439735412597656,
              41.26253128051758
            ],
            [
              62.411582946777344,
              40.873565673828125
            ],
            [
              62.29690933227539,
              40.74397277832031
            ],
            [
              62.4027099609375,
              40.54964065551758
            ],
            [
              62.31605529785156,
              40.225894927978516
            ],
            [
              62.45697021484375,
              40.16116714477539
            ],
            [
              62.42277526855469,
              40.031734466552734
            ],
            [
              62.580726623535156,
              40.031734466552734
            ],
            [
              62.65380859375,
              39.70827102661133
            ],
            [
              63.088340759277344,
              39.25570297241211
            ],
            [
              63.24568557739258,
              39.25570297241211
            ],
            [
              63.41547393798828,
              38.997230529785156
            ],
            [
              63.837432861328125,
              38.80344009399414
            ],
            [
              64.00749206542969,
              38.54513168334961
            ],
            [
              64.36690521240234,
              38.416015625
            ],
            [
              64.66151428222656,
              38.028785705566406
            ],
            [
              65.23883056640625,
              37.835243225097656
            ],
            [
              65.62744903564453,
              37.51277160644531
            ],
            [
              66.51548767089844,
              37.3193473815918
            ],
            [
              66.99945068359375,
              37.38381576538086
            ],
            [
              67.12300109863281,
              37.254878997802734
            ],
            [
              67.74652099609375,
              37.254878997802734
            ],
            [
              67.91515350341797,
              36.9970588684082
            ],
            [
              68.1487045288086,
              36.9970588684082
            ],
            [
              68.7763900756836,
              37.3193473815918
            ],
            [
              69.0102767944336,
              37.3193473815918
            ],
            [
              69.1160659790039,
              37.12596130371094
            ],
            [
              69.3497543334961,
              37.12596130371094
            ],
            [
              69.5460205078125,
              37.5772590637207
            ],
            [
              70.07515716552734,
              37.51277160644531
            ],
            [
              70.26583862304688,
              37.641746520996094
            ],
            [
              70.16192626953125,
              37.835243225097656
            ],
            [
              70.2146987915039,
              38.028785705566406
            ],
            [
              70.71366119384766,
              38.416015625
            ],
            [
              71.18379211425781,
              38.416015625
            ],
            [
              71.3639907836914,
              38.22237777709961
            ],
            [
              71.27379608154297,
              37.89975357055664
            ],
            [
              71.50830078125,
              37.89975357055664
            ],
            [
              71.4973373413086,
              37.5772590637207
            ],
            [
              71.57539367675781,
              37.5772590637207
            ],
            [
              71.56168383081193,
              37.52722345367857
            ],
            [
              71.26978676581868,
              37.38565195871803
            ],
            [
              71.12049098292337,
              37.306526624660385
            ],
            [
              70.96124214783505,
              36.917608867362546
            ],
            [
              70.97818408690742,
              35.88517290309487
            ],
            [
              71.61224854749636,
              35.47748025951215
            ],
            [
              72.3885866185512,
              35.45316096664792
            ],
            [
              73.18483079399205,
              34.99785363071757
            ],
            [
              73.79684461113206,
              34.81768602041505
            ],
            [
              73.70096588134766,
              34.743614196777344
            ],
            [
              73.91603088378906,
              34.679283142089844
            ],
            [
              73.83528137207031,
              34.3576545715332
            ],
            [
              73.97322082519531,
              34.2933349609375
            ],
            [
              73.92533874511719,
              34.10039138793945
            ],
            [
              74.2780532836914,
              33.971771240234375
            ],
            [
              74.0926742553711,
              33.84315490722656
            ],
            [
              74.0300064086914,
              33.5859489440918
            ],
            [
              74.1679458618164,
              33.52165222167969
            ],
            [
              74.07543182373047,
              33.13589859008789
            ],
            [
              74.38238525390625,
              32.81447219848633
            ],
            [
              74.67338562011719,
              32.75019073486328
            ],
            [
              74.76611328125,
              32.493072509765625
            ],
            [
              75.20977020263672,
              32.428794860839844
            ],
            [
              75.33260345458984,
              32.30024337768555
            ],
            [
              76.4021987915039,
              32.30024337768555
            ],
            [
              76.52459716796875,
              32.171695709228516
            ],
            [
              77.04389953613281,
              32.107421875
            ],
            [
              77.30365753173828,
              31.91460609436035
            ],
            [
              78.0361099243164,
              31.78606605529785
            ],
            [
              78.4480209350586,
              31.593257904052734
            ],
            [
              78.43291473388672,
              31.528987884521484
            ],
            [
              78.22080993652344,
              31.271915435791016
            ],
            [
              77.9015884399414,
              31.20764923095703
            ],
            [
              77.61511993408203,
              30.950578689575195
            ],
            [
              77.43961334228516,
              30.500701904296875
            ],
            [
              77.2738037109375,
              30.436433792114258
            ],
            [
              77.1427230834961,
              30.179353713989258
            ],
            [
              77.06169891357422,
              29.79371452331543
            ],
            [
              77.137451171875,
              29.79371452331543
            ],
            [
              77.09767150878906,
              29.600887298583984
            ],
            [
              77.23591613769531,
              29.536611557006836
            ],
            [
              77.17090606689453,
              29.21521759033203
            ],
            [
              77.34661865234375,
              28.958093643188477
            ],
            [
              77.29638671875,
              28.700960159301758
            ],
            [
              77.51044464111328,
              28.636676788330078
            ],
            [
              78.06719207763672,
              27.993812561035156
            ],
            [
              78.01972198486328,
              27.736658096313477
            ],
            [
              77.77051544189453,
              27.608078002929688
            ],
            [
              77.56574762787716,
              27.303259807163702
            ],
            [
              76.5910982525939,
              28.732433169958856
            ],
            [
              76.34835002707686,
              30.000118347658912
            ],
            [
              76.37532205213432,
              31.052027324899385
            ],
            [
              75.56616130041087,
              30.991340268520123
            ],
            [
              74.78397257374488,
              31.321747575473864
            ],
            [
              72.3274334102288,
              28.96463331788053
            ],
            [
              72.36469346316119,
              29.36126075756646
            ],
            [
              72.12092655184443,
              29.84783243513933
            ],
            [
              71.49250167823537,
              29.96278152727261
            ],
            [
              70.27924664157528,
              29.95434403023164
            ],
            [
              70.003,
              29.812
            ],
            [
              69.638,
              29.361
            ],
            [
              68.698,
              29.191
            ],
            [
              68.13159206148322,
              29.39023856890966
            ],
            [
              67.643,
              29.277
            ],
            [
              67.522,
              29.123
            ],
            [
              67.502,
              28.366
            ],
            [
              67.168,
              27.448
            ],
            [
              67.15658170513986,
              26.09928693063883
            ],
            [
              67.03425310803958,
              25.5534989750413
            ],
            [
              66.6714054112437,
              25.02740957593902
            ],
            [
              66.66686433397464,
              24.86426889276107
            ],
            [
              66.66164871750334,
              24.843517303466797
            ],
            [
              66.63204956054688,
              24.843517303466797
            ],
            [
              66.63977813720703,
              24.907808303833008
            ],
            [
              66.64754486083984,
              24.97209930419922
            ]
          ]
        ]
      }
    }
  ]
}