{
  "type": "FeatureCollection",
  "name": "territory-394",
  "features": [
    {
      "type": "Feature",
      "properties": {
        "Name": "County of Toulouse",
        "FromYear": 1206,
        "ToYear": 1209,
        "Area": 52886.42718765886,
        "Type": "POLITY",
        "Wikipedia": "County of Toulouse",
        "Wikidata": "Q1334322",
        "SeshatID": "fr_capetian_k_2",
        "Components": "",
        "MemberOf": "(Kingdom of France)"
      },
      "geometry": {
        "type": "Polygon",
        "coordinates": [
          [
            [
              4.41231107711792,
              43.6678352355957
            ],
            [
              4.414638042449951,
              43.6026611328125
            ],
            [
              4.338796615600586,
              43.472347259521484
            ],
            [
              4.177847862243652,
              43.472347259521484
            ],
            [
              4.173032760620117,
              43.6026611328125
            ],
            [
              3.850892543792725,
              43.6026611328125
            ],
            [
              3.617136240005493,
              43.407203674316406
            ],
            [
              3.140029191970825,
              43.276947021484375
            ],
            [
              2.987718343734741,
              43.08163070678711
            ],
            [
              2.990521192550659,
              43.016544342041016
            ],
            [
              2.592146396636963,
              42.95146560668945
            ],
            [
              2.517835140228271,
              42.82133865356445
            ],
            [
              2.043031692504883,
              42.691246032714844
            ],
            [
              1.812251329421997,
              42.496177673339844
            ],
            [
              1.80907130241394,
              42.56119155883789
            ],
            [
              1.72901451587677,
              42.56119155883789
            ],
            [
              1.725796341896057,
              42.62621307373047
            ],
            [
              1.645710229873657,
              42.62621307373047
            ],
            [
              1.565624117851257,
              42.62621307373047
            ],
            [
              1.485537886619568,
              42.62621307373047
            ],
            [
              0.994516909122467,
              42.82133865356445
            ],
            [
              0.983926355838776,
              43.016544342041016
            ],
            [
              0.812541425228119,
              43.211830139160156
            ],
            [
              0.966081380844116,
              43.342071533203125
            ],
            [
              0.63697761297226,
              43.472347259521484
            ],
            [
              0.947991132736206,
              43.6678352355957
            ],
            [
              0.922246754169464,
              44.12431716918945
            ],
            [
              0.841465890407562,
              44.12431716918945
            ],
            [
              0.833957612514496,
              44.25482940673828
            ],
            [
              1.069124221801758,
              44.38538360595703
            ],
            [
              1.061721682548523,
              44.5159797668457
            ],
            [
              1.378401041030884,
              44.64661407470703
            ],
            [
              1.448663711547852,
              44.842647552490234
            ],
            [
              1.529788970947266,
              44.842647552490234
            ],
            [
              2.019918441772461,
              44.77729415893555
            ],
            [
              2.101012229919434,
              44.77729415893555
            ],
            [
              2.276238918304443,
              44.5159797668457
            ],
            [
              2.515990495681763,
              44.58129119873047
            ],
            [
              2.584417343139648,
              44.842647552490234
            ],
            [
              2.746667861938477,
              44.842647552490234
            ],
            [
              2.917982816696167,
              44.64661407470703
            ],
            [
              3.158156394958496,
              44.71194839477539
            ],
            [
              3.230506658554077,
              44.908016204833984
            ],
            [
              3.473977327346802,
              44.908016204833984
            ],
            [
              3.56069803237915,
              44.77729415893555
            ],
            [
              3.966166257858276,
              44.77729415893555
            ],
            [
              4.057530879974365,
              44.5159797668457
            ],
            [
              4.469520568847656,
              44.32010269165039
            ],
            [
              4.476603984832764,
              44.12431716918945
            ],
            [
              4.725685596466064,
              43.92862319946289
            ],
            [
              4.41231107711792,
              43.6678352355957
            ]
          ]
        ]
      }
    }
  ]
}