{
  "type": "FeatureCollection",
  "name": "territory-395",
  "features": [
    {
      "type": "Feature",
      "properties": {
        "Name": "(Allegiance of Duchy of Aquitaine to Kingdom of France)",
        "FromYear": 990,
        "ToYear": 1002,
        "Area": 420259.3192861916,
        "Type": "RELATION",
        "Wikipedia": "Duchy of Aquitaine",
        "Wikidata": "Q7703611",
        "SeshatID": "fr_aquitania_duc_2;fr_capetian_k_1",
        "Components": "County of Vexin;County of Blôis;County of Rouergue;Duchy of Normandy;County of Vermandois;(Kingdom of France);County of Toulouse;County of Champagne;Duchy of Brittany;Duchy of Gascony;County of Anjou;County of Flanders;Duchy of Aquitaine;Kingdom of France;County of Maine",
        "MemberOf": ""
      },
      "geometry": {
        "type": "Polygon",
        "coordinates": [
          [
            [
              1.485537886619568,
              42.62621307373047
            ],
            [
              0.994516909122467,
              42.82133865356445
            ],
            [
              0.673818349838257,
              42.82133865356445
            ],
            [
              0.600951313972473,
              42.691246032714844
            ],
            [
              -0.124003164470196,
              42.75628662109375
            ],
            [
              -0.857915937900543,
              42.95146560668945
            ],
            [
              -0.963850319385529,
              43.342071533203125
            ],
            [
              -1.687574744224548,
              43.342071533203125
            ],
            [
              -1.692170143127441,
              43.407203674316406
            ],
            [
              -1.459883332252502,
              43.53750228881836
            ],
            [
              -1.402047991752625,
              43.86341094970703
            ],
            [
              -1.321390628814697,
              43.86341094970703
            ],
            [
              -1.348801136016846,
              44.25482940673828
            ],
            [
              -1.267958283424377,
              44.25482940673828
            ],
            [
              -1.286344885826111,
              44.5159797668457
            ],
            [
              -1.205376982688904,
              44.5159797668457
            ],
            [
              -1.251859068870544,
              45.169586181640625
            ],
            [
              -1.170574903488159,
              45.169586181640625
            ],
            [
              -1.189373373985291,
              45.431331634521484
            ],
            [
              -1.031213998794556,
              45.496795654296875
            ],
            [
              -1.035891175270081,
              45.56227111816406
            ],
            [
              -1.04058039188385,
              45.62776184082031
            ],
            [
              -1.213142395019531,
              45.75876998901367
            ],
            [
              -1.141096234321594,
              45.889827728271484
            ],
            [
              -1.222735166549683,
              45.889827728271484
            ],
            [
              -1.251809358596802,
              46.283294677734375
            ],
            [
              -1.666043281555176,
              46.348915100097656
            ],
            [
              -2.194406032562256,
              46.808616638183594
            ],
            [
              -2.210532188415527,
              47.005828857421875
            ],
            [
              -2.128328084945679,
              47.005828857421875
            ],
            [
              -2.133697032928467,
              47.07159423828125
            ],
            [
              -2.232228517532349,
              47.26897048950195
            ],
            [
              -2.561590671539307,
              47.26897048950195
            ],
            [
              -2.578423976898193,
              47.46647262573242
            ],
            [
              -2.825755596160889,
              47.46647262573242
            ],
            [
              -2.837259292602539,
              47.598209381103516
            ],
            [
              -3.155531167984009,
              47.46647262573242
            ],
            [
              -3.344320774078369,
              47.730003356933594
            ],
            [
              -3.757235288619995,
              47.730003356933594
            ],
            [
              -3.934937715530396,
              47.86185836791992
            ],
            [
              -4.424368858337402,
              47.79592514038086
            ],
            [
              -4.692053318023682,
              47.993770599365234
            ],
            [
              -4.705362796783447,
              48.1257438659668
            ],
            [
              -4.546383857727051,
              48.191749572753906
            ],
            [
              -4.642560005187988,
              48.323814392089844
            ],
            [
              -4.891265392303467,
              48.323814392089844
            ],
            [
              -4.911745548248291,
              48.52202224731445
            ],
            [
              -4.599917888641357,
              48.72037124633789
            ],
            [
              -3.85184383392334,
              48.72037124633789
            ],
            [
              -3.455082654953003,
              48.91886520385742
            ],
            [
              -3.122164011001587,
              48.91886520385742
            ],
            [
              -2.759404182434082,
              48.5881233215332
            ],
            [
              -2.521934509277344,
              48.72037124633789
            ],
            [
              -1.685264110565186,
              48.654239654541016
            ],
            [
              -1.602181315422058,
              48.654239654541016
            ],
            [
              -1.607621908187866,
              48.72037124633789
            ],
            [
              -1.718345284461975,
              49.051273345947266
            ],
            [
              -1.635041356086731,
              49.051273345947266
            ],
            [
              -1.651668906211853,
              49.2500114440918
            ],
            [
              -1.913302421569824,
              49.38258361816406
            ],
            [
              -2.031550645828247,
              49.78071212768555
            ],
            [
              -1.361783027648926,
              49.78071212768555
            ],
            [
              -1.250783205032349,
              49.44889450073242
            ],
            [
              0.007001183927059,
              49.38258361816406
            ],
            [
              -0.012448177672923,
              49.64793395996094
            ],
            [
              0.224112883210182,
              49.84712600708008
            ],
            [
              1.052847385406494,
              49.98000717163086
            ],
            [
              1.370972871780396,
              50.2459831237793
            ],
            [
              1.454967975616455,
              50.2459831237793
            ],
            [
              1.45067572593689,
              50.312522888183594
            ],
            [
              1.446373105049133,
              50.37908172607422
            ],
            [
              1.442060351371765,
              50.445655822753906
            ],
            [
              1.433403611183167,
              50.578861236572266
            ],
            [
              1.495977640151978,
              50.912200927734375
            ],
            [
              1.656218767166138,
              51.04566955566406
            ],
            [
              2.577829360961914,
              51.17921447753906
            ],
            [
              2.73940634727478,
              51.31283950805664
            ],
            [
              3.324945688247681,
              51.44654083251953
            ],
            [
              3.409677743911743,
              51.44654083251953
            ],
            [
              3.504641532897949,
              51.24601745605469
            ],
            [
              4.263070583343506,
              51.31283950805664
            ],
            [
              4.034165859222412,
              50.77880859375
            ],
            [
              3.538282871246338,
              50.578861236572266
            ],
            [
              3.548239946365356,
              50.37908172607422
            ],
            [
              3.632314682006836,
              50.37908172607422
            ],
            [
              3.635580539703369,
              50.312522888183594
            ],
            [
              3.638839721679688,
              50.2459831237793
            ],
            [
              3.64209246635437,
              50.17946243286133
            ],
            [
              3.726047992706299,
              50.17946243286133
            ],
            [
              3.729254722595215,
              50.11296081542969
            ],
            [
              3.813170909881592,
              50.11296081542969
            ],
            [
              3.816332101821899,
              50.04647445678711
            ],
            [
              3.900208711624146,
              50.04647445678711
            ],
            [
              3.984085559844971,
              50.04647445678711
            ],
            [
              3.987162351608276,
              49.98000717163086
            ],
            [
              4.071000099182129,
              49.98000717163086
            ],
            [
              4.154837608337402,
              49.98000717163086
            ],
            [
              4.576823711395264,
              49.91355895996094
            ],
            [
              4.679802417755127,
              49.44889450073242
            ],
            [
              5.026719093322754,
              49.11750411987305
            ],
            [
              4.865273475646973,
              48.98506164550781
            ],
            [
              4.883440971374512,
              48.52202224731445
            ],
            [
              5.303273677825928,
              48.38986587524414
            ],
            [
              5.305657386779785,
              48.323814392089844
            ],
            [
              5.47376823425293,
              48.257774353027344
            ],
            [
              5.480661869049072,
              48.059749603271484
            ],
            [
              5.646180152893066,
              48.059749603271484
            ],
            [
              5.818123817443848,
              47.86185836791992
            ],
            [
              5.82025671005249,
              47.79592514038086
            ],
            [
              5.822384834289551,
              47.730003356933594
            ],
            [
              5.73980188369751,
              47.730003356933594
            ],
            [
              5.657218933105469,
              47.730003356933594
            ],
            [
              5.659412384033203,
              47.664100646972656
            ],
            [
              5.576864242553711,
              47.664100646972656
            ],
            [
              5.594502449035645,
              47.13737487792969
            ],
            [
              5.432206630706787,
              47.07159423828125
            ],
            [
              5.436686992645264,
              46.94007873535156
            ],
            [
              5.276938438415527,
              46.808616638183594
            ],
            [
              5.033018112182617,
              46.74290466308594
            ],
            [
              4.88347053527832,
              46.348915100097656
            ],
            [
              4.484376907348633,
              46.08650588989258
            ],
            [
              4.231192111968994,
              46.283294677734375
            ],
            [
              4.225839138031006,
              46.414546966552734
            ],
            [
              4.143936634063721,
              46.414546966552734
            ],
            [
              4.146650314331055,
              46.348915100097656
            ],
            [
              4.064781188964844,
              46.348915100097656
            ],
            [
              3.982912302017212,
              46.348915100097656
            ],
            [
              3.985684394836426,
              46.283294677734375
            ],
            [
              4.078399658203125,
              46.02093505859375
            ],
            [
              3.917757511138916,
              45.95537567138672
            ],
            [
              3.931468486785889,
              45.62776184082031
            ],
            [
              4.012977600097656,
              45.62776184082031
            ],
            [
              3.9422926902771,
              45.36587905883789
            ],
            [
              4.351718902587891,
              45.300437927246094
            ],
            [
              4.359247207641602,
              45.10417556762695
            ],
            [
              4.123232841491699,
              44.908016204833984
            ],
            [
              3.96091890335083,
              44.908016204833984
            ],
            [
              4.057530879974365,
              44.5159797668457
            ],
            [
              4.469520568847656,
              44.32010269165039
            ],
            [
              4.476603984832764,
              44.12431716918945
            ],
            [
              4.725685596466064,
              43.92862319946289
            ],
            [
              4.571169853210449,
              43.73301696777344
            ],
            [
              4.409977436065674,
              43.73301696777344
            ],
            [
              4.338796615600586,
              43.472347259521484
            ],
            [
              4.258322238922119,
              43.472347259521484
            ],
            [
              4.173032760620117,
              43.6026611328125
            ],
            [
              3.850892543792725,
              43.6026611328125
            ],
            [
              3.617136240005493,
              43.407203674316406
            ],
            [
              3.140029191970825,
              43.276947021484375
            ],
            [
              2.987718343734741,
              43.08163070678711
            ],
            [
              2.990521192550659,
              43.016544342041016
            ],
            [
              2.12005877494812,
              42.75628662109375
            ],
            [
              2.123147249221802,
              42.691246032714844
            ],
            [
              1.892278909683228,
              42.496177673339844
            ],
            [
              1.565624117851257,
              42.62621307373047
            ],
            [
              1.485537886619568,
              42.62621307373047
            ]
          ],
          [
            [
              1.778519153594971,
              50.445655822753906
            ],
            [
              1.663553849922349,
              50.49002937006923
            ],
            [
              1.694404363632202,
              50.445655822753906
            ],
            [
              1.778519153594971,
              50.445655822753906
            ]
          ]
        ]
      }
    }
  ]
}