{
  "type": "FeatureCollection",
  "name": "territory-396",
  "features": [
    {
      "type": "Feature",
      "properties": {
        "Name": "Western Xia",
        "FromYear": 1139,
        "ToYear": 1205,
        "Area": 474207.3211475405,
        "Type": "POLITY",
        "Wikipedia": "Western Xia",
        "Wikidata": "Q7427",
        "SeshatID": "cn_xixia",
        "Components": "",
        "MemberOf": ""
      },
      "geometry": {
        "type": "Polygon",
        "coordinates": [
          [
            [
              101.11270904541016,
              42.62621307373047
            ],
            [
              101.19279479980469,
              42.62621307373047
            ],
            [
              101.71996307373047,
              42.56119155883789
            ],
            [
              101.73335266113281,
              42.43117141723633
            ],
            [
              101.89334869384766,
              42.43117141723633
            ],
            [
              102.03355407714844,
              42.236209869384766
            ],
            [
              102.97229766845703,
              42.041324615478516
            ],
            [
              102.82625579833984,
              41.911441802978516
            ],
            [
              103.23867797851562,
              41.781593322753906
            ],
            [
              103.70792388916016,
              41.132843017578125
            ],
            [
              103.64356994628906,
              41.00318908691406
            ],
            [
              103.9599609375,
              40.6791877746582
            ],
            [
              107.4137191772461,
              40.614410400390625
            ],
            [
              108.66851806640625,
              40.74397277832031
            ],
            [
              109.78978729248047,
              41.06801223754883
            ],
            [
              110.8668212890625,
              41.00318908691406
            ],
            [
              110.83231353759766,
              40.93837356567383
            ],
            [
              111.30841064453125,
              40.93837356567383
            ],
            [
              111.27384948730469,
              40.873565673828125
            ],
            [
              112.49864196777344,
              40.93837356567383
            ],
            [
              112.57799530029297,
              40.93837356567383
            ],
            [
              112.48341369628906,
              40.614410400390625
            ],
            [
              111.68372344970703,
              39.8376350402832
            ],
            [
              111.39248657226562,
              39.25570297241211
            ],
            [
              111.51801300048828,
              39.19107437133789
            ],
            [
              111.15621948242188,
              38.93262481689453
            ],
            [
              111.01862335205078,
              38.48057174682617
            ],
            [
              110.67475891113281,
              38.416015625
            ],
            [
              110.39788055419922,
              38.157840728759766
            ],
            [
              108.8433609008789,
              37.835243225097656
            ],
            [
              108.74501037597656,
              37.96426773071289
            ],
            [
              107.9718017578125,
              38.157840728759766
            ],
            [
              107.90291595458984,
              38.351463317871094
            ],
            [
              107.51126098632812,
              38.351463317871094
            ],
            [
              107.4426498413086,
              38.54513168334961
            ],
            [
              106.8154296875,
              38.54513168334961
            ],
            [
              106.16472625732422,
              37.96426773071289
            ],
            [
              105.4329605102539,
              37.89975357055664
            ],
            [
              104.6190414428711,
              37.641746520996094
            ],
            [
              104.54096221923828,
              37.641746520996094
            ],
            [
              103.9709701538086,
              37.7707405090332
            ],
            [
              103.9984130859375,
              37.835243225097656
            ],
            [
              103.45140075683594,
              37.835243225097656
            ],
            [
              103.47877502441406,
              37.89975357055664
            ],
            [
              102.04773712158203,
              38.028785705566406
            ],
            [
              102.074951171875,
              38.09331130981445
            ],
            [
              100.74491882324219,
              38.09331130981445
            ],
            [
              100.79882049560547,
              38.22237777709961
            ],
            [
              100.40739440917969,
              38.22237777709961
            ],
            [
              100.14810943603516,
              38.351463317871094
            ],
            [
              98.58148193359375,
              38.351463317871094
            ],
            [
              98.39962005615234,
              38.48057174682617
            ],
            [
              97.720703125,
              38.54513168334961
            ],
            [
              96.96590423583984,
              38.997230529785156
            ],
            [
              96.62484741210938,
              38.93262481689453
            ],
            [
              96.67847442626953,
              39.06184005737305
            ],
            [
              96.5998764038086,
              39.06184005737305
            ],
            [
              96.52127838134766,
              39.06184005737305
            ],
            [
              96.23370361328125,
              39.1264533996582
            ],
            [
              96.28761291503906,
              39.25570297241211
            ],
            [
              96.20893859863281,
              39.25570297241211
            ],
            [
              96.52491760253906,
              40.355369567871094
            ],
            [
              96.44580841064453,
              40.355369567871094
            ],
            [
              97.40206146240234,
              41.911441802978516
            ],
            [
              98.10160827636719,
              42.691246032714844
            ],
            [
              98.18172454833984,
              42.691246032714844
            ],
            [
              101.11270904541016,
              42.62621307373047
            ]
          ]
        ]
      }
    }
  ]
}