{
  "type": "FeatureCollection",
  "name": "territory-4",
  "features": [
    {
      "type": "Feature",
      "properties": {
        "Name": "Indus Valley Civilization",
        "FromYear": -2300,
        "ToYear": -2001,
        "Area": 755121.2924974479,
        "Type": "POLITY",
        "Wikipedia": "Indus Valley Civilisation",
        "Wikidata": "Q42534",
        "SeshatID": "pk_kachi_urban_1",
        "Components": "",
        "MemberOf": ""
      },
      "geometry": {
        "type": "MultiPolygon",
        "coordinates": [
          [
            [
              [
                75.73487854003906,
                33.65024948120117
              ],
              [
                75.87239837646484,
                33.5859489440918
              ],
              [
                76.03653717041016,
                33.00732421875
              ],
              [
                76.174072265625,
                32.94303894042969
              ],
              [
                76.06634521484375,
                32.81447219848633
              ],
              [
                76.14289093017578,
                32.81447219848633
              ],
              [
                76.09649658203125,
                32.62162780761719
              ],
              [
                75.53185272216797,
                32.171695709228516
              ],
              [
                75.50212097167969,
                32.043148040771484
              ],
              [
                75.71626281738281,
                31.978878021240234
              ],
              [
                75.5088882446289,
                31.40045166015625
              ],
              [
                75.86618041992188,
                30.950578689575195
              ],
              [
                75.83819580078125,
                30.822044372558594
              ],
              [
                76.03836059570312,
                30.69350814819336
              ],
              [
                76.0107192993164,
                30.564971923828125
              ],
              [
                76.21104431152344,
                30.436433792114258
              ],
              [
                76.18375396728516,
                30.307893753051758
              ],
              [
                76.4736557006836,
                30.243623733520508
              ],
              [
                76.3707504272461,
                30.115081787109375
              ],
              [
                76.79874420166016,
                29.986536026000977
              ],
              [
                76.77197265625,
                29.857990264892578
              ],
              [
                76.94625091552734,
                29.600887298583984
              ],
              [
                76.81768035888672,
                28.958093643188477
              ],
              [
                76.23931884765625,
                28.700960159301758
              ],
              [
                75.78628540039062,
                28.700960159301758
              ],
              [
                75.76207733154297,
                28.572391510009766
              ],
              [
                74.17705535888672,
                28.572391510009766
              ],
              [
                72.63333892822266,
                28.379535675048828
              ],
              [
                72.07188415527344,
                28.186676025390625
              ],
              [
                71.78133392333984,
                28.25096321105957
              ],
              [
                70.85476684570312,
                28.12238883972168
              ],
              [
                70.60723114013672,
                27.993812561035156
              ],
              [
                70.24107360839844,
                28.058101654052734
              ],
              [
                69.73677062988281,
                27.736658096313477
              ],
              [
                69.42058563232422,
                27.158044815063477
              ],
              [
                69.2972640991211,
                26.32224464416504
              ],
              [
                69.3722915649414,
                26.32224464416504
              ],
              [
                69.53953552246094,
                25.357851028442383
              ],
              [
                70.51991271972656,
                24.843517303466797
              ],
              [
                70.57825469970703,
                24.714935302734375
              ],
              [
                70.72774505615234,
                24.714935302734375
              ],
              [
                70.78619384765625,
                24.586353302001953
              ],
              [
                71.08509063720703,
                24.586353302001953
              ],
              [
                71.20223999023438,
                24.329193115234375
              ],
              [
                71.35160827636719,
                24.329193115234375
              ],
              [
                71.41033935546875,
                24.200613021850586
              ],
              [
                71.97592163085938,
                23.943456649780273
              ],
              [
                72.10173034667969,
                23.75058937072754
              ],
              [
                72.87576293945312,
                23.36486053466797
              ],
              [
                72.86788940429688,
                22.657697677612305
              ],
              [
                72.68992614746094,
                22.400548934936523
              ],
              [
                72.74272918701172,
                22.20768928527832
              ],
              [
                72.37797546386719,
                22.271976470947266
              ],
              [
                72.34249877929688,
                21.950544357299805
              ],
              [
                72.11245727539062,
                21.88625717163086
              ],
              [
                72.17279815673828,
                21.7576847076416
              ],
              [
                72.3214340209961,
                21.7576847076416
              ],
              [
                72.27970123291016,
                21.371967315673828
              ],
              [
                72.10365295410156,
                21.114822387695312
              ],
              [
                71.09152221679688,
                20.664819717407227
              ],
              [
                70.72064208984375,
                20.664819717407227
              ],
              [
                70.29546356201172,
                20.857677459716797
              ],
              [
                69.88987731933594,
                21.24339485168457
              ],
              [
                69.90315246582031,
                21.371967315673828
              ],
              [
                69.49736022949219,
                21.7576847076416
              ],
              [
                69.34872436523438,
                21.7576847076416
              ],
              [
                68.94945526123047,
                22.20768928527832
              ],
              [
                68.97650909423828,
                22.46483612060547
              ],
              [
                69.40931701660156,
                22.33626365661621
              ],
              [
                69.49740600585938,
                22.46483612060547
              ],
              [
                69.86946868896484,
                22.46483612060547
              ],
              [
                70.26250457763672,
                22.657697677612305
              ],
              [
                70.36528778076172,
                22.914846420288086
              ],
              [
                69.45060729980469,
                22.72198486328125
              ],
              [
                68.80825805664062,
                22.97913360595703
              ],
              [
                68.55245971679688,
                23.36486053466797
              ],
              [
                68.3359375,
                23.429147720336914
              ],
              [
                68.35022735595703,
                23.557723999023438
              ],
              [
                68.12652587890625,
                23.557723999023438
              ],
              [
                68.15538787841797,
                23.814878463745117
              ],
              [
                67.63314819335938,
                23.814878463745117
              ],
              [
                67.49114990234375,
                23.879167556762695
              ],
              [
                67.43836975097656,
                24.07203483581543
              ],
              [
                67.28907775878906,
                24.07203483581543
              ],
              [
                67.32612609863281,
                24.393482208251953
              ],
              [
                67.25143432617188,
                24.393482208251953
              ],
              [
                67.2146987915039,
                24.714935302734375
              ],
              [
                66.63204956054688,
                24.843517303466797
              ],
              [
                66.67909240722656,
                25.229267120361328
              ],
              [
                66.34514617919922,
                25.55072784423828
              ],
              [
                66.02147674560547,
                25.357851028442383
              ],
              [
                64.8160629272461,
                25.29355812072754
              ],
              [
                64.80064392089844,
                25.164974212646484
              ],
              [
                64.2845230102539,
                25.229267120361328
              ],
              [
                64.22502136230469,
                25.357851028442383
              ],
              [
                63.62620544433594,
                25.357851028442383
              ],
              [
                63.536216735839844,
                25.229267120361328
              ],
              [
                62.563419342041016,
                25.229267120361328
              ],
              [
                62.47393035888672,
                25.100683212280273
              ],
              [
                62.02507400512695,
                25.100683212280273
              ],
              [
                62.1365852355957,
                25.422143936157227
              ],
              [
                62.30133819580078,
                25.55072784423828
              ],
              [
                64.28009796142578,
                25.807899475097656
              ],
              [
                65.08811950683594,
                25.67931365966797
              ],
              [
                65.695556640625,
                25.743606567382812
              ],
              [
                66.02015686035156,
                25.936485290527344
              ],
              [
                65.84618377685547,
                26.32224464416504
              ],
              [
                65.87225341796875,
                26.515121459960938
              ],
              [
                65.79719543457031,
                26.515121459960938
              ],
              [
                65.77373504638672,
                27.41520881652832
              ],
              [
                65.69850158691406,
                27.41520881652832
              ],
              [
                66.05645751953125,
                28.765243530273438
              ],
              [
                66.55416870117188,
                29.922264099121094
              ],
              [
                67.11345672607422,
                30.500701904296875
              ],
              [
                67.87273406982422,
                30.500701904296875
              ],
              [
                67.97278594970703,
                30.629240036010742
              ],
              [
                68.93391418457031,
                30.886310577392578
              ],
              [
                69.07313537597656,
                31.20764923095703
              ],
              [
                69.25104522705078,
                31.336183547973633
              ],
              [
                69.31610870361328,
                31.65752601623535
              ],
              [
                69.57125091552734,
                31.78606605529785
              ],
              [
                69.6113052368164,
                31.978878021240234
              ],
              [
                69.76393127441406,
                31.978878021240234
              ],
              [
                70.40827941894531,
                32.493072509765625
              ],
              [
                70.35980224609375,
                32.62162780761719
              ],
              [
                70.78483581542969,
                32.81447219848633
              ],
              [
                70.93338012695312,
                33.13589859008789
              ],
              [
                71.31344604492188,
                33.45735549926758
              ],
              [
                71.72701263427734,
                33.5859489440918
              ],
              [
                71.75711059570312,
                33.71455001831055
              ],
              [
                71.8956069946289,
                33.65024948120117
              ],
              [
                72.1716079711914,
                33.84315490722656
              ],
              [
                72.57122802734375,
                33.90746307373047
              ],
              [
                72.67906951904297,
                34.03607940673828
              ],
              [
                73.30998229980469,
                34.10039138793945
              ],
              [
                73.38690185546875,
                34.10039138793945
              ],
              [
                73.35548400878906,
                33.971771240234375
              ],
              [
                74.35493469238281,
                33.971771240234375
              ],
              [
                74.63056945800781,
                33.84315490722656
              ],
              [
                75.53658294677734,
                33.77885055541992
              ],
              [
                75.65809631347656,
                33.65024948120117
              ],
              [
                75.73487854003906,
                33.65024948120117
              ]
            ]
          ],
          [
            [
              [
                70.21991729736328,
                27.92952537536621
              ],
              [
                70.23046875,
                27.993812561035156
              ],
              [
                70.30582427978516,
                27.993812561035156
              ],
              [
                70.29525756835938,
                27.92952537536621
              ],
              [
                70.21991729736328,
                27.92952537536621
              ]
            ]
          ],
          [
            [
              [
                76.52241516113281,
                30.115081787109375
              ],
              [
                76.53593444824219,
                30.179353713989258
              ],
              [
                76.61178588867188,
                30.179353713989258
              ],
              [
                76.5982437133789,
                30.115081787109375
              ],
              [
                76.52241516113281,
                30.115081787109375
              ]
            ]
          ]
        ]
      }
    }
  ]
}