{
  "type": "FeatureCollection",
  "name": "territory-400",
  "features": [
    {
      "type": "Feature",
      "properties": {
        "Name": "Kingdom of Hungary",
        "FromYear": 1487,
        "ToYear": 1491,
        "Area": 466329.0746022468,
        "Type": "POLITY",
        "Wikipedia": "Kingdom of Hungary",
        "Wikidata": "Q171150",
        "SeshatID": "hu_later_dyn",
        "Components": "",
        "MemberOf": ""
      },
      "geometry": {
        "type": "MultiPolygon",
        "coordinates": [
          [
            [
              [
                16.131103515625,
                51.71418380737305
              ],
              [
                16.55561637878418,
                51.71418380737305
              ],
              [
                16.718996047973633,
                51.580322265625
              ],
              [
                16.980127334594727,
                51.71418380737305
              ],
              [
                17.31973648071289,
                51.71418380737305
              ],
              [
                17.549257278442383,
                51.24601745605469
              ],
              [
                17.972288131713867,
                51.24601745605469
              ],
              [
                18.049345016479492,
                51.112430572509766
              ],
              [
                18.709320068359375,
                50.84549331665039
              ],
              [
                18.70132827758789,
                50.71213912963867
              ],
              [
                19.030193328857422,
                50.578861236572266
              ],
              [
                19.022031784057617,
                50.445655822753906
              ],
              [
                19.18613052368164,
                50.37908172607422
              ],
              [
                19.17385482788086,
                50.17946243286133
              ],
              [
                19.089900970458984,
                50.17946243286133
              ],
              [
                19.085887908935547,
                50.11296081542969
              ],
              [
                19.081897735595703,
                50.04647445678711
              ],
              [
                19.165773391723633,
                50.04647445678711
              ],
              [
                19.23756217956543,
                49.84712600708008
              ],
              [
                18.887298583984375,
                49.58156967163086
              ],
              [
                18.87979507446289,
                49.44889450073242
              ],
              [
                19.472537994384766,
                49.58156967163086
              ],
              [
                19.865541458129883,
                49.18375015258789
              ],
              [
                20.21193504333496,
                49.38258361816406
              ],
              [
                20.545900344848633,
                49.38258361816406
              ],
              [
                20.453577041625977,
                49.2500114440918
              ],
              [
                20.703824996948242,
                49.2500114440918
              ],
              [
                20.71288299560547,
                49.38258361816406
              ],
              [
                21.79827117919922,
                49.38258361816406
              ],
              [
                22.5230712890625,
                49.051273345947266
              ],
              [
                22.77837371826172,
                49.11750411987305
              ],
              [
                22.928722381591797,
                48.91886520385742
              ],
              [
                23.666343688964844,
                48.786521911621094
              ],
              [
                24.052976608276367,
                48.455936431884766
              ],
              [
                24.378963470458984,
                48.38986587524414
              ],
              [
                24.367206573486328,
                48.257774353027344
              ],
              [
                24.686708450317383,
                48.1257438659668
              ],
              [
                24.586227416992188,
                47.92780685424805
              ],
              [
                24.90500259399414,
                47.79592514038086
              ],
              [
                24.881271362304688,
                47.53233337402344
              ],
              [
                25.03432846069336,
                47.4006233215332
              ],
              [
                25.016605377197266,
                47.20316696166992
              ],
              [
                25.668907165527344,
                47.13737487792969
              ],
              [
                25.72661018371582,
                46.87434005737305
              ],
              [
                25.966814041137695,
                46.808616638183594
              ],
              [
                25.942142486572266,
                46.54585266113281
              ],
              [
                26.477930068969727,
                46.1520881652832
              ],
              [
                26.44038200378418,
                45.75876998901367
              ],
              [
                26.10191535949707,
                45.62776184082031
              ],
              [
                25.93889808654785,
                45.62776184082031
              ],
              [
                25.84545135498047,
                45.496795654296875
              ],
              [
                25.438228607177734,
                45.496795654296875
              ],
              [
                25.34526824951172,
                45.36587905883789
              ],
              [
                25.042299270629883,
                45.62776184082031
              ],
              [
                23.483562469482422,
                45.496795654296875
              ],
              [
                23.47352409362793,
                45.36587905883789
              ],
              [
                23.138248443603516,
                45.23500442504883
              ],
              [
                22.650352478027344,
                45.23500442504883
              ],
              [
                22.531999588012695,
                44.71194839477539
              ],
              [
                22.275287628173828,
                44.5159797668457
              ],
              [
                21.951416015625,
                44.5159797668457
              ],
              [
                21.879146575927734,
                44.64661407470703
              ],
              [
                21.40547752380371,
                44.842647552490234
              ],
              [
                21.080976486206055,
                44.842647552490234
              ],
              [
                20.829694747924805,
                44.71194839477539
              ],
              [
                20.2659912109375,
                44.77729415893555
              ],
              [
                19.92363166809082,
                44.45067596435547
              ],
              [
                19.0333309173584,
                44.45067596435547
              ],
              [
                18.72208023071289,
                44.71194839477539
              ],
              [
                17.765867233276367,
                45.10417556762695
              ],
              [
                16.544801712036133,
                45.03877639770508
              ],
              [
                16.294586181640625,
                44.842647552490234
              ],
              [
                16.285852432250977,
                44.58129119873047
              ],
              [
                16.52429962158203,
                44.45067596435547
              ],
              [
                16.51975440979004,
                44.32010269165039
              ],
              [
                16.27495574951172,
                44.25482940673828
              ],
              [
                16.26409912109375,
                43.92862319946289
              ],
              [
                15.70318603515625,
                44.05907440185547
              ],
              [
                15.547369003295898,
                44.25482940673828
              ],
              [
                15.146636962890625,
                44.38538360595703
              ],
              [
                15.148378372192383,
                44.45067596435547
              ],
              [
                14.908865928649902,
                44.58129119873047
              ],
              [
                14.91874885559082,
                44.973392486572266
              ],
              [
                14.75637149810791,
                44.973392486572266
              ],
              [
                14.759533882141113,
                45.10417556762695
              ],
              [
                14.59854507446289,
                45.169586181640625
              ],
              [
                14.603090286254883,
                45.36587905883789
              ],
              [
                14.358949661254883,
                45.36587905883789
              ],
              [
                14.277569770812988,
                45.36587905883789
              ],
              [
                14.44612979888916,
                45.62776184082031
              ],
              [
                15.339118957519531,
                45.496795654296875
              ],
              [
                15.264768600463867,
                45.75876998901367
              ],
              [
                15.678460121154785,
                45.95537567138672
              ],
              [
                15.604452133178711,
                46.21768569946289
              ],
              [
                15.933717727661133,
                46.283294677734375
              ],
              [
                16.019739151000977,
                46.414546966552734
              ],
              [
                15.860001564025879,
                46.54585266113281
              ],
              [
                15.864084243774414,
                46.677207946777344
              ],
              [
                14.878016471862793,
                46.61152267456055
              ],
              [
                14.625872611999512,
                46.348915100097656
              ],
              [
                13.72764778137207,
                46.480194091796875
              ],
              [
                13.645712852478027,
                46.480194091796875
              ],
              [
                13.563776969909668,
                46.480194091796875
              ],
              [
                13.564879417419434,
                46.54585266113281
              ],
              [
                13.482911109924316,
                46.54585266113281
              ],
              [
                13.48398208618164,
                46.61152267456055
              ],
              [
                13.40198040008545,
                46.61152267456055
              ],
              [
                13.815617561340332,
                46.808616638183594
              ],
              [
                13.818048477172852,
                46.94007873535156
              ],
              [
                13.654860496520996,
                47.005828857421875
              ],
              [
                13.740641593933105,
                47.20316696166992
              ],
              [
                13.41247844696045,
                47.26897048950195
              ],
              [
                13.418926239013672,
                47.664100646972656
              ],
              [
                13.175244331359863,
                47.92780685424805
              ],
              [
                13.177251815795898,
                48.059749603271484
              ],
              [
                13.847192764282227,
                48.455936431884766
              ],
              [
                13.930166244506836,
                48.455936431884766
              ],
              [
                13.931536674499512,
                48.52202224731445
              ],
              [
                14.014547348022461,
                48.52202224731445
              ],
              [
                14.015960693359375,
                48.5881233215332
              ],
              [
                14.099007606506348,
                48.5881233215332
              ],
              [
                14.100465774536133,
                48.654239654541016
              ],
              [
                14.765128135681152,
                48.654239654541016
              ],
              [
                14.940543174743652,
                48.98506164550781
              ],
              [
                15.107076644897461,
                48.98506164550781
              ],
              [
                15.196345329284668,
                49.18375015258789
              ],
              [
                15.707976341247559,
                49.51522445678711
              ],
              [
                15.801013946533203,
                49.78071212768555
              ],
              [
                16.2144718170166,
                49.64793395996094
              ],
              [
                16.392419815063477,
                49.91355895996094
              ],
              [
                16.817224502563477,
                50.04647445678711
              ],
              [
                16.826065063476562,
                50.2459831237793
              ],
              [
                16.91006088256836,
                50.2459831237793
              ],
              [
                16.835050582885742,
                50.445655822753906
              ],
              [
                16.41730308532715,
                50.51224899291992
              ],
              [
                16.338764190673828,
                50.64549255371094
              ],
              [
                15.416954040527344,
                50.77880859375
              ],
              [
                15.255345344543457,
                50.97892379760742
              ],
              [
                14.577799797058105,
                50.912200927734375
              ],
              [
                14.497381210327148,
                51.04566955566406
              ],
              [
                14.328418731689453,
                51.04566955566406
              ],
              [
                14.330343246459961,
                51.112430572509766
              ],
              [
                14.257346153259277,
                51.51342010498047
              ],
              [
                14.259305000305176,
                51.580322265625
              ],
              [
                14.263254165649414,
                51.71418380737305
              ],
              [
                14.097269058227539,
                51.84812545776367
              ],
              [
                13.757316589355469,
                51.84812545776367
              ],
              [
                13.590681076049805,
                51.98215103149414
              ],
              [
                13.505606651306152,
                51.98215103149414
              ],
              [
                13.507246971130371,
                52.0491943359375
              ],
              [
                13.422128677368164,
                52.0491943359375
              ],
              [
                13.425350189208984,
                52.18334197998047
              ],
              [
                13.940366744995117,
                52.31757736206055
              ],
              [
                14.360513687133789,
                52.11625671386719
              ],
              [
                14.615998268127441,
                52.11625671386719
              ],
              [
                14.779444694519043,
                51.91512680053711
              ],
              [
                14.869136810302734,
                52.0491943359375
              ],
              [
                15.039372444152832,
                52.0491943359375
              ],
              [
                15.131959915161133,
                52.250450134277344
              ],
              [
                15.470279693603516,
                52.18334197998047
              ],
              [
                15.646231651306152,
                52.31757736206055
              ],
              [
                15.813953399658203,
                52.250450134277344
              ],
              [
                15.96988296508789,
                51.91512680053711
              ],
              [
                16.054914474487305,
                51.91512680053711
              ],
              [
                16.131103515625,
                51.71418380737305
              ]
            ],
            [
              [
                20.278141021728516,
                49.11750411987305
              ],
              [
                20.44919204711914,
                49.18375015258789
              ],
              [
                20.370161056518555,
                49.2500114440918
              ],
              [
                20.286745071411133,
                49.2500114440918
              ],
              [
                20.278141021728516,
                49.11750411987305
              ]
            ],
            [
              [
                14.190190315246582,
                52.11625671386719
              ],
              [
                13.93470573425293,
                52.11625671386719
              ],
              [
                13.93283748626709,
                52.0491943359375
              ],
              [
                14.269256591796875,
                51.91512680053711
              ],
              [
                14.190190315246582,
                52.11625671386719
              ]
            ]
          ],
          [
            [
              [
                13.247386932373047,
                51.84812545776367
              ],
              [
                13.502351760864258,
                51.84812545776367
              ],
              [
                13.587339401245117,
                51.84812545776367
              ],
              [
                13.58568286895752,
                51.78114318847656
              ],
              [
                13.670628547668457,
                51.78114318847656
              ],
              [
                13.668937683105469,
                51.71418380737305
              ],
              [
                13.667257308959961,
                51.64724349975586
              ],
              [
                13.5823974609375,
                51.64724349975586
              ],
              [
                13.244426727294922,
                51.71418380737305
              ],
              [
                13.247386932373047,
                51.84812545776367
              ]
            ]
          ]
        ]
      }
    }
  ]
}