{
  "type": "FeatureCollection",
  "name": "territory-401",
  "features": [
    {
      "type": "Feature",
      "properties": {
        "Name": "Duchy of Burgundy",
        "FromYear": 1475,
        "ToYear": 1481,
        "Area": 119712.16835136068,
        "Type": "POLITY",
        "Wikipedia": "Duchy of Burgundy",
        "Wikidata": "Q4712",
        "SeshatID": "fr_valois_k_2",
        "Components": "",
        "MemberOf": "(Kingdom of France)"
      },
      "geometry": {
        "type": "MultiPolygon",
        "coordinates": [
          [
            [
              [
                6.989914417266846,
                47.26897048950195
              ],
              [
                6.907573699951172,
                47.26897048950195
              ],
              [
                6.909217357635498,
                47.20316696166992
              ],
              [
                6.826910972595215,
                47.20316696166992
              ],
              [
                6.828584671020508,
                47.13737487792969
              ],
              [
                6.506691455841064,
                46.87434005737305
              ],
              [
                6.103800296783447,
                46.61152267456055
              ],
              [
                6.107663631439209,
                46.480194091796875
              ],
              [
                5.867908954620361,
                46.283294677734375
              ],
              [
                4.967714786529541,
                46.283294677734375
              ],
              [
                4.897816181182861,
                45.95537567138672
              ],
              [
                4.402639865875244,
                46.08650588989258
              ],
              [
                4.326115131378174,
                45.95537567138672
              ],
              [
                4.081100463867188,
                45.95537567138672
              ],
              [
                4.072975635528564,
                46.1520881652832
              ],
              [
                3.728644609451294,
                46.54585266113281
              ],
              [
                3.801982164382935,
                46.74290466308594
              ],
              [
                3.963295221328735,
                46.808616638183594
              ],
              [
                3.866787195205688,
                47.13737487792969
              ],
              [
                3.949059247970581,
                47.13737487792969
              ],
              [
                3.940429925918579,
                47.33478927612305
              ],
              [
                3.607901573181152,
                47.4006233215332
              ],
              [
                3.601821660995483,
                47.53233337402344
              ],
              [
                3.766778707504272,
                47.53233337402344
              ],
              [
                3.754808187484741,
                47.79592514038086
              ],
              [
                3.914155960083008,
                47.92780685424805
              ],
              [
                4.173548221588135,
                47.664100646972656
              ],
              [
                4.338644027709961,
                47.664100646972656
              ],
              [
                4.578328132629395,
                47.86185836791992
              ],
              [
                4.572990417480469,
                47.993770599365234
              ],
              [
                4.821161270141602,
                47.993770599365234
              ],
              [
                5.249034404754639,
                47.598209381103516
              ],
              [
                5.822384834289551,
                47.730003356933594
              ],
              [
                5.731121063232422,
                47.993770599365234
              ],
              [
                5.480661869049072,
                48.059749603271484
              ],
              [
                5.386211395263672,
                48.38986587524414
              ],
              [
                5.462185859680176,
                48.5881233215332
              ],
              [
                5.881701946258545,
                48.455936431884766
              ],
              [
                5.787806034088135,
                48.786521911621094
              ],
              [
                5.868803024291992,
                48.852684020996094
              ],
              [
                5.951995849609375,
                48.852684020996094
              ],
              [
                5.954118251800537,
                48.786521911621094
              ],
              [
                6.037274360656738,
                48.786521911621094
              ],
              [
                6.035188674926758,
                48.852684020996094
              ],
              [
                6.03309965133667,
                48.91886520385742
              ],
              [
                6.451152324676514,
                48.852684020996094
              ],
              [
                6.371833801269531,
                48.72037124633789
              ],
              [
                6.872262954711914,
                48.654239654541016
              ],
              [
                6.875682353973389,
                48.52202224731445
              ],
              [
                7.041702270507812,
                48.52202224731445
              ],
              [
                7.046595573425293,
                48.323814392089844
              ],
              [
                7.129497528076172,
                48.323814392089844
              ],
              [
                7.056310653686523,
                47.92780685424805
              ],
              [
                6.890934467315674,
                47.92780685424805
              ],
              [
                6.983439445495605,
                47.53233337402344
              ],
              [
                6.985063552856445,
                47.46647262573242
              ],
              [
                6.986684322357178,
                47.4006233215332
              ],
              [
                6.988301277160645,
                47.33478927612305
              ],
              [
                6.989914417266846,
                47.26897048950195
              ]
            ],
            [
              [
                6.462518692016602,
                48.455936431884766
              ],
              [
                6.635694026947021,
                48.191749572753906
              ],
              [
                6.797890186309814,
                48.323814392089844
              ],
              [
                6.796153545379639,
                48.38986587524414
              ],
              [
                6.709661960601807,
                48.52202224731445
              ],
              [
                6.462518692016602,
                48.455936431884766
              ]
            ]
          ],
          [
            [
              [
                6.702522277832031,
                48.786521911621094
              ],
              [
                6.613873958587646,
                48.98506164550781
              ],
              [
                6.697140693664551,
                48.98506164550781
              ],
              [
                6.780407428741455,
                48.98506164550781
              ],
              [
                6.946940422058105,
                48.98506164550781
              ],
              [
                7.033501625061035,
                48.852684020996094
              ],
              [
                6.702522277832031,
                48.786521911621094
              ]
            ]
          ],
          [
            [
              [
                7.526952266693115,
                49.11750411987305
              ],
              [
                7.529807567596436,
                48.98506164550781
              ],
              [
                7.198314666748047,
                48.91886520385742
              ],
              [
                7.196740627288818,
                48.98506164550781
              ],
              [
                6.861949920654297,
                49.051273345947266
              ],
              [
                6.858495712280273,
                49.18375015258789
              ],
              [
                7.526952266693115,
                49.11750411987305
              ]
            ]
          ],
          [
            [
              [
                5.291423320770264,
                50.97892379760742
              ],
              [
                5.206983089447021,
                50.97892379760742
              ],
              [
                5.217134952545166,
                50.71213912963867
              ],
              [
                5.048582077026367,
                50.71213912963867
              ],
              [
                5.058992385864258,
                50.445655822753906
              ],
              [
                5.232241630554199,
                50.312522888183594
              ],
              [
                5.479565620422363,
                50.445655822753906
              ],
              [
                5.902330875396729,
                50.37908172607422
              ],
              [
                5.727356910705566,
                50.578861236572266
              ],
              [
                5.711322784423828,
                51.04566955566406
              ],
              [
                5.880285263061523,
                51.04566955566406
              ],
              [
                5.973455429077148,
                50.77880859375
              ],
              [
                6.057772636413574,
                50.77880859375
              ],
              [
                6.068368434906006,
                50.445655822753906
              ],
              [
                6.402873992919922,
                50.51224899291992
              ],
              [
                6.07469654083252,
                50.2459831237793
              ],
              [
                6.582399845123291,
                50.11296081542969
              ],
              [
                6.586127281188965,
                49.98000717163086
              ],
              [
                6.340545177459717,
                49.78071212768555
              ],
              [
                6.346458435058594,
                49.58156967163086
              ],
              [
                7.015303134918213,
                49.58156967163086
              ],
              [
                7.016964435577393,
                49.51522445678711
              ],
              [
                7.100532054901123,
                49.51522445678711
              ],
              [
                7.10215425491333,
                49.44889450073242
              ],
              [
                6.851565837860107,
                49.44889450073242
              ],
              [
                6.855033874511719,
                49.316287994384766
              ],
              [
                6.688126564025879,
                49.316287994384766
              ],
              [
                6.526859283447266,
                49.11750411987305
              ],
              [
                6.360177040100098,
                49.11750411987305
              ],
              [
                6.356269359588623,
                49.2500114440918
              ],
              [
                5.94133186340332,
                49.18375015258789
              ],
              [
                5.864473819732666,
                48.98506164550781
              ],
              [
                6.03309965133667,
                48.91886520385742
              ],
              [
                5.949869632720947,
                48.91886520385742
              ],
              [
                5.866640090942383,
                48.91886520385742
              ],
              [
                5.868803024291992,
                48.852684020996094
              ],
              [
                5.455182075500488,
                48.786521911621094
              ],
              [
                5.379139423370361,
                48.5881233215332
              ],
              [
                5.296092987060547,
                48.5881233215332
              ],
              [
                5.286453723907471,
                48.852684020996094
              ],
              [
                5.127524375915527,
                48.654239654541016
              ],
              [
                4.878275871276855,
                48.654239654541016
              ],
              [
                4.865273475646973,
                48.98506164550781
              ],
              [
                5.029265403747559,
                49.051273345947266
              ],
              [
                4.940790176391602,
                49.18375015258789
              ],
              [
                5.178481578826904,
                49.51522445678711
              ],
              [
                5.165934562683105,
                49.84712600708008
              ],
              [
                4.559963226318359,
                50.312522888183594
              ],
              [
                4.394795417785645,
                50.2459831237793
              ],
              [
                4.406350135803223,
                49.98000717163086
              ],
              [
                4.322512626647949,
                49.98000717163086
              ],
              [
                4.238675117492676,
                49.98000717163086
              ],
              [
                4.154837608337402,
                49.98000717163086
              ],
              [
                4.151839256286621,
                50.04647445678711
              ],
              [
                4.142810344696045,
                50.2459831237793
              ],
              [
                3.968613386154175,
                50.37908172607422
              ],
              [
                3.635580539703369,
                50.312522888183594
              ],
              [
                3.729254722595215,
                50.11296081542969
              ],
              [
                2.554430246353149,
                50.11296081542969
              ],
              [
                2.64945650100708,
                49.91355895996094
              ],
              [
                2.481859445571899,
                49.91355895996094
              ],
              [
                2.405660152435303,
                49.78071212768555
              ],
              [
                2.070776462554932,
                49.78071212768555
              ],
              [
                1.551660418510437,
                50.04647445678711
              ],
              [
                1.454967975616455,
                50.2459831237793
              ],
              [
                1.45067572593689,
                50.312522888183594
              ],
              [
                1.446373105049133,
                50.37908172607422
              ],
              [
                1.442060351371765,
                50.445655822753906
              ],
              [
                1.437737107276917,
                50.51224899291992
              ],
              [
                1.433403611183167,
                50.578861236572266
              ],
              [
                1.685989022254944,
                50.578861236572266
              ],
              [
                1.841925024986267,
                50.77880859375
              ],
              [
                2.090827465057373,
                50.84549331665039
              ],
              [
                2.074539184570312,
                51.112430572509766
              ],
              [
                2.159061908721924,
                51.112430572509766
              ],
              [
                2.993350267410278,
                51.31283950805664
              ],
              [
                3.155481338500977,
                51.44654083251953
              ],
              [
                3.74860668182373,
                51.44654083251953
              ],
              [
                3.40621018409729,
                51.51342010498047
              ],
              [
                3.399252653121948,
                51.64724349975586
              ],
              [
                3.738690614700317,
                51.64724349975586
              ],
              [
                3.647099733352661,
                51.78114318847656
              ],
              [
                3.81699013710022,
                51.78114318847656
              ],
              [
                3.810401916503906,
                51.91512680053711
              ],
              [
                3.980464458465576,
                51.91512680053711
              ],
              [
                3.974021434783936,
                52.0491943359375
              ],
              [
                4.223166942596436,
                52.18334197998047
              ],
              [
                4.21693229675293,
                52.31757736206055
              ],
              [
                4.463808536529541,
                52.51908493041992
              ],
              [
                4.534325122833252,
                52.85536575317383
              ],
              [
                4.702715873718262,
                52.92268753051758
              ],
              [
                4.608114719390869,
                53.124786376953125
              ],
              [
                4.691011905670166,
                53.192195892333984
              ],
              [
                4.862768650054932,
                53.192195892333984
              ],
              [
                4.785540580749512,
                52.99003219604492
              ],
              [
                4.871281623840332,
                52.99003219604492
              ],
              [
                4.970867156982422,
                52.653533935546875
              ],
              [
                5.056382656097412,
                52.653533935546875
              ],
              [
                5.06179141998291,
                52.51908493041992
              ],
              [
                5.318069934844971,
                52.51908493041992
              ],
              [
                5.222162246704102,
                52.78806686401367
              ],
              [
                5.307767868041992,
                52.78806686401367
              ],
              [
                5.305179595947266,
                52.85536575317383
              ],
              [
                5.390830039978027,
                52.85536575317383
              ],
              [
                5.654990673065186,
                52.653533935546875
              ],
              [
                5.66215991973877,
                52.4518928527832
              ],
              [
                5.92727518081665,
                52.18334197998047
              ],
              [
                5.253365993499756,
                51.98215103149414
              ],
              [
                5.176112651824951,
                51.78114318847656
              ],
              [
                5.605600833892822,
                51.64724349975586
              ],
              [
                5.695121765136719,
                51.51342010498047
              ],
              [
                6.118994235992432,
                51.51342010498047
              ],
              [
                6.125326633453369,
                51.31283950805664
              ],
              [
                5.958219051361084,
                51.24601745605469
              ],
              [
                5.962587356567383,
                51.112430572509766
              ],
              [
                5.365976333618164,
                51.24601745605469
              ],
              [
                5.291423320770264,
                50.97892379760742
              ]
            ],
            [
              [
                5.85140323638916,
                49.38258361816406
              ],
              [
                5.35286808013916,
                49.316287994384766
              ],
              [
                5.36487340927124,
                48.98506164550781
              ],
              [
                5.448140144348145,
                48.98506164550781
              ],
              [
                5.697940349578857,
                48.98506164550781
              ],
              [
                5.607818126678467,
                49.18375015258789
              ],
              [
                5.85140323638916,
                49.38258361816406
              ]
            ]
          ]
        ]
      }
    }
  ]
}