{
  "type": "FeatureCollection",
  "name": "territory-406",
  "features": [
    {
      "type": "Feature",
      "properties": {
        "Name": "Taifa of Toledo",
        "FromYear": 1072,
        "ToYear": 1084,
        "Area": 90280.4255422906,
        "Type": "POLITY",
        "Wikipedia": "Taifa of Toledo",
        "Wikidata": "Q13534654",
        "SeshatID": "es_taifas",
        "Components": "",
        "MemberOf": "(Taifas of Iberia)"
      },
      "geometry": {
        "type": "Polygon",
        "coordinates": [
          [
            [
              -1.485091805458069,
              40.29063034057617
            ],
            [
              -1.481067180633545,
              40.225894927978516
            ],
            [
              -1.402012467384338,
              40.225894927978516
            ],
            [
              -1.398025631904602,
              40.16116714477539
            ],
            [
              -1.318997144699097,
              40.16116714477539
            ],
            [
              -1.239968657493591,
              40.16116714477539
            ],
            [
              -1.236045598983765,
              40.0964469909668
            ],
            [
              -0.991382360458374,
              39.9670295715332
            ],
            [
              -0.675580859184265,
              39.9670295715332
            ],
            [
              -0.607740998268127,
              40.16116714477539
            ],
            [
              -0.370655626058578,
              40.16116714477539
            ],
            [
              -0.144302651286125,
              40.355369567871094
            ],
            [
              0.078887835144997,
              40.614410400390625
            ],
            [
              0.392293244600296,
              40.6791877746582
            ],
            [
              0.399184077978134,
              40.54964065551758
            ],
            [
              0.402615189552307,
              40.4848747253418
            ],
            [
              0.247769102454185,
              40.42012023925781
            ],
            [
              0.106994137167931,
              40.0964469909668
            ],
            [
              -0.201878547668457,
              39.9670295715332
            ],
            [
              -0.345421016216278,
              39.70827102661133
            ],
            [
              -0.313707679510117,
              39.1264533996582
            ],
            [
              -0.235086008906364,
              39.1264533996582
            ],
            [
              -0.231637135148048,
              39.06184005737305
            ],
            [
              -0.771014451980591,
              38.8680305480957
            ],
            [
              -1.477726340293884,
              38.8680305480957
            ],
            [
              -1.933159589767456,
              38.60969924926758
            ],
            [
              -2.403720140457153,
              38.60969924926758
            ],
            [
              -2.63078498840332,
              38.48057174682617
            ],
            [
              -4.424239635467529,
              38.351463317871094
            ],
            [
              -4.751762390136719,
              38.54513168334961
            ],
            [
              -4.637899398803711,
              39.1264533996582
            ],
            [
              -5.035975933074951,
              39.19107437133789
            ],
            [
              -5.21859073638916,
              39.51427459716797
            ],
            [
              -5.449734210968018,
              39.449623107910156
            ],
            [
              -5.47575044631958,
              39.77294921875
            ],
            [
              -5.333653450012207,
              39.9670295715332
            ],
            [
              -4.707091808319092,
              40.031734466552734
            ],
            [
              -4.717220783233643,
              40.16116714477539
            ],
            [
              -4.252926349639893,
              40.29063034057617
            ],
            [
              -4.035295486450195,
              40.54964065551758
            ],
            [
              -3.728225946426392,
              40.6791877746582
            ],
            [
              -3.668406248092651,
              40.93837356567383
            ],
            [
              -3.365395307540894,
              41.132843017578125
            ],
            [
              -2.963567495346069,
              41.06801223754883
            ],
            [
              -2.63234543800354,
              40.873565673828125
            ],
            [
              -2.156414270401001,
              40.873565673828125
            ],
            [
              -2.015064239501953,
              41.132843017578125
            ],
            [
              -1.513591289520264,
              40.74397277832031
            ],
            [
              -1.505390167236328,
              40.614410400390625
            ],
            [
              -1.734717130661011,
              40.4848747253418
            ],
            [
              -1.726450324058533,
              40.355369567871094
            ],
            [
              -1.485091805458069,
              40.29063034057617
            ]
          ]
        ]
      }
    }
  ]
}