{
  "type": "FeatureCollection",
  "name": "territory-408",
  "features": [
    {
      "type": "Feature",
      "properties": {
        "Name": "Taifa of Murcia",
        "FromYear": 1152,
        "ToYear": 1168,
        "Area": 77918.49570503196,
        "Type": "POLITY",
        "Wikipedia": "Taifa of Murcia",
        "Wikidata": "Q921067",
        "SeshatID": "es_taifas",
        "Components": "",
        "MemberOf": "(Taifas of Iberia)"
      },
      "geometry": {
        "type": "Polygon",
        "coordinates": [
          [
            [
              -1.630712270736694,
              37.44829177856445
            ],
            [
              -1.708719491958618,
              37.44829177856445
            ],
            [
              -1.623468399047852,
              37.3193473815918
            ],
            [
              -1.857354998588562,
              37.3193473815918
            ],
            [
              -1.91694974899292,
              36.9970588684082
            ],
            [
              -1.994800448417664,
              36.9970588684082
            ],
            [
              -1.991137742996216,
              36.932613372802734
            ],
            [
              -2.38783860206604,
              37.06150817871094
            ],
            [
              -2.317524194717407,
              37.1904182434082
            ],
            [
              -2.574631214141846,
              37.5772590637207
            ],
            [
              -2.590435981750488,
              37.835243225097656
            ],
            [
              -2.977073431015015,
              37.7707405090332
            ],
            [
              -3.12509298324585,
              37.641746520996094
            ],
            [
              -3.445801258087158,
              37.7707405090332
            ],
            [
              -3.388803005218506,
              38.09331130981445
            ],
            [
              -3.162489414215088,
              38.22237777709961
            ],
            [
              -3.022679567337036,
              38.48057174682617
            ],
            [
              -2.8826904296875,
              38.738853454589844
            ],
            [
              -2.655579566955566,
              38.8680305480957
            ],
            [
              -2.663943529129028,
              38.997230529785156
            ],
            [
              -2.436492681503296,
              39.1264533996582
            ],
            [
              -2.702205657958984,
              39.57893371582031
            ],
            [
              -2.391232252120972,
              39.64360046386719
            ],
            [
              -2.25036358833313,
              39.90232849121094
            ],
            [
              -1.872196435928345,
              40.16116714477539
            ],
            [
              -1.734717130661011,
              40.4848747253418
            ],
            [
              -1.580494284629822,
              40.54964065551758
            ],
            [
              -1.251806020736694,
              40.355369567871094
            ],
            [
              -1.018372893333435,
              40.42012023925781
            ],
            [
              -0.871678948402405,
              40.614410400390625
            ],
            [
              -0.713251173496246,
              40.614410400390625
            ],
            [
              -0.728620767593384,
              40.873565673828125
            ],
            [
              -0.415093988180161,
              40.93837356567383
            ],
            [
              -0.278851270675659,
              41.32738494873047
            ],
            [
              -0.127280056476593,
              41.45711898803711
            ],
            [
              0.266965448856354,
              41.521995544433594
            ],
            [
              0.364345997571945,
              41.19768524169922
            ],
            [
              0.602722406387329,
              41.19768524169922
            ],
            [
              0.554171204566956,
              40.614410400390625
            ],
            [
              0.474957317113876,
              40.614410400390625
            ],
            [
              0.247769102454185,
              40.42012023925781
            ],
            [
              0.182543575763702,
              40.16116714477539
            ],
            [
              -0.126465529203415,
              40.031734466552734
            ],
            [
              -0.345421016216278,
              39.70827102661133
            ],
            [
              -0.313707679510117,
              39.1264533996582
            ],
            [
              0.099359586834908,
              38.738853454589844
            ],
            [
              -0.660861134529114,
              38.28691864013672
            ],
            [
              -0.803495347499847,
              38.028785705566406
            ],
            [
              -0.704753637313843,
              37.641746520996094
            ],
            [
              -1.403841376304626,
              37.5772590637207
            ],
            [
              -1.630712270736694,
              37.44829177856445
            ]
          ]
        ]
      }
    }
  ]
}