{
  "type": "FeatureCollection",
  "name": "territory-409",
  "features": [
    {
      "type": "Feature",
      "properties": {
        "Name": "Kingdom of Aragon",
        "FromYear": 1126,
        "ToYear": 1138,
        "Area": 100638.15976365718,
        "Type": "POLITY",
        "Wikipedia": "Kingdom of Aragon",
        "Wikidata": "Q199442",
        "SeshatID": "es_aragon_k",
        "Components": "",
        "MemberOf": ""
      },
      "geometry": {
        "type": "Polygon",
        "coordinates": [
          [
            [
              0.600951313972473,
              42.691246032714844
            ],
            [
              0.604590237140656,
              42.62621307373047
            ],
            [
              0.6846764087677,
              42.62621307373047
            ],
            [
              0.688276052474976,
              42.56119155883789
            ],
            [
              0.691865861415863,
              42.496177673339844
            ],
            [
              0.695445954799652,
              42.43117141723633
            ],
            [
              0.699016273021698,
              42.36617660522461
            ],
            [
              0.640438318252563,
              41.97637939453125
            ],
            [
              0.643969535827637,
              41.911441802978516
            ],
            [
              0.564201891422272,
              41.911441802978516
            ],
            [
              0.567751944065094,
              41.84651184082031
            ],
            [
              0.571292340755463,
              41.781593322753906
            ],
            [
              0.415458202362061,
              41.71668243408203
            ],
            [
              0.346563339233398,
              41.521995544433594
            ],
            [
              -0.127280056476593,
              41.45711898803711
            ],
            [
              -0.278851270675659,
              41.32738494873047
            ],
            [
              -0.415093988180161,
              40.93837356567383
            ],
            [
              -0.728620767593384,
              40.873565673828125
            ],
            [
              -0.713251173496246,
              40.614410400390625
            ],
            [
              -0.871678948402405,
              40.614410400390625
            ],
            [
              -1.018372893333435,
              40.42012023925781
            ],
            [
              -1.251806020736694,
              40.355369567871094
            ],
            [
              -1.65968132019043,
              40.54964065551758
            ],
            [
              -2.235736131668091,
              40.873565673828125
            ],
            [
              -4.323723793029785,
              41.19768524169922
            ],
            [
              -4.524849414825439,
              41.71668243408203
            ],
            [
              -4.157865047454834,
              42.10627746582031
            ],
            [
              -4.20598316192627,
              42.691246032714844
            ],
            [
              -4.286098957061768,
              42.691246032714844
            ],
            [
              -4.427267551422119,
              43.407203674316406
            ],
            [
              -4.346823215484619,
              43.407203674316406
            ],
            [
              -3.467212915420532,
              43.472347259521484
            ],
            [
              -3.295851230621338,
              43.342071533203125
            ],
            [
              -1.767988562583923,
              43.342071533203125
            ],
            [
              -1.687574744224548,
              43.342071533203125
            ],
            [
              -0.963850319385529,
              43.342071533203125
            ],
            [
              -0.857915937900543,
              42.95146560668945
            ],
            [
              0.040142297744751,
              42.691246032714844
            ],
            [
              0.600951313972473,
              42.691246032714844
            ]
          ]
        ]
      }
    }
  ]
}