{
  "type": "FeatureCollection",
  "name": "territory-413",
  "features": [
    {
      "type": "Feature",
      "properties": {
        "Name": "Taifa of Seville",
        "FromYear": 1085,
        "ToYear": 1093,
        "Area": 92570.54101254996,
        "Type": "POLITY",
        "Wikipedia": "Taifa of Seville",
        "Wikidata": "Q276951",
        "SeshatID": "es_taifas",
        "Components": "",
        "MemberOf": "(Taifas of Iberia)"
      },
      "geometry": {
        "type": "Polygon",
        "coordinates": [
          [
            [
              -1.091630697250366,
              37.5772590637207
            ],
            [
              -1.556320428848267,
              37.51277160644531
            ],
            [
              -1.708719491958618,
              37.44829177856445
            ],
            [
              -1.623468399047852,
              37.3193473815918
            ],
            [
              -1.701430559158325,
              37.3193473815918
            ],
            [
              -1.779392838478088,
              37.3193473815918
            ],
            [
              -1.939023733139038,
              37.38381576538086
            ],
            [
              -2.035821676254272,
              37.706241607666016
            ],
            [
              -2.28564715385437,
              37.96426773071289
            ],
            [
              -2.520218849182129,
              37.96426773071289
            ],
            [
              -2.973001480102539,
              37.706241607666016
            ],
            [
              -3.281243801116943,
              37.641746520996094
            ],
            [
              -3.367679834365845,
              37.7707405090332
            ],
            [
              -3.523922443389893,
              37.7707405090332
            ],
            [
              -3.663128614425659,
              37.51277160644531
            ],
            [
              -3.983922958374023,
              37.641746520996094
            ],
            [
              -4.044610500335693,
              37.38381576538086
            ],
            [
              -4.430107116699219,
              37.3193473815918
            ],
            [
              -4.508069515228271,
              37.3193473815918
            ],
            [
              -4.866331577301025,
              36.8681755065918
            ],
            [
              -4.766505241394043,
              36.5460319519043
            ],
            [
              -4.844202995300293,
              36.5460319519043
            ],
            [
              -5.22819709777832,
              36.48161697387695
            ],
            [
              -5.287947177886963,
              36.2239875793457
            ],
            [
              -5.662277221679688,
              36.03080368041992
            ],
            [
              -5.831079006195068,
              36.2239875793457
            ],
            [
              -6.063849925994873,
              36.2239875793457
            ],
            [
              -6.330093860626221,
              36.67487716674805
            ],
            [
              -6.349542140960693,
              36.932613372802734
            ],
            [
              -6.587993621826172,
              36.9970588684082
            ],
            [
              -6.84182596206665,
              37.254878997802734
            ],
            [
              -7.465344429016113,
              37.254878997802734
            ],
            [
              -7.454815864562988,
              37.12596130371094
            ],
            [
              -7.677903652191162,
              36.9970588684082
            ],
            [
              -8.067157745361328,
              36.9970588684082
            ],
            [
              -8.311661720275879,
              37.12596130371094
            ],
            [
              -8.70113754272461,
              37.12596130371094
            ],
            [
              -9.00136661529541,
              36.9970588684082
            ],
            [
              -8.896896362304688,
              37.5772590637207
            ],
            [
              -8.818843841552734,
              37.5772590637207
            ],
            [
              -8.847810745239258,
              37.89975357055664
            ],
            [
              -8.853657722473145,
              37.96426773071289
            ],
            [
              -8.060538291931152,
              37.835243225097656
            ],
            [
              -7.831634044647217,
              37.89975357055664
            ],
            [
              -7.551938056945801,
              38.28691864013672
            ],
            [
              -6.993054389953613,
              38.157840728759766
            ],
            [
              -5.437630176544189,
              38.28691864013672
            ],
            [
              -5.359322547912598,
              38.28691864013672
            ],
            [
              -4.908567905426025,
              38.54513168334961
            ],
            [
              -4.830165386199951,
              38.54513168334961
            ],
            [
              -4.751762390136719,
              38.54513168334961
            ],
            [
              -4.345908164978027,
              38.351463317871094
            ],
            [
              -3.79758882522583,
              38.351463317871094
            ],
            [
              -3.336195230484009,
              38.48057174682617
            ],
            [
              -2.552406072616577,
              38.48057174682617
            ],
            [
              -2.403720140457153,
              38.60969924926758
            ],
            [
              -1.933159589767456,
              38.60969924926758
            ],
            [
              -1.477726340293884,
              38.8680305480957
            ],
            [
              -1.006585121154785,
              38.8680305480957
            ],
            [
              -0.928061544895172,
              38.8680305480957
            ],
            [
              -0.849538028240204,
              38.8680305480957
            ],
            [
              -0.763865411281586,
              38.738853454589844
            ],
            [
              -0.910025060176849,
              38.54513168334961
            ],
            [
              -0.895784199237823,
              38.28691864013672
            ],
            [
              -0.657397627830505,
              38.22237777709961
            ],
            [
              -0.653944194316864,
              38.157840728759766
            ],
            [
              -0.803495347499847,
              38.028785705566406
            ],
            [
              -0.704753637313843,
              37.641746520996094
            ],
            [
              -1.013578057289124,
              37.5772590637207
            ],
            [
              -1.091630697250366,
              37.5772590637207
            ]
          ]
        ]
      }
    }
  ]
}