{
  "type": "FeatureCollection",
  "name": "territory-415",
  "features": [
    {
      "type": "Feature",
      "properties": {
        "Name": "Norman Italy",
        "FromYear": 1094,
        "ToYear": 1125,
        "Area": 79541.58390457502,
        "Type": "POLITY",
        "Wikipedia": "Norman conquest of southern Italy",
        "Wikidata": "Q74011",
        "SeshatID": "it_sicily_k_1",
        "Components": "",
        "MemberOf": ""
      },
      "geometry": {
        "type": "MultiPolygon",
        "coordinates": [
          [
            [
              [
                14.417119026184082,
                36.03080368041992
              ],
              [
                14.571182250976562,
                35.9664192199707
              ],
              [
                14.568227767944336,
                35.77327346801758
              ],
              [
                14.33681869506836,
                35.837650299072266
              ],
              [
                14.339592933654785,
                36.03080368041992
              ],
              [
                14.417119026184082,
                36.03080368041992
              ]
            ]
          ],
          [
            [
              [
                17.069679260253906,
                39.38497543334961
              ],
              [
                17.138301849365234,
                39.06184005737305
              ],
              [
                16.502395629882812,
                38.80344009399414
              ],
              [
                16.491945266723633,
                38.416015625
              ],
              [
                15.932764053344727,
                37.96426773071289
              ],
              [
                15.698192596435547,
                37.96426773071289
              ],
              [
                15.62426471710205,
                38.157840728759766
              ],
              [
                15.389483451843262,
                38.157840728759766
              ],
              [
                15.066489219665527,
                37.641746520996094
              ],
              [
                15.059245109558105,
                37.254878997802734
              ],
              [
                15.213889122009277,
                37.1904182434082
              ],
              [
                15.049844741821289,
                36.73930740356445
              ],
              [
                14.661029815673828,
                36.73930740356445
              ],
              [
                14.27791690826416,
                37.12596130371094
              ],
              [
                13.578389167785645,
                37.254878997802734
              ],
              [
                13.192005157470703,
                37.5772590637207
              ],
              [
                12.490468978881836,
                37.706241607666016
              ],
              [
                12.49189567565918,
                37.89975357055664
              ],
              [
                12.649824142456055,
                38.09331130981445
              ],
              [
                13.040358543395996,
                38.028785705566406
              ],
              [
                13.119925498962402,
                38.157840728759766
              ],
              [
                13.354706764221191,
                38.157840728759766
              ],
              [
                13.665236473083496,
                37.96426773071289
              ],
              [
                14.604636192321777,
                38.028785705566406
              ],
              [
                14.763398170471191,
                38.157840728759766
              ],
              [
                15.862062454223633,
                38.28691864013672
              ],
              [
                15.949724197387695,
                38.67427444458008
              ],
              [
                16.265209197998047,
                38.738853454589844
              ],
              [
                15.898874282836914,
                39.77294921875
              ],
              [
                15.665508270263672,
                39.90232849121094
              ],
              [
                15.747773170471191,
                40.031734466552734
              ],
              [
                15.431868553161621,
                40.031734466552734
              ],
              [
                15.199469566345215,
                40.225894927978516
              ],
              [
                15.041359901428223,
                40.225894927978516
              ],
              [
                14.971100807189941,
                40.614410400390625
              ],
              [
                14.81411075592041,
                40.6791877746582
              ],
              [
                14.734869956970215,
                40.6791877746582
              ],
              [
                14.737711906433105,
                40.80876541137695
              ],
              [
                14.579122543334961,
                40.80876541137695
              ],
              [
                14.503893852233887,
                41.00318908691406
              ],
              [
                14.265765190124512,
                41.00318908691406
              ],
              [
                14.263211250305176,
                40.873565673828125
              ],
              [
                14.183889389038086,
                40.873565673828125
              ],
              [
                13.948259353637695,
                41.00318908691406
              ],
              [
                13.950616836547852,
                41.132843017578125
              ],
              [
                13.635047912597656,
                41.26253128051758
              ],
              [
                13.555561065673828,
                41.26253128051758
              ],
              [
                13.955390930175781,
                41.39224624633789
              ],
              [
                14.038646697998047,
                41.586883544921875
              ],
              [
                13.96146297454834,
                41.71668243408203
              ],
              [
                14.120827674865723,
                41.71668243408203
              ],
              [
                14.365377426147461,
                41.97637939453125
              ],
              [
                14.687567710876465,
                42.10627746582031
              ],
              [
                14.76742172241211,
                42.10627746582031
              ],
              [
                14.9239501953125,
                41.97637939453125
              ],
              [
                15.165011405944824,
                42.041324615478516
              ],
              [
                15.241438865661621,
                41.911441802978516
              ],
              [
                16.11888313293457,
                41.911441802978516
              ],
              [
                16.114879608154297,
                41.781593322753906
              ],
              [
                15.87384033203125,
                41.71668243408203
              ],
              [
                15.943941116333008,
                41.39224624633789
              ],
              [
                17.20269203186035,
                41.00318908691406
              ],
              [
                17.510658264160156,
                40.74397277832031
              ],
              [
                17.981229782104492,
                40.614410400390625
              ],
              [
                18.43811798095703,
                40.16116714477539
              ],
              [
                18.34894371032715,
                39.90232849121094
              ],
              [
                18.11216926574707,
                39.90232849121094
              ],
              [
                17.813072204589844,
                40.355369567871094
              ],
              [
                17.41753578186035,
                40.355369567871094
              ],
              [
                17.345230102539062,
                40.54964065551758
              ],
              [
                17.02848243713379,
                40.54964065551758
              ],
              [
                16.867990493774414,
                40.4848747253418
              ],
              [
                16.945016860961914,
                40.42012023925781
              ],
              [
                16.861696243286133,
                40.29063034057617
              ],
              [
                16.624452590942383,
                40.29063034057617
              ],
              [
                16.697484970092773,
                40.0964469909668
              ],
              [
                16.454753875732422,
                39.90232849121094
              ],
              [
                16.452865600585938,
                39.8376350402832
              ],
              [
                16.44725799560547,
                39.64360046386719
              ],
              [
                17.069679260253906,
                39.38497543334961
              ]
            ]
          ],
          [
            [
              [
                14.577752113342285,
                40.74397277832031
              ],
              [
                14.65701961517334,
                40.74397277832031
              ],
              [
                14.65562915802002,
                40.6791877746582
              ],
              [
                14.576388359069824,
                40.6791877746582
              ],
              [
                14.497147560119629,
                40.6791877746582
              ],
              [
                14.49848461151123,
                40.74397277832031
              ],
              [
                14.577752113342285,
                40.74397277832031
              ]
            ]
          ]
        ]
      }
    }
  ]
}