{
  "type": "FeatureCollection",
  "name": "territory-418",
  "features": [
    {
      "type": "Feature",
      "properties": {
        "Name": "Takrur",
        "FromYear": 1056,
        "ToYear": 1138,
        "Area": 74356.91489854967,
        "Type": "POLITY",
        "Wikipedia": "Takrur",
        "Wikidata": "Q2272880",
        "SeshatID": "",
        "Components": "",
        "MemberOf": ""
      },
      "geometry": {
        "type": "Polygon",
        "coordinates": [
          [
            [
              -12.933199882507324,
              15.971842765808105
            ],
            [
              -12.480855941772461,
              15.586114883422852
            ],
            [
              -12.333720207214355,
              15.586114883422852
            ],
            [
              -12.174893379211426,
              15.136098861694336
            ],
            [
              -11.802569389343262,
              14.943235397338867
            ],
            [
              -11.722990989685059,
              14.686083793640137
            ],
            [
              -11.790575981140137,
              14.428933143615723
            ],
            [
              -12.523595809936523,
              14.364645004272461
            ],
            [
              -12.673528671264648,
              14.493220329284668
            ],
            [
              -13.189319610595703,
              14.55750846862793
            ],
            [
              -13.267637252807617,
              14.750371932983398
            ],
            [
              -13.717093467712402,
              15.07181167602539
            ],
            [
              -14.384211540222168,
              15.26467514038086
            ],
            [
              -14.461484909057617,
              15.393251419067383
            ],
            [
              -15.057732582092285,
              15.650403022766113
            ],
            [
              -15.799734115600586,
              15.843266487121582
            ],
            [
              -16.535690307617188,
              15.843266487121582
            ],
            [
              -16.551259994506836,
              16.293283462524414
            ],
            [
              -16.351139068603516,
              16.87187385559082
            ],
            [
              -16.277427673339844,
              16.87187385559082
            ],
            [
              -14.070432662963867,
              17.000450134277344
            ],
            [
              -14.06827163696289,
              16.9361629486084
            ],
            [
              -13.847118377685547,
              16.9361629486084
            ],
            [
              -13.615562438964844,
              16.614723205566406
            ],
            [
              -13.169488906860352,
              16.486146926879883
            ],
            [
              -13.165548324584961,
              16.35757064819336
            ],
            [
              -13.016307830810547,
              16.293283462524414
            ],
            [
              -13.086101531982422,
              16.16470718383789
            ],
            [
              -12.935067176818848,
              16.036130905151367
            ],
            [
              -12.933199882507324,
              15.971842765808105
            ]
          ]
        ]
      }
    }
  ]
}