{
  "type": "FeatureCollection",
  "name": "territory-422",
  "features": [
    {
      "type": "Feature",
      "properties": {
        "Name": "Kediri Kingdom",
        "FromYear": 1139,
        "ToYear": 1219,
        "Area": 73224.94183556546,
        "Type": "POLITY",
        "Wikipedia": "Kediri Kingdom",
        "Wikidata": "Q756895",
        "SeshatID": "id_kediri_k",
        "Components": "",
        "MemberOf": ""
      },
      "geometry": {
        "type": "Polygon",
        "coordinates": [
          [
            [
              112.61239624023438,
              -7.10741138458252
            ],
            [
              112.71458435058594,
              -7.557425022125244
            ],
            [
              113.09252166748047,
              -7.750287532806396
            ],
            [
              114.255859375,
              -7.685999870300293
            ],
            [
              114.4107437133789,
              -7.8145751953125
            ],
            [
              114.30169677734375,
              -8.328875541687012
            ],
            [
              114.48686981201172,
              -8.84317684173584
            ],
            [
              114.26774597167969,
              -8.84317684173584
            ],
            [
              114.1798095703125,
              -8.650314331054688
            ],
            [
              113.74161529541016,
              -8.650314331054688
            ],
            [
              113.20647430419922,
              -8.328875541687012
            ],
            [
              112.9874267578125,
              -8.328875541687012
            ],
            [
              112.85083770751953,
              -8.457450866699219
            ],
            [
              112.26666259765625,
              -8.457450866699219
            ],
            [
              111.8922119140625,
              -8.328875541687012
            ],
            [
              110.64639282226562,
              -8.264588356018066
            ],
            [
              109.89845275878906,
              -8.007437705993652
            ],
            [
              109.89408111572266,
              -7.943150520324707
            ],
            [
              110.01444244384766,
              -7.557425022125244
            ],
            [
              109.49128723144531,
              -7.364562034606934
            ],
            [
              109.40232849121094,
              -7.10741138458252
            ],
            [
              109.25250244140625,
              -7.043123722076416
            ],
            [
              109.2409439086914,
              -6.850261211395264
            ],
            [
              109.31388854980469,
              -6.850261211395264
            ],
            [
              110.33898162841797,
              -6.914548873901367
            ],
            [
              110.53135681152344,
              -6.464535236358643
            ],
            [
              110.89232635498047,
              -6.400247573852539
            ],
            [
              111.05307006835938,
              -6.657398223876953
            ],
            [
              111.48690795898438,
              -6.59311056137085
            ],
            [
              111.64424133300781,
              -6.78597354888916
            ],
            [
              111.93600463867188,
              -6.78597354888916
            ],
            [
              112.16267395019531,
              -6.914548873901367
            ],
            [
              112.5234603881836,
              -6.850261211395264
            ],
            [
              112.60835266113281,
              -7.043123722076416
            ],
            [
              112.61239624023438,
              -7.10741138458252
            ]
          ]
        ]
      }
    }
  ]
}