{
  "type": "FeatureCollection",
  "name": "territory-423",
  "features": [
    {
      "type": "Feature",
      "properties": {
        "Name": "Zirid dynasty",
        "FromYear": 1056,
        "ToYear": 1065,
        "Area": 113556.90375695362,
        "Type": "POLITY",
        "Wikipedia": "Zirid dynasty",
        "Wikidata": "Q205718",
        "SeshatID": "tn_zirid_dyn",
        "Components": "",
        "MemberOf": ""
      },
      "geometry": {
        "type": "Polygon",
        "coordinates": [
          [
            [
              10.851019859313965,
              35.644527435302734
            ],
            [
              11.08318042755127,
              35.58015823364258
            ],
            [
              11.083049774169922,
              35.38706970214844
            ],
            [
              11.005731582641602,
              35.38706970214844
            ],
            [
              11.082771301269531,
              35.00096893310547
            ],
            [
              10.85119342803955,
              34.93662643432617
            ],
            [
              10.851213455200195,
              34.80794906616211
            ],
            [
              10.543014526367188,
              34.55062484741211
            ],
            [
              10.004497528076172,
              34.2933349609375
            ],
            [
              10.081672668457031,
              34.22901916503906
            ],
            [
              10.005777359008789,
              33.90746307373047
            ],
            [
              10.23681354522705,
              33.71455001831055
            ],
            [
              10.544031143188477,
              33.71455001831055
            ],
            [
              10.697741508483887,
              33.52165222167969
            ],
            [
              11.081541061401367,
              33.5859489440918
            ],
            [
              11.157825469970703,
              33.20018768310547
            ],
            [
              11.464286804199219,
              33.13589859008789
            ],
            [
              11.540922164916992,
              33.13589859008789
            ],
            [
              11.615667343139648,
              32.493072509765625
            ],
            [
              11.462311744689941,
              32.30024337768555
            ],
            [
              11.38591194152832,
              32.30024337768555
            ],
            [
              11.080252647399902,
              32.23596954345703
            ],
            [
              11.156867980957031,
              32.428794860839844
            ],
            [
              10.08555793762207,
              32.878753662109375
            ],
            [
              9.85610294342041,
              32.81447219848633
            ],
            [
              9.701672554016113,
              33.13589859008789
            ],
            [
              9.23953914642334,
              33.52165222167969
            ],
            [
              9.159027099609375,
              34.10039138793945
            ],
            [
              8.310981750488281,
              34.2933349609375
            ],
            [
              8.0807523727417,
              34.22901916503906
            ],
            [
              8.001612663269043,
              34.42197799682617
            ],
            [
              7.614861011505127,
              34.55062484741211
            ],
            [
              7.153473854064941,
              34.48630142211914
            ],
            [
              6.920335292816162,
              34.614952087402344
            ],
            [
              6.612029552459717,
              34.614952087402344
            ],
            [
              6.534953117370605,
              34.614952087402344
            ],
            [
              6.531584739685059,
              34.80794906616211
            ],
            [
              6.756508350372314,
              35.194007873535156
            ],
            [
              7.141801834106445,
              35.258358001708984
            ],
            [
              7.4472336769104,
              35.51579284667969
            ],
            [
              7.52094554901123,
              35.77327346801758
            ],
            [
              7.829041957855225,
              35.902034759521484
            ],
            [
              8.132078170776367,
              36.48161697387695
            ],
            [
              8.362959861755371,
              36.67487716674805
            ],
            [
              8.440701484680176,
              36.67487716674805
            ],
            [
              8.593559265136719,
              36.932613372802734
            ],
            [
              8.903155326843262,
              37.12596130371094
            ],
            [
              9.05947494506836,
              37.06150817871094
            ],
            [
              9.603086471557617,
              37.3193473815918
            ],
            [
              9.993423461914062,
              37.1904182434082
            ],
            [
              10.226980209350586,
              37.254878997802734
            ],
            [
              10.227567672729492,
              37.06150817871094
            ],
            [
              10.305440902709961,
              37.06150817871094
            ],
            [
              10.228352546691895,
              36.80373764038086
            ],
            [
              10.461837768554688,
              36.73930740356445
            ],
            [
              11.006271362304688,
              36.9970588684082
            ],
            [
              11.006199836730957,
              36.80373764038086
            ],
            [
              10.462488174438477,
              36.417205810546875
            ],
            [
              10.540250778198242,
              36.3527946472168
            ],
            [
              10.463515281677246,
              35.902034759521484
            ],
            [
              10.851000785827637,
              35.708900451660156
            ],
            [
              10.851019859313965,
              35.644527435302734
            ]
          ]
        ]
      }
    }
  ]
}