{
  "type": "FeatureCollection",
  "name": "territory-424",
  "features": [
    {
      "type": "Feature",
      "properties": {
        "Name": "Sulayhid Dynasty",
        "FromYear": 1056,
        "ToYear": 1065,
        "Area": 75389.69947727154,
        "Type": "POLITY",
        "Wikipedia": "Sulayhid dynasty",
        "Wikidata": "Q2364248",
        "SeshatID": "",
        "Components": "",
        "MemberOf": ""
      },
      "geometry": {
        "type": "Polygon",
        "coordinates": [
          [
            [
              44.61093521118164,
              16.9361629486084
            ],
            [
              44.60719680786133,
              16.87187385559082
            ],
            [
              44.66971969604492,
              16.67901039123535
            ],
            [
              45.019527435302734,
              16.35757064819336
            ],
            [
              45.01214599609375,
              16.228994369506836
            ],
            [
              45.22568130493164,
              16.100418090820312
            ],
            [
              45.21834945678711,
              15.971842765808105
            ],
            [
              45.21470260620117,
              15.907554626464844
            ],
            [
              45.13385772705078,
              15.77897834777832
            ],
            [
              44.53806686401367,
              15.650403022766113
            ],
            [
              44.08278274536133,
              15.393251419067383
            ],
            [
              44.07255554199219,
              15.200387001037598
            ],
            [
              43.522029876708984,
              14.493220329284668
            ],
            [
              43.004695892333984,
              14.428933143615723
            ],
            [
              43.00782012939453,
              14.493220329284668
            ],
            [
              42.88957214355469,
              15.07181167602539
            ],
            [
              42.74578857421875,
              15.136098861694336
            ],
            [
              42.765567779541016,
              15.52182674407959
            ],
            [
              42.6920051574707,
              15.52182674407959
            ],
            [
              42.8239860534668,
              16.614723205566406
            ],
            [
              42.476654052734375,
              17.000450134277344
            ],
            [
              42.48373794555664,
              17.129026412963867
            ],
            [
              42.33625793457031,
              17.129026412963867
            ],
            [
              42.34688949584961,
              17.321889877319336
            ],
            [
              42.206451416015625,
              17.450464248657227
            ],
            [
              42.21000289916992,
              17.514753341674805
            ],
            [
              42.663536071777344,
              17.707616806030273
            ],
            [
              42.97704315185547,
              18.029054641723633
            ],
            [
              43.50514221191406,
              18.2219181060791
            ],
            [
              43.89335632324219,
              18.543354034423828
            ],
            [
              43.88957977294922,
              18.479066848754883
            ],
            [
              44.41978073120117,
              17.450464248657227
            ],
            [
              44.34223556518555,
              17.38617706298828
            ],
            [
              44.40472412109375,
              17.193313598632812
            ],
            [
              44.622196197509766,
              17.129026412963867
            ],
            [
              44.53721618652344,
              16.9361629486084
            ],
            [
              44.61093521118164,
              16.9361629486084
            ]
          ]
        ]
      }
    }
  ]
}