{
  "type": "FeatureCollection",
  "name": "territory-426",
  "features": [
    {
      "type": "Feature",
      "properties": {
        "Name": "Principality of Volhynia",
        "FromYear": 1056,
        "ToYear": 1191,
        "Area": 82287.00380456871,
        "Type": "POLITY",
        "Wikipedia": "Principality of Volhynia",
        "Wikidata": "Q680472",
        "SeshatID": "",
        "Components": "",
        "MemberOf": ""
      },
      "geometry": {
        "type": "MultiPolygon",
        "coordinates": [
          [
            [
              [
                25.433034896850586,
                52.85536575317383
              ],
              [
                25.47864532470703,
                52.51908493041992
              ],
              [
                25.564071655273438,
                52.51908493041992
              ],
              [
                25.532371520996094,
                52.250450134277344
              ],
              [
                25.61762046813965,
                52.250450134277344
              ],
              [
                25.5323543548584,
                51.51342010498047
              ],
              [
                26.025373458862305,
                51.37968063354492
              ],
              [
                25.964094161987305,
                50.84549331665039
              ],
              [
                25.68891716003418,
                50.64549255371094
              ],
              [
                24.553611755371094,
                50.2459831237793
              ],
              [
                23.881650924682617,
                50.2459831237793
              ],
              [
                23.383758544921875,
                50.312522888183594
              ],
              [
                23.31188201904297,
                50.445655822753906
              ],
              [
                22.975421905517578,
                50.445655822753906
              ],
              [
                22.891307830810547,
                50.445655822753906
              ],
              [
                22.91514015197754,
                50.71213912963867
              ],
              [
                23.08979606628418,
                50.77880859375
              ],
              [
                23.10826873779297,
                50.97892379760742
              ],
              [
                23.023828506469727,
                50.97892379760742
              ],
              [
                23.042409896850586,
                51.17921447753906
              ],
              [
                22.87944221496582,
                51.24601745605469
              ],
              [
                22.995450973510742,
                51.580322265625
              ],
              [
                22.6685791015625,
                51.71418380737305
              ],
              [
                22.687358856201172,
                51.91512680053711
              ],
              [
                22.347232818603516,
                51.91512680053711
              ],
              [
                22.10417366027832,
                52.0491943359375
              ],
              [
                22.292898178100586,
                52.250450134277344
              ],
              [
                22.422412872314453,
                52.720787048339844
              ],
              [
                22.343225479125977,
                52.78806686401367
              ],
              [
                22.428829193115234,
                52.78806686401367
              ],
              [
                22.6462345123291,
                53.25962829589844
              ],
              [
                22.732158660888672,
                53.25962829589844
              ],
              [
                22.745656967163086,
                53.39456558227539
              ],
              [
                22.924564361572266,
                53.462066650390625
              ],
              [
                23.03854751586914,
                53.732303619384766
              ],
              [
                23.41990852355957,
                54.07062530517578
              ],
              [
                24.308311462402344,
                54.27390670776367
              ],
              [
                24.497575759887695,
                54.4095458984375
              ],
              [
                24.58430290222168,
                54.4095458984375
              ],
              [
                24.741464614868164,
                54.27390670776367
              ],
              [
                24.725271224975586,
                54.138362884521484
              ],
              [
                25.141374588012695,
                54.00291442871094
              ],
              [
                25.297597885131836,
                53.86756134033203
              ],
              [
                25.281047821044922,
                53.732303619384766
              ],
              [
                25.74785804748535,
                53.32708740234375
              ],
              [
                25.441082000732422,
                52.92268753051758
              ],
              [
                25.433034896850586,
                52.85536575317383
              ]
            ]
          ],
          [
            [
              [
                24.497575759887695,
                54.4095458984375
              ],
              [
                24.410846710205078,
                54.4095458984375
              ],
              [
                24.41883659362793,
                54.47740173339844
              ],
              [
                24.505613327026367,
                54.47740173339844
              ],
              [
                24.497575759887695,
                54.4095458984375
              ]
            ]
          ]
        ]
      }
    }
  ]
}