{
  "type": "FeatureCollection",
  "name": "territory-429",
  "features": [
    {
      "type": "Feature",
      "properties": {
        "Name": "Principality of Rostov-Suzdal",
        "FromYear": 1227,
        "ToYear": 1235,
        "Area": 250636.6087495145,
        "Type": "POLITY",
        "Wikipedia": "Vladimir-Suzdal",
        "Wikidata": "Q83546",
        "SeshatID": "",
        "Components": "",
        "MemberOf": ""
      },
      "geometry": {
        "type": "Polygon",
        "coordinates": [
          [
            [
              46.0395393371582,
              60.628211975097656
            ],
            [
              46.01519012451172,
              60.557716369628906
            ],
            [
              45.68439483642578,
              59.85470962524414
            ],
            [
              45.15981674194336,
              59.64447021484375
            ],
            [
              45.2044563293457,
              59.504478454589844
            ],
            [
              44.41146469116211,
              59.294734954833984
            ],
            [
              43.69415283203125,
              58.73685073852539
            ],
            [
              43.28203201293945,
              57.97305679321289
            ],
            [
              43.19260025024414,
              57.97305679321289
            ],
            [
              43.19940948486328,
              57.696231842041016
            ],
            [
              43.00058364868164,
              57.62710189819336
            ],
            [
              43.028709411621094,
              57.41988754272461
            ],
            [
              42.83060073852539,
              57.35087585449219
            ],
            [
              42.75067138671875,
              57.07511901855469
            ],
            [
              42.839393615722656,
              57.07511901855469
            ],
            [
              42.799652099609375,
              56.937416076660156
            ],
            [
              43.02565383911133,
              56.799827575683594
            ],
            [
              42.98603820800781,
              56.662349700927734
            ],
            [
              43.12322998046875,
              56.524986267089844
            ],
            [
              42.868499755859375,
              56.25059127807617
            ],
            [
              42.301876068115234,
              56.11355972290039
            ],
            [
              42.21389389038086,
              56.11355972290039
            ],
            [
              42.05680847167969,
              56.182064056396484
            ],
            [
              41.975399017333984,
              56.524986267089844
            ],
            [
              41.710514068603516,
              56.524986267089844
            ],
            [
              40.33198165893555,
              56.319149017333984
            ],
            [
              40.15491485595703,
              55.97663879394531
            ],
            [
              39.85636901855469,
              55.83982467651367
            ],
            [
              39.57581329345703,
              55.77145767211914
            ],
            [
              39.59304428100586,
              55.83982467651367
            ],
            [
              38.99554443359375,
              55.90821838378906
            ],
            [
              37.84450149536133,
              55.498252868652344
            ],
            [
              37.8124885559082,
              55.36180877685547
            ],
            [
              36.64551544189453,
              55.225467681884766
            ],
            [
              36.37188720703125,
              55.56651306152344
            ],
            [
              35.89144515991211,
              55.77145767211914
            ],
            [
              34.955562591552734,
              55.90821838378906
            ],
            [
              34.86773681640625,
              55.90821838378906
            ],
            [
              34.911495208740234,
              56.11355972290039
            ],
            [
              35.131900787353516,
              56.319149017333984
            ],
            [
              35.20680618286133,
              56.662349700927734
            ],
            [
              35.5298957824707,
              56.524986267089844
            ],
            [
              36.106449127197266,
              56.731075286865234
            ],
            [
              36.551456451416016,
              58.2503662109375
            ],
            [
              36.461795806884766,
              58.2503662109375
            ],
            [
              36.511962890625,
              58.45867156982422
            ],
            [
              36.42213439941406,
              58.45867156982422
            ],
            [
              36.450199127197266,
              58.94581604003906
            ],
            [
              36.03256607055664,
              59.08528518676758
            ],
            [
              35.99268341064453,
              59.294734954833984
            ],
            [
              35.902156829833984,
              59.294734954833984
            ],
            [
              35.913124084472656,
              59.714515686035156
            ],
            [
              35.76533126831055,
              59.85470962524414
            ],
            [
              35.8166389465332,
              60.065250396728516
            ],
            [
              35.72545623779297,
              60.065250396728516
            ],
            [
              35.84642028808594,
              60.557716369628906
            ],
            [
              36.74334716796875,
              60.83990478515625
            ],
            [
              38.32425308227539,
              60.91054153442383
            ],
            [
              38.377506256103516,
              60.76930236816406
            ],
            [
              39.28813171386719,
              60.416839599609375
            ],
            [
              39.320613861083984,
              60.20578384399414
            ],
            [
              39.737457275390625,
              60.065250396728516
            ],
            [
              39.860355377197266,
              59.85470962524414
            ],
            [
              40.275390625,
              59.714515686035156
            ],
            [
              40.609432220458984,
              59.294734954833984
            ],
            [
              40.79048156738281,
              59.294734954833984
            ],
            [
              41.59706497192383,
              59.574459075927734
            ],
            [
              41.63859939575195,
              59.714515686035156
            ],
            [
              42.199363708496094,
              60.065250396728516
            ],
            [
              43.01226806640625,
              60.91054153442383
            ],
            [
              43.42579650878906,
              61.618961334228516
            ],
            [
              44.28272247314453,
              61.69001388549805
            ],
            [
              44.633296966552734,
              61.90340805053711
            ],
            [
              44.726112365722656,
              61.90340805053711
            ],
            [
              46.253116607666016,
              61.7611083984375
            ],
            [
              46.387638092041016,
              61.618961334228516
            ],
            [
              46.261749267578125,
              61.264278411865234
            ],
            [
              46.35398864746094,
              61.264278411865234
            ],
            [
              46.23678207397461,
              61.193458557128906
            ],
            [
              46.0395393371582,
              60.628211975097656
            ]
          ]
        ]
      }
    }
  ]
}