{
  "type": "FeatureCollection",
  "name": "territory-431",
  "features": [
    {
      "type": "Feature",
      "properties": {
        "Name": "Principality of Peremyshl",
        "FromYear": 1056,
        "ToYear": 1065,
        "Area": 62423.92240776312,
        "Type": "POLITY",
        "Wikipedia": "Principality of Peremyshl",
        "Wikidata": "Q4350658",
        "SeshatID": "",
        "Components": "",
        "MemberOf": ""
      },
      "geometry": {
        "type": "Polygon",
        "coordinates": [
          [
            [
              26.50996971130371,
              49.71431350708008
            ],
            [
              27.31626319885254,
              49.44889450073242
            ],
            [
              26.862089157104492,
              49.11750411987305
            ],
            [
              26.695405960083008,
              49.11750411987305
            ],
            [
              26.327335357666016,
              48.786521911621094
            ],
            [
              26.244178771972656,
              48.786521911621094
            ],
            [
              25.4444637298584,
              48.257774353027344
            ],
            [
              25.431859970092773,
              48.1257438659668
            ],
            [
              25.17116928100586,
              47.993770599365234
            ],
            [
              25.241594314575195,
              47.86185836791992
            ],
            [
              25.0762882232666,
              47.86185836791992
            ],
            [
              24.981626510620117,
              47.730003356933594
            ],
            [
              24.8990421295166,
              47.730003356933594
            ],
            [
              24.586227416992188,
              47.92780685424805
            ],
            [
              24.686708450317383,
              48.1257438659668
            ],
            [
              24.367206573486328,
              48.257774353027344
            ],
            [
              24.378963470458984,
              48.38986587524414
            ],
            [
              24.052976608276367,
              48.455936431884766
            ],
            [
              23.826892852783203,
              48.72037124633789
            ],
            [
              23.089706420898438,
              48.852684020996094
            ],
            [
              22.77837371826172,
              49.11750411987305
            ],
            [
              22.5230712890625,
              49.051273345947266
            ],
            [
              21.79827117919922,
              49.38258361816406
            ],
            [
              21.385677337646484,
              49.44889450073242
            ],
            [
              22.158485412597656,
              49.71431350708008
            ],
            [
              22.258319854736328,
              49.91355895996094
            ],
            [
              22.946025848388672,
              50.11296081542969
            ],
            [
              22.975421905517578,
              50.445655822753906
            ],
            [
              23.31188201904297,
              50.445655822753906
            ],
            [
              23.383758544921875,
              50.312522888183594
            ],
            [
              23.881650924682617,
              50.2459831237793
            ],
            [
              24.553611755371094,
              50.2459831237793
            ],
            [
              25.68891716003418,
              50.64549255371094
            ],
            [
              25.659879684448242,
              50.37908172607422
            ],
            [
              25.820768356323242,
              50.312522888183594
            ],
            [
              25.799171447753906,
              50.11296081542969
            ],
            [
              25.967002868652344,
              50.11296081542969
            ],
            [
              26.113054275512695,
              49.91355895996094
            ],
            [
              26.440895080566406,
              49.84712600708008
            ],
            [
              26.50996971130371,
              49.71431350708008
            ]
          ]
        ]
      }
    }
  ]
}