{
  "type": "FeatureCollection",
  "name": "territory-432",
  "features": [
    {
      "type": "Feature",
      "properties": {
        "Name": "Principality of Pereyaslavl",
        "FromYear": 1072,
        "ToYear": 1235,
        "Area": 95082.41141723288,
        "Type": "POLITY",
        "Wikipedia": "Principality of Pereyaslavl",
        "Wikidata": "Q1261908",
        "SeshatID": "",
        "Components": "",
        "MemberOf": ""
      },
      "geometry": {
        "type": "Polygon",
        "coordinates": [
          [
            [
              37.60602951049805,
              49.98000717163086
            ],
            [
              37.59345626831055,
              49.91355895996094
            ],
            [
              37.2090950012207,
              49.64793395996094
            ],
            [
              35.407379150390625,
              49.38258361816406
            ],
            [
              31.5667724609375,
              49.38258361816406
            ],
            [
              31.428138732910156,
              49.58156967163086
            ],
            [
              31.112499237060547,
              49.71431350708008
            ],
            [
              31.169797897338867,
              50.11296081542969
            ],
            [
              30.872509002685547,
              50.37908172607422
            ],
            [
              30.856847763061523,
              50.84549331665039
            ],
            [
              30.68813133239746,
              50.84549331665039
            ],
            [
              30.588598251342773,
              51.31283950805664
            ],
            [
              31.435077667236328,
              51.31283950805664
            ],
            [
              31.847692489624023,
              51.24601745605469
            ],
            [
              31.99560546875,
              51.112430572509766
            ],
            [
              32.43993377685547,
              51.24601745605469
            ],
            [
              33.03217697143555,
              51.24601745605469
            ],
            [
              33.09440231323242,
              51.112430572509766
            ],
            [
              33.567543029785156,
              50.912200927734375
            ],
            [
              34.242733001708984,
              50.912200927734375
            ],
            [
              35.21968078613281,
              51.17921447753906
            ],
            [
              35.89619445800781,
              51.17921447753906
            ],
            [
              36.449790954589844,
              50.97892379760742
            ],
            [
              37.71259689331055,
              51.37968063354492
            ],
            [
              38.05135726928711,
              51.37968063354492
            ],
            [
              38.19314956665039,
              51.24601745605469
            ],
            [
              38.602256774902344,
              51.17921447753906
            ],
            [
              38.560791015625,
              50.97892379760742
            ],
            [
              38.018856048583984,
              50.37908172607422
            ],
            [
              37.786407470703125,
              50.04647445678711
            ],
            [
              37.60602951049805,
              49.98000717163086
            ]
          ]
        ]
      }
    }
  ]
}