{
  "type": "FeatureCollection",
  "name": "territory-436",
  "features": [
    {
      "type": "Feature",
      "properties": {
        "Name": "Novgorod Republic",
        "FromYear": 1468,
        "ToYear": 1474,
        "Area": 1599365.5619396784,
        "Type": "POLITY",
        "Wikipedia": "Novgorod Republic",
        "Wikidata": "Q151536",
        "SeshatID": "ru_novgorod_rep",
        "Components": "",
        "MemberOf": ""
      },
      "geometry": {
        "type": "MultiPolygon",
        "coordinates": [
          [
            [
              [
                61.49556350708008,
                69.8708724975586
              ],
              [
                63.925079345703125,
                69.71734619140625
              ],
              [
                63.87618637084961,
                69.64068603515625
              ],
              [
                64.4320068359375,
                69.5640869140625
              ],
              [
                64.38296508789062,
                69.487548828125
              ],
              [
                64.78561401367188,
                69.487548828125
              ],
              [
                64.73640441894531,
                69.41107940673828
              ],
              [
                64.93755340576172,
                69.41107940673828
              ],
              [
                64.88836669921875,
                69.33467864990234
              ],
              [
                65.39077758789062,
                69.33467864990234
              ],
              [
                65.34133911132812,
                69.25833129882812
              ],
              [
                66.24520874023438,
                69.10584259033203
              ],
              [
                66.19547271728516,
                69.0296859741211
              ],
              [
                67.0462875366211,
                68.95359802246094
              ],
              [
                66.99613952636719,
                68.87757110595703
              ],
              [
                67.2959976196289,
                68.87757110595703
              ],
              [
                67.24578857421875,
                68.8016128540039
              ],
              [
                67.74408721923828,
                68.64987182617188
              ],
              [
                67.69393157958984,
                68.57408905029297
              ],
              [
                67.99275207519531,
                68.57408905029297
              ],
              [
                67.94252014160156,
                68.49837493896484
              ],
              [
                68.29022216796875,
                68.42272186279297
              ],
              [
                68.24002075195312,
                68.34712219238281
              ],
              [
                67.84305572509766,
                68.04534912109375
              ],
              [
                67.02205657958984,
                67.0710678100586
              ],
              [
                66.45137786865234,
                66.6246337890625
              ],
              [
                66.26983642578125,
                66.32811737060547
              ],
              [
                65.5274658203125,
                65.73763275146484
              ],
              [
                65.267822265625,
                65.29694366455078
              ],
              [
                65.08635711669922,
                65.15044403076172
              ],
              [
                64.89447021484375,
                65.15044403076172
              ],
              [
                64.76778411865234,
                64.93107604980469
              ],
              [
                64.27299499511719,
                64.56643676757812
              ],
              [
                64.01573944091797,
                63.768394470214844
              ],
              [
                64.11031341552734,
                63.768394470214844
              ],
              [
                64.0448989868164,
                63.479576110839844
              ],
              [
                64.19363403320312,
                63.4074821472168
              ],
              [
                64.11427307128906,
                63.263427734375
              ],
              [
                64.2627944946289,
                63.191463470458984
              ],
              [
                64.18383026123047,
                63.047672271728516
              ],
              [
                64.27771759033203,
                63.047672271728516
              ],
              [
                64.19905853271484,
                62.904052734375
              ],
              [
                64.29280853271484,
                62.904052734375
              ],
              [
                64.21446228027344,
                62.76060485839844
              ],
              [
                64.30807495117188,
                62.76060485839844
              ],
              [
                64.23003387451172,
                62.61732482910156
              ],
              [
                64.3235092163086,
                62.61732482910156
              ],
              [
                63.99409866333008,
                61.832237243652344
              ],
              [
                63.58414840698242,
                61.40604019165039
              ],
              [
                62.484439849853516,
                60.69873809814453
              ],
              [
                61.39351272583008,
                60.34645080566406
              ],
              [
                58.306434631347656,
                59.99503707885742
              ],
              [
                58.21531295776367,
                59.99503707885742
              ],
              [
                56.99955749511719,
                59.92485809326172
              ],
              [
                55.245018005371094,
                59.22488784790039
              ],
              [
                54.00706481933594,
                59.294734954833984
              ],
              [
                53.407569885253906,
                59.15507125854492
              ],
              [
                53.396026611328125,
                59.574459075927734
              ],
              [
                53.27131652832031,
                59.714515686035156
              ],
              [
                53.08955383300781,
                59.714515686035156
              ],
              [
                53.26606369018555,
                59.92485809326172
              ],
              [
                53.17500305175781,
                59.92485809326172
              ],
              [
                53.261165618896484,
                60.135501861572266
              ],
              [
                53.078678131103516,
                60.135501861572266
              ],
              [
                53.227638244628906,
                60.276100158691406
              ],
              [
                53.13627243041992,
                60.276100158691406
              ],
              [
                53.19418716430664,
                60.416839599609375
              ],
              [
                53.01121139526367,
                60.416839599609375
              ],
              [
                53.18999099731445,
                60.628211975097656
              ],
              [
                53.09832000732422,
                60.628211975097656
              ],
              [
                53.14983367919922,
                61.193458557128906
              ],
              [
                52.96548843383789,
                61.193458557128906
              ],
              [
                53.14690399169922,
                61.40604019165039
              ],
              [
                53.05453872680664,
                61.40604019165039
              ],
              [
                53.174442291259766,
                61.69001388549805
              ],
              [
                53.111942291259766,
                61.7611083984375
              ],
              [
                51.70376205444336,
                61.264278411865234
              ],
              [
                50.725311279296875,
                61.12267303466797
              ],
              [
                49.6199836730957,
                61.12267303466797
              ],
              [
                49.64722442626953,
                61.193458557128906
              ],
              [
                49.09417724609375,
                61.193458557128906
              ],
              [
                49.12111282348633,
                61.264278411865234
              ],
              [
                48.26461410522461,
                61.193458557128906
              ],
              [
                48.15919494628906,
                61.40604019165039
              ],
              [
                47.605003356933594,
                61.40604019165039
              ],
              [
                47.31721496582031,
                61.12267303466797
              ],
              [
                46.328956604003906,
                61.193458557128906
              ],
              [
                46.23678207397461,
                61.193458557128906
              ],
              [
                46.387638092041016,
                61.618961334228516
              ],
              [
                46.253116607666016,
                61.7611083984375
              ],
              [
                46.067745208740234,
                61.7611083984375
              ],
              [
                46.093017578125,
                61.832237243652344
              ],
              [
                44.54047775268555,
                61.90340805053711
              ],
              [
                44.492069244384766,
                61.7611083984375
              ],
              [
                44.28272247314453,
                61.69001388549805
              ],
              [
                43.541744232177734,
                61.69001388549805
              ],
              [
                43.40253829956055,
                61.547950744628906
              ],
              [
                42.52492904663086,
                61.40604019165039
              ],
              [
                42.48001480102539,
                61.264278411865234
              ],
              [
                42.01882553100586,
                61.264278411865234
              ],
              [
                41.88268280029297,
                61.12267303466797
              ],
              [
                40.989986419677734,
                60.91054153442383
              ],
              [
                40.09131622314453,
                60.9812126159668
              ],
              [
                39.86656188964844,
                60.83990478515625
              ],
              [
                37.49695587158203,
                60.91054153442383
              ],
              [
                36.74334716796875,
                60.83990478515625
              ],
              [
                35.84642028808594,
                60.557716369628906
              ],
              [
                35.76533126831055,
                59.85470962524414
              ],
              [
                35.913124084472656,
                59.714515686035156
              ],
              [
                35.95899200439453,
                59.15507125854492
              ],
              [
                36.450199127197266,
                58.94581604003906
              ],
              [
                36.42213439941406,
                58.45867156982422
              ],
              [
                36.511962890625,
                58.45867156982422
              ],
              [
                36.461795806884766,
                58.2503662109375
              ],
              [
                36.551456451416016,
                58.2503662109375
              ],
              [
                36.50153350830078,
                58.042335510253906
              ],
              [
                36.591026306152344,
                58.042335510253906
              ],
              [
                36.54853439331055,
                57.488929748535156
              ],
              [
                36.16024398803711,
                57.35087585449219
              ],
              [
                35.91913604736328,
                57.07511901855469
              ],
              [
                35.83041763305664,
                57.07511901855469
              ],
              [
                35.83615493774414,
                57.488929748535156
              ],
              [
                35.68968200683594,
                57.62710189819336
              ],
              [
                35.36440658569336,
                57.7653923034668
              ],
              [
                35.0073356628418,
                57.7653923034668
              ],
              [
                35.022857666015625,
                57.8345832824707
              ],
              [
                34.234012603759766,
                57.903804779052734
              ],
              [
                33.66831970214844,
                57.7653923034668
              ],
              [
                33.3571891784668,
                57.55800247192383
              ],
              [
                33.13270950317383,
                57.7653923034668
              ],
              [
                32.864906311035156,
                57.7653923034668
              ],
              [
                32.63044738769531,
                57.488929748535156
              ],
              [
                32.452354431152344,
                57.488929748535156
              ],
              [
                32.13100051879883,
                57.21294021606445
              ],
              [
                31.660518646240234,
                57.07511901855469
              ],
              [
                31.128190994262695,
                57.07511901855469
              ],
              [
                30.83788299560547,
                56.45634460449219
              ],
              [
                30.372501373291016,
                56.319149017333984
              ],
              [
                30.108091354370117,
                56.319149017333984
              ],
              [
                29.955463409423828,
                56.45634460449219
              ],
              [
                29.979244232177734,
                56.59365463256836
              ],
              [
                29.58440589904785,
                56.86860656738281
              ],
              [
                29.756702423095703,
                57.35087585449219
              ],
              [
                28.984312057495117,
                58.042335510253906
              ],
              [
                29.044050216674805,
                58.38920593261719
              ],
              [
                28.88840675354004,
                58.528167724609375
              ],
              [
                28.912445068359375,
                58.66725540161133
              ],
              [
                28.82244300842285,
                58.66725540161133
              ],
              [
                28.846500396728516,
                58.80647277832031
              ],
              [
                28.756383895874023,
                58.80647277832031
              ],
              [
                28.780460357666016,
                58.94581604003906
              ],
              [
                28.43138885498047,
                59.015533447265625
              ],
              [
                28.038253784179688,
                59.36461639404297
              ],
              [
                28.05001449584961,
                59.434532165527344
              ],
              [
                27.88040542602539,
                59.504478454589844
              ],
              [
                27.927438735961914,
                59.78459548950195
              ],
              [
                28.291200637817383,
                59.78459548950195
              ],
              [
                28.406457901000977,
                59.92485809326172
              ],
              [
                28.849285125732422,
                59.85470962524414
              ],
              [
                29.160364151000977,
                60.065250396728516
              ],
              [
                29.14763641357422,
                59.99503707885742
              ],
              [
                29.772369384765625,
                59.92485809326172
              ],
              [
                29.75929069519043,
                59.85470962524414
              ],
              [
                30.136613845825195,
                59.92485809326172
              ],
              [
                30.16336441040039,
                60.065250396728516
              ],
              [
                29.967727661132812,
                59.99503707885742
              ],
              [
                29.99431037902832,
                60.135501861572266
              ],
              [
                29.811826705932617,
                60.135501861572266
              ],
              [
                29.82505226135254,
                60.20578384399414
              ],
              [
                29.929677963256836,
                60.276100158691406
              ],
              [
                29.996858596801758,
                60.628211975097656
              ],
              [
                29.643470764160156,
                60.69873809814453
              ],
              [
                29.591676712036133,
                60.91054153442383
              ],
              [
                29.407833099365234,
                60.91054153442383
              ],
              [
                29.382287979125977,
                61.264278411865234
              ],
              [
                29.290050506591797,
                61.264278411865234
              ],
              [
                29.37056541442871,
                61.69001388549805
              ],
              [
                29.21220588684082,
                61.832237243652344
              ],
              [
                29.23924446105957,
                61.97461700439453
              ],
              [
                28.60166358947754,
                62.54574966430664
              ],
              [
                28.41484260559082,
                62.54574966430664
              ],
              [
                28.173784255981445,
                62.76060485839844
              ],
              [
                28.68401336669922,
                63.479576110839844
              ],
              [
                28.886537551879883,
                63.55171203613281
              ],
              [
                28.914525985717773,
                63.69612503051758
              ],
              [
                29.13196563720703,
                63.84071350097656
              ],
              [
                29.31332778930664,
                64.27558898925781
              ],
              [
                29.79873275756836,
                64.78507995605469
              ],
              [
                29.859777450561523,
                65.07727813720703
              ],
              [
                30.21004867553711,
                65.3702621459961
              ],
              [
                30.30548858642578,
                65.8112564086914
              ],
              [
                30.0633487701416,
                66.0324478149414
              ],
              [
                29.869653701782227,
                66.0324478149414
              ],
              [
                29.0543212890625,
                66.77322387695312
              ],
              [
                29.06992530822754,
                66.84760284423828
              ],
              [
                28.972219467163086,
                66.84760284423828
              ],
              [
                29.066526412963867,
                67.29503631591797
              ],
              [
                29.164714813232422,
                67.29503631591797
              ],
              [
                29.2128849029541,
                67.51952362060547
              ],
              [
                29.311317443847656,
                67.51952362060547
              ],
              [
                29.475475311279297,
                67.81964111328125
              ],
              [
                29.574237823486328,
                67.81964111328125
              ],
              [
                29.508712768554688,
                67.97005462646484
              ],
              [
                29.805498123168945,
                67.97005462646484
              ],
              [
                32.292179107666016,
                69.5640869140625
              ],
              [
                33.47982406616211,
                69.487548828125
              ],
              [
                33.43734359741211,
                69.33467864990234
              ],
              [
                34.46426010131836,
                69.41107940673828
              ],
              [
                34.442169189453125,
                69.33467864990234
              ],
              [
                34.84409713745117,
                69.33467864990234
              ],
              [
                34.82174301147461,
                69.25833129882812
              ],
              [
                36.12685775756836,
                69.25833129882812
              ],
              [
                36.10344314575195,
                69.18205261230469
              ],
              [
                36.30405044555664,
                69.18205261230469
              ],
              [
                36.28055191040039,
                69.10584259033203
              ],
              [
                37.96049880981445,
                68.7257080078125
              ],
              [
                38.01121139526367,
                68.57408905029297
              ],
              [
                38.21042251586914,
                68.57408905029297
              ],
              [
                38.18586349487305,
                68.49837493896484
              ],
              [
                38.38490295410156,
                68.49837493896484
              ],
              [
                38.36026382446289,
                68.42272186279297
              ],
              [
                38.931819915771484,
                68.34712219238281
              ],
              [
                38.906864166259766,
                68.27159118652344
              ],
              [
                39.477081298828125,
                68.19611358642578
              ],
              [
                39.451805114746094,
                68.1207046508789
              ],
              [
                39.97298049926758,
                68.19611358642578
              ],
              [
                39.94728469848633,
                68.1207046508789
              ],
              [
                40.145477294921875,
                68.1207046508789
              ],
              [
                40.26614761352539,
                67.89481353759766
              ],
              [
                40.66152572631836,
                67.89481353759766
              ],
              [
                40.63554382324219,
                67.81964111328125
              ],
              [
                41.004371643066406,
                67.74452209472656
              ],
              [
                41.02471923828125,
                67.51952362060547
              ],
              [
                41.12314987182617,
                67.51952362060547
              ],
              [
                41.07123565673828,
                67.36980438232422
              ],
              [
                41.3399772644043,
                67.29503631591797
              ],
              [
                41.288124084472656,
                67.14566802978516
              ],
              [
                41.38615036010742,
                67.14566802978516
              ],
              [
                41.03715515136719,
                66.69890594482422
              ],
              [
                39.79555892944336,
                66.18017578125
              ],
              [
                38.70561981201172,
                66.10628509521484
              ],
              [
                38.68277359008789,
                66.0324478149414
              ],
              [
                38.00484085083008,
                66.0324478149414
              ],
              [
                38.02715301513672,
                66.10628509521484
              ],
              [
                37.44560623168945,
                66.10628509521484
              ],
              [
                37.46752166748047,
                66.18017578125
              ],
              [
                36.42164611816406,
                66.25411987304688
              ],
              [
                36.44285583496094,
                66.32811737060547
              ],
              [
                35.56844711303711,
                66.32811737060547
              ],
              [
                35.58902359008789,
                66.40216064453125
              ],
              [
                35.20008850097656,
                66.40216064453125
              ],
              [
                35.220420837402344,
                66.47626495361328
              ],
              [
                34.92848587036133,
                66.47626495361328
              ],
              [
                34.94865036010742,
                66.55042266845703
              ],
              [
                34.26691818237305,
                66.55042266845703
              ],
              [
                34.11125946044922,
                66.69890594482422
              ],
              [
                33.7210693359375,
                66.69890594482422
              ],
              [
                33.740413665771484,
                66.77322387695312
              ],
              [
                33.05702209472656,
                66.77322387695312
              ],
              [
                32.741058349609375,
                67.0710678100586
              ],
              [
                32.545166015625,
                67.0710678100586
              ],
              [
                32.508087158203125,
                66.92203521728516
              ],
              [
                32.88046646118164,
                66.84760284423828
              ],
              [
                33.0008430480957,
                66.55042266845703
              ],
              [
                33.68257522583008,
                66.55042266845703
              ],
              [
                33.62532043457031,
                66.32811737060547
              ],
              [
                34.382991790771484,
                66.25411987304688
              ],
              [
                34.36347961425781,
                66.18017578125
              ],
              [
                34.55747985839844,
                66.18017578125
              ],
              [
                34.866214752197266,
                65.88493347167969
              ],
              [
                34.67220687866211,
                65.51705932617188
              ],
              [
                34.441368103027344,
                65.3702621459961
              ],
              [
                34.78746032714844,
                65.22367095947266
              ],
              [
                34.73003005981445,
                65.004150390625
              ],
              [
                34.90244674682617,
                64.93107604980469
              ],
              [
                34.845245361328125,
                64.71215057373047
              ],
              [
                34.94075012207031,
                64.71215057373047
              ],
              [
                34.9791145324707,
                64.49365234375
              ],
              [
                35.817100524902344,
                64.4209213256836
              ],
              [
                35.96824264526367,
                64.27558898925781
              ],
              [
                36.253456115722656,
                64.27558898925781
              ],
              [
                36.553855895996094,
                63.98548889160156
              ],
              [
                37.3864631652832,
                63.91307830810547
              ],
              [
                37.880855560302734,
                63.98548889160156
              ],
              [
                37.89069366455078,
                64.34822845458984
              ],
              [
                37.530948638916016,
                64.4209213256836
              ],
              [
                37.12955856323242,
                64.34822845458984
              ],
              [
                36.9801139831543,
                64.49365234375
              ],
              [
                36.78954315185547,
                64.49365234375
              ],
              [
                36.73489761352539,
                64.63926696777344
              ],
              [
                36.544036865234375,
                64.63926696777344
              ],
              [
                36.318058013916016,
                64.8580551147461
              ],
              [
                36.358558654785156,
                65.004150390625
              ],
              [
                36.64594650268555,
                65.004150390625
              ],
              [
                36.687129974365234,
                65.15044403076172
              ],
              [
                36.920738220214844,
                65.29694366455078
              ],
              [
                37.209014892578125,
                65.29694366455078
              ],
              [
                37.187896728515625,
                65.22367095947266
              ],
              [
                37.475948333740234,
                65.22367095947266
              ],
              [
                37.454673767089844,
                65.15044403076172
              ],
              [
                38.15700149536133,
                64.93107604980469
              ],
              [
                38.20941162109375,
                64.78507995605469
              ],
              [
                38.90058135986328,
                64.8580551147461
              ],
              [
                38.87844467163086,
                64.78507995605469
              ],
              [
                39.42938995361328,
                64.71215057373047
              ],
              [
                39.40694808959961,
                64.63926696777344
              ],
              [
                40.193416595458984,
                64.71215057373047
              ],
              [
                40.23966598510742,
                64.8580551147461
              ],
              [
                40.07144546508789,
                64.93107604980469
              ],
              [
                40.11780548095703,
                65.07727813720703
              ],
              [
                39.92606735229492,
                65.07727813720703
              ],
              [
                39.87638473510742,
                65.22367095947266
              ],
              [
                39.68435287475586,
                65.22367095947266
              ],
              [
                39.538185119628906,
                65.3702621459961
              ],
              [
                39.60750961303711,
                65.59053039550781
              ],
              [
                40.25718307495117,
                65.8112564086914
              ],
              [
                40.401878356933594,
                65.95866394042969
              ],
              [
                41.444580078125,
                66.18017578125
              ],
              [
                41.96076583862305,
                66.55042266845703
              ],
              [
                43.4919548034668,
                66.47626495361328
              ],
              [
                43.464988708496094,
                66.40216064453125
              ],
              [
                43.659454345703125,
                66.40216064453125
              ],
              [
                43.605472564697266,
                66.25411987304688
              ],
              [
                43.966617584228516,
                66.18017578125
              ],
              [
                44.13097381591797,
                66.6246337890625
              ],
              [
                44.35377883911133,
                66.69890594482422
              ],
              [
                44.38174057006836,
                66.77322387695312
              ],
              [
                44.284114837646484,
                66.77322387695312
              ],
              [
                44.36833190917969,
                66.99652099609375
              ],
              [
                44.102760314941406,
                67.0710678100586
              ],
              [
                44.13087844848633,
                67.14566802978516
              ],
              [
                43.73877716064453,
                67.14566802978516
              ],
              [
                43.69647979736328,
                67.29503631591797
              ],
              [
                43.59829330444336,
                67.29503631591797
              ],
              [
                43.83753967285156,
                67.66946411132812
              ],
              [
                43.93613815307617,
                67.66946411132812
              ],
              [
                44.167903900146484,
                68.27159118652344
              ],
              [
                43.729759216308594,
                68.42272186279297
              ],
              [
                43.75901412963867,
                68.49837493896484
              ],
              [
                43.460453033447266,
                68.49837493896484
              ],
              [
                43.44834899902344,
                68.7257080078125
              ],
              [
                44.216636657714844,
                68.64987182617188
              ],
              [
                44.18680953979492,
                68.57408905029297
              ],
              [
                45.612335205078125,
                68.64987182617188
              ],
              [
                45.581302642822266,
                68.57408905029297
              ],
              [
                45.88011932373047,
                68.57408905029297
              ],
              [
                45.91733169555664,
                68.42272186279297
              ],
              [
                46.1161994934082,
                68.42272186279297
              ],
              [
                46.08501052856445,
                68.34712219238281
              ],
              [
                46.45099639892578,
                68.27159118652344
              ],
              [
                46.48761749267578,
                68.1207046508789
              ],
              [
                46.68581008911133,
                68.1207046508789
              ],
              [
                46.660003662109375,
                67.81964111328125
              ],
              [
                45.34624099731445,
                67.74452209472656
              ],
              [
                45.286834716796875,
                67.5944595336914
              ],
              [
                45.08980941772461,
                67.5944595336914
              ],
              [
                44.932804107666016,
                67.44463348388672
              ],
              [
                45.198524475097656,
                67.36980438232422
              ],
              [
                45.16929244995117,
                67.29503631591797
              ],
              [
                45.56204605102539,
                67.29503631591797
              ],
              [
                45.806949615478516,
                66.92203521728516
              ],
              [
                47.37152099609375,
                66.92203521728516
              ],
              [
                47.597896575927734,
                66.99652099609375
              ],
              [
                47.62880325317383,
                67.0710678100586
              ],
              [
                47.53085708618164,
                67.0710678100586
              ],
              [
                47.816524505615234,
                67.51952362060547
              ],
              [
                47.71809387207031,
                67.51952362060547
              ],
              [
                47.78139114379883,
                67.66946411132812
              ],
              [
                48.70132064819336,
                67.74452209472656
              ],
              [
                48.70079040527344,
                67.97005462646484
              ],
              [
                49.29436111450195,
                67.97005462646484
              ],
              [
                50.82497787475586,
                68.49837493896484
              ],
              [
                51.52162170410156,
                68.49837493896484
              ],
              [
                51.892967224121094,
                68.64987182617188
              ],
              [
                52.25493240356445,
                68.57408905029297
              ],
              [
                52.465641021728516,
                68.8016128540039
              ],
              [
                53.27893829345703,
                69.0296859741211
              ],
              [
                54.04103469848633,
                68.95359802246094
              ],
              [
                53.78712844848633,
                68.64987182617188
              ],
              [
                53.9482421875,
                68.57408905029297
              ],
              [
                53.872135162353516,
                68.42272186279297
              ],
              [
                53.30027389526367,
                68.27159118652344
              ],
              [
                54.72844696044922,
                68.34712219238281
              ],
              [
                54.68998336791992,
                68.27159118652344
              ],
              [
                54.789249420166016,
                68.27159118652344
              ],
              [
                55.04391098022461,
                68.57408905029297
              ],
              [
                55.621395111083984,
                68.7257080078125
              ],
              [
                57.176673889160156,
                68.64987182617188
              ],
              [
                57.842567443847656,
                68.95359802246094
              ],
              [
                58.200279235839844,
                68.87757110595703
              ],
              [
                58.38547134399414,
                69.0296859741211
              ],
              [
                59.086368560791016,
                69.0296859741211
              ],
              [
                59.043052673339844,
                68.95359802246094
              ],
              [
                59.399715423583984,
                68.87757110595703
              ],
              [
                59.127777099609375,
                68.57408905029297
              ],
              [
                59.22738265991211,
                68.57408905029297
              ],
              [
                59.24163055419922,
                68.42272186279297
              ],
              [
                59.73880386352539,
                68.42272186279297
              ],
              [
                59.76868438720703,
                68.64987182617188
              ],
              [
                59.95558166503906,
                68.8016128540039
              ],
              [
                60.69910430908203,
                68.87757110595703
              ],
              [
                60.833534240722656,
                69.10584259033203
              ],
              [
                60.733314514160156,
                69.10584259033203
              ],
              [
                60.77838897705078,
                69.18205261230469
              ],
              [
                60.477474212646484,
                69.18205261230469
              ],
              [
                60.41181564331055,
                69.41107940673828
              ],
              [
                60.05451202392578,
                69.487548828125
              ],
              [
                60.089622497558594,
                69.71734619140625
              ],
              [
                59.48402404785156,
                69.71734619140625
              ],
              [
                59.52910232543945,
                69.79407501220703
              ],
              [
                59.32705307006836,
                69.79407501220703
              ],
              [
                59.372135162353516,
                69.8708724975586
              ],
              [
                59.06878662109375,
                69.8708724975586
              ],
              [
                59.11377716064453,
                69.9477310180664
              ],
              [
                58.765438079833984,
                69.8708724975586
              ],
              [
                58.81015396118164,
                69.9477310180664
              ],
              [
                58.44985580444336,
                70.024658203125
              ],
              [
                58.437992095947266,
                70.17870330810547
              ],
              [
                58.33650588989258,
                70.17870330810547
              ],
              [
                58.42652893066406,
                70.3330307006836
              ],
              [
                58.97088623046875,
                70.5650405883789
              ],
              [
                59.489501953125,
                70.41029357910156
              ],
              [
                59.44325256347656,
                70.3330307006836
              ],
              [
                59.74827194213867,
                70.3330307006836
              ],
              [
                59.70194625854492,
                70.2558364868164
              ],
              [
                59.90510177612305,
                70.2558364868164
              ],
              [
                59.85879135131836,
                70.17870330810547
              ],
              [
                60.163246154785156,
                70.17870330810547
              ],
              [
                60.116851806640625,
                70.10164642333984
              ],
              [
                60.475852966308594,
                70.024658203125
              ],
              [
                60.539344787597656,
                69.79407501220703
              ],
              [
                60.83430862426758,
                69.9477310180664
              ],
              [
                61.394447326660156,
                69.8708724975586
              ],
              [
                61.49556350708008,
                69.8708724975586
              ]
            ]
          ],
          [
            [
              [
                35.65161895751953,
                65.22367095947266
              ],
              [
                36.13170623779297,
                65.22367095947266
              ],
              [
                36.09128952026367,
                65.07727813720703
              ],
              [
                35.49639892578125,
                65.004150390625
              ],
              [
                35.4595832824707,
                65.22367095947266
              ],
              [
                35.555599212646484,
                65.22367095947266
              ],
              [
                35.65161895751953,
                65.22367095947266
              ]
            ]
          ]
        ]
      }
    }
  ]
}