{
  "type": "FeatureCollection",
  "name": "territory-441",
  "features": [
    {
      "type": "Feature",
      "properties": {
        "Name": "Kingdom of Polonnaruwa",
        "FromYear": 1072,
        "ToYear": 1249,
        "Area": 73513.6790981481,
        "Type": "POLITY",
        "Wikipedia": "Kingdom of Polonnaruwa",
        "Wikidata": "Q3167772",
        "SeshatID": "sl_polonnaruva",
        "Components": "",
        "MemberOf": ""
      },
      "geometry": {
        "type": "Polygon",
        "coordinates": [
          [
            [
              81.25108337402344,
              8.514476776123047
            ],
            [
              81.39713287353516,
              8.514476776123047
            ],
            [
              81.51219177246094,
              8.000176429748535
            ],
            [
              81.65440368652344,
              7.935888767242432
            ],
            [
              81.64315795898438,
              7.743025779724121
            ],
            [
              81.78540802001953,
              7.678738594055176
            ],
            [
              81.77438354492188,
              7.485875606536865
            ],
            [
              81.91669464111328,
              7.421587944030762
            ],
            [
              81.87792205810547,
              6.714424133300781
            ],
            [
              81.33750915527344,
              6.135835647583008
            ],
            [
              80.89044952392578,
              5.942972660064697
            ],
            [
              80.23114776611328,
              5.878684997558594
            ],
            [
              79.95211029052734,
              6.135835647583008
            ],
            [
              79.75935363769531,
              6.650136470794678
            ],
            [
              79.77961730957031,
              7.035862445831299
            ],
            [
              79.7066650390625,
              7.035862445831299
            ],
            [
              79.74190521240234,
              7.678738594055176
            ],
            [
              79.60686492919922,
              7.871601104736328
            ],
            [
              79.61796569824219,
              8.06446361541748
            ],
            [
              79.72444211651617,
              8.06446361541748
            ],
            [
              79.75765649462753,
              7.983728560032296
            ],
            [
              79.70307592496027,
              8.116398974642136
            ],
            [
              79.9268377520527,
              8.82219689765547
            ],
            [
              79.70996752746066,
              9.121222963904565
            ],
            [
              80.06114008118517,
              9.095795315055295
            ],
            [
              80.04288887033117,
              9.389280962681905
            ],
            [
              80.1771231458201,
              9.482441760692556
            ],
            [
              80.01646148877232,
              9.610704030443472
            ],
            [
              79.76835842243887,
              9.577670088589729
            ],
            [
              79.77437781938909,
              9.63544893321068
            ],
            [
              79.87890489568248,
              9.775590764371287
            ],
            [
              80.27301159519716,
              9.82717798157301
            ],
            [
              80.80712546697937,
              9.310319368117995
            ],
            [
              81.15901942097612,
              8.749350011871705
            ],
            [
              81.22529584617155,
              8.643052101135254
            ],
            [
              81.2590103149414,
              8.643052101135254
            ],
            [
              81.25108337402344,
              8.514476776123047
            ]
          ]
        ]
      }
    }
  ]
}