{
  "type": "FeatureCollection",
  "name": "territory-443",
  "features": [
    {
      "type": "Feature",
      "properties": {
        "Name": "Principality of Terebovlia",
        "FromYear": 1094,
        "ToYear": 1138,
        "Area": 57434.58303113146,
        "Type": "POLITY",
        "Wikipedia": "Principality of Terebovlia",
        "Wikidata": "Q680530",
        "SeshatID": "",
        "Components": "",
        "MemberOf": ""
      },
      "geometry": {
        "type": "Polygon",
        "coordinates": [
          [
            [
              29.379093170166016,
              49.2500114440918
            ],
            [
              29.370691299438477,
              49.18375015258789
            ],
            [
              29.031408309936523,
              48.455936431884766
            ],
            [
              28.578052520751953,
              48.1257438659668
            ],
            [
              27.142614364624023,
              47.86185836791992
            ],
            [
              26.435287475585938,
              47.4006233215332
            ],
            [
              26.105649948120117,
              47.4006233215332
            ],
            [
              25.75118064880371,
              47.13737487792969
            ],
            [
              25.416061401367188,
              47.07159423828125
            ],
            [
              25.428136825561523,
              47.20316696166992
            ],
            [
              25.263525009155273,
              47.20316696166992
            ],
            [
              25.205156326293945,
              47.46647262573242
            ],
            [
              24.887176513671875,
              47.598209381103516
            ],
            [
              24.90500259399414,
              47.79592514038086
            ],
            [
              24.586227416992188,
              47.92780685424805
            ],
            [
              24.686708450317383,
              48.1257438659668
            ],
            [
              24.367206573486328,
              48.257774353027344
            ],
            [
              24.378963470458984,
              48.38986587524414
            ],
            [
              24.627777099609375,
              48.38986587524414
            ],
            [
              25.419103622436523,
              48.852684020996094
            ],
            [
              25.58548927307129,
              48.852684020996094
            ],
            [
              25.6953125,
              49.11750411987305
            ],
            [
              25.959035873413086,
              49.2500114440918
            ],
            [
              25.965927124023438,
              49.316287994384766
            ],
            [
              26.593650817871094,
              49.71431350708008
            ],
            [
              27.23273277282715,
              49.44889450073242
            ],
            [
              29.387527465820312,
              49.316287994384766
            ],
            [
              29.379093170166016,
              49.2500114440918
            ]
          ]
        ]
      }
    }
  ]
}