{
  "type": "FeatureCollection",
  "name": "territory-444",
  "features": [
    {
      "type": "Feature",
      "properties": {
        "Name": "Sultanate of Rum",
        "FromYear": 1094,
        "ToYear": 1098,
        "Area": 366995.9098752035,
        "Type": "POLITY",
        "Wikipedia": "Sultanate of Rum",
        "Wikidata": "Q975405",
        "SeshatID": "tr_rum_sultanate",
        "Components": "",
        "MemberOf": ""
      },
      "geometry": {
        "type": "MultiPolygon",
        "coordinates": [
          [
            [
              [
                25.99143409729004,
                38.67427444458008
              ],
              [
                26.217344284057617,
                38.54513168334961
              ],
              [
                26.111188888549805,
                38.157840728759766
              ],
              [
                25.876405715942383,
                38.157840728759766
              ],
              [
                25.89913558959961,
                38.48057174682617
              ],
              [
                25.820756912231445,
                38.48057174682617
              ],
              [
                25.912982940673828,
                38.67427444458008
              ],
              [
                25.99143409729004,
                38.67427444458008
              ]
            ]
          ],
          [
            [
              [
                36.147613525390625,
                41.39224624633789
              ],
              [
                36.138648986816406,
                41.32738494873047
              ],
              [
                36.21816635131836,
                41.32738494873047
              ],
              [
                36.20920181274414,
                41.26253128051758
              ],
              [
                35.72514343261719,
                40.614410400390625
              ],
              [
                35.691341400146484,
                40.355369567871094
              ],
              [
                35.52480697631836,
                40.29063034057617
              ],
              [
                35.50004196166992,
                40.0964469909668
              ],
              [
                35.23078155517578,
                39.8376350402832
              ],
              [
                35.089088439941406,
                39.320335388183594
              ],
              [
                35.013282775878906,
                38.67427444458008
              ],
              [
                35.091732025146484,
                38.67427444458008
              ],
              [
                35.06209945678711,
                38.416015625
              ],
              [
                35.14045715332031,
                38.416015625
              ],
              [
                35.018455505371094,
                38.028785705566406
              ],
              [
                35.0966682434082,
                38.028785705566406
              ],
              [
                35.060890197753906,
                37.706241607666016
              ],
              [
                35.266727447509766,
                37.44829177856445
              ],
              [
                35.16073989868164,
                37.1904182434082
              ],
              [
                35.197242736816406,
                36.80373764038086
              ],
              [
                35.03489303588867,
                36.73930740356445
              ],
              [
                34.957130432128906,
                36.73930740356445
              ],
              [
                34.892860412597656,
                36.8681755065918
              ],
              [
                34.581634521484375,
                36.8681755065918
              ],
              [
                34.2507209777832,
                36.67487716674805
              ],
              [
                33.97906494140625,
                36.28839111328125
              ],
              [
                32.558349609375,
                36.03080368041992
              ],
              [
                32.498512268066406,
                36.2239875793457
              ],
              [
                32.06806182861328,
                36.61045455932617
              ],
              [
                31.391563415527344,
                36.8681755065918
              ],
              [
                30.619068145751953,
                36.932613372802734
              ],
              [
                30.49193572998047,
                36.3527946472168
              ],
              [
                30.02613639831543,
                36.3527946472168
              ],
              [
                29.938032150268555,
                36.2239875793457
              ],
              [
                29.239721298217773,
                36.2239875793457
              ],
              [
                29.124916076660156,
                36.73930740356445
              ],
              [
                28.357105255126953,
                36.8681755065918
              ],
              [
                28.186922073364258,
                36.67487716674805
              ],
              [
                28.03143882751465,
                36.67487716674805
              ],
              [
                28.138330459594727,
                37.06150817871094
              ],
              [
                28.065349578857422,
                37.12596130371094
              ],
              [
                27.597978591918945,
                37.12596130371094
              ],
              [
                27.53919219970703,
                37.38381576538086
              ],
              [
                27.22254180908203,
                37.3193473815918
              ],
              [
                27.309988021850586,
                37.44829177856445
              ],
              [
                27.16343116760254,
                37.5772590637207
              ],
              [
                27.2558650970459,
                37.7707405090332
              ],
              [
                27.177743911743164,
                37.7707405090332
              ],
              [
                27.27528190612793,
                38.028785705566406
              ],
              [
                26.888994216918945,
                38.09331130981445
              ],
              [
                26.820327758789062,
                38.22237777709961
              ],
              [
                26.42890739440918,
                38.22237777709961
              ],
              [
                26.38368797302246,
                38.67427444458008
              ],
              [
                26.535762786865234,
                38.60969924926758
              ],
              [
                26.594974517822266,
                38.351463317871094
              ],
              [
                27.06496238708496,
                38.351463317871094
              ],
              [
                27.079774856567383,
                38.54513168334961
              ],
              [
                26.849470138549805,
                38.60969924926758
              ],
              [
                26.95786476135254,
                38.997230529785156
              ],
              [
                26.879291534423828,
                38.997230529785156
              ],
              [
                26.894468307495117,
                39.19107437133789
              ],
              [
                26.742225646972656,
                39.25570297241211
              ],
              [
                26.84657859802246,
                39.57893371582031
              ],
              [
                26.132457733154297,
                39.51427459716797
              ],
              [
                26.15741729736328,
                39.8376350402832
              ],
              [
                26.162473678588867,
                39.90232849121094
              ],
              [
                27.436267852783203,
                40.031734466552734
              ],
              [
                27.605419158935547,
                40.16116714477539
              ],
              [
                28.231826782226562,
                40.0964469909668
              ],
              [
                29.27741050720215,
                40.29063034057617
              ],
              [
                29.460861206054688,
                40.54964065551758
              ],
              [
                30.094358444213867,
                40.54964065551758
              ],
              [
                30.200185775756836,
                40.80876541137695
              ],
              [
                30.05495262145996,
                40.93837356567383
              ],
              [
                30.075159072875977,
                41.132843017578125
              ],
              [
                30.154590606689453,
                41.132843017578125
              ],
              [
                30.47923469543457,
                41.19768524169922
              ],
              [
                30.62422752380371,
                41.06801223754883
              ],
              [
                31.1800537109375,
                41.06801223754883
              ],
              [
                31.534175872802734,
                41.39224624633789
              ],
              [
                32.02653121948242,
                41.521995544433594
              ],
              [
                32.04172897338867,
                41.65177917480469
              ],
              [
                32.1933708190918,
                41.586883544921875
              ],
              [
                32.694705963134766,
                41.781593322753906
              ],
              [
                32.630775451660156,
                41.911441802978516
              ],
              [
                34.70473098754883,
                41.911441802978516
              ],
              [
                34.78450012207031,
                41.911441802978516
              ],
              [
                34.944034576416016,
                41.911441802978516
              ],
              [
                34.99761199951172,
                41.71668243408203
              ],
              [
                35.15697479248047,
                41.71668243408203
              ],
              [
                35.36964416503906,
                41.521995544433594
              ],
              [
                36.08602523803711,
                41.521995544433594
              ],
              [
                36.07703399658203,
                41.45711898803711
              ],
              [
                36.1566047668457,
                41.45711898803711
              ],
              [
                36.147613525390625,
                41.39224624633789
              ]
            ]
          ],
          [
            [
              [
                26.511207580566406,
                39.320335388183594
              ],
              [
                26.643573760986328,
                38.997230529785156
              ],
              [
                26.24588966369629,
                38.93262481689453
              ],
              [
                26.09356689453125,
                38.997230529785156
              ],
              [
                26.103172302246094,
                39.1264533996582
              ],
              [
                25.793418884277344,
                39.19107437133789
              ],
              [
                26.043895721435547,
                39.38497543334961
              ],
              [
                26.122615814208984,
                39.38497543334961
              ],
              [
                26.511207580566406,
                39.320335388183594
              ]
            ]
          ]
        ]
      }
    }
  ]
}