{
  "type": "FeatureCollection",
  "name": "territory-445",
  "features": [
    {
      "type": "Feature",
      "properties": {
        "Name": "Danishmendids",
        "FromYear": 1169,
        "ToYear": 1176,
        "Area": 85805.3165034688,
        "Type": "POLITY",
        "Wikipedia": "Danishmendids",
        "Wikidata": "Q846670",
        "SeshatID": "",
        "Components": "",
        "MemberOf": ""
      },
      "geometry": {
        "type": "Polygon",
        "coordinates": [
          [
            [
              39.21767044067383,
              39.57893371582031
            ],
            [
              39.06686782836914,
              39.06184005737305
            ],
            [
              38.656463623046875,
              38.93262481689453
            ],
            [
              38.613487243652344,
              38.60969924926758
            ],
            [
              38.744789123535156,
              38.416015625
            ],
            [
              37.569461822509766,
              38.416015625
            ],
            [
              37.38071823120117,
              38.157840728759766
            ],
            [
              37.22419738769531,
              38.157840728759766
            ],
            [
              35.60308074951172,
              38.351463317871094
            ],
            [
              35.231414794921875,
              37.835243225097656
            ],
            [
              35.0679931640625,
              37.7707405090332
            ],
            [
              35.03289794921875,
              38.157840728759766
            ],
            [
              35.14045715332031,
              38.416015625
            ],
            [
              35.06209945678711,
              38.416015625
            ],
            [
              35.091732025146484,
              38.67427444458008
            ],
            [
              35.013282775878906,
              38.67427444458008
            ],
            [
              35.1202392578125,
              39.57893371582031
            ],
            [
              35.50004196166992,
              40.0964469909668
            ],
            [
              35.52480697631836,
              40.29063034057617
            ],
            [
              35.691341400146484,
              40.355369567871094
            ],
            [
              35.72514343261719,
              40.614410400390625
            ],
            [
              35.9180793762207,
              40.873565673828125
            ],
            [
              36.878971099853516,
              40.93837356567383
            ],
            [
              37.16904830932617,
              40.74397277832031
            ],
            [
              37.56538772583008,
              40.74397277832031
            ],
            [
              37.86391830444336,
              40.614410400390625
            ],
            [
              38.66557693481445,
              40.6791877746582
            ],
            [
              38.8049430847168,
              40.54964065551758
            ],
            [
              38.8509635925293,
              39.77294921875
            ],
            [
              39.21767044067383,
              39.57893371582031
            ]
          ]
        ]
      }
    }
  ]
}