{
  "type": "FeatureCollection",
  "name": "territory-447",
  "features": [
    {
      "type": "Feature",
      "properties": {
        "Name": "Principality of Ryazan",
        "FromYear": 1236,
        "ToYear": 1240,
        "Area": 65559.80721861949,
        "Type": "POLITY",
        "Wikipedia": "Principality of Ryazan",
        "Wikidata": "Q269109",
        "SeshatID": "ru_ryazan_principality",
        "Components": "",
        "MemberOf": ""
      },
      "geometry": {
        "type": "Polygon",
        "coordinates": [
          [
            [
              42.21389389038086,
              56.11355972290039
            ],
            [
              42.20750427246094,
              55.77145767211914
            ],
            [
              41.02803039550781,
              54.27390670776367
            ],
            [
              40.02474594116211,
              52.250450134277344
            ],
            [
              39.324066162109375,
              51.78114318847656
            ],
            [
              38.969818115234375,
              51.71418380737305
            ],
            [
              38.94292449951172,
              51.98215103149414
            ],
            [
              38.85784912109375,
              51.98215103149414
            ],
            [
              38.901763916015625,
              52.18334197998047
            ],
            [
              38.816558837890625,
              52.18334197998047
            ],
            [
              38.860801696777344,
              52.38472366333008
            ],
            [
              38.77546691894531,
              52.38472366333008
            ],
            [
              38.83498764038086,
              52.653533935546875
            ],
            [
              38.749473571777344,
              52.653533935546875
            ],
            [
              38.7293815612793,
              53.32708740234375
            ],
            [
              38.643409729003906,
              53.32708740234375
            ],
            [
              38.68096923828125,
              53.86756134033203
            ],
            [
              38.594627380371094,
              53.86756134033203
            ],
            [
              38.93717956542969,
              54.95309066772461
            ],
            [
              39.19443893432617,
              55.29362487792969
            ],
            [
              39.47343826293945,
              55.36180877685547
            ],
            [
              39.61198043823242,
              55.56651306152344
            ],
            [
              39.90932083129883,
              55.70311737060547
            ],
            [
              39.85636901855469,
              55.83982467651367
            ],
            [
              40.15491485595703,
              55.97663879394531
            ],
            [
              40.33198165893555,
              56.319149017333984
            ],
            [
              41.710514068603516,
              56.524986267089844
            ],
            [
              41.975399017333984,
              56.524986267089844
            ],
            [
              42.05680847167969,
              56.182064056396484
            ],
            [
              42.21389389038086,
              56.11355972290039
            ]
          ]
        ]
      }
    }
  ]
}