{
  "type": "FeatureCollection",
  "name": "territory-448",
  "features": [
    {
      "type": "Feature",
      "properties": {
        "Name": "Armenian Kingdom of Cilicia",
        "FromYear": 1192,
        "ToYear": 1201,
        "Area": 59655.785321725205,
        "Type": "POLITY",
        "Wikipedia": "Armenian Kingdom of Cilicia",
        "Wikidata": "Q335088",
        "SeshatID": "",
        "Components": "",
        "MemberOf": ""
      },
      "geometry": {
        "type": "Polygon",
        "coordinates": [
          [
            [
              37.58363723754883,
              37.89975357055664
            ],
            [
              37.505470275878906,
              37.89975357055664
            ],
            [
              37.31027603149414,
              37.5772590637207
            ],
            [
              36.975337982177734,
              37.38381576538086
            ],
            [
              36.76753234863281,
              36.932613372802734
            ],
            [
              36.59736633300781,
              36.80373764038086
            ],
            [
              36.51958084106445,
              36.80373764038086
            ],
            [
              36.27198791503906,
              36.67487716674805
            ],
            [
              36.144901275634766,
              36.932613372802734
            ],
            [
              35.833587646484375,
              36.932613372802734
            ],
            [
              35.487709045410156,
              36.61045455932617
            ],
            [
              35.332271575927734,
              36.61045455932617
            ],
            [
              35.11265563964844,
              36.73930740356445
            ],
            [
              34.95038986206055,
              36.67487716674805
            ],
            [
              34.892860412597656,
              36.8681755065918
            ],
            [
              34.581634521484375,
              36.8681755065918
            ],
            [
              34.2507209777832,
              36.67487716674805
            ],
            [
              33.97906494140625,
              36.28839111328125
            ],
            [
              32.558349609375,
              36.03080368041992
            ],
            [
              32.498512268066406,
              36.2239875793457
            ],
            [
              32.06806182861328,
              36.61045455932617
            ],
            [
              30.930381774902344,
              36.932613372802734
            ],
            [
              30.85255241394043,
              36.932613372802734
            ],
            [
              30.719449996948242,
              37.1904182434082
            ],
            [
              30.748069763183594,
              37.51277160644531
            ],
            [
              30.603506088256836,
              37.641746520996094
            ],
            [
              31.071958541870117,
              37.641746520996094
            ],
            [
              31.372310638427734,
              37.51277160644531
            ],
            [
              31.510461807250977,
              37.3193473815918
            ],
            [
              31.822311401367188,
              37.3193473815918
            ],
            [
              32.03799819946289,
              37.12596130371094
            ],
            [
              32.27168655395508,
              37.12596130371094
            ],
            [
              32.64261245727539,
              36.932613372802734
            ],
            [
              33.26523971557617,
              36.932613372802734
            ],
            [
              33.673797607421875,
              37.12596130371094
            ],
            [
              34.30364990234375,
              37.1904182434082
            ],
            [
              34.56466293334961,
              37.44829177856445
            ],
            [
              34.87669372558594,
              37.44829177856445
            ],
            [
              35.60308074951172,
              38.351463317871094
            ],
            [
              36.75463104248047,
              38.157840728759766
            ],
            [
              37.85028076171875,
              38.157840728759766
            ],
            [
              37.58363723754883,
              37.89975357055664
            ]
          ]
        ]
      }
    }
  ]
}