{
  "type": "FeatureCollection",
  "name": "territory-449",
  "features": [
    {
      "type": "Feature",
      "properties": {
        "Name": "Kingdom of Jerusalem",
        "FromYear": 1126,
        "ToYear": 1168,
        "Area": 53894.95839480907,
        "Type": "POLITY",
        "Wikipedia": "Kingdom of Jerusalem",
        "Wikidata": "Q55502",
        "SeshatID": "il_jerusalem_k_1",
        "Components": "",
        "MemberOf": ""
      },
      "geometry": {
        "type": "Polygon",
        "coordinates": [
          [
            [
              36.11867141723633,
              31.20764923095703
            ],
            [
              36.042564392089844,
              31.20764923095703
            ],
            [
              36.00981521606445,
              30.822044372558594
            ],
            [
              35.933807373046875,
              30.822044372558594
            ],
            [
              35.993736267089844,
              30.629240036010742
            ],
            [
              35.73457717895508,
              30.243623733520508
            ],
            [
              35.496829986572266,
              30.115081787109375
            ],
            [
              35.562564849853516,
              29.986536026000977
            ],
            [
              35.33515930175781,
              29.986536026000977
            ],
            [
              34.99330139160156,
              29.472333908081055
            ],
            [
              34.91762161254883,
              29.472333908081055
            ],
            [
              34.67741775512695,
              30.307893753051758
            ],
            [
              34.16086196899414,
              30.500701904296875
            ],
            [
              33.88158416748047,
              30.822044372558594
            ],
            [
              33.58732986450195,
              30.950578689575195
            ],
            [
              33.597190856933594,
              31.079113006591797
            ],
            [
              33.67326354980469,
              31.079113006591797
            ],
            [
              34.2972412109375,
              31.271915435791016
            ],
            [
              34.30759811401367,
              31.40045166015625
            ],
            [
              34.546607971191406,
              31.528987884521484
            ],
            [
              34.6388053894043,
              31.7217960357666
            ],
            [
              34.57329559326172,
              31.8503360748291
            ],
            [
              34.81304168701172,
              31.978878021240234
            ],
            [
              34.76983642578125,
              32.36451721191406
            ],
            [
              35.021759033203125,
              32.62162780761719
            ],
            [
              35.05632781982422,
              33.00732421875
            ],
            [
              35.21538543701172,
              33.07160949707031
            ],
            [
              35.39840316772461,
              33.393062591552734
            ],
            [
              35.34577560424805,
              33.65024948120117
            ],
            [
              35.49934768676758,
              33.65024948120117
            ],
            [
              35.4470100402832,
              33.90746307373047
            ],
            [
              35.74824142456055,
              33.84315490722656
            ],
            [
              35.8250846862793,
              33.84315490722656
            ],
            [
              35.769798278808594,
              33.26447677612305
            ],
            [
              36.07036590576172,
              33.20018768310547
            ],
            [
              35.9337158203125,
              32.557350158691406
            ],
            [
              36.25139617919922,
              31.8503360748291
            ],
            [
              36.11867141723633,
              31.20764923095703
            ]
          ]
        ]
      }
    }
  ]
}