{
  "type": "FeatureCollection",
  "name": "territory-450",
  "features": [
    {
      "type": "Feature",
      "properties": {
        "Name": "Hoysala Kingdom",
        "FromYear": 1111,
        "ToYear": 1125,
        "Area": 111359.53432720745,
        "Type": "POLITY",
        "Wikipedia": "Hoysala Kingdom",
        "Wikidata": "Q466581",
        "SeshatID": "in_hoysala_k",
        "Components": "",
        "MemberOf": ""
      },
      "geometry": {
        "type": "Polygon",
        "coordinates": [
          [
            [
              74.47446539590969,
              14.07574515974927
            ],
            [
              74.505,
              14.105
            ],
            [
              74.47886234071629,
              14.22954196223154
            ],
            [
              75.092,
              14.581
            ],
            [
              75.237,
              14.796
            ],
            [
              75.867,
              15.011
            ],
            [
              76.199,
              15.307
            ],
            [
              76.729,
              15.447
            ],
            [
              76.93130410379202,
              15.136098861694336
            ],
            [
              76.922,
              14.543
            ],
            [
              77.058,
              14.311
            ],
            [
              78.128,
              14.179
            ],
            [
              78.185,
              13.599
            ],
            [
              77.733,
              12.265
            ],
            [
              77.48,
              11.857
            ],
            [
              77.047,
              11.609
            ],
            [
              76.608,
              11.654
            ],
            [
              75.619,
              12.057
            ],
            [
              75.20476139579642,
              11.98941515932013
            ],
            [
              75.15816225771749,
              12.08304172857304
            ],
            [
              74.81406842675456,
              12.82202985820842
            ],
            [
              74.591,
              13.934
            ],
            [
              74.47446539590969,
              14.07574515974927
            ]
          ]
        ]
      }
    }
  ]
}