{
  "type": "FeatureCollection",
  "name": "territory-454",
  "features": [
    {
      "type": "Feature",
      "properties": {
        "Name": "(Allegiance of Goryeo to Great Jin)",
        "FromYear": 1206,
        "ToYear": 1215,
        "Area": 2261027.752556873,
        "Type": "RELATION",
        "Wikipedia": "Goryeo",
        "Wikidata": "Q28208",
        "SeshatID": "kr_goryeo_k;cn_later_great_jin",
        "Components": "Goryeo;Great Jin",
        "MemberOf": ""
      },
      "geometry": {
        "type": "Polygon",
        "coordinates": [
          [
            [
              128.20680236816406,
              38.80344009399414
            ],
            [
              128.36380004882812,
              38.80344009399414
            ],
            [
              129.10020446777344,
              37.5772590637207
            ],
            [
              129.2563018798828,
              37.5772590637207
            ],
            [
              129.4748077392578,
              37.254878997802734
            ],
            [
              129.40687561035156,
              37.12596130371094
            ],
            [
              129.53929138183594,
              36.932613372802734
            ],
            [
              129.39639282226562,
              36.3527946472168
            ],
            [
              129.47402954101562,
              36.3527946472168
            ],
            [
              129.42141723632812,
              36.09519577026367
            ],
            [
              129.57652282714844,
              36.09519577026367
            ],
            [
              129.6669158935547,
              35.9664192199707
            ],
            [
              129.5386505126953,
              35.708900451660156
            ],
            [
              129.61607360839844,
              35.708900451660156
            ],
            [
              129.14712524414062,
              35.065311431884766
            ],
            [
              128.52938842773438,
              35.065311431884766
            ],
            [
              128.5451202392578,
              34.93662643432617
            ],
            [
              128.80740356445312,
              35.00096893310547
            ],
            [
              128.6848602294922,
              34.743614196777344
            ],
            [
              128.32968139648438,
              34.80794906616211
            ],
            [
              128.31358337402344,
              34.93662643432617
            ],
            [
              128.08206176757812,
              34.93662643432617
            ],
            [
              128.0679168701172,
              34.743614196777344
            ],
            [
              127.75946044921875,
              34.743614196777344
            ],
            [
              127.37831115722656,
              34.42197799682617
            ],
            [
              127.22427368164062,
              34.42197799682617
            ],
            [
              127.12974548339844,
              34.55062484741211
            ],
            [
              127.29676055908203,
              34.743614196777344
            ],
            [
              127.21964263916016,
              34.743614196777344
            ],
            [
              126.91620635986328,
              34.42197799682617
            ],
            [
              126.47222137451172,
              34.2933349609375
            ],
            [
              126.48365783691406,
              34.48630142211914
            ],
            [
              126.3476333618164,
              34.3576545715332
            ],
            [
              126.11663818359375,
              34.3576545715332
            ],
            [
              126.4784164428711,
              34.80794906616211
            ],
            [
              126.1998062133789,
              34.87228775024414
            ],
            [
              126.51919555664062,
              35.708900451660156
            ],
            [
              126.76777648925781,
              35.902034759521484
            ],
            [
              126.61280822753906,
              35.902034759521484
            ],
            [
              126.67567443847656,
              36.03080368041992
            ],
            [
              126.52062225341797,
              36.03080368041992
            ],
            [
              126.42864227294922,
              36.15959167480469
            ],
            [
              126.45157623291016,
              36.67487716674805
            ],
            [
              126.26383972167969,
              36.61045455932617
            ],
            [
              126.04977416992188,
              36.80373764038086
            ],
            [
              126.30320739746094,
              36.9970588684082
            ],
            [
              126.64752197265625,
              37.06150817871094
            ],
            [
              126.7022933959961,
              37.3193473815918
            ],
            [
              126.53524017333984,
              37.44829177856445
            ],
            [
              126.6025161743164,
              37.5772590637207
            ],
            [
              126.24594116210938,
              37.641746520996094
            ],
            [
              126.34768676757812,
              37.835243225097656
            ],
            [
              125.84493255615234,
              37.7707405090332
            ],
            [
              125.83466339111328,
              37.89975357055664
            ],
            [
              125.6783218383789,
              37.89975357055664
            ],
            [
              125.38711547851562,
              37.641746520996094
            ],
            [
              125.23096466064453,
              37.641746520996094
            ],
            [
              125.29808044433594,
              37.7707405090332
            ],
            [
              125.20932006835938,
              37.89975357055664
            ],
            [
              124.89665222167969,
              37.89975357055664
            ],
            [
              125.07669067382812,
              38.09331130981445
            ],
            [
              124.76374053955078,
              38.09331130981445
            ],
            [
              124.86637115478516,
              38.28691864013672
            ],
            [
              124.7880630493164,
              38.28691864013672
            ],
            [
              124.96138000488281,
              38.60969924926758
            ],
            [
              125.15330505371094,
              38.67427444458008
            ],
            [
              125.18850708007812,
              38.738853454589844
            ],
            [
              125.03155517578125,
              38.738853454589844
            ],
            [
              125.31729888916016,
              39.25570297241211
            ],
            [
              125.35359954833984,
              39.320335388183594
            ],
            [
              125.39002990722656,
              39.38497543334961
            ],
            [
              125.30574798583984,
              39.51427459716797
            ],
            [
              124.86974334716797,
              39.57893371582031
            ],
            [
              124.86456298828125,
              39.70827102661133
            ],
            [
              124.51239776611328,
              39.64360046386719
            ],
            [
              124.3446044921875,
              39.90232849121094
            ],
            [
              124.03396606445312,
              39.77294921875
            ],
            [
              123.59744262695312,
              39.8376350402832
            ],
            [
              122.51297760009766,
              39.449623107910156
            ],
            [
              122.17044830322266,
              39.25570297241211
            ],
            [
              122.0653076171875,
              39.06184005737305
            ],
            [
              121.71622467041016,
              38.997230529785156
            ],
            [
              121.42170715332031,
              38.738853454589844
            ],
            [
              121.02933502197266,
              38.738853454589844
            ],
            [
              121.20073699951172,
              39.06184005737305
            ],
            [
              121.51512908935547,
              39.06184005737305
            ],
            [
              121.69013214111328,
              39.38497543334961
            ],
            [
              121.2965316772461,
              39.38497543334961
            ],
            [
              121.20963287353516,
              39.51427459716797
            ],
            [
              121.28069305419922,
              39.64360046386719
            ],
            [
              121.43833923339844,
              39.64360046386719
            ],
            [
              121.50332641601562,
              39.90232849121094
            ],
            [
              121.7764663696289,
              39.9670295715332
            ],
            [
              122.23056030273438,
              40.4848747253418
            ],
            [
              122.10609436035156,
              40.6791877746582
            ],
            [
              121.82695770263672,
              40.74397277832031
            ],
            [
              121.82366180419922,
              40.873565673828125
            ],
            [
              121.1097640991211,
              40.873565673828125
            ],
            [
              120.9967269897461,
              40.6791877746582
            ],
            [
              120.64734649658203,
              40.4848747253418
            ],
            [
              120.50029754638672,
              40.225894927978516
            ],
            [
              119.38044738769531,
              39.77294921875
            ],
            [
              119.21530151367188,
              39.320335388183594
            ],
            [
              118.98941802978516,
              39.19107437133789
            ],
            [
              118.44984436035156,
              39.06184005737305
            ],
            [
              118.0568618774414,
              39.06184005737305
            ],
            [
              118.04566192626953,
              39.19107437133789
            ],
            [
              117.77603912353516,
              39.1264533996582
            ],
            [
              117.57643127441406,
              38.738853454589844
            ],
            [
              117.6549072265625,
              38.738853454589844
            ],
            [
              117.60245513916016,
              38.48057174682617
            ],
            [
              117.75920867919922,
              38.48057174682617
            ],
            [
              117.77266693115234,
              38.351463317871094
            ],
            [
              118.05360412597656,
              38.28691864013672
            ],
            [
              118.06742095947266,
              38.157840728759766
            ],
            [
              118.58300018310547,
              38.09331130981445
            ],
            [
              118.64759826660156,
              38.22237777709961
            ],
            [
              118.80416870117188,
              38.22237777709961
            ],
            [
              118.77176666259766,
              38.157840728759766
            ],
            [
              119.4571304321289,
              37.96426773071289
            ],
            [
              119.3928451538086,
              37.835243225097656
            ],
            [
              119.23655700683594,
              37.835243225097656
            ],
            [
              118.98403930664062,
              37.3193473815918
            ],
            [
              119.13996124267578,
              37.3193473815918
            ],
            [
              119.15568542480469,
              37.1904182434082
            ],
            [
              119.70111083984375,
              37.1904182434082
            ],
            [
              119.82661437988281,
              37.44829177856445
            ],
            [
              120.20220184326172,
              37.5772590637207
            ],
            [
              120.18807220458984,
              37.706241607666016
            ],
            [
              120.75377655029297,
              37.89975357055664
            ],
            [
              121.11202239990234,
              37.835243225097656
            ],
            [
              121.17103576660156,
              37.641746520996094
            ],
            [
              121.48333740234375,
              37.641746520996094
            ],
            [
              121.49687957763672,
              37.51277160644531
            ],
            [
              122.15351867675781,
              37.5772590637207
            ],
            [
              122.1211166381836,
              37.51277160644531
            ],
            [
              122.71288299560547,
              37.44829177856445
            ],
            [
              122.44239044189453,
              37.06150817871094
            ],
            [
              122.56636810302734,
              36.9970588684082
            ],
            [
              122.50314331054688,
              36.8681755065918
            ],
            [
              122.16053771972656,
              36.80373764038086
            ],
            [
              122.14556121826172,
              36.932613372802734
            ],
            [
              121.91207885742188,
              36.932613372802734
            ],
            [
              121.21208190917969,
              36.61045455932617
            ],
            [
              120.97892761230469,
              36.61045455932617
            ],
            [
              120.96481323242188,
              36.417205810546875
            ],
            [
              120.73184967041016,
              36.417205810546875
            ],
            [
              120.65852355957031,
              36.09519577026367
            ],
            [
              120.31848907470703,
              36.03080368041992
            ],
            [
              119.98648071289062,
              35.644527435302734
            ],
            [
              119.61874389648438,
              35.51579284667969
            ],
            [
              119.22760772705078,
              34.80794906616211
            ],
            [
              119.45901489257812,
              34.80794906616211
            ],
            [
              119.76029205322266,
              34.614952087402344
            ],
            [
              119.73230743408203,
              34.55062484741211
            ],
            [
              118.81922149658203,
              34.03607940673828
            ],
            [
              116.81269073486328,
              33.26447677612305
            ],
            [
              116.19931030273438,
              33.26447677612305
            ],
            [
              115.89303588867188,
              33.07160949707031
            ],
            [
              115.38192749023438,
              33.13589859008789
            ],
            [
              114.54073333740234,
              32.94303894042969
            ],
            [
              113.54519653320312,
              32.94303894042969
            ],
            [
              111.75230407714844,
              33.26447677612305
            ],
            [
              111.54399871826172,
              33.52165222167969
            ],
            [
              111.26171875,
              33.5859489440918
            ],
            [
              111.15581512451172,
              33.90746307373047
            ],
            [
              110.79651641845703,
              33.971771240234375
            ],
            [
              110.46405792236328,
              33.90746307373047
            ],
            [
              110.13471984863281,
              33.65024948120117
            ],
            [
              109.75079345703125,
              33.65024948120117
            ],
            [
              109.21742248535156,
              33.45735549926758
            ],
            [
              108.6803207397461,
              33.45735549926758
            ],
            [
              108.34458923339844,
              33.5859489440918
            ],
            [
              107.08712005615234,
              33.71455001831055
            ],
            [
              106.85155487060547,
              33.90746307373047
            ],
            [
              106.26053619384766,
              33.971771240234375
            ],
            [
              106.23157501220703,
              34.10039138793945
            ],
            [
              105.58243560791016,
              34.42197799682617
            ],
            [
              105.25029754638672,
              34.3576545715332
            ],
            [
              105.02462005615234,
              34.164703369140625
            ],
            [
              104.63992309570312,
              34.164703369140625
            ],
            [
              104.01274871826172,
              34.55062484741211
            ],
            [
              103.49715423583984,
              34.614952087402344
            ],
            [
              103.5210189819336,
              34.679283142089844
            ],
            [
              103.66561889648438,
              35.065311431884766
            ],
            [
              103.99524688720703,
              35.32271194458008
            ],
            [
              105.74381256103516,
              35.837650299072266
            ],
            [
              106.08024597167969,
              36.28839111328125
            ],
            [
              105.82366943359375,
              36.61045455932617
            ],
            [
              105.8768310546875,
              36.73930740356445
            ],
            [
              105.69690704345703,
              36.8681755065918
            ],
            [
              105.85546875,
              37.06150817871094
            ],
            [
              105.80465698242188,
              37.12596130371094
            ],
            [
              105.08324432373047,
              37.44829177856445
            ],
            [
              104.7440414428711,
              37.38381576538086
            ],
            [
              104.72044372558594,
              37.51277160644531
            ],
            [
              104.8258285522461,
              37.5772590637207
            ],
            [
              104.59166717529297,
              37.5772590637207
            ],
            [
              104.6190414428711,
              37.641746520996094
            ],
            [
              105.4329605102539,
              37.89975357055664
            ],
            [
              106.16472625732422,
              37.96426773071289
            ],
            [
              106.8154296875,
              38.54513168334961
            ],
            [
              107.4426498413086,
              38.54513168334961
            ],
            [
              107.51126098632812,
              38.351463317871094
            ],
            [
              107.90291595458984,
              38.351463317871094
            ],
            [
              107.9718017578125,
              38.157840728759766
            ],
            [
              108.74501037597656,
              37.96426773071289
            ],
            [
              108.8433609008789,
              37.835243225097656
            ],
            [
              110.39788055419922,
              38.157840728759766
            ],
            [
              110.67475891113281,
              38.416015625
            ],
            [
              111.01862335205078,
              38.48057174682617
            ],
            [
              111.15621948242188,
              38.93262481689453
            ],
            [
              111.51801300048828,
              39.19107437133789
            ],
            [
              111.39248657226562,
              39.25570297241211
            ],
            [
              111.68372344970703,
              39.8376350402832
            ],
            [
              112.48341369628906,
              40.614410400390625
            ],
            [
              112.57799530029297,
              40.93837356567383
            ],
            [
              113.39055633544922,
              41.26253128051758
            ],
            [
              114.77721405029297,
              42.30118942260742
            ],
            [
              116.52074432373047,
              43.342071533203125
            ],
            [
              119.14221954345703,
              45.56227111816406
            ],
            [
              120.09381866455078,
              46.74290466308594
            ],
            [
              120.17588806152344,
              46.74290466308594
            ],
            [
              121.34223937988281,
              47.005828857421875
            ],
            [
              122.75004577636719,
              47.13737487792969
            ],
            [
              124.5152816772461,
              47.53233337402344
            ],
            [
              126.39347076416016,
              47.730003356933594
            ],
            [
              130.0413360595703,
              47.53233337402344
            ],
            [
              129.99130249023438,
              47.46647262573242
            ],
            [
              131.37440490722656,
              47.33478927612305
            ],
            [
              132.0718231201172,
              47.598209381103516
            ],
            [
              132.09169006347656,
              47.730003356933594
            ],
            [
              132.47357177734375,
              47.79592514038086
            ],
            [
              132.98199462890625,
              48.1257438659668
            ],
            [
              133.47877502441406,
              48.1257438659668
            ],
            [
              134.3252410888672,
              48.455936431884766
            ],
            [
              134.603271484375,
              48.38986587524414
            ],
            [
              135.15208435058594,
              48.654239654541016
            ],
            [
              136.56602478027344,
              49.051273345947266
            ],
            [
              140.60638427734375,
              50.84549331665039
            ],
            [
              140.42181396484375,
              50.37908172607422
            ],
            [
              140.50588989257812,
              50.37908172607422
            ],
            [
              140.48951721191406,
              50.17946243286133
            ],
            [
              140.74139404296875,
              50.17946243286133
            ],
            [
              140.43783569335938,
              49.84712600708008
            ],
            [
              140.5929718017578,
              49.64793395996094
            ],
            [
              140.34747314453125,
              49.18375015258789
            ],
            [
              140.43084716796875,
              49.18375015258789
            ],
            [
              140.19395446777344,
              48.72037124633789
            ],
            [
              140.27706909179688,
              48.72037124633789
            ],
            [
              140.16339111328125,
              48.5881233215332
            ],
            [
              140.24642944335938,
              48.5881233215332
            ],
            [
              140.02110290527344,
              48.323814392089844
            ],
            [
              139.35755920410156,
              47.92780685424805
            ],
            [
              138.8994903564453,
              47.26897048950195
            ],
            [
              138.62857055664062,
              47.13737487792969
            ],
            [
              138.41775512695312,
              46.87434005737305
            ],
            [
              138.49989318847656,
              46.87434005737305
            ],
            [
              138.34307861328125,
              46.677207946777344
            ],
            [
              138.42510986328125,
              46.677207946777344
            ],
            [
              137.8590850830078,
              45.95537567138672
            ],
            [
              136.71914672851562,
              45.10417556762695
            ],
            [
              136.1484375,
              44.45067596435547
            ],
            [
              135.986572265625,
              44.45067596435547
            ],
            [
              135.28416442871094,
              43.6026611328125
            ],
            [
              134.22183227539062,
              43.016544342041016
            ],
            [
              133.2723388671875,
              42.691246032714844
            ],
            [
              132.95187377929688,
              42.691246032714844
            ],
            [
              132.99696350097656,
              42.75628662109375
            ],
            [
              132.5611114501953,
              42.82133865356445
            ],
            [
              132.60623168945312,
              42.88639831542969
            ],
            [
              132.20521545410156,
              42.88639831542969
            ],
            [
              132.27102661132812,
              43.211830139160156
            ],
            [
              132.0999298095703,
              43.08163070678711
            ],
            [
              131.77874755859375,
              43.08163070678711
            ],
            [
              131.9146728515625,
              43.276947021484375
            ],
            [
              131.75390625,
              43.276947021484375
            ],
            [
              131.22511291503906,
              42.62621307373047
            ],
            [
              130.90475463867188,
              42.62621307373047
            ],
            [
              130.60537719726562,
              42.30118942260742
            ],
            [
              130.32212829589844,
              42.236209869384766
            ],
            [
              129.7823486328125,
              41.781593322753906
            ],
            [
              129.69317626953125,
              41.521995544433594
            ],
            [
              129.8822021484375,
              41.19768524169922
            ],
            [
              129.75584411621094,
              40.873565673828125
            ],
            [
              129.23776245117188,
              40.6791877746582
            ],
            [
              129.0777130126953,
              40.42012023925781
            ],
            [
              128.6822052001953,
              40.29063034057617
            ],
            [
              128.3679962158203,
              40.031734466552734
            ],
            [
              127.9345932006836,
              39.9670295715332
            ],
            [
              127.58325958251953,
              39.77294921875
            ],
            [
              127.665283203125,
              39.64360046386719
            ],
            [
              127.5155029296875,
              39.38497543334961
            ],
            [
              127.4783935546875,
              39.320335388183594
            ],
            [
              127.44142150878906,
              39.25570297241211
            ],
            [
              127.79782104492188,
              39.19107437133789
            ],
            [
              127.92344665527344,
              38.997230529785156
            ],
            [
              128.24317932128906,
              38.8680305480957
            ],
            [
              128.20680236816406,
              38.80344009399414
            ]
          ]
        ]
      }
    }
  ]
}