{
  "type": "FeatureCollection",
  "name": "territory-456",
  "features": [
    {
      "type": "Feature",
      "properties": {
        "Name": "(Duchies of Poland)",
        "FromYear": 1227,
        "ToYear": 1235,
        "Area": 224682.6610876014,
        "Type": "POLITY",
        "Wikipedia": "Testament of Bolesław III Wrymouth",
        "Wikidata": "Q2984183",
        "SeshatID": "pl_piast_dyn_2",
        "Components": "Duchy of Opole;Duchy of Sandomierz;Duchy of Silesia;Duchy of Greater Poland;Duchy of Masovia",
        "MemberOf": ""
      },
      "geometry": {
        "type": "Polygon",
        "coordinates": [
          [
            [
              18.96332550048828,
              49.44889450073242
            ],
            [
              18.87979507446289,
              49.44889450073242
            ],
            [
              18.88353729248047,
              49.51522445678711
            ],
            [
              18.799970626831055,
              49.51522445678711
            ],
            [
              18.71640396118164,
              49.51522445678711
            ],
            [
              18.316205978393555,
              49.84712600708008
            ],
            [
              18.323387145996094,
              49.98000717163086
            ],
            [
              17.904199600219727,
              49.98000717163086
            ],
            [
              17.24604034423828,
              50.2459831237793
            ],
            [
              15.922855377197266,
              50.77880859375
            ],
            [
              15.930866241455078,
              50.97892379760742
            ],
            [
              15.680119514465332,
              51.04566955566406
            ],
            [
              15.693191528320312,
              51.37968063354492
            ],
            [
              15.528964042663574,
              51.51342010498047
            ],
            [
              15.534167289733887,
              51.64724349975586
            ],
            [
              15.19472885131836,
              51.64724349975586
            ],
            [
              14.933256149291992,
              51.44654083251953
            ],
            [
              14.76379108428955,
              51.44654083251953
            ],
            [
              14.600712776184082,
              51.64724349975586
            ],
            [
              14.602863311767578,
              51.71418380737305
            ],
            [
              14.607197761535645,
              51.84812545776367
            ],
            [
              14.951874732971191,
              51.98215103149414
            ],
            [
              14.956645011901855,
              52.11625671386719
            ],
            [
              14.537419319152832,
              52.31757736206055
            ],
            [
              14.548598289489746,
              52.653533935546875
            ],
            [
              14.125114440917969,
              52.78806686401367
            ],
            [
              14.045584678649902,
              52.99003219604492
            ],
            [
              14.309375762939453,
              53.192195892333984
            ],
            [
              14.481132507324219,
              53.192195892333984
            ],
            [
              14.476561546325684,
              53.057395935058594
            ],
            [
              14.731513977050781,
              52.99003219604492
            ],
            [
              15.34544563293457,
              53.32708740234375
            ],
            [
              15.439932823181152,
              53.52959060668945
            ],
            [
              15.784370422363281,
              53.52959060668945
            ],
            [
              15.864327430725098,
              53.39456558227539
            ],
            [
              16.208393096923828,
              53.39456558227539
            ],
            [
              16.476667404174805,
              53.597137451171875
            ],
            [
              17.764890670776367,
              53.52959060668945
            ],
            [
              17.77729606628418,
              53.732303619384766
            ],
            [
              17.53472328186035,
              54.00291442871094
            ],
            [
              17.576114654541016,
              54.681121826171875
            ],
            [
              17.489192962646484,
              54.681121826171875
            ],
            [
              17.49753189086914,
              54.817054748535156
            ],
            [
              17.501720428466797,
              54.88506317138672
            ],
            [
              18.459484100341797,
              54.88506317138672
            ],
            [
              18.44533348083496,
              54.681121826171875
            ],
            [
              18.686851501464844,
              54.4095458984375
            ],
            [
              19.462186813354492,
              54.341712951660156
            ],
            [
              19.355026245117188,
              54.07062530517578
            ],
            [
              19.268539428710938,
              54.07062530517578
            ],
            [
              19.3398380279541,
              53.86756134033203
            ],
            [
              19.334808349609375,
              53.799922943115234
            ],
            [
              19.421106338500977,
              53.799922943115234
            ],
            [
              19.416046142578125,
              53.732303619384766
            ],
            [
              19.4110050201416,
              53.664710998535156
            ],
            [
              19.497207641601562,
              53.664710998535156
            ],
            [
              19.492136001586914,
              53.597137451171875
            ],
            [
              19.48708152770996,
              53.52959060668945
            ],
            [
              19.573190689086914,
              53.52959060668945
            ],
            [
              19.56304168701172,
              53.39456558227539
            ],
            [
              19.901874542236328,
              53.32708740234375
            ],
            [
              19.972116470336914,
              53.124786376953125
            ],
            [
              20.487110137939453,
              53.124786376953125
            ],
            [
              20.58405303955078,
              53.25962829589844
            ],
            [
              21.019489288330078,
              53.32708740234375
            ],
            [
              21.381492614746094,
              53.52959060668945
            ],
            [
              21.719682693481445,
              53.462066650390625
            ],
            [
              21.8183536529541,
              53.597137451171875
            ],
            [
              21.9842586517334,
              53.52959060668945
            ],
            [
              22.255704879760742,
              53.664710998535156
            ],
            [
              22.50091552734375,
              53.52959060668945
            ],
            [
              22.30253791809082,
              53.25962829589844
            ],
            [
              22.56031036376953,
              53.25962829589844
            ],
            [
              22.6462345123291,
              53.25962829589844
            ],
            [
              22.428829193115234,
              52.78806686401367
            ],
            [
              22.343225479125977,
              52.78806686401367
            ],
            [
              22.422412872314453,
              52.720787048339844
            ],
            [
              22.292898178100586,
              52.250450134277344
            ],
            [
              22.10417366027832,
              52.0491943359375
            ],
            [
              22.347232818603516,
              51.91512680053711
            ],
            [
              22.687358856201172,
              51.91512680053711
            ],
            [
              22.6685791015625,
              51.71418380737305
            ],
            [
              22.995450973510742,
              51.580322265625
            ],
            [
              22.87944221496582,
              51.24601745605469
            ],
            [
              23.042409896850586,
              51.17921447753906
            ],
            [
              23.023828506469727,
              50.97892379760742
            ],
            [
              23.10826873779297,
              50.97892379760742
            ],
            [
              22.897226333618164,
              50.51224899291992
            ],
            [
              22.891307830810547,
              50.445655822753906
            ],
            [
              22.975421905517578,
              50.445655822753906
            ],
            [
              22.946025848388672,
              50.11296081542969
            ],
            [
              22.258319854736328,
              49.91355895996094
            ],
            [
              22.158485412597656,
              49.71431350708008
            ],
            [
              21.991121292114258,
              49.71431350708008
            ],
            [
              21.385677337646484,
              49.44889450073242
            ],
            [
              20.95870590209961,
              49.316287994384766
            ],
            [
              20.21193504333496,
              49.38258361816406
            ],
            [
              19.865541458129883,
              49.18375015258789
            ],
            [
              19.388931274414062,
              49.58156967163086
            ],
            [
              19.305326461791992,
              49.58156967163086
            ],
            [
              19.301374435424805,
              49.51522445678711
            ],
            [
              19.21780776977539,
              49.51522445678711
            ],
            [
              19.134241104125977,
              49.51522445678711
            ],
            [
              19.13038444519043,
              49.44889450073242
            ],
            [
              19.04685401916504,
              49.44889450073242
            ],
            [
              18.96332550048828,
              49.44889450073242
            ]
          ]
        ]
      }
    }
  ]
}