{
  "type": "FeatureCollection",
  "name": "territory-458",
  "features": [
    {
      "type": "Feature",
      "properties": {
        "Name": "Zengid dynasty",
        "FromYear": 1169,
        "ToYear": 1176,
        "Area": 1162857.4712006596,
        "Type": "POLITY",
        "Wikipedia": "Zengid dynasty",
        "Wikidata": "Q189545",
        "SeshatID": "",
        "Components": "",
        "MemberOf": ""
      },
      "geometry": {
        "type": "Polygon",
        "coordinates": [
          [
            [
              43.56403350830078,
              37.641746520996094
            ],
            [
              43.32033157348633,
              37.5772590637207
            ],
            [
              43.41068649291992,
              37.12596130371094
            ],
            [
              44.3570556640625,
              36.67487716674805
            ],
            [
              44.3383903503418,
              36.5460319519043
            ],
            [
              44.611854553222656,
              36.28839111328125
            ],
            [
              44.593360900878906,
              36.15959167480469
            ],
            [
              44.95335388183594,
              35.9664192199707
            ],
            [
              44.898380279541016,
              35.58015823364258
            ],
            [
              44.40733337402344,
              35.38706970214844
            ],
            [
              44.1740608215332,
              34.80794906616211
            ],
            [
              43.92555618286133,
              34.679283142089844
            ],
            [
              43.81462097167969,
              34.42197799682617
            ],
            [
              43.660587310791016,
              34.42197799682617
            ],
            [
              43.39646530151367,
              34.164703369140625
            ],
            [
              43.242584228515625,
              34.164703369140625
            ],
            [
              42.89459991455078,
              33.84315490722656
            ],
            [
              42.57145309448242,
              33.71455001831055
            ],
            [
              42.36363983154297,
              33.26447677612305
            ],
            [
              42.286964416503906,
              33.26447677612305
            ],
            [
              41.27333068847656,
              33.77885055541992
            ],
            [
              41.211639404296875,
              33.90746307373047
            ],
            [
              40.91171646118164,
              33.971771240234375
            ],
            [
              40.84990692138672,
              34.10039138793945
            ],
            [
              40.31147003173828,
              34.10039138793945
            ],
            [
              40.403316497802734,
              34.22901916503906
            ],
            [
              39.50897979736328,
              34.48630142211914
            ],
            [
              39.12379455566406,
              34.48630142211914
            ],
            [
              37.990238189697266,
              33.971771240234375
            ],
            [
              37.73945236206055,
              33.77885055541992
            ],
            [
              37.72612380981445,
              33.65024948120117
            ],
            [
              37.57255172729492,
              33.65024948120117
            ],
            [
              37.0732307434082,
              33.26447677612305
            ],
            [
              37.054195404052734,
              33.07160949707031
            ],
            [
              36.90095901489258,
              33.07160949707031
            ],
            [
              36.716766357421875,
              32.75019073486328
            ],
            [
              36.750667572021484,
              32.30024337768555
            ],
            [
              36.59786605834961,
              32.30024337768555
            ],
            [
              36.50958251953125,
              32.171695709228516
            ],
            [
              36.66231155395508,
              32.171695709228516
            ],
            [
              36.55650329589844,
              31.8503360748291
            ],
            [
              36.69736099243164,
              31.7217960357666
            ],
            [
              36.38663864135742,
              31.65752601623535
            ],
            [
              36.423099517822266,
              31.20764923095703
            ],
            [
              36.2708854675293,
              31.20764923095703
            ],
            [
              36.25978469848633,
              31.079113006591797
            ],
            [
              36.40085220336914,
              30.950578689575195
            ],
            [
              36.15641784667969,
              30.757776260375977
            ],
            [
              35.84559631347656,
              29.729440689086914
            ],
            [
              35.76985549926758,
              29.729440689086914
            ],
            [
              35.80632781982422,
              29.21521759033203
            ],
            [
              35.655086517333984,
              29.21521759033203
            ],
            [
              35.64081573486328,
              29.022375106811523
            ],
            [
              35.480316162109375,
              28.893810272216797
            ],
            [
              35.19560241699219,
              28.058101654052734
            ],
            [
              34.59267044067383,
              28.058101654052734
            ],
            [
              34.60541915893555,
              28.25096321105957
            ],
            [
              34.853519439697266,
              28.572391510009766
            ],
            [
              34.91290283203125,
              29.40805435180664
            ],
            [
              34.83723831176758,
              29.40805435180664
            ],
            [
              34.71140670776367,
              28.700960159301758
            ],
            [
              34.54724884033203,
              28.508106231689453
            ],
            [
              34.517303466796875,
              28.058101654052734
            ],
            [
              34.35825729370117,
              27.92952537536621
            ],
            [
              34.345943450927734,
              27.736658096313477
            ],
            [
              33.90217590332031,
              27.865236282348633
            ],
            [
              33.553810119628906,
              28.315250396728516
            ],
            [
              33.40296936035156,
              28.315250396728516
            ],
            [
              33.18891525268555,
              28.508106231689453
            ],
            [
              33.213871002197266,
              28.893810272216797
            ],
            [
              32.857112884521484,
              29.21521759033203
            ],
            [
              32.52609634399414,
              29.922264099121094
            ],
            [
              32.428688049316406,
              29.600887298583984
            ],
            [
              32.638694763183594,
              29.34377670288086
            ],
            [
              32.68916320800781,
              28.958093643188477
            ],
            [
              32.83612823486328,
              28.893810272216797
            ],
            [
              33.10531997680664,
              28.379535675048828
            ],
            [
              33.60887145996094,
              27.993812561035156
            ],
            [
              33.585105895996094,
              27.608078002929688
            ],
            [
              33.7991943359375,
              27.41520881652832
            ],
            [
              33.92659378051758,
              27.029460906982422
            ],
            [
              34.07311248779297,
              26.96516990661621
            ],
            [
              34.05074691772461,
              26.57941436767578
            ],
            [
              34.197208404541016,
              26.515121459960938
            ],
            [
              34.461280822753906,
              25.8721923828125
            ],
            [
              34.60763931274414,
              25.807899475097656
            ],
            [
              35.145530700683594,
              24.650644302368164
            ],
            [
              35.860408782958984,
              24.00774574279785
            ],
            [
              35.85411834716797,
              23.879167556762695
            ],
            [
              35.558753967285156,
              23.943456649780273
            ],
            [
              35.55257034301758,
              23.814878463745117
            ],
            [
              35.10795974731445,
              23.879167556762695
            ],
            [
              33.75636291503906,
              23.68630027770996
            ],
            [
              33.6817741394043,
              23.68630027770996
            ],
            [
              33.38899612426758,
              23.814878463745117
            ],
            [
              32.040863037109375,
              23.68630027770996
            ],
            [
              31.670488357543945,
              23.75058937072754
            ],
            [
              30.537214279174805,
              23.36486053466797
            ],
            [
              30.462675094604492,
              23.36486053466797
            ],
            [
              30.39519500732422,
              23.557723999023438
            ],
            [
              30.10396385192871,
              23.75058937072754
            ],
            [
              30.10871124267578,
              23.879167556762695
            ],
            [
              29.95948028564453,
              23.879167556762695
            ],
            [
              29.672801971435547,
              24.200613021850586
            ],
            [
              28.568815231323242,
              24.650644302368164
            ],
            [
              28.288646697998047,
              25.164974212646484
            ],
            [
              28.24367904663086,
              25.936485290527344
            ],
            [
              28.34531593322754,
              26.57941436767578
            ],
            [
              28.270244598388672,
              26.57941436767578
            ],
            [
              28.15372657775879,
              27.35091781616211
            ],
            [
              27.93669891357422,
              27.54378890991211
            ],
            [
              27.710918426513672,
              27.54378890991211
            ],
            [
              27.791961669921875,
              27.6723690032959
            ],
            [
              27.429920196533203,
              27.993812561035156
            ],
            [
              27.27633285522461,
              27.92952537536621
            ],
            [
              27.28502082824707,
              28.12238883972168
            ],
            [
              27.140071868896484,
              28.25096321105957
            ],
            [
              25.586284637451172,
              28.958093643188477
            ],
            [
              25.37345314025879,
              29.279497146606445
            ],
            [
              25.14654541015625,
              29.279497146606445
            ],
            [
              25.000762939453125,
              29.40805435180664
            ],
            [
              24.846712112426758,
              29.34377670288086
            ],
            [
              24.779218673706055,
              29.536611557006836
            ],
            [
              24.330371856689453,
              29.665164947509766
            ],
            [
              24.25998878479004,
              29.79371452331543
            ],
            [
              23.51007843017578,
              29.986536026000977
            ],
            [
              22.91602325439453,
              30.307893753051758
            ],
            [
              22.76180076599121,
              30.243623733520508
            ],
            [
              22.76673698425293,
              30.372163772583008
            ],
            [
              22.541486740112305,
              30.436433792114258
            ],
            [
              21.938846588134766,
              30.564971923828125
            ],
            [
              20.95157814025879,
              30.564971923828125
            ],
            [
              19.19106674194336,
              30.050809860229492
            ],
            [
              18.811979293823242,
              30.050809860229492
            ],
            [
              18.816862106323242,
              30.243623733520508
            ],
            [
              19.655010223388672,
              30.372163772583008
            ],
            [
              19.964311599731445,
              30.564971923828125
            ],
            [
              19.968164443969727,
              30.69350814819336
            ],
            [
              20.202085494995117,
              30.886310577392578
            ],
            [
              20.13410186767578,
              31.143381118774414
            ],
            [
              20.214296340942383,
              31.271915435791016
            ],
            [
              19.996076583862305,
              31.593257904052734
            ],
            [
              20.089075088500977,
              32.107421875
            ],
            [
              20.016965866088867,
              32.23596954345703
            ],
            [
              20.246112823486328,
              32.23596954345703
            ],
            [
              20.33134651184082,
              32.493072509765625
            ],
            [
              20.481992721557617,
              32.428794860839844
            ],
            [
              20.562992095947266,
              32.557350158691406
            ],
            [
              20.71593475341797,
              32.557350158691406
            ],
            [
              20.644094467163086,
              32.685909271240234
            ],
            [
              20.87124252319336,
              32.62162780761719
            ],
            [
              21.108016967773438,
              32.81447219848633
            ],
            [
              21.41167449951172,
              32.75019073486328
            ],
            [
              21.87872886657715,
              32.94303894042969
            ],
            [
              23.089431762695312,
              32.62162780761719
            ],
            [
              23.077939987182617,
              32.36451721191406
            ],
            [
              23.29851722717285,
              32.171695709228516
            ],
            [
              23.680339813232422,
              32.171695709228516
            ],
            [
              24.129365921020508,
              31.978878021240234
            ],
            [
              24.892484664916992,
              31.978878021240234
            ],
            [
              25.11168098449707,
              31.78606605529785
            ],
            [
              25.102048873901367,
              31.593257904052734
            ],
            [
              25.248035430908203,
              31.464719772338867
            ],
            [
              26.847702026367188,
              31.464719772338867
            ],
            [
              27.297456741333008,
              31.336183547973633
            ],
            [
              27.514896392822266,
              31.143381118774414
            ],
            [
              28.496395111083984,
              31.014846801757812
            ],
            [
              28.865032196044922,
              30.822044372558594
            ],
            [
              29.3970890045166,
              30.822044372558594
            ],
            [
              29.485143661499023,
              31.014846801757812
            ],
            [
              29.633193969726562,
              30.950578689575195
            ],
            [
              29.86956024169922,
              31.079113006591797
            ],
            [
              29.8017635345459,
              31.20764923095703
            ],
            [
              29.882049560546875,
              31.271915435791016
            ],
            [
              30.33879280090332,
              31.271915435791016
            ],
            [
              30.271244049072266,
              31.40045166015625
            ],
            [
              30.351730346679688,
              31.464719772338867
            ],
            [
              30.80877685546875,
              31.464719772338867
            ],
            [
              30.965608596801758,
              31.528987884521484
            ],
            [
              30.974620819091797,
              31.65752601623535
            ],
            [
              31.203296661376953,
              31.65752601623535
            ],
            [
              31.117990493774414,
              31.528987884521484
            ],
            [
              31.265825271606445,
              31.464719772338867
            ],
            [
              31.875221252441406,
              31.464719772338867
            ],
            [
              31.780553817749023,
              31.20764923095703
            ],
            [
              31.93739891052246,
              31.271915435791016
            ],
            [
              31.999635696411133,
              31.079113006591797
            ],
            [
              32.303932189941406,
              31.079113006591797
            ],
            [
              32.23719787597656,
              31.20764923095703
            ],
            [
              32.38941192626953,
              31.20764923095703
            ],
            [
              32.53215408325195,
              31.079113006591797
            ],
            [
              32.76515197753906,
              31.143381118774414
            ],
            [
              32.8316764831543,
              31.014846801757812
            ],
            [
              33.98260498046875,
              31.143381118774414
            ],
            [
              34.2972412109375,
              31.271915435791016
            ],
            [
              34.47041702270508,
              31.528987884521484
            ],
            [
              34.546607971191406,
              31.528987884521484
            ],
            [
              35.43910217285156,
              31.271915435791016
            ],
            [
              35.52066421508789,
              31.336183547973633
            ],
            [
              35.466407775878906,
              31.593257904052734
            ],
            [
              35.63555908203125,
              31.78606605529785
            ],
            [
              35.59892654418945,
              32.23596954345703
            ],
            [
              35.604671478271484,
              32.30024337768555
            ],
            [
              35.52827072143555,
              32.30024337768555
            ],
            [
              35.639530181884766,
              32.685909271240234
            ],
            [
              35.95151138305664,
              32.75019073486328
            ],
            [
              36.04003143310547,
              32.878753662109375
            ],
            [
              36.07036590576172,
              33.20018768310547
            ],
            [
              35.769798278808594,
              33.26447677612305
            ],
            [
              35.8250846862793,
              33.84315490722656
            ],
            [
              35.83131790161133,
              33.90746307373047
            ],
            [
              36.58816909790039,
              34.55062484741211
            ],
            [
              36.621395111083984,
              34.87228775024414
            ],
            [
              36.165035247802734,
              34.93662643432617
            ],
            [
              36.268775939941406,
              35.194007873535156
            ],
            [
              36.19152069091797,
              35.194007873535156
            ],
            [
              36.211570739746094,
              35.38706970214844
            ],
            [
              36.37296676635742,
              35.45143127441406
            ],
            [
              36.4346809387207,
              36.03080368041992
            ],
            [
              36.72402572631836,
              36.5460319519043
            ],
            [
              36.76753234863281,
              36.932613372802734
            ],
            [
              36.689701080322266,
              36.932613372802734
            ],
            [
              36.81937026977539,
              37.38381576538086
            ],
            [
              36.826873779296875,
              37.44829177856445
            ],
            [
              36.927616119384766,
              37.641746520996094
            ],
            [
              36.85715103149414,
              37.706241607666016
            ],
            [
              37.106876373291016,
              37.835243225097656
            ],
            [
              37.22419738769531,
              38.157840728759766
            ],
            [
              37.38071823120117,
              38.157840728759766
            ],
            [
              37.569461822509766,
              38.416015625
            ],
            [
              38.744789123535156,
              38.416015625
            ],
            [
              38.613487243652344,
              38.60969924926758
            ],
            [
              38.656463623046875,
              38.93262481689453
            ],
            [
              39.06686782836914,
              39.06184005737305
            ],
            [
              39.747135162353516,
              38.8680305480957
            ],
            [
              39.99177932739258,
              38.93262481689453
            ],
            [
              40.26435852050781,
              39.19107437133789
            ],
            [
              41.06999969482422,
              39.320335388183594
            ],
            [
              41.51301956176758,
              39.1264533996582
            ],
            [
              43.01698303222656,
              39.19107437133789
            ],
            [
              43.21224594116211,
              38.93262481689453
            ],
            [
              44.22297668457031,
              38.8680305480957
            ],
            [
              44.359256744384766,
              38.738853454589844
            ],
            [
              44.30800247192383,
              38.416015625
            ],
            [
              44.45452117919922,
              38.351463317871094
            ],
            [
              44.30603790283203,
              37.89975357055664
            ],
            [
              44.44255065917969,
              37.7707405090332
            ],
            [
              44.042198181152344,
              37.706241607666016
            ],
            [
              43.89569854736328,
              37.7707405090332
            ],
            [
              43.56403350830078,
              37.641746520996094
            ]
          ]
        ]
      }
    }
  ]
}