{
  "type": "FeatureCollection",
  "name": "territory-46",
  "features": [
    {
      "type": "Feature",
      "properties": {
        "Name": "(Mahajanapadas)",
        "FromYear": -404,
        "ToYear": -367,
        "Area": 802716.09531193,
        "Type": "POLITY",
        "Wikipedia": "Mahajanapadas",
        "Wikidata": "Q846025",
        "SeshatID": "in_mahajanapada",
        "Components": "Magadha - Shaishunaga dynasty;Janapada of Aśmaka",
        "MemberOf": ""
      },
      "geometry": {
        "type": "MultiPolygon",
        "coordinates": [
          [
            [
              [
                77.83375549316406,
                19.95766830444336
              ],
              [
                78.14506530761719,
                20.08624267578125
              ],
              [
                78.16002655029297,
                20.214815139770508
              ],
              [
                78.45650482177734,
                20.214815139770508
              ],
              [
                78.44147491455078,
                20.08624267578125
              ],
              [
                78.796875,
                19.95766830444336
              ],
              [
                78.69257354736328,
                19.700523376464844
              ],
              [
                78.54446411132812,
                19.700523376464844
              ],
              [
                78.52938842773438,
                19.571949005126953
              ],
              [
                78.37378692626953,
                19.507661819458008
              ],
              [
                77.92961120605469,
                19.507661819458008
              ],
              [
                77.95203399658203,
                19.700523376464844
              ],
              [
                77.8039321899414,
                19.700523376464844
              ],
              [
                77.82630157470703,
                19.893383026123047
              ],
              [
                77.83375549316406,
                19.95766830444336
              ]
            ]
          ],
          [
            [
              [
                76.54800358106701,
                25.18435286606459
              ],
              [
                77.50035095133951,
                25.422399361492
              ],
              [
                80.7901929936796,
                27.00213593939838
              ],
              [
                82.7174611941026,
                27.2191204555459
              ],
              [
                83.552,
                27.608
              ],
              [
                84.316,
                27.672
              ],
              [
                84.291,
                27.544
              ],
              [
                84.592,
                27.544
              ],
              [
                84.729,
                27.479
              ],
              [
                84.705,
                27.351
              ],
              [
                85.281,
                27.222
              ],
              [
                85.518,
                27.287
              ],
              [
                85.493,
                27.158
              ],
              [
                86.082,
                27.094
              ],
              [
                86.183,
                26.837
              ],
              [
                86.42,
                26.901
              ],
              [
                86.396,
                26.772
              ],
              [
                86.608,
                26.708
              ],
              [
                86.722,
                26.515
              ],
              [
                87.034,
                26.579
              ],
              [
                87.16,
                26.451
              ],
              [
                87.385,
                26.451
              ],
              [
                87.286,
                26.322
              ],
              [
                87.862,
                26.194
              ],
              [
                88.098,
                26.258
              ],
              [
                88.074,
                26.129
              ],
              [
                88.236,
                26.194
              ],
              [
                88.362,
                26.065
              ],
              [
                89.213,
                25.808
              ],
              [
                89.513,
                25.808
              ],
              [
                89.714,
                25.679
              ],
              [
                89.875,
                25.744
              ],
              [
                89.926,
                25.615
              ],
              [
                90.088,
                25.679
              ],
              [
                90.214,
                25.551
              ],
              [
                90.789,
                25.422
              ],
              [
                90.979,
                25.229
              ],
              [
                91.203,
                25.229
              ],
              [
                91.106,
                25.101
              ],
              [
                91.244,
                25.036
              ],
              [
                91.316,
                24.586
              ],
              [
                91.391,
                24.586
              ],
              [
                91.263,
                24.265
              ],
              [
                91.412,
                24.265
              ],
              [
                91.215,
                23.493
              ],
              [
                91.29,
                23.493
              ],
              [
                91.26,
                23.301
              ],
              [
                91.473,
                23.236
              ],
              [
                91.658,
                22.979
              ],
              [
                91.509,
                22.979
              ],
              [
                91.48,
                22.786
              ],
              [
                91.229,
                22.593
              ],
              [
                90.922,
                22.529
              ],
              [
                90.848,
                22.015
              ],
              [
                90.616,
                21.951
              ],
              [
                90.635,
                22.079
              ],
              [
                90.412,
                22.079
              ],
              [
                90.218,
                21.758
              ],
              [
                89.883,
                22.015
              ],
              [
                89.856,
                21.822
              ],
              [
                89.699,
                21.758
              ],
              [
                89.105,
                21.758
              ],
              [
                89.088,
                21.629
              ],
              [
                88.717,
                21.629
              ],
              [
                88.705,
                22.079
              ],
              [
                88.63,
                22.079
              ],
              [
                88.503,
                21.693
              ],
              [
                88.355,
                21.693
              ],
              [
                88.337,
                21.565
              ],
              [
                88.123,
                21.629
              ],
              [
                88.167,
                21.951
              ],
              [
                88.093,
                21.951
              ],
              [
                87.753,
                21.629
              ],
              [
                87.059,
                21.436
              ],
              [
                86.877,
                21.179
              ],
              [
                86.951,
                21.179
              ],
              [
                87.023,
                20.601
              ],
              [
                86.784,
                20.472
              ],
              [
                86.833,
                20.279
              ],
              [
                86.503,
                20.022
              ],
              [
                86.281,
                20.022
              ],
              [
                86.15,
                20.151
              ],
              [
                86.192,
                20.472
              ],
              [
                86.02,
                20.858
              ],
              [
                85.362,
                21.501
              ],
              [
                83.92,
                21.822
              ],
              [
                83.541,
                21.758
              ],
              [
                83.409,
                21.886
              ],
              [
                81.652,
                22.079
              ],
              [
                81.446,
                22.208
              ],
              [
                81.289,
                22.143
              ],
              [
                81.008,
                22.272
              ],
              [
                74.986,
                22.851
              ],
              [
                74.363,
                23.236
              ],
              [
                74.8838325119229,
                24.2161934431558
              ],
              [
                75.65377772798621,
                24.73368187924744
              ],
              [
                76.54800358106701,
                25.18435286606459
              ]
            ]
          ]
        ]
      }
    }
  ]
}