{
  "type": "FeatureCollection",
  "name": "territory-462",
  "features": [
    {
      "type": "Feature",
      "properties": {
        "Name": "Duchy of Sandomierz",
        "FromYear": 1192,
        "ToYear": 1201,
        "Area": 142235.47626488938,
        "Type": "POLITY",
        "Wikipedia": "Duchy of Sandomierz",
        "Wikidata": "Q16933165",
        "SeshatID": "pl_piast_dyn_2",
        "Components": "",
        "MemberOf": "(Duchies of Poland)"
      },
      "geometry": {
        "type": "Polygon",
        "coordinates": [
          [
            [
              19.334808349609375,
              53.799922943115234
            ],
            [
              19.421106338500977,
              53.799922943115234
            ],
            [
              19.56304168701172,
              53.39456558227539
            ],
            [
              19.901874542236328,
              53.32708740234375
            ],
            [
              19.972116470336914,
              53.124786376953125
            ],
            [
              20.487110137939453,
              53.124786376953125
            ],
            [
              20.58405303955078,
              53.25962829589844
            ],
            [
              21.019489288330078,
              53.32708740234375
            ],
            [
              21.381492614746094,
              53.52959060668945
            ],
            [
              21.719682693481445,
              53.462066650390625
            ],
            [
              21.8183536529541,
              53.597137451171875
            ],
            [
              21.9842586517334,
              53.52959060668945
            ],
            [
              22.16950225830078,
              53.664710998535156
            ],
            [
              22.50091552734375,
              53.52959060668945
            ],
            [
              22.30253791809082,
              53.25962829589844
            ],
            [
              22.56031036376953,
              53.25962829589844
            ],
            [
              22.6462345123291,
              53.25962829589844
            ],
            [
              22.428829193115234,
              52.78806686401367
            ],
            [
              22.343225479125977,
              52.78806686401367
            ],
            [
              22.422412872314453,
              52.720787048339844
            ],
            [
              22.292898178100586,
              52.250450134277344
            ],
            [
              22.10417366027832,
              52.0491943359375
            ],
            [
              22.347232818603516,
              51.91512680053711
            ],
            [
              22.687358856201172,
              51.91512680053711
            ],
            [
              22.6685791015625,
              51.71418380737305
            ],
            [
              22.995450973510742,
              51.580322265625
            ],
            [
              22.87944221496582,
              51.24601745605469
            ],
            [
              23.042409896850586,
              51.17921447753906
            ],
            [
              23.023828506469727,
              50.97892379760742
            ],
            [
              23.10826873779297,
              50.97892379760742
            ],
            [
              23.08979606628418,
              50.77880859375
            ],
            [
              22.91514015197754,
              50.71213912963867
            ],
            [
              22.891307830810547,
              50.445655822753906
            ],
            [
              22.975421905517578,
              50.445655822753906
            ],
            [
              22.946025848388672,
              50.11296081542969
            ],
            [
              22.258319854736328,
              49.91355895996094
            ],
            [
              22.158485412597656,
              49.71431350708008
            ],
            [
              21.385677337646484,
              49.44889450073242
            ],
            [
              20.95870590209961,
              49.316287994384766
            ],
            [
              20.21193504333496,
              49.38258361816406
            ],
            [
              19.865541458129883,
              49.18375015258789
            ],
            [
              19.388931274414062,
              49.58156967163086
            ],
            [
              19.2415714263916,
              49.91355895996094
            ],
            [
              19.077926635742188,
              49.98000717163086
            ],
            [
              19.18613052368164,
              50.37908172607422
            ],
            [
              19.102054595947266,
              50.37908172607422
            ],
            [
              19.030193328857422,
              50.578861236572266
            ],
            [
              18.70132827758789,
              50.71213912963867
            ],
            [
              18.709320068359375,
              50.84549331665039
            ],
            [
              18.049345016479492,
              51.112430572509766
            ],
            [
              17.972288131713867,
              51.24601745605469
            ],
            [
              18.079954147338867,
              51.64724349975586
            ],
            [
              18.35076141357422,
              51.91512680053711
            ],
            [
              18.213274002075195,
              52.4518928527832
            ],
            [
              18.127891540527344,
              52.4518928527832
            ],
            [
              18.050642013549805,
              52.586299896240234
            ],
            [
              17.627155303955078,
              52.653533935546875
            ],
            [
              17.549327850341797,
              52.78806686401367
            ],
            [
              17.124940872192383,
              52.85536575317383
            ],
            [
              16.79631805419922,
              53.124786376953125
            ],
            [
              16.7244930267334,
              53.39456558227539
            ],
            [
              16.90379524230957,
              53.52959060668945
            ],
            [
              17.764890670776367,
              53.52959060668945
            ],
            [
              17.77729606628418,
              53.732303619384766
            ],
            [
              17.53472328186035,
              54.00291442871094
            ],
            [
              17.576114654541016,
              54.681121826171875
            ],
            [
              17.489192962646484,
              54.681121826171875
            ],
            [
              17.49753189086914,
              54.817054748535156
            ],
            [
              17.501720428466797,
              54.88506317138672
            ],
            [
              18.459484100341797,
              54.88506317138672
            ],
            [
              18.44533348083496,
              54.681121826171875
            ],
            [
              18.686851501464844,
              54.4095458984375
            ],
            [
              19.462186813354492,
              54.341712951660156
            ],
            [
              19.355026245117188,
              54.07062530517578
            ],
            [
              19.268539428710938,
              54.07062530517578
            ],
            [
              19.334808349609375,
              53.799922943115234
            ]
          ],
          [
            [
              20.14645767211914,
              52.0491943359375
            ],
            [
              20.23157501220703,
              52.0491943359375
            ],
            [
              20.221450805664062,
              51.91512680053711
            ],
            [
              19.871623992919922,
              51.78114318847656
            ],
            [
              19.62150001525879,
              51.84812545776367
            ],
            [
              18.653339385986328,
              52.653533935546875
            ],
            [
              18.66219711303711,
              52.78806686401367
            ],
            [
              18.3326416015625,
              52.99003219604492
            ],
            [
              18.26409912109375,
              53.25962829589844
            ],
            [
              18.526348114013672,
              53.32708740234375
            ],
            [
              18.517410278320312,
              53.192195892333984
            ],
            [
              18.689167022705078,
              53.192195892333984
            ],
            [
              18.928207397460938,
              52.92268753051758
            ],
            [
              19.099597930908203,
              52.92268753051758
            ],
            [
              19.4229793548584,
              52.653533935546875
            ],
            [
              19.48443031311035,
              52.31757736206055
            ],
            [
              20.076417922973633,
              52.250450134277344
            ],
            [
              20.14645767211914,
              52.0491943359375
            ]
          ]
        ]
      }
    }
  ]
}