{
  "type": "FeatureCollection",
  "name": "territory-463",
  "features": [
    {
      "type": "Feature",
      "properties": {
        "Name": "Duchy of Masovia",
        "FromYear": 1147,
        "ToYear": 1168,
        "Area": 166451.02951883353,
        "Type": "POLITY",
        "Wikipedia": "Duchy of Masovia",
        "Wikidata": "Q2361927",
        "SeshatID": "pl_piast_dyn_2",
        "Components": "",
        "MemberOf": "(Duchies of Poland)"
      },
      "geometry": {
        "type": "Polygon",
        "coordinates": [
          [
            [
              19.3398380279541,
              53.86756134033203
            ],
            [
              19.334808349609375,
              53.799922943115234
            ],
            [
              19.421106338500977,
              53.799922943115234
            ],
            [
              19.56304168701172,
              53.39456558227539
            ],
            [
              19.901874542236328,
              53.32708740234375
            ],
            [
              19.972116470336914,
              53.124786376953125
            ],
            [
              20.487110137939453,
              53.124786376953125
            ],
            [
              20.58405303955078,
              53.25962829589844
            ],
            [
              21.019489288330078,
              53.32708740234375
            ],
            [
              21.381492614746094,
              53.52959060668945
            ],
            [
              21.719682693481445,
              53.462066650390625
            ],
            [
              21.8183536529541,
              53.597137451171875
            ],
            [
              21.9842586517334,
              53.52959060668945
            ],
            [
              22.16950225830078,
              53.664710998535156
            ],
            [
              22.50091552734375,
              53.52959060668945
            ],
            [
              22.30253791809082,
              53.25962829589844
            ],
            [
              22.56031036376953,
              53.25962829589844
            ],
            [
              22.6462345123291,
              53.25962829589844
            ],
            [
              22.428829193115234,
              52.78806686401367
            ],
            [
              22.343225479125977,
              52.78806686401367
            ],
            [
              22.422412872314453,
              52.720787048339844
            ],
            [
              22.292898178100586,
              52.250450134277344
            ],
            [
              22.10417366027832,
              52.0491943359375
            ],
            [
              20.8697566986084,
              51.51342010498047
            ],
            [
              20.208925247192383,
              50.578861236572266
            ],
            [
              20.89250946044922,
              50.71213912963867
            ],
            [
              21.0357723236084,
              50.37908172607422
            ],
            [
              21.287996292114258,
              50.37908172607422
            ],
            [
              21.524608612060547,
              50.17946243286133
            ],
            [
              21.51432228088379,
              50.04647445678711
            ],
            [
              21.991121292114258,
              49.71431350708008
            ],
            [
              21.385677337646484,
              49.44889450073242
            ],
            [
              20.95870590209961,
              49.316287994384766
            ],
            [
              20.21193504333496,
              49.38258361816406
            ],
            [
              19.865541458129883,
              49.18375015258789
            ],
            [
              19.472537994384766,
              49.58156967163086
            ],
            [
              19.13038444519043,
              49.44889450073242
            ],
            [
              18.71640396118164,
              49.51522445678711
            ],
            [
              18.316205978393555,
              49.84712600708008
            ],
            [
              18.323387145996094,
              49.98000717163086
            ],
            [
              17.65599250793457,
              50.04647445678711
            ],
            [
              17.57870101928711,
              50.17946243286133
            ],
            [
              17.162044525146484,
              50.2459831237793
            ],
            [
              17.08426284790039,
              50.37908172607422
            ],
            [
              15.92021369934082,
              50.71213912963867
            ],
            [
              15.930866241455078,
              50.97892379760742
            ],
            [
              15.680119514465332,
              51.04566955566406
            ],
            [
              15.693191528320312,
              51.37968063354492
            ],
            [
              15.528964042663574,
              51.51342010498047
            ],
            [
              15.534167289733887,
              51.64724349975586
            ],
            [
              15.19472885131836,
              51.64724349975586
            ],
            [
              14.933256149291992,
              51.44654083251953
            ],
            [
              14.76379108428955,
              51.44654083251953
            ],
            [
              14.600712776184082,
              51.64724349975586
            ],
            [
              14.602863311767578,
              51.71418380737305
            ],
            [
              14.607197761535645,
              51.84812545776367
            ],
            [
              14.951874732971191,
              51.98215103149414
            ],
            [
              14.956645011901855,
              52.11625671386719
            ],
            [
              14.454297065734863,
              52.38472366333008
            ],
            [
              14.456478118896484,
              52.4518928527832
            ],
            [
              14.548598289489746,
              52.653533935546875
            ],
            [
              14.041525840759277,
              52.85536575317383
            ],
            [
              14.047627449035645,
              53.057395935058594
            ],
            [
              14.223498344421387,
              53.192195892333984
            ],
            [
              14.309375762939453,
              53.192195892333984
            ],
            [
              14.481132507324219,
              53.192195892333984
            ],
            [
              14.476561546325684,
              53.057395935058594
            ],
            [
              14.731513977050781,
              52.99003219604492
            ],
            [
              15.064226150512695,
              52.720787048339844
            ],
            [
              14.968768119812012,
              52.4518928527832
            ],
            [
              15.390352249145508,
              52.31757736206055
            ],
            [
              15.467615127563477,
              52.11625671386719
            ],
            [
              16.060789108276367,
              52.0491943359375
            ],
            [
              16.218982696533203,
              51.78114318847656
            ],
            [
              16.718996047973633,
              51.580322265625
            ],
            [
              16.97677993774414,
              51.64724349975586
            ],
            [
              17.05156135559082,
              51.44654083251953
            ],
            [
              17.891399383544922,
              51.31283950805664
            ],
            [
              17.90264892578125,
              51.51342010498047
            ],
            [
              17.740514755249023,
              51.64724349975586
            ],
            [
              17.836748123168945,
              51.84812545776367
            ],
            [
              17.67426300048828,
              51.98215103149414
            ],
            [
              17.681819915771484,
              52.11625671386719
            ],
            [
              17.515209197998047,
              52.18334197998047
            ],
            [
              17.518939971923828,
              52.250450134277344
            ],
            [
              17.348440170288086,
              52.250450134277344
            ],
            [
              16.864484786987305,
              52.78806686401367
            ],
            [
              17.046524047851562,
              52.99003219604492
            ],
            [
              16.79631805419922,
              53.124786376953125
            ],
            [
              16.7244930267334,
              53.39456558227539
            ],
            [
              16.90379524230957,
              53.52959060668945
            ],
            [
              17.764890670776367,
              53.52959060668945
            ],
            [
              17.77729606628418,
              53.732303619384766
            ],
            [
              17.53472328186035,
              54.00291442871094
            ],
            [
              17.576114654541016,
              54.681121826171875
            ],
            [
              17.489192962646484,
              54.681121826171875
            ],
            [
              17.49753189086914,
              54.817054748535156
            ],
            [
              17.501720428466797,
              54.88506317138672
            ],
            [
              18.459484100341797,
              54.88506317138672
            ],
            [
              18.44533348083496,
              54.681121826171875
            ],
            [
              18.686851501464844,
              54.4095458984375
            ],
            [
              19.462186813354492,
              54.341712951660156
            ],
            [
              19.355026245117188,
              54.07062530517578
            ],
            [
              19.268539428710938,
              54.07062530517578
            ],
            [
              19.3398380279541,
              53.86756134033203
            ]
          ]
        ]
      }
    }
  ]
}