{
  "type": "FeatureCollection",
  "name": "territory-467",
  "features": [
    {
      "type": "Feature",
      "properties": {
        "Name": "Principality of Halych",
        "FromYear": 1147,
        "ToYear": 1168,
        "Area": 106385.29546460905,
        "Type": "POLITY",
        "Wikipedia": "Principality of Halych",
        "Wikidata": "Q3403551",
        "SeshatID": "",
        "Components": "",
        "MemberOf": ""
      },
      "geometry": {
        "type": "Polygon",
        "coordinates": [
          [
            [
              29.387527465820312,
              49.316287994384766
            ],
            [
              29.353984832763672,
              49.051273345947266
            ],
            [
              29.162776947021484,
              48.852684020996094
            ],
            [
              29.031408309936523,
              48.455936431884766
            ],
            [
              28.578052520751953,
              48.1257438659668
            ],
            [
              27.142614364624023,
              47.86185836791992
            ],
            [
              26.435287475585938,
              47.4006233215332
            ],
            [
              26.105649948120117,
              47.4006233215332
            ],
            [
              25.75118064880371,
              47.13737487792969
            ],
            [
              25.416061401367188,
              47.07159423828125
            ],
            [
              25.428136825561523,
              47.20316696166992
            ],
            [
              25.263525009155273,
              47.20316696166992
            ],
            [
              25.205156326293945,
              47.46647262573242
            ],
            [
              24.887176513671875,
              47.598209381103516
            ],
            [
              24.90500259399414,
              47.79592514038086
            ],
            [
              24.586227416992188,
              47.92780685424805
            ],
            [
              24.686708450317383,
              48.1257438659668
            ],
            [
              24.367206573486328,
              48.257774353027344
            ],
            [
              24.378963470458984,
              48.38986587524414
            ],
            [
              24.052976608276367,
              48.455936431884766
            ],
            [
              23.826892852783203,
              48.72037124633789
            ],
            [
              23.089706420898438,
              48.852684020996094
            ],
            [
              22.77837371826172,
              49.11750411987305
            ],
            [
              22.5230712890625,
              49.051273345947266
            ],
            [
              21.79827117919922,
              49.38258361816406
            ],
            [
              21.385677337646484,
              49.44889450073242
            ],
            [
              21.991121292114258,
              49.71431350708008
            ],
            [
              22.158485412597656,
              49.71431350708008
            ],
            [
              22.258319854736328,
              49.91355895996094
            ],
            [
              22.946025848388672,
              50.11296081542969
            ],
            [
              22.975421905517578,
              50.445655822753906
            ],
            [
              23.31188201904297,
              50.445655822753906
            ],
            [
              23.383758544921875,
              50.312522888183594
            ],
            [
              23.881650924682617,
              50.2459831237793
            ],
            [
              24.553611755371094,
              50.2459831237793
            ],
            [
              25.68891716003418,
              50.64549255371094
            ],
            [
              25.659879684448242,
              50.37908172607422
            ],
            [
              25.820768356323242,
              50.312522888183594
            ],
            [
              25.799171447753906,
              50.11296081542969
            ],
            [
              25.967002868652344,
              50.11296081542969
            ],
            [
              26.113054275512695,
              49.91355895996094
            ],
            [
              26.440895080566406,
              49.84712600708008
            ],
            [
              26.66996192932129,
              49.64793395996094
            ],
            [
              26.9208927154541,
              49.64793395996094
            ],
            [
              27.23273277282715,
              49.44889450073242
            ],
            [
              29.387527465820312,
              49.316287994384766
            ]
          ]
        ]
      }
    }
  ]
}