{
  "type": "FeatureCollection",
  "name": "territory-468",
  "features": [
    {
      "type": "Feature",
      "properties": {
        "Name": "Ghurid Dynasty",
        "FromYear": 1202,
        "ToYear": 1205,
        "Area": 2142716.3569408865,
        "Type": "POLITY",
        "Wikipedia": "Ghurid dynasty",
        "Wikidata": "Q199443",
        "SeshatID": "af_ghur_principality",
        "Components": "",
        "MemberOf": ""
      },
      "geometry": {
        "type": "Polygon",
        "coordinates": [
          [
            [
              68.14463523344962,
              23.719572549764393
            ],
            [
              68.15538787841797,
              23.814878463745117
            ],
            [
              67.49114990234375,
              23.879167556762695
            ],
            [
              67.43836975097656,
              24.07203483581543
            ],
            [
              67.28907775878906,
              24.07203483581543
            ],
            [
              67.32612609863281,
              24.393482208251953
            ],
            [
              67.25143432617188,
              24.393482208251953
            ],
            [
              67.2146987915039,
              24.714935302734375
            ],
            [
              66.63204956054688,
              24.843517303466797
            ],
            [
              66.67909240722656,
              25.229267120361328
            ],
            [
              66.34514617919922,
              25.55072784423828
            ],
            [
              66.02147674560547,
              25.357851028442383
            ],
            [
              64.8160629272461,
              25.29355812072754
            ],
            [
              64.80064392089844,
              25.164974212646484
            ],
            [
              64.2845230102539,
              25.229267120361328
            ],
            [
              64.22502136230469,
              25.357851028442383
            ],
            [
              63.62620544433594,
              25.357851028442383
            ],
            [
              63.536216735839844,
              25.229267120361328
            ],
            [
              62.563419342041016,
              25.229267120361328
            ],
            [
              62.47393035888672,
              25.100683212280273
            ],
            [
              62.18195724487305,
              25.164974212646484
            ],
            [
              62.01787185668945,
              25.03639030456543
            ],
            [
              61.71868133544922,
              25.03639030456543
            ],
            [
              61.65822219848633,
              25.164974212646484
            ],
            [
              61.12736892700195,
              25.100683212280273
            ],
            [
              60.91714859008789,
              25.229267120361328
            ],
            [
              60.617828369140625,
              25.229267120361328
            ],
            [
              60.63211441040039,
              25.357851028442383
            ],
            [
              59.060218811035156,
              25.357851028442383
            ],
            [
              58.78172302246094,
              25.55072784423828
            ],
            [
              57.957984924316406,
              25.55072784423828
            ],
            [
              57.52937316894531,
              25.743606567382812
            ],
            [
              57.4544563293457,
              25.743606567382812
            ],
            [
              57.489688873291016,
              26.06507110595703
            ],
            [
              57.36127471923828,
              26.257951736450195
            ],
            [
              57.51076889038086,
              26.900876998901367
            ],
            [
              57.69203567504883,
              27.158044815063477
            ],
            [
              58.0165901184082,
              27.35091781616211
            ],
            [
              58.03267288208008,
              27.4794979095459
            ],
            [
              58.27473831176758,
              27.608078002929688
            ],
            [
              58.2325439453125,
              27.865236282348633
            ],
            [
              58.08189392089844,
              27.865236282348633
            ],
            [
              58.207977294921875,
              28.25096321105957
            ],
            [
              58.660423278808594,
              28.25096321105957
            ],
            [
              58.9129524230957,
              28.44382095336914
            ],
            [
              59.27867889404297,
              29.922264099121094
            ],
            [
              59.510475158691406,
              30.436433792114258
            ],
            [
              59.682838439941406,
              30.564971923828125
            ],
            [
              59.74546813964844,
              30.950578689575195
            ],
            [
              60.400264739990234,
              32.107421875
            ],
            [
              60.44615936279297,
              32.36451721191406
            ],
            [
              60.72215270996094,
              32.62162780761719
            ],
            [
              60.692955017089844,
              32.878753662109375
            ],
            [
              60.61639404296875,
              32.878753662109375
            ],
            [
              60.68838119506836,
              33.26447677612305
            ],
            [
              61.04412078857422,
              33.52165222167969
            ],
            [
              61.71040344238281,
              34.93662643432617
            ],
            [
              62.14995193481445,
              35.194007873535156
            ],
            [
              62.458980560302734,
              35.194007873535156
            ],
            [
              62.963775634765625,
              35.38706970214844
            ],
            [
              63.16013717651367,
              35.58015823364258
            ],
            [
              63.927833557128906,
              35.902034759521484
            ],
            [
              64.3105239868164,
              36.2239875793457
            ],
            [
              66.62295532226562,
              36.15959167480469
            ],
            [
              67.80307006835938,
              36.5460319519043
            ],
            [
              68.19155883789062,
              36.5460319519043
            ],
            [
              68.49290466308594,
              37.12596130371094
            ],
            [
              68.6038589477539,
              37.254878997802734
            ],
            [
              69.0102767944336,
              37.3193473815918
            ],
            [
              69.1160659790039,
              37.12596130371094
            ],
            [
              69.3497543334961,
              37.12596130371094
            ],
            [
              69.5460205078125,
              37.5772590637207
            ],
            [
              70.24849700927734,
              37.5772590637207
            ],
            [
              70.43077087402344,
              37.38381576538086
            ],
            [
              70.37940216064453,
              37.1904182434082
            ],
            [
              70.38499724331422,
              37.1904182434082
            ],
            [
              69.91001128013738,
              36.565436712912366
            ],
            [
              69.45433648462249,
              36.44967209419785
            ],
            [
              70.18359603053702,
              35.435567224248764
            ],
            [
              71.13273190365415,
              35.58982842142044
            ],
            [
              71.13031005859375,
              35.58015823364258
            ],
            [
              71.43982696533203,
              35.58015823364258
            ],
            [
              71.48490142822266,
              35.45143127441406
            ],
            [
              72.65693664550781,
              35.194007873535156
            ],
            [
              73.51838684082031,
              34.93662643432617
            ],
            [
              73.64009857177734,
              34.80794906616211
            ],
            [
              73.71723937988281,
              34.80794906616211
            ],
            [
              73.91603088378906,
              34.679283142089844
            ],
            [
              73.83528137207031,
              34.3576545715332
            ],
            [
              73.97322082519531,
              34.2933349609375
            ],
            [
              73.92533874511719,
              34.10039138793945
            ],
            [
              74.2780532836914,
              33.971771240234375
            ],
            [
              74.0926742553711,
              33.84315490722656
            ],
            [
              74.0300064086914,
              33.5859489440918
            ],
            [
              74.1679458618164,
              33.52165222167969
            ],
            [
              74.07543182373047,
              33.13589859008789
            ],
            [
              74.38238525390625,
              32.81447219848633
            ],
            [
              74.67338562011719,
              32.75019073486328
            ],
            [
              74.76611328125,
              32.493072509765625
            ],
            [
              75.20977020263672,
              32.428794860839844
            ],
            [
              75.33260345458984,
              32.30024337768555
            ],
            [
              76.4021987915039,
              32.30024337768555
            ],
            [
              76.52459716796875,
              32.171695709228516
            ],
            [
              77.04389953613281,
              32.107421875
            ],
            [
              77.30365753173828,
              31.91460609436035
            ],
            [
              78.0361099243164,
              31.78606605529785
            ],
            [
              78.4480209350586,
              31.593257904052734
            ],
            [
              78.43291473388672,
              31.528987884521484
            ],
            [
              78.22080993652344,
              31.271915435791016
            ],
            [
              77.9015884399414,
              31.20764923095703
            ],
            [
              77.61511993408203,
              30.950578689575195
            ],
            [
              77.22660064697266,
              29.857990264892578
            ],
            [
              77.3647232055664,
              29.79371452331543
            ],
            [
              77.33805084228516,
              29.665164947509766
            ],
            [
              77.46300506591797,
              29.536611557006836
            ],
            [
              77.61439514160156,
              29.536611557006836
            ],
            [
              78.1150894165039,
              29.022375106811523
            ],
            [
              78.5427474975586,
              28.893810272216797
            ],
            [
              78.59268951416016,
              28.765243530273438
            ],
            [
              78.88200378417969,
              28.700960159301758
            ],
            [
              78.93211364746094,
              28.572391510009766
            ],
            [
              79.48538970947266,
              28.315250396728516
            ],
            [
              82.18701934814453,
              27.4794979095459
            ],
            [
              83.368408203125,
              26.96516990661621
            ],
            [
              83.8072509765625,
              26.900876998901367
            ],
            [
              83.93360137939453,
              26.772293090820312
            ],
            [
              84.29721069335938,
              26.70800018310547
            ],
            [
              84.48697662353516,
              26.515121459960938
            ],
            [
              85.64065551757812,
              26.257951736450195
            ],
            [
              87.79090675223213,
              26.129364013671875
            ],
            [
              86.926,
              24.799
            ],
            [
              86.686,
              23.947
            ],
            [
              86.455,
              23.58
            ],
            [
              85.71517944335938,
              23.493436813354492
            ],
            [
              84.21448516845703,
              23.943456649780273
            ],
            [
              82.73125457763672,
              24.00774574279785
            ],
            [
              82.69782750960101,
              24.00774574279785
            ],
            [
              82.93339145886151,
              24.297523058861724
            ],
            [
              83.57803266670822,
              24.386439087530235
            ],
            [
              83.02230748753003,
              24.786561216538537
            ],
            [
              82.46658230835183,
              24.831019230872794
            ],
            [
              81.39958996432969,
              25.364515402883864
            ],
            [
              81.04392584965564,
              25.72017951755791
            ],
            [
              80.75494875648297,
              25.764637531892166
            ],
            [
              80.04362052713489,
              26.14253065373334
            ],
            [
              79.55458236945807,
              25.94246958922919
            ],
            [
              79.53235336229095,
              25.6312634888894
            ],
            [
              79.04331520461413,
              25.320057388549607
            ],
            [
              78.98016294502524,
              25.25690512896071
            ],
            [
              78.84042198050986,
              25.33320228298928
            ],
            [
              78.70910900124647,
              25.66471101746081
            ],
            [
              78.84248227693377,
              25.98327438600048
            ],
            [
              78.72442254532174,
              26.11264135280833
            ],
            [
              78.74040753374808,
              26.31900100292861
            ],
            [
              78.28649161130961,
              26.64627672485452
            ],
            [
              78.26108119524608,
              26.77469197757367
            ],
            [
              77.9078446554201,
              26.83538070791674
            ],
            [
              76.46855877717523,
              25.90546756836747
            ],
            [
              75.10825953988837,
              26.42328918000359
            ],
            [
              74.16157674576915,
              26.15447728066389
            ],
            [
              73.8451521168712,
              25.44462537413002
            ],
            [
              73.48058123798388,
              25.149428325647747
            ],
            [
              73.13262645692315,
              25.82101742448877
            ],
            [
              72.73468500179635,
              26.133685710659826
            ],
            [
              71.96722648119466,
              26.275807658919398
            ],
            [
              71.48401185711211,
              26.10526132100791
            ],
            [
              70.63128016755469,
              26.61690033474237
            ],
            [
              70.40388505033937,
              26.588475945090455
            ],
            [
              70.2617631020798,
              26.30423204857131
            ],
            [
              70.11964115382023,
              25.337802800406223
            ],
            [
              69.69327530904151,
              24.627193059108368
            ],
            [
              69.18515758704106,
              24.136323928833008
            ],
            [
              69.16278076171875,
              24.136323928833008
            ],
            [
              69.08812713623047,
              24.136323928833008
            ],
            [
              69.08055877685547,
              24.07203483581543
            ],
            [
              68.14463523344962,
              23.719572549764393
            ]
          ],
          [
            [
              69.82073974609375,
              28.25096321105957
            ],
            [
              69.89614868164062,
              28.25096321105957
            ],
            [
              69.9068832397461,
              28.315250396728516
            ],
            [
              69.83146667480469,
              28.315250396728516
            ],
            [
              69.75604248046875,
              28.315250396728516
            ],
            [
              69.74533081054688,
              28.25096321105957
            ],
            [
              69.82073974609375,
              28.25096321105957
            ]
          ]
        ]
      }
    }
  ]
}