{
  "type": "FeatureCollection",
  "name": "territory-470",
  "features": [
    {
      "type": "Feature",
      "properties": {
        "Name": "Mahdids",
        "FromYear": 1169,
        "ToYear": 1235,
        "Area": 84464.73822239834,
        "Type": "POLITY",
        "Wikipedia": "Mahdids",
        "Wikidata": "Q1884830",
        "SeshatID": "",
        "Components": "",
        "MemberOf": ""
      },
      "geometry": {
        "type": "Polygon",
        "coordinates": [
          [
            [
              56.72557830810547,
              24.457773208618164
            ],
            [
              57.06272888183594,
              24.07203483581543
            ],
            [
              57.49265670776367,
              23.879167556762695
            ],
            [
              58.811527252197266,
              23.622013092041016
            ],
            [
              59.08000183105469,
              23.30057144165039
            ],
            [
              59.0682487487793,
              23.171995162963867
            ],
            [
              59.280067443847656,
              23.043420791625977
            ],
            [
              59.2684440612793,
              22.914846420288086
            ],
            [
              59.543212890625,
              22.657697677612305
            ],
            [
              59.903873443603516,
              22.529123306274414
            ],
            [
              59.864044189453125,
              22.079116821289062
            ],
            [
              59.436954498291016,
              21.43625259399414
            ],
            [
              59.203243255615234,
              21.307680130004883
            ],
            [
              59.21412658691406,
              21.43625259399414
            ],
            [
              58.86445999145508,
              21.693397521972656
            ],
            [
              58.8753776550293,
              21.821969985961914
            ],
            [
              58.244510650634766,
              22.271976470947266
            ],
            [
              57.48450469970703,
              22.079116821289062
            ],
            [
              57.1923942565918,
              22.143402099609375
            ],
            [
              56.98528289794922,
              22.33626365661621
            ],
            [
              56.83116149902344,
              22.271976470947266
            ],
            [
              56.84720230102539,
              22.46483612060547
            ],
            [
              56.62931442260742,
              22.529123306274414
            ],
            [
              56.43838119506836,
              22.914846420288086
            ],
            [
              56.225830078125,
              23.043420791625977
            ],
            [
              56.173316955566406,
              23.30057144165039
            ],
            [
              55.88624954223633,
              23.429147720336914
            ],
            [
              55.70759963989258,
              23.943456649780273
            ],
            [
              55.558345794677734,
              23.943456649780273
            ],
            [
              55.650272369384766,
              24.136323928833008
            ],
            [
              55.575618743896484,
              24.136323928833008
            ],
            [
              55.5362663269043,
              24.522062301635742
            ],
            [
              55.542266845703125,
              24.586353302001953
            ],
            [
              56.01519775390625,
              24.843517303466797
            ],
            [
              56.05316925048828,
              25.229267120361328
            ],
            [
              55.806236267089844,
              25.743606567382812
            ],
            [
              55.81295394897461,
              25.807899475097656
            ],
            [
              55.9695930480957,
              25.8721923828125
            ],
            [
              56.16815948486328,
              26.32224464416504
            ],
            [
              56.543277740478516,
              26.32224464416504
            ],
            [
              56.39881896972656,
              25.67931365966797
            ],
            [
              56.42084503173828,
              25.164974212646484
            ],
            [
              56.495662689208984,
              25.164974212646484
            ],
            [
              56.401641845703125,
              24.97209930419922
            ],
            [
              56.54487228393555,
              24.907808303833008
            ],
            [
              56.73170471191406,
              24.522062301635742
            ],
            [
              56.72557830810547,
              24.457773208618164
            ]
          ]
        ]
      }
    }
  ]
}