{
  "type": "FeatureCollection",
  "name": "territory-471",
  "features": [
    {
      "type": "Feature",
      "properties": {
        "Name": "Crown of Aragon",
        "FromYear": 1450,
        "ToYear": 1452,
        "Area": 243952.32577779895,
        "Type": "POLITY",
        "Wikipedia": "Crown of Aragon",
        "Wikidata": "Q204920",
        "SeshatID": "es_aragon_crown",
        "Components": "",
        "MemberOf": ""
      },
      "geometry": {
        "type": "MultiPolygon",
        "coordinates": [
          [
            [
              [
                14.568227767944336,
                35.77327346801758
              ],
              [
                14.33681869506836,
                35.837650299072266
              ],
              [
                14.339592933654785,
                36.03080368041992
              ],
              [
                14.417119026184082,
                36.03080368041992
              ],
              [
                14.571182250976562,
                35.9664192199707
              ],
              [
                14.568227767944336,
                35.77327346801758
              ]
            ]
          ],
          [
            [
              [
                22.988061904907227,
                38.28691864013672
              ],
              [
                22.603641510009766,
                38.416015625
              ],
              [
                22.525287628173828,
                38.416015625
              ],
              [
                22.3934326171875,
                38.8680305480957
              ],
              [
                22.943096160888672,
                38.8680305480957
              ],
              [
                22.939332962036133,
                38.80344009399414
              ],
              [
                23.312631607055664,
                38.48057174682617
              ],
              [
                23.704526901245117,
                38.48057174682617
              ],
              [
                24.084369659423828,
                38.28691864013672
              ],
              [
                23.9786319732666,
                37.835243225097656
              ],
              [
                23.44280242919922,
                38.028785705566406
              ],
              [
                23.36458969116211,
                38.028785705566406
              ],
              [
                23.044498443603516,
                37.89975357055664
              ],
              [
                22.988061904907227,
                38.28691864013672
              ]
            ]
          ],
          [
            [
              [
                1.657540321350098,
                38.997230529785156
              ],
              [
                1.430543661117554,
                38.80344009399414
              ],
              [
                1.273545265197754,
                38.80344009399414
              ],
              [
                1.183109045028687,
                39.06184005737305
              ],
              [
                1.258725643157959,
                39.1264533996582
              ],
              [
                1.337347388267517,
                39.1264533996582
              ],
              [
                1.651834011077881,
                39.1264533996582
              ],
              [
                1.657540321350098,
                38.997230529785156
              ]
            ]
          ],
          [
            [
              [
                3.197866439819336,
                39.8376350402832
              ],
              [
                3.515789270401001,
                39.77294921875
              ],
              [
                3.295835733413696,
                39.320335388183594
              ],
              [
                2.82365870475769,
                39.320335388183594
              ],
              [
                2.658556938171387,
                39.51427459716797
              ],
              [
                2.346148252487183,
                39.449623107910156
              ],
              [
                2.338095426559448,
                39.64360046386719
              ],
              [
                2.877186298370361,
                39.9670295715332
              ],
              [
                2.956136703491211,
                39.9670295715332
              ],
              [
                3.19298791885376,
                39.9670295715332
              ],
              [
                3.197866439819336,
                39.8376350402832
              ]
            ]
          ],
          [
            [
              [
                15.87384033203125,
                41.71668243408203
              ],
              [
                15.943941116333008,
                41.39224624633789
              ],
              [
                16.732860565185547,
                41.19768524169922
              ],
              [
                17.436086654663086,
                40.873565673828125
              ],
              [
                17.510658264160156,
                40.74397277832031
              ],
              [
                17.981229782104492,
                40.614410400390625
              ],
              [
                18.364234924316406,
                40.29063034057617
              ],
              [
                18.435537338256836,
                40.0964469909668
              ],
              [
                18.356534957885742,
                40.0964469909668
              ],
              [
                18.34894371032715,
                39.90232849121094
              ],
              [
                18.11216926574707,
                39.90232849121094
              ],
              [
                17.813072204589844,
                40.355369567871094
              ],
              [
                17.41753578186035,
                40.355369567871094
              ],
              [
                17.345230102539062,
                40.54964065551758
              ],
              [
                17.02848243713379,
                40.54964065551758
              ],
              [
                16.867990493774414,
                40.4848747253418
              ],
              [
                16.945016860961914,
                40.42012023925781
              ],
              [
                16.861696243286133,
                40.29063034057617
              ],
              [
                16.624452590942383,
                40.29063034057617
              ],
              [
                16.697484970092773,
                40.0964469909668
              ],
              [
                16.45665168762207,
                39.9670295715332
              ],
              [
                16.44725799560547,
                39.64360046386719
              ],
              [
                16.916194915771484,
                39.51427459716797
              ],
              [
                17.069679260253906,
                39.38497543334961
              ],
              [
                17.138301849365234,
                39.06184005737305
              ],
              [
                16.502395629882812,
                38.80344009399414
              ],
              [
                16.491945266723633,
                38.416015625
              ],
              [
                15.932764053344727,
                37.96426773071289
              ],
              [
                15.698192596435547,
                37.96426773071289
              ],
              [
                15.62426471710205,
                38.157840728759766
              ],
              [
                15.389483451843262,
                38.157840728759766
              ],
              [
                15.066489219665527,
                37.641746520996094
              ],
              [
                15.059245109558105,
                37.254878997802734
              ],
              [
                15.213889122009277,
                37.1904182434082
              ],
              [
                15.049844741821289,
                36.73930740356445
              ],
              [
                14.661029815673828,
                36.73930740356445
              ],
              [
                14.27791690826416,
                37.12596130371094
              ],
              [
                13.578389167785645,
                37.254878997802734
              ],
              [
                13.192005157470703,
                37.5772590637207
              ],
              [
                12.490468978881836,
                37.706241607666016
              ],
              [
                12.49189567565918,
                37.89975357055664
              ],
              [
                12.649824142456055,
                38.09331130981445
              ],
              [
                13.040358543395996,
                38.028785705566406
              ],
              [
                13.119925498962402,
                38.157840728759766
              ],
              [
                13.354706764221191,
                38.157840728759766
              ],
              [
                13.665236473083496,
                37.96426773071289
              ],
              [
                14.604636192321777,
                38.028785705566406
              ],
              [
                14.763398170471191,
                38.157840728759766
              ],
              [
                15.862062454223633,
                38.28691864013672
              ],
              [
                15.949724197387695,
                38.67427444458008
              ],
              [
                16.265209197998047,
                38.738853454589844
              ],
              [
                15.898874282836914,
                39.77294921875
              ],
              [
                15.665508270263672,
                39.90232849121094
              ],
              [
                15.747773170471191,
                40.031734466552734
              ],
              [
                15.431868553161621,
                40.031734466552734
              ],
              [
                15.199469566345215,
                40.225894927978516
              ],
              [
                15.041359901428223,
                40.225894927978516
              ],
              [
                14.893351554870605,
                40.6791877746582
              ],
              [
                14.417906761169434,
                40.6791877746582
              ],
              [
                14.421854972839355,
                40.873565673828125
              ],
              [
                14.104567527770996,
                40.873565673828125
              ],
              [
                13.950616836547852,
                41.132843017578125
              ],
              [
                13.791753768920898,
                41.132843017578125
              ],
              [
                13.792884826660156,
                41.19768524169922
              ],
              [
                14.03740406036377,
                41.521995544433594
              ],
              [
                13.96146297454834,
                41.71668243408203
              ],
              [
                13.804443359375,
                41.84651184082031
              ],
              [
                13.40574836730957,
                41.84651184082031
              ],
              [
                13.328027725219727,
                41.97637939453125
              ],
              [
                13.00974178314209,
                42.041324615478516
              ],
              [
                12.856051445007324,
                42.496177673339844
              ],
              [
                13.098980903625488,
                42.691246032714844
              ],
              [
                13.339327812194824,
                42.691246032714844
              ],
              [
                13.583069801330566,
                42.88639831542969
              ],
              [
                13.90514087677002,
                42.95146560668945
              ],
              [
                13.98537540435791,
                42.95146560668945
              ],
              [
                13.901384353637695,
                42.75628662109375
              ],
              [
                14.370945930480957,
                42.236209869384766
              ],
              [
                14.530768394470215,
                42.236209869384766
              ],
              [
                14.607714653015137,
                42.10627746582031
              ],
              [
                14.768959999084473,
                42.17123794555664
              ],
              [
                14.765887260437012,
                42.041324615478516
              ],
              [
                14.9239501953125,
                41.97637939453125
              ],
              [
                15.165011405944824,
                42.041324615478516
              ],
              [
                15.241438865661621,
                41.911441802978516
              ],
              [
                15.640276908874512,
                41.911441802978516
              ],
              [
                15.720044136047363,
                41.911441802978516
              ],
              [
                16.11888313293457,
                41.911441802978516
              ],
              [
                16.114879608154297,
                41.781593322753906
              ],
              [
                15.87384033203125,
                41.71668243408203
              ]
            ]
          ],
          [
            [
              [
                4.302449703216553,
                39.8376350402832
              ],
              [
                3.826826572418213,
                39.90232849121094
              ],
              [
                3.741101741790771,
                40.0964469909668
              ],
              [
                3.820104122161865,
                40.0964469909668
              ],
              [
                4.215116024017334,
                40.0964469909668
              ],
              [
                4.302449703216553,
                39.8376350402832
              ]
            ]
          ],
          [
            [
              [
                9.821690559387207,
                40.74397277832031
              ],
              [
                9.823226928710938,
                40.355369567871094
              ],
              [
                9.665326118469238,
                40.29063034057617
              ],
              [
                9.74737548828125,
                39.64360046386719
              ],
              [
                9.668553352355957,
                39.64360046386719
              ],
              [
                9.592622756958008,
                39.1264533996582
              ],
              [
                9.120378494262695,
                39.19107437133789
              ],
              [
                8.96590518951416,
                38.8680305480957
              ],
              [
                8.730334281921387,
                38.8680305480957
              ],
              [
                8.336196899414062,
                38.997230529785156
              ],
              [
                8.411824226379395,
                39.25570297241211
              ],
              [
                8.333152770996094,
                39.25570297241211
              ],
              [
                8.330102920532227,
                39.51427459716797
              ],
              [
                8.40887451171875,
                39.51427459716797
              ],
              [
                8.48337459564209,
                39.90232849121094
              ],
              [
                8.324762344360352,
                39.9670295715332
              ],
              [
                8.400031089782715,
                40.29063034057617
              ],
              [
                8.32094955444336,
                40.29063034057617
              ],
              [
                8.318660736083984,
                40.4848747253418
              ],
              [
                8.159523010253906,
                40.54964065551758
              ],
              [
                8.154606819152832,
                40.93837356567383
              ],
              [
                8.552037239074707,
                40.873565673828125
              ],
              [
                9.024832725524902,
                41.26253128051758
              ],
              [
                9.10431957244873,
                41.26253128051758
              ],
              [
                9.50210952758789,
                41.19768524169922
              ],
              [
                9.821690559387207,
                40.74397277832031
              ]
            ]
          ],
          [
            [
              [
                1.488844156265259,
                42.56119155883789
              ],
              [
                1.575427651405334,
                42.43117141723633
              ],
              [
                1.80907130241394,
                42.56119155883789
              ],
              [
                2.517835140228271,
                42.82133865356445
              ],
              [
                2.749729871749878,
                43.016544342041016
              ],
              [
                2.829993724822998,
                43.016544342041016
              ],
              [
                2.990521192550659,
                43.016544342041016
              ],
              [
                3.009923458099365,
                42.56119155883789
              ],
              [
                3.178062200546265,
                42.36617660522461
              ],
              [
                3.116764783859253,
                41.911441802978516
              ],
              [
                2.572504997253418,
                41.586883544921875
              ],
              [
                2.333626985549927,
                41.586883544921875
              ],
              [
                2.106574535369873,
                41.32738494873047
              ],
              [
                1.238392949104309,
                41.19768524169922
              ],
              [
                0.695793092250824,
                40.93837356567383
              ],
              [
                0.709256291389465,
                40.6791877746582
              ],
              [
                0.247769102454185,
                40.42012023925781
              ],
              [
                0.182543575763702,
                40.16116714477539
              ],
              [
                -0.126465529203415,
                40.031734466552734
              ],
              [
                -0.345421016216278,
                39.70827102661133
              ],
              [
                -0.313707679510117,
                39.1264533996582
              ],
              [
                0.099359586834908,
                38.738853454589844
              ],
              [
                -0.357796877622604,
                38.48057174682617
              ],
              [
                -0.436175793409348,
                38.48057174682617
              ],
              [
                -0.678330957889557,
                38.60969924926758
              ],
              [
                -0.771014451980591,
                38.8680305480957
              ],
              [
                -1.092494964599609,
                38.997230529785156
              ],
              [
                -1.114913702011108,
                39.38497543334961
              ],
              [
                -1.354927182197571,
                39.449623107910156
              ],
              [
                -1.370439767837524,
                39.70827102661133
              ],
              [
                -1.145419836044312,
                39.90232849121094
              ],
              [
                -1.15704333782196,
                40.0964469909668
              ],
              [
                -1.726450324058533,
                40.355369567871094
              ],
              [
                -1.513591289520264,
                40.74397277832031
              ],
              [
                -2.098877191543579,
                41.19768524169922
              ],
              [
                -2.116528034210205,
                41.45711898803711
              ],
              [
                -1.8821781873703,
                41.521995544433594
              ],
              [
                -1.979450225830078,
                41.781593322753906
              ],
              [
                -1.820028781890869,
                41.781593322753906
              ],
              [
                -1.775568842887878,
                42.30118942260742
              ],
              [
                -2.01993727684021,
                42.36617660522461
              ],
              [
                -2.203093767166138,
                42.691246032714844
              ],
              [
                -1.8391273021698,
                43.211830139160156
              ],
              [
                -1.848402380943298,
                43.342071533203125
              ],
              [
                -1.767988562583923,
                43.342071533203125
              ],
              [
                -1.687574744224548,
                43.342071533203125
              ],
              [
                -1.044264197349548,
                43.342071533203125
              ],
              [
                -0.870625078678131,
                43.146724700927734
              ],
              [
                -0.857915937900543,
                42.95146560668945
              ],
              [
                -0.36845201253891,
                42.82133865356445
              ],
              [
                -0.288277387619019,
                42.82133865356445
              ],
              [
                0.040142297744751,
                42.691246032714844
              ],
              [
                0.196577131748199,
                42.75628662109375
              ],
              [
                0.520835757255554,
                42.691246032714844
              ],
              [
                0.673818349838257,
                42.82133865356445
              ],
              [
                0.994516909122467,
                42.82133865356445
              ],
              [
                1.074691534042358,
                42.82133865356445
              ],
              [
                1.485537886619568,
                42.62621307373047
              ],
              [
                1.488844156265259,
                42.56119155883789
              ]
            ]
          ]
        ]
      }
    }
  ]
}