{
  "type": "FeatureCollection",
  "name": "territory-472",
  "features": [
    {
      "type": "Feature",
      "properties": {
        "Name": "Duchy of Opole",
        "FromYear": 1210,
        "ToYear": 1215,
        "Area": 95120.76228170362,
        "Type": "POLITY",
        "Wikipedia": "Duchy of Opole",
        "Wikidata": "Q661980",
        "SeshatID": "pl_piast_dyn_2",
        "Components": "",
        "MemberOf": "(Duchies of Poland)"
      },
      "geometry": {
        "type": "Polygon",
        "coordinates": [
          [
            [
              19.3398380279541,
              53.86756134033203
            ],
            [
              19.334808349609375,
              53.799922943115234
            ],
            [
              19.421106338500977,
              53.799922943115234
            ],
            [
              19.416046142578125,
              53.732303619384766
            ],
            [
              19.4110050201416,
              53.664710998535156
            ],
            [
              19.497207641601562,
              53.664710998535156
            ],
            [
              19.492136001586914,
              53.597137451171875
            ],
            [
              19.061355590820312,
              53.597137451171875
            ],
            [
              18.965665817260742,
              53.462066650390625
            ],
            [
              18.616859436035156,
              53.39456558227539
            ],
            [
              18.517410278320312,
              53.192195892333984
            ],
            [
              18.689167022705078,
              53.192195892333984
            ],
            [
              18.928207397460938,
              52.92268753051758
            ],
            [
              19.099597930908203,
              52.92268753051758
            ],
            [
              19.4229793548584,
              52.653533935546875
            ],
            [
              19.48443031311035,
              52.31757736206055
            ],
            [
              20.076417922973633,
              52.250450134277344
            ],
            [
              20.06634521484375,
              52.11625671386719
            ],
            [
              20.306482315063477,
              51.91512680053711
            ],
            [
              20.561574935913086,
              51.91512680053711
            ],
            [
              20.72107696533203,
              51.78114318847656
            ],
            [
              20.710599899291992,
              51.64724349975586
            ],
            [
              20.9598445892334,
              51.580322265625
            ],
            [
              20.39165496826172,
              50.77880859375
            ],
            [
              20.218299865722656,
              50.71213912963867
            ],
            [
              20.208925247192383,
              50.578861236572266
            ],
            [
              20.89250946044922,
              50.71213912963867
            ],
            [
              21.0357723236084,
              50.37908172607422
            ],
            [
              21.287996292114258,
              50.37908172607422
            ],
            [
              21.524608612060547,
              50.17946243286133
            ],
            [
              21.51432228088379,
              50.04647445678711
            ],
            [
              21.991121292114258,
              49.71431350708008
            ],
            [
              21.385677337646484,
              49.44889450073242
            ],
            [
              20.95870590209961,
              49.316287994384766
            ],
            [
              20.21193504333496,
              49.38258361816406
            ],
            [
              19.865541458129883,
              49.18375015258789
            ],
            [
              19.472537994384766,
              49.58156967163086
            ],
            [
              19.13038444519043,
              49.44889450073242
            ],
            [
              18.71640396118164,
              49.51522445678711
            ],
            [
              18.316205978393555,
              49.84712600708008
            ],
            [
              18.323387145996094,
              49.98000717163086
            ],
            [
              17.904199600219727,
              49.98000717163086
            ],
            [
              17.24604034423828,
              50.2459831237793
            ],
            [
              17.521461486816406,
              50.71213912963867
            ],
            [
              18.70132827758789,
              50.71213912963867
            ],
            [
              18.709320068359375,
              50.84549331665039
            ],
            [
              18.049345016479492,
              51.112430572509766
            ],
            [
              17.972288131713867,
              51.24601745605469
            ],
            [
              18.079954147338867,
              51.64724349975586
            ],
            [
              18.35076141357422,
              51.91512680053711
            ],
            [
              18.282058715820312,
              52.18334197998047
            ],
            [
              18.286182403564453,
              52.250450134277344
            ],
            [
              18.2009334564209,
              52.250450134277344
            ],
            [
              18.20503044128418,
              52.31757736206055
            ],
            [
              18.209144592285156,
              52.38472366333008
            ],
            [
              18.213274002075195,
              52.4518928527832
            ],
            [
              18.127891540527344,
              52.4518928527832
            ],
            [
              18.050642013549805,
              52.586299896240234
            ],
            [
              17.627155303955078,
              52.653533935546875
            ],
            [
              17.549327850341797,
              52.78806686401367
            ],
            [
              17.124940872192383,
              52.85536575317383
            ],
            [
              16.79631805419922,
              53.124786376953125
            ],
            [
              16.7244930267334,
              53.39456558227539
            ],
            [
              16.90379524230957,
              53.52959060668945
            ],
            [
              17.764890670776367,
              53.52959060668945
            ],
            [
              17.77729606628418,
              53.732303619384766
            ],
            [
              17.53472328186035,
              54.00291442871094
            ],
            [
              17.576114654541016,
              54.681121826171875
            ],
            [
              17.489192962646484,
              54.681121826171875
            ],
            [
              17.49753189086914,
              54.817054748535156
            ],
            [
              17.501720428466797,
              54.88506317138672
            ],
            [
              18.459484100341797,
              54.88506317138672
            ],
            [
              18.44533348083496,
              54.681121826171875
            ],
            [
              18.686851501464844,
              54.4095458984375
            ],
            [
              19.462186813354492,
              54.341712951660156
            ],
            [
              19.355026245117188,
              54.07062530517578
            ],
            [
              19.268539428710938,
              54.07062530517578
            ],
            [
              19.3398380279541,
              53.86756134033203
            ]
          ]
        ]
      }
    }
  ]
}