{
  "type": "FeatureCollection",
  "name": "territory-476",
  "features": [
    {
      "type": "Feature",
      "properties": {
        "Name": "Second Bulgarian Empire",
        "FromYear": 1236,
        "ToYear": 1240,
        "Area": 312295.90138204844,
        "Type": "POLITY",
        "Wikipedia": "Second Bulgarian Empire",
        "Wikidata": "Q420759",
        "SeshatID": "",
        "Components": "",
        "MemberOf": ""
      },
      "geometry": {
        "type": "Polygon",
        "coordinates": [
          [
            [
              29.58445930480957,
              45.431331634521484
            ],
            [
              29.57703399658203,
              45.36587905883789
            ],
            [
              29.658414840698242,
              45.36587905883789
            ],
            [
              29.525348663330078,
              44.908016204833984
            ],
            [
              29.024105072021484,
              44.77729415893555
            ],
            [
              29.04557228088379,
              44.973392486572266
            ],
            [
              28.802005767822266,
              44.973392486572266
            ],
            [
              28.84072494506836,
              44.58129119873047
            ],
            [
              28.576906204223633,
              44.38538360595703
            ],
            [
              28.53555679321289,
              43.99384307861328
            ],
            [
              28.616275787353516,
              43.99384307861328
            ],
            [
              28.48109245300293,
              43.472347259521484
            ],
            [
              28.159194946289062,
              43.472347259521484
            ],
            [
              28.22636604309082,
              43.342071533203125
            ],
            [
              27.89820098876953,
              43.276947021484375
            ],
            [
              27.80489730834961,
              43.146724700927734
            ],
            [
              27.84662628173828,
              42.75628662109375
            ],
            [
              27.513538360595703,
              42.62621307373047
            ],
            [
              27.494890213012695,
              42.43117141723633
            ],
            [
              27.796031951904297,
              42.236209869384766
            ],
            [
              27.783546447753906,
              42.10627746582031
            ],
            [
              28.004253387451172,
              41.911441802978516
            ],
            [
              27.979368209838867,
              41.65177917480469
            ],
            [
              28.21833038330078,
              41.65177917480469
            ],
            [
              28.35875129699707,
              41.45711898803711
            ],
            [
              28.352495193481445,
              41.39224624633789
            ],
            [
              28.107715606689453,
              41.32738494873047
            ],
            [
              27.495437622070312,
              41.586883544921875
            ],
            [
              27.017683029174805,
              41.586883544921875
            ],
            [
              26.336423873901367,
              41.06801223754883
            ],
            [
              26.235448837280273,
              40.80876541137695
            ],
            [
              26.076860427856445,
              40.80876541137695
            ],
            [
              26.082168579101562,
              40.873565673828125
            ],
            [
              25.37845802307129,
              41.00318908691406
            ],
            [
              24.34656524658203,
              41.00318908691406
            ],
            [
              24.010608673095703,
              40.74397277832031
            ],
            [
              23.777311325073242,
              40.80876541137695
            ],
            [
              23.698017120361328,
              40.80876541137695
            ],
            [
              22.59613800048828,
              40.93837356567383
            ],
            [
              22.18745231628418,
              40.74397277832031
            ],
            [
              21.998170852661133,
              40.225894927978516
            ],
            [
              21.358623504638672,
              40.0964469909668
            ],
            [
              21.07770347595215,
              40.74397277832031
            ],
            [
              20.470884323120117,
              41.26253128051758
            ],
            [
              19.526491165161133,
              41.45711898803711
            ],
            [
              19.529659271240234,
              41.521995544433594
            ],
            [
              19.450061798095703,
              41.521995544433594
            ],
            [
              19.54244041442871,
              41.781593322753906
            ],
            [
              19.46272850036621,
              41.781593322753906
            ],
            [
              19.465919494628906,
              41.84651184082031
            ],
            [
              19.63192367553711,
              41.97637939453125
            ],
            [
              19.788190841674805,
              41.911441802978516
            ],
            [
              20.277315139770508,
              42.10627746582031
            ],
            [
              20.516876220703125,
              42.10627746582031
            ],
            [
              20.662006378173828,
              41.84651184082031
            ],
            [
              20.83629035949707,
              42.10627746582031
            ],
            [
              21.235557556152344,
              42.10627746582031
            ],
            [
              21.566965103149414,
              42.30118942260742
            ],
            [
              21.67134666442871,
              42.691246032714844
            ],
            [
              21.51111602783203,
              42.691246032714844
            ],
            [
              20.977392196655273,
              43.146724700927734
            ],
            [
              20.89706802368164,
              43.146724700927734
            ],
            [
              20.83216094970703,
              43.407203674316406
            ],
            [
              20.9126033782959,
              43.407203674316406
            ],
            [
              20.940065383911133,
              43.86341094970703
            ],
            [
              20.717432022094727,
              44.18956756591797
            ],
            [
              19.424442291259766,
              44.18956756591797
            ],
            [
              19.107723236083984,
              44.32010269165039
            ],
            [
              19.299577713012695,
              44.908016204833984
            ],
            [
              19.14055824279785,
              44.973392486572266
            ],
            [
              19.235076904296875,
              45.23500442504883
            ],
            [
              19.885604858398438,
              45.23500442504883
            ],
            [
              20.136940002441406,
              45.36587905883789
            ],
            [
              20.288434982299805,
              45.169586181640625
            ],
            [
              20.5284423828125,
              45.10417556762695
            ],
            [
              20.516931533813477,
              44.908016204833984
            ],
            [
              20.748632431030273,
              44.71194839477539
            ],
            [
              21.40547752380371,
              44.842647552490234
            ],
            [
              21.879146575927734,
              44.64661407470703
            ],
            [
              21.951416015625,
              44.5159797668457
            ],
            [
              22.275287628173828,
              44.5159797668457
            ],
            [
              22.36532974243164,
              44.64661407470703
            ],
            [
              22.689453125,
              44.64661407470703
            ],
            [
              22.946857452392578,
              44.842647552490234
            ],
            [
              23.3206729888916,
              45.496795654296875
            ],
            [
              24.13511848449707,
              45.496795654296875
            ],
            [
              24.466312408447266,
              45.56227111816406
            ],
            [
              24.564184188842773,
              45.75876998901367
            ],
            [
              25.712154388427734,
              45.82429504394531
            ],
            [
              25.950939178466797,
              45.75876998901367
            ],
            [
              26.02040672302246,
              45.62776184082031
            ],
            [
              26.434162139892578,
              45.693260192871094
            ],
            [
              26.979267120361328,
              45.431331634521484
            ],
            [
              27.630565643310547,
              45.431331634521484
            ],
            [
              27.77996253967285,
              45.300437927246094
            ],
            [
              28.281864166259766,
              45.431331634521484
            ],
            [
              28.34939956665039,
              45.300437927246094
            ],
            [
              28.667741775512695,
              45.23500442504883
            ],
            [
              29.095985412597656,
              45.431331634521484
            ],
            [
              29.58445930480957,
              45.431331634521484
            ]
          ]
        ]
      }
    }
  ]
}