{
  "type": "FeatureCollection",
  "name": "territory-477",
  "features": [
    {
      "type": "Feature",
      "properties": {
        "Name": "Principality of Turov and Pinsk",
        "FromYear": 1188,
        "ToYear": 1219,
        "Area": 69507.98556087709,
        "Type": "POLITY",
        "Wikipedia": "Principality of Turov",
        "Wikidata": "Q671362",
        "SeshatID": "",
        "Components": "",
        "MemberOf": ""
      },
      "geometry": {
        "type": "Polygon",
        "coordinates": [
          [
            [
              29.94979476928711,
              53.25962829589844
            ],
            [
              30.03571891784668,
              53.25962829589844
            ],
            [
              29.96209716796875,
              52.78806686401367
            ],
            [
              30.208402633666992,
              52.720787048339844
            ],
            [
              30.166715621948242,
              52.4518928527832
            ],
            [
              30.4664306640625,
              52.18334197998047
            ],
            [
              30.43545913696289,
              51.98215103149414
            ],
            [
              30.58497428894043,
              51.84812545776367
            ],
            [
              30.588598251342773,
              51.31283950805664
            ],
            [
              30.334653854370117,
              51.31283950805664
            ],
            [
              30.26978302001953,
              51.44654083251953
            ],
            [
              29.25299644470215,
              51.44654083251953
            ],
            [
              29.1116943359375,
              51.64724349975586
            ],
            [
              28.941974639892578,
              51.64724349975586
            ],
            [
              28.838560104370117,
              51.51342010498047
            ],
            [
              27.74519920349121,
              51.580322265625
            ],
            [
              27.465105056762695,
              51.37968063354492
            ],
            [
              26.594114303588867,
              51.17921447753906
            ],
            [
              26.493730545043945,
              51.04566955566406
            ],
            [
              25.98684310913086,
              51.04566955566406
            ],
            [
              26.025373458862305,
              51.37968063354492
            ],
            [
              25.5323543548584,
              51.51342010498047
            ],
            [
              25.61762046813965,
              52.250450134277344
            ],
            [
              25.532371520996094,
              52.250450134277344
            ],
            [
              25.564071655273438,
              52.51908493041992
            ],
            [
              25.47864532470703,
              52.51908493041992
            ],
            [
              25.433034896850586,
              52.85536575317383
            ],
            [
              25.441082000732422,
              52.92268753051758
            ],
            [
              25.74785804748535,
              53.32708740234375
            ],
            [
              27.485904693603516,
              53.462066650390625
            ],
            [
              28.48908233642578,
              53.25962829589844
            ],
            [
              28.53204429309086,
              53.25962829589844
            ],
            [
              28.49890899658203,
              53.32708740234375
            ],
            [
              28.584880828857422,
              53.32708740234375
            ],
            [
              28.67085075378418,
              53.32708740234375
            ],
            [
              28.746854782104492,
              53.25962829589844
            ],
            [
              29.7674617767334,
              53.192195892333984
            ],
            [
              29.960405349731445,
              53.32708740234375
            ],
            [
              29.94979476928711,
              53.25962829589844
            ]
          ],
          [
            [
              28.651044845581055,
              53.192195892333984
            ],
            [
              28.65598642254081,
              53.22590311051559
            ],
            [
              28.565166473388672,
              53.192195892333984
            ],
            [
              28.651044845581055,
              53.192195892333984
            ]
          ]
        ]
      }
    }
  ]
}