{
  "type": "FeatureCollection",
  "name": "territory-480",
  "features": [
    {
      "type": "Feature",
      "properties": {
        "Name": "Chimu Empire",
        "FromYear": 1375,
        "ToYear": 1474,
        "Area": 97568.3344910107,
        "Type": "POLITY",
        "Wikipedia": "Chimor",
        "Wikidata": "Q581741",
        "SeshatID": "",
        "Components": "",
        "MemberOf": ""
      },
      "geometry": {
        "type": "MultiPolygon",
        "coordinates": [
          [
            [
              [
                -79.8858413696289,
                -4.793056964874268
              ],
              [
                -79.77394104003906,
                -5.628796100616455
              ],
              [
                -79.56372833251953,
                -5.821659088134766
              ],
              [
                -79.63951873779297,
                -5.885946750640869
              ],
              [
                -79.57843780517578,
                -6.143096923828125
              ],
              [
                -79.43563079833984,
                -6.207384586334229
              ],
              [
                -79.51780700683594,
                -6.400247573852539
              ],
              [
                -79.24207305908203,
                -6.721685886383057
              ],
              [
                -79.40128326416016,
                -6.978836059570312
              ],
              [
                -79.06452178955078,
                -7.493137359619141
              ],
              [
                -78.91497802734375,
                -7.428849697113037
              ],
              [
                -78.8565673828125,
                -7.685999870300293
              ],
              [
                -78.71430969238281,
                -7.750287532806396
              ],
              [
                -78.38801574707031,
                -8.393163681030273
              ],
              [
                -78.23798370361328,
                -8.328875541687012
              ],
              [
                -78.32308197021484,
                -8.52173900604248
              ],
              [
                -78.18111419677734,
                -8.586026191711426
              ],
              [
                -77.85834503173828,
                -9.228901863098145
              ],
              [
                -77.62568664550781,
                -10.064640045166016
              ],
              [
                -77.42082977294922,
                -10.257502555847168
              ],
              [
                -77.5037841796875,
                -10.386076927185059
              ],
              [
                -77.36247253417969,
                -10.45036506652832
              ],
              [
                -77.30946350097656,
                -10.707514762878418
              ],
              [
                -77.16826629638672,
                -10.771801948547363
              ],
              [
                -76.91758728027344,
                -11.286102294921875
              ],
              [
                -76.86619567871094,
                -11.543251991271973
              ],
              [
                -77.10259246826172,
                -11.736114501953125
              ],
              [
                -77.05220794677734,
                -11.993265151977539
              ],
              [
                -77.27194213867188,
                -11.993265151977539
              ],
              [
                -77.31663513183594,
                -11.67182731628418
              ],
              [
                -77.8013687133789,
                -11.35038948059082
              ],
              [
                -77.77444458007812,
                -11.028952598571777
              ],
              [
                -78.35681915283203,
                -10.064640045166016
              ],
              [
                -78.34247589111328,
                -9.871777534484863
              ],
              [
                -78.86370849609375,
                -8.971752166748047
              ],
              [
                -78.97621154785156,
                -8.457450866699219
              ],
              [
                -79.59014129638672,
                -7.750287532806396
              ],
              [
                -79.71047973632812,
                -7.30027437210083
              ],
              [
                -79.85286712646484,
                -7.235986709594727
              ],
              [
                -79.98148345947266,
                -6.914548873901367
              ],
              [
                -80.32960510253906,
                -6.59311056137085
              ],
              [
                -80.47547149658203,
                -6.59311056137085
              ],
              [
                -80.2470703125,
                -6.400247573852539
              ],
              [
                -80.23773193359375,
                -6.207384586334229
              ],
              [
                -80.37152099609375,
                -5.950234413146973
              ],
              [
                -80.517333984375,
                -5.950234413146973
              ],
              [
                -80.4385757446289,
                -5.821659088134766
              ],
              [
                -80.8001937866211,
                -5.757371425628662
              ],
              [
                -80.95478820800781,
                -5.950234413146973
              ],
              [
                -81.17054748535156,
                -5.885946750640869
              ],
              [
                -81.02180480957031,
                -5.821659088134766
              ],
              [
                -81.01318359375,
                -5.628796100616455
              ],
              [
                -81.29094696044922,
                -5.307357788085938
              ],
              [
                -81.27531433105469,
                -4.921631813049316
              ],
              [
                -81.4185562133789,
                -4.857344150543213
              ],
              [
                -81.47466278076172,
                -4.407330989837646
              ],
              [
                -81.16791534423828,
                -3.957317352294922
              ],
              [
                -80.94527435302734,
                -3.828742265701294
              ],
              [
                -80.94126892089844,
                -3.700166940689087
              ],
              [
                -80.64604187011719,
                -3.57159161567688
              ],
              [
                -80.42013549804688,
                -3.314441204071045
              ],
              [
                -80.1270523071289,
                -3.250153541564941
              ],
              [
                -80.12357330322266,
                -3.121578216552734
              ],
              [
                -79.76648712158203,
                -3.378728866577148
              ],
              [
                -79.6190414428711,
                -3.314441204071045
              ],
              [
                -79.70304870605469,
                -3.700166940689087
              ],
              [
                -79.6341552734375,
                -3.828742265701294
              ],
              [
                -79.87181854248047,
                -4.407330989837646
              ],
              [
                -79.80352020263672,
                -4.535906314849854
              ],
              [
                -79.88343811035156,
                -4.728769302368164
              ],
              [
                -79.8858413696289,
                -4.793056964874268
              ]
            ]
          ],
          [
            [
              [
                -79.69186401367188,
                -3.314441204071045
              ],
              [
                -79.76469421386719,
                -3.314441204071045
              ],
              [
                -79.76292419433594,
                -3.250153541564941
              ],
              [
                -79.69009399414062,
                -3.250153541564941
              ],
              [
                -79.69186401367188,
                -3.314441204071045
              ]
            ]
          ]
        ]
      }
    }
  ]
}