{
  "type": "FeatureCollection",
  "name": "territory-487",
  "features": [
    {
      "type": "Feature",
      "properties": {
        "Name": "Khwarezmid Empire",
        "FromYear": 1216,
        "ToYear": 1219,
        "Area": 4017837.3140939083,
        "Type": "POLITY",
        "Wikipedia": "Khwarazmian Empire",
        "Wikidata": "Q63134381",
        "SeshatID": "tm_khwarezmid_emp",
        "Components": "",
        "MemberOf": ""
      },
      "geometry": {
        "type": "Polygon",
        "coordinates": [
          [
            [
              71.85939025878906,
              35.708900451660156
            ],
            [
              71.99385833740234,
              35.32271194458008
            ],
            [
              73.6563949584961,
              34.87228775024414
            ],
            [
              73.64009857177734,
              34.80794906616211
            ],
            [
              72.82071685791016,
              34.614952087402344
            ],
            [
              72.4638671875,
              34.10039138793945
            ],
            [
              71.95632934570312,
              33.90746307373047
            ],
            [
              71.52877807617188,
              33.393062591552734
            ],
            [
              71.4844970703125,
              33.20018768310547
            ],
            [
              71.59382629394531,
              33.00732421875
            ],
            [
              71.22974395751953,
              32.75019073486328
            ],
            [
              71.17280578613281,
              32.493072509765625
            ],
            [
              70.84602355957031,
              32.043148040771484
            ],
            [
              70.59358215332031,
              30.436433792114258
            ],
            [
              70.58108520507812,
              30.372163772583008
            ],
            [
              70.65697479248047,
              30.372163772583008
            ],
            [
              70.39486694335938,
              28.958093643188477
            ],
            [
              70.1657943725586,
              28.508106231689453
            ],
            [
              69.23017120361328,
              27.865236282348633
            ],
            [
              68.52191162109375,
              27.6723690032959
            ],
            [
              68.0865478515625,
              27.2866268157959
            ],
            [
              67.91712188720703,
              26.643707275390625
            ],
            [
              67.99220275878906,
              26.643707275390625
            ],
            [
              68.06137084960938,
              26.06507110595703
            ],
            [
              68.19380187988281,
              25.936485290527344
            ],
            [
              68.21728515625,
              25.55072784423828
            ],
            [
              67.76142883300781,
              24.907808303833008
            ],
            [
              67.53521728515625,
              24.264904022216797
            ],
            [
              67.36372375488281,
              24.07203483581543
            ],
            [
              67.28907775878906,
              24.07203483581543
            ],
            [
              67.32612609863281,
              24.393482208251953
            ],
            [
              67.25143432617188,
              24.393482208251953
            ],
            [
              67.2146987915039,
              24.714935302734375
            ],
            [
              66.63204956054688,
              24.843517303466797
            ],
            [
              66.67909240722656,
              25.229267120361328
            ],
            [
              66.34514617919922,
              25.55072784423828
            ],
            [
              66.02147674560547,
              25.357851028442383
            ],
            [
              64.8160629272461,
              25.29355812072754
            ],
            [
              64.80064392089844,
              25.164974212646484
            ],
            [
              64.2845230102539,
              25.229267120361328
            ],
            [
              64.22502136230469,
              25.357851028442383
            ],
            [
              63.62620544433594,
              25.357851028442383
            ],
            [
              63.536216735839844,
              25.229267120361328
            ],
            [
              62.563419342041016,
              25.229267120361328
            ],
            [
              62.47393035888672,
              25.100683212280273
            ],
            [
              62.18195724487305,
              25.164974212646484
            ],
            [
              62.01787185668945,
              25.03639030456543
            ],
            [
              61.71868133544922,
              25.03639030456543
            ],
            [
              61.65822219848633,
              25.164974212646484
            ],
            [
              61.12736892700195,
              25.100683212280273
            ],
            [
              60.91714859008789,
              25.229267120361328
            ],
            [
              60.617828369140625,
              25.229267120361328
            ],
            [
              60.63211441040039,
              25.357851028442383
            ],
            [
              59.060218811035156,
              25.357851028442383
            ],
            [
              58.78172302246094,
              25.55072784423828
            ],
            [
              57.957984924316406,
              25.55072784423828
            ],
            [
              57.7402229309082,
              25.615020751953125
            ],
            [
              57.67921447753906,
              25.743606567382812
            ],
            [
              57.37953567504883,
              25.743606567382812
            ],
            [
              57.11480712890625,
              26.06507110595703
            ],
            [
              57.05242156982422,
              26.836584091186523
            ],
            [
              56.714656829833984,
              27.158044815063477
            ],
            [
              56.188377380371094,
              27.158044815063477
            ],
            [
              56.098140716552734,
              27.029460906982422
            ],
            [
              56.32361602783203,
              27.029460906982422
            ],
            [
              56.30864334106445,
              26.900876998901367
            ],
            [
              56.06119155883789,
              26.70800018310547
            ],
            [
              55.60341262817383,
              26.643707275390625
            ],
            [
              55.439002990722656,
              26.515121459960938
            ],
            [
              55.28888702392578,
              26.515121459960938
            ],
            [
              55.31023025512695,
              26.70800018310547
            ],
            [
              55.542747497558594,
              26.772293090820312
            ],
            [
              55.242313385009766,
              26.772293090820312
            ],
            [
              54.83156204223633,
              26.450830459594727
            ],
            [
              54.463233947753906,
              26.515121459960938
            ],
            [
              54.25889205932617,
              26.70800018310547
            ],
            [
              53.65812301635742,
              26.70800018310547
            ],
            [
              53.46059036254883,
              26.96516990661621
            ],
            [
              52.736968994140625,
              27.222335815429688
            ],
            [
              52.478694915771484,
              27.608078002929688
            ],
            [
              52.04855728149414,
              27.800947189331055
            ],
            [
              51.5966796875,
              27.800947189331055
            ],
            [
              51.31684494018555,
              27.993812561035156
            ],
            [
              51.331298828125,
              28.12238883972168
            ],
            [
              51.06624984741211,
              28.44382095336914
            ],
            [
              51.028076171875,
              28.765243530273438
            ],
            [
              50.80903244018555,
              28.829526901245117
            ],
            [
              50.9150390625,
              29.08665657043457
            ],
            [
              50.620323181152344,
              29.150936126708984
            ],
            [
              50.65126037597656,
              29.40805435180664
            ],
            [
              50.23628234863281,
              29.729440689086914
            ],
            [
              50.0648078918457,
              30.179353713989258
            ],
            [
              49.585899353027344,
              29.986536026000977
            ],
            [
              48.942848205566406,
              30.307893753051758
            ],
            [
              48.987266540527344,
              30.050809860229492
            ],
            [
              48.67627716064453,
              29.986536026000977
            ],
            [
              48.6004753112793,
              29.986536026000977
            ],
            [
              48.38842010498047,
              30.115081787109375
            ],
            [
              48.41168975830078,
              30.307893753051758
            ],
            [
              48.27554702758789,
              30.436433792114258
            ],
            [
              48.04780960083008,
              30.436433792114258
            ],
            [
              48.103145599365234,
              30.886310577392578
            ],
            [
              47.738956451416016,
              31.014846801757812
            ],
            [
              47.79570007324219,
              31.464719772338867
            ],
            [
              47.97293472290039,
              31.65752601623535
            ],
            [
              47.92181396484375,
              31.8503360748291
            ],
            [
              47.70976638793945,
              31.978878021240234
            ],
            [
              47.72666931152344,
              32.107421875
            ],
            [
              47.58243942260742,
              32.171695709228516
            ],
            [
              47.463706970214844,
              32.428794860839844
            ],
            [
              46.945579528808594,
              32.557350158691406
            ],
            [
              46.682132720947266,
              32.878753662109375
            ],
            [
              46.16311264038086,
              33.00732421875
            ],
            [
              46.137794494628906,
              33.393062591552734
            ],
            [
              45.59275817871094,
              33.90746307373047
            ],
            [
              45.43903350830078,
              33.90746307373047
            ],
            [
              45.64531326293945,
              34.2933349609375
            ],
            [
              45.50016784667969,
              34.3576545715332
            ],
            [
              45.52674102783203,
              34.55062484741211
            ],
            [
              45.535648345947266,
              34.614952087402344
            ],
            [
              45.68980026245117,
              34.614952087402344
            ],
            [
              45.821189880371094,
              35.00096893310547
            ],
            [
              45.6758918762207,
              35.065311431884766
            ],
            [
              45.57151794433594,
              34.87228775024414
            ],
            [
              45.340049743652344,
              34.87228775024414
            ],
            [
              45.203617095947266,
              35.00096893310547
            ],
            [
              45.180519104003906,
              35.38706970214844
            ],
            [
              44.9349250793457,
              35.837650299072266
            ],
            [
              44.88508224487305,
              36.03080368041992
            ],
            [
              44.593360900878906,
              36.15959167480469
            ],
            [
              44.611854553222656,
              36.28839111328125
            ],
            [
              44.53424072265625,
              36.28839111328125
            ],
            [
              44.22026824951172,
              36.80373764038086
            ],
            [
              43.54787826538086,
              36.9970588684082
            ],
            [
              43.360713958740234,
              37.3193473815918
            ],
            [
              43.32033157348633,
              37.5772590637207
            ],
            [
              43.55448913574219,
              37.5772590637207
            ],
            [
              43.5736083984375,
              37.706241607666016
            ],
            [
              44.44255065917969,
              37.7707405090332
            ],
            [
              44.30603790283203,
              37.89975357055664
            ],
            [
              44.45452117919922,
              38.351463317871094
            ],
            [
              44.376190185546875,
              38.351463317871094
            ],
            [
              44.32237243652344,
              38.997230529785156
            ],
            [
              44.52192687988281,
              39.25570297241211
            ],
            [
              44.847415924072266,
              39.320335388183594
            ],
            [
              44.869144439697266,
              39.449623107910156
            ],
            [
              45.64723205566406,
              38.93262481689453
            ],
            [
              46.34311294555664,
              38.8680305480957
            ],
            [
              46.668357849121094,
              38.93262481689453
            ],
            [
              47.4007568359375,
              39.51427459716797
            ],
            [
              47.89728927612305,
              39.64360046386719
            ],
            [
              48.091285705566406,
              39.8376350402832
            ],
            [
              48.722476959228516,
              39.8376350402832
            ],
            [
              48.77663040161133,
              39.70827102661133
            ],
            [
              49.000797271728516,
              39.64360046386719
            ],
            [
              49.030479431152344,
              39.38497543334961
            ],
            [
              49.17570495605469,
              39.320335388183594
            ],
            [
              49.16353225708008,
              39.25570297241211
            ],
            [
              48.91546630859375,
              39.19107437133789
            ],
            [
              48.74217987060547,
              38.67427444458008
            ],
            [
              48.82062911987305,
              38.67427444458008
            ],
            [
              48.82852554321289,
              37.835243225097656
            ],
            [
              49.08510208129883,
              37.51277160644531
            ],
            [
              49.85409164428711,
              37.44829177856445
            ],
            [
              50.320892333984375,
              36.9970588684082
            ],
            [
              50.56571960449219,
              37.06150817871094
            ],
            [
              50.632293701171875,
              36.9970588684082
            ],
            [
              50.53199768066406,
              36.8681755065918
            ],
            [
              51.6419677734375,
              36.5460319519043
            ],
            [
              52.58595275878906,
              36.61045455932617
            ],
            [
              53.488651275634766,
              36.8681755065918
            ],
            [
              54.033294677734375,
              36.8681755065918
            ],
            [
              54.09466552734375,
              37.1904182434082
            ],
            [
              53.91046905517578,
              37.44829177856445
            ],
            [
              53.90790557861328,
              37.835243225097656
            ],
            [
              53.82976150512695,
              37.835243225097656
            ],
            [
              53.98678207397461,
              38.997230529785156
            ],
            [
              53.5175895690918,
              39.38497543334961
            ],
            [
              53.13750457763672,
              39.449623107910156
            ],
            [
              53.54492950439453,
              39.51427459716797
            ],
            [
              53.498451232910156,
              40.031734466552734
            ],
            [
              52.78766632080078,
              40.031734466552734
            ],
            [
              52.778533935546875,
              40.355369567871094
            ],
            [
              52.69942855834961,
              40.355369567871094
            ],
            [
              52.89295959472656,
              40.873565673828125
            ],
            [
              52.97228240966797,
              40.873565673828125
            ],
            [
              52.943321228027344,
              40.74397277832031
            ],
            [
              53.33966064453125,
              40.74397277832031
            ],
            [
              53.448211669921875,
              40.873565673828125
            ],
            [
              53.40435791015625,
              40.6791877746582
            ],
            [
              54.370140075683594,
              40.74397277832031
            ],
            [
              54.38508224487305,
              40.80876541137695
            ],
            [
              56.82743835449219,
              40.74397277832031
            ],
            [
              57.464874267578125,
              41.39224624633789
            ],
            [
              57.56444549560547,
              41.781593322753906
            ],
            [
              57.95698165893555,
              42.36617660522461
            ],
            [
              58.05148696899414,
              43.016544342041016
            ],
            [
              58.337066650390625,
              43.472347259521484
            ],
            [
              58.41754150390625,
              43.472347259521484
            ],
            [
              58.63294982910156,
              43.6678352355957
            ],
            [
              59.1235237121582,
              43.407203674316406
            ],
            [
              60.10750198364258,
              43.472347259521484
            ],
            [
              60.38652801513672,
              43.6026611328125
            ],
            [
              60.600128173828125,
              44.05907440185547
            ],
            [
              60.78084945678711,
              44.12431716918945
            ],
            [
              60.896934509277344,
              44.5159797668457
            ],
            [
              61.38047409057617,
              44.77729415893555
            ],
            [
              61.42001724243164,
              44.908016204833984
            ],
            [
              61.582332611083984,
              44.908016204833984
            ],
            [
              61.72218704223633,
              45.36587905883789
            ],
            [
              61.33523941040039,
              45.431331634521484
            ],
            [
              61.33386993408203,
              45.693260192871094
            ],
            [
              61.25232696533203,
              45.693260192871094
            ],
            [
              61.332855224609375,
              45.95537567138672
            ],
            [
              61.251182556152344,
              45.95537567138672
            ],
            [
              61.5778694152832,
              46.480194091796875
            ],
            [
              61.64111328125,
              46.94007873535156
            ],
            [
              61.55894088745117,
              46.94007873535156
            ],
            [
              61.807525634765625,
              47.20316696166992
            ],
            [
              62.50898361206055,
              47.33478927612305
            ],
            [
              62.87366485595703,
              46.94007873535156
            ],
            [
              63.18081283569336,
              46.87434005737305
            ],
            [
              63.28059768676758,
              46.677207946777344
            ],
            [
              64.26006317138672,
              46.414546966552734
            ],
            [
              64.38053894042969,
              46.283294677734375
            ],
            [
              65.99500274658203,
              46.21768569946289
            ],
            [
              67.0723876953125,
              46.02093505859375
            ],
            [
              67.99406433105469,
              46.08650588989258
            ],
            [
              68.02992248535156,
              45.95537567138672
            ],
            [
              69.4183349609375,
              45.95537567138672
            ],
            [
              69.40646362304688,
              45.693260192871094
            ],
            [
              69.60440063476562,
              45.56227111816406
            ],
            [
              69.5928726196289,
              45.300437927246094
            ],
            [
              69.73235321044922,
              45.23500442504883
            ],
            [
              69.814208984375,
              44.77729415893555
            ],
            [
              69.95333099365234,
              44.71194839477539
            ],
            [
              69.90908813476562,
              44.12431716918945
            ],
            [
              70.07064819335938,
              44.12431716918945
            ],
            [
              70.22176361083984,
              43.86341094970703
            ],
            [
              70.913818359375,
              43.53750228881836
            ],
            [
              73.32496643066406,
              43.08163070678711
            ],
            [
              73.73628234863281,
              42.88639831542969
            ],
            [
              76.47794342041016,
              42.496177673339844
            ],
            [
              76.45387268066406,
              42.43117141723633
            ],
            [
              76.78160858154297,
              42.236209869384766
            ],
            [
              77.0213394165039,
              42.236209869384766
            ],
            [
              76.99729919433594,
              42.17123794555664
            ],
            [
              75.68199157714844,
              41.84651184082031
            ],
            [
              75.55594635009766,
              41.71668243408203
            ],
            [
              75.03215026855469,
              41.586883544921875
            ],
            [
              74.17304229736328,
              40.93837356567383
            ],
            [
              73.23585510253906,
              40.74397277832031
            ],
            [
              73.33053588867188,
              40.54964065551758
            ],
            [
              73.48890686035156,
              40.54964065551758
            ],
            [
              73.5257339477539,
              40.42012023925781
            ],
            [
              73.68400573730469,
              40.42012023925781
            ],
            [
              73.85803985595703,
              40.225894927978516
            ],
            [
              73.81617736816406,
              40.0964469909668
            ],
            [
              73.95331573486328,
              40.031734466552734
            ],
            [
              73.88824462890625,
              39.57893371582031
            ],
            [
              73.85132722867232,
              39.57893371582031
            ],
            [
              72.59966915094975,
              39.5002549444725
            ],
            [
              70.86578138218297,
              38.61909886526316
            ],
            [
              70.28128914851105,
              38.09507134541937
            ],
            [
              70.45007468352375,
              37.276046454210224
            ],
            [
              69.91001128013738,
              36.565436712912366
            ],
            [
              69.45433648462249,
              36.44967209419785
            ],
            [
              70.18359603053702,
              35.435567224248764
            ],
            [
              71.86063501999996,
              35.71981112076791
            ],
            [
              71.86210953020719,
              35.71957201100457
            ],
            [
              71.85939025878906,
              35.708900451660156
            ]
          ]
        ]
      }
    }
  ]
}