{
  "type": "FeatureCollection",
  "name": "territory-49",
  "features": [
    {
      "type": "Feature",
      "properties": {
        "Name": "Yue",
        "FromYear": -450,
        "ToYear": -405,
        "Area": 188595.59671457767,
        "Type": "POLITY",
        "Wikipedia": "Yue (state)",
        "Wikidata": "Q1936158",
        "SeshatID": "cn_yue_dyn",
        "Components": "",
        "MemberOf": "(Warring States China)"
      },
      "geometry": {
        "type": "Polygon",
        "coordinates": [
          [
            [
              117.95987701416016,
              29.536611557006836
            ],
            [
              117.88418579101562,
              29.536611557006836
            ],
            [
              117.90544128417969,
              29.600887298583984
            ],
            [
              117.52689361572266,
              29.600887298583984
            ],
            [
              117.19082641601562,
              29.729440689086914
            ],
            [
              116.73638153076172,
              29.729440689086914
            ],
            [
              116.27002716064453,
              29.922264099121094
            ],
            [
              116.09661102294922,
              30.307893753051758
            ],
            [
              116.1185531616211,
              30.372163772583008
            ],
            [
              116.83740234375,
              30.69350814819336
            ],
            [
              117.10957336425781,
              31.65752601623535
            ],
            [
              118.85423278808594,
              32.81447219848633
            ],
            [
              118.85511779785156,
              33.00732421875
            ],
            [
              118.57463073730469,
              33.07160949707031
            ],
            [
              118.42281341552734,
              33.26447677612305
            ],
            [
              118.37736511230469,
              33.71455001831055
            ],
            [
              118.1469497680664,
              33.71455001831055
            ],
            [
              118.20402526855469,
              34.03607940673828
            ],
            [
              118.07719421386719,
              34.10039138793945
            ],
            [
              118.10889434814453,
              34.3576545715332
            ],
            [
              117.7238998413086,
              34.3576545715332
            ],
            [
              117.96569061279297,
              34.743614196777344
            ],
            [
              118.11992645263672,
              34.743614196777344
            ],
            [
              118.2806625366211,
              34.93662643432617
            ],
            [
              118.43501281738281,
              34.93662643432617
            ],
            [
              118.42839050292969,
              34.743614196777344
            ],
            [
              119.22760772705078,
              34.80794906616211
            ],
            [
              119.30474853515625,
              34.80794906616211
            ],
            [
              119.71125030517578,
              34.679283142089844
            ],
            [
              119.73230743408203,
              34.55062484741211
            ],
            [
              119.98465728759766,
              34.42197799682617
            ],
            [
              120.3418197631836,
              34.3576545715332
            ],
            [
              120.31398010253906,
              34.2933349609375
            ],
            [
              120.48936462402344,
              34.164703369140625
            ],
            [
              120.55045318603516,
              33.5859489440918
            ],
            [
              120.92630004882812,
              33.20018768310547
            ],
            [
              120.91920471191406,
              32.62162780761719
            ],
            [
              121.40264892578125,
              32.493072509765625
            ],
            [
              121.50330352783203,
              32.171695709228516
            ],
            [
              121.78321075439453,
              32.107421875
            ],
            [
              121.98702239990234,
              31.8503360748291
            ],
            [
              121.83556365966797,
              31.65752601623535
            ],
            [
              121.68311309814453,
              31.65752601623535
            ],
            [
              121.58055877685547,
              31.78606605529785
            ],
            [
              120.91914367675781,
              31.8503360748291
            ],
            [
              121.45442962646484,
              31.65752601623535
            ],
            [
              121.48112487792969,
              31.528987884521484
            ],
            [
              121.63350677490234,
              31.528987884521484
            ],
            [
              121.58425903320312,
              31.40045166015625
            ],
            [
              121.73657989501953,
              31.40045166015625
            ],
            [
              121.99526977539062,
              31.079113006591797
            ],
            [
              121.89926147460938,
              30.822044372558594
            ],
            [
              121.51921844482422,
              30.822044372558594
            ],
            [
              121.19719696044922,
              30.564971923828125
            ],
            [
              121.04530334472656,
              30.564971923828125
            ],
            [
              120.67976379394531,
              30.179353713989258
            ],
            [
              120.80880737304688,
              30.115081787109375
            ],
            [
              121.10469055175781,
              30.307893753051758
            ],
            [
              121.48409271240234,
              30.307893753051758
            ],
            [
              121.6202392578125,
              30.050809860229492
            ],
            [
              122.02978515625,
              29.922264099121094
            ],
            [
              121.82032775878906,
              29.536611557006836
            ],
            [
              121.41998291015625,
              29.472333908081055
            ],
            [
              121.3124008178711,
              29.600887298583984
            ],
            [
              120.242431640625,
              29.79371452331543
            ],
            [
              119.77836608886719,
              29.986536026000977
            ],
            [
              119.22569274902344,
              29.922264099121094
            ],
            [
              118.35970306396484,
              29.600887298583984
            ],
            [
              117.98114776611328,
              29.600887298583984
            ],
            [
              117.95987701416016,
              29.536611557006836
            ]
          ]
        ]
      }
    }
  ]
}