{
  "type": "FeatureCollection",
  "name": "territory-490",
  "features": [
    {
      "type": "Feature",
      "properties": {
        "Name": "Latin Empire",
        "FromYear": 1220,
        "ToYear": 1226,
        "Area": 92635.08162205353,
        "Type": "POLITY",
        "Wikipedia": "Latin Empire",
        "Wikidata": "Q178897",
        "SeshatID": "tr_latin_emp",
        "Components": "",
        "MemberOf": ""
      },
      "geometry": {
        "type": "MultiPolygon",
        "coordinates": [
          [
            [
              [
                26.304851531982422,
                37.5772590637207
              ],
              [
                25.988245010375977,
                37.51277160644531
              ],
              [
                26.079580307006836,
                37.706241607666016
              ],
              [
                26.157678604125977,
                37.706241607666016
              ],
              [
                26.313875198364258,
                37.706241607666016
              ],
              [
                26.304851531982422,
                37.5772590637207
              ]
            ]
          ],
          [
            [
              [
                27.012035369873047,
                37.641746520996094
              ],
              [
                26.62165641784668,
                37.641746520996094
              ],
              [
                26.55739402770996,
                37.835243225097656
              ],
              [
                26.635540008544922,
                37.835243225097656
              ],
              [
                27.026260375976562,
                37.835243225097656
              ],
              [
                27.012035369873047,
                37.641746520996094
              ]
            ]
          ],
          [
            [
              [
                26.111188888549805,
                38.157840728759766
              ],
              [
                25.876405715942383,
                38.157840728759766
              ],
              [
                25.89913558959961,
                38.48057174682617
              ],
              [
                25.820756912231445,
                38.48057174682617
              ],
              [
                25.912982940673828,
                38.67427444458008
              ],
              [
                25.99143409729004,
                38.67427444458008
              ],
              [
                26.217344284057617,
                38.54513168334961
              ],
              [
                26.111188888549805,
                38.157840728759766
              ]
            ]
          ],
          [
            [
              [
                24.662033081054688,
                38.738853454589844
              ],
              [
                24.35651969909668,
                38.8680305480957
              ],
              [
                24.364974975585938,
                38.997230529785156
              ],
              [
                24.443546295166016,
                38.997230529785156
              ],
              [
                24.674930572509766,
                38.93262481689453
              ],
              [
                24.662033081054688,
                38.738853454589844
              ]
            ]
          ],
          [
            [
              [
                26.643573760986328,
                38.997230529785156
              ],
              [
                26.24588966369629,
                38.93262481689453
              ],
              [
                26.09356689453125,
                38.997230529785156
              ],
              [
                26.103172302246094,
                39.1264533996582
              ],
              [
                25.793418884277344,
                39.19107437133789
              ],
              [
                26.043895721435547,
                39.38497543334961
              ],
              [
                26.122615814208984,
                39.38497543334961
              ],
              [
                26.511207580566406,
                39.320335388183594
              ],
              [
                26.643573760986328,
                38.997230529785156
              ]
            ]
          ],
          [
            [
              [
                25.447328567504883,
                39.8376350402832
              ],
              [
                24.973936080932617,
                39.8376350402832
              ],
              [
                25.066978454589844,
                40.031734466552734
              ],
              [
                25.145954132080078,
                40.031734466552734
              ],
              [
                25.46186065673828,
                40.031734466552734
              ],
              [
                25.447328567504883,
                39.8376350402832
              ]
            ]
          ],
          [
            [
              [
                26.024850845336914,
                40.16116714477539
              ],
              [
                25.703752517700195,
                40.0964469909668
              ],
              [
                25.718765258789062,
                40.29063034057617
              ],
              [
                25.7978458404541,
                40.29063034057617
              ],
              [
                26.03508949279785,
                40.29063034057617
              ],
              [
                26.024850845336914,
                40.16116714477539
              ]
            ]
          ],
          [
            [
              [
                30.783035278320312,
                41.06801223754883
              ],
              [
                30.862438201904297,
                41.06801223754883
              ],
              [
                30.1801700592041,
                40.614410400390625
              ],
              [
                29.863313674926758,
                40.614410400390625
              ],
              [
                29.19214630126953,
                40.225894927978516
              ],
              [
                28.468833923339844,
                40.0964469909668
              ],
              [
                28.36083221435547,
                39.77294921875
              ],
              [
                28.02853012084961,
                39.57893371582031
              ],
              [
                26.841400146484375,
                39.51427459716797
              ],
              [
                26.84657859802246,
                39.57893371582031
              ],
              [
                26.132457733154297,
                39.51427459716797
              ],
              [
                26.2723331451416,
                40.29063034057617
              ],
              [
                26.441082000732422,
                40.42012023925781
              ],
              [
                27.46982192993164,
                40.42012023925781
              ],
              [
                27.537628173828125,
                40.29063034057617
              ],
              [
                27.695789337158203,
                40.29063034057617
              ],
              [
                27.792133331298828,
                40.4848747253418
              ],
              [
                27.950454711914062,
                40.4848747253418
              ],
              [
                27.938817977905273,
                40.355369567871094
              ],
              [
                29.046321868896484,
                40.355369567871094
              ],
              [
                28.900379180908203,
                40.4848747253418
              ],
              [
                28.91274642944336,
                40.614410400390625
              ],
              [
                29.3944091796875,
                40.6791877746582
              ],
              [
                29.493009567260742,
                40.873565673828125
              ],
              [
                29.24864959716797,
                40.80876541137695
              ],
              [
                29.10276222229004,
                40.93837356567383
              ],
              [
                29.115554809570312,
                41.06801223754883
              ],
              [
                27.527481079101562,
                41.06801223754883
              ],
              [
                26.842208862304688,
                40.4848747253418
              ],
              [
                26.779464721679688,
                40.6791877746582
              ],
              [
                26.62644386291504,
                40.74397277832031
              ],
              [
                26.140260696411133,
                40.614410400390625
              ],
              [
                26.082168579101562,
                40.873565673828125
              ],
              [
                25.532054901123047,
                40.93837356567383
              ],
              [
                25.45270538330078,
                40.93837356567383
              ],
              [
                25.637502670288086,
                41.26253128051758
              ],
              [
                25.240070343017578,
                41.26253128051758
              ],
              [
                25.091272354125977,
                41.39224624633789
              ],
              [
                23.575407028198242,
                41.32738494873047
              ],
              [
                22.688053131103516,
                41.132843017578125
              ],
              [
                22.358091354370117,
                40.93837356567383
              ],
              [
                22.27874183654785,
                40.93837356567383
              ],
              [
                22.282779693603516,
                41.00318908691406
              ],
              [
                22.28683090209961,
                41.06801223754883
              ],
              [
                22.207427978515625,
                41.06801223754883
              ],
              [
                22.21146583557129,
                41.132843017578125
              ],
              [
                22.215518951416016,
                41.19768524169922
              ],
              [
                22.240123748779297,
                41.586883544921875
              ],
              [
                22.160497665405273,
                41.586883544921875
              ],
              [
                22.248430252075195,
                41.71668243408203
              ],
              [
                23.031967163085938,
                41.521995544433594
              ],
              [
                23.386966705322266,
                42.041324615478516
              ],
              [
                23.711017608642578,
                42.10627746582031
              ],
              [
                23.96516990661621,
                42.30118942260742
              ],
              [
                24.529844284057617,
                42.36617660522461
              ],
              [
                25.558517456054688,
                42.236209869384766
              ],
              [
                25.707355499267578,
                42.10627746582031
              ],
              [
                26.10662269592285,
                42.10627746582031
              ],
              [
                26.175209045410156,
                41.97637939453125
              ],
              [
                26.414596557617188,
                41.97637939453125
              ],
              [
                26.59154510498047,
                42.17123794555664
              ],
              [
                26.831192016601562,
                42.17123794555664
              ],
              [
                27.50109100341797,
                42.496177673339844
              ],
              [
                27.494890213012695,
                42.43117141723633
              ],
              [
                27.936981201171875,
                42.041324615478516
              ],
              [
                28.052820205688477,
                41.586883544921875
              ],
              [
                28.21833038330078,
                41.65177917480469
              ],
              [
                28.352495193481445,
                41.39224624633789
              ],
              [
                28.975934982299805,
                41.26253128051758
              ],
              [
                28.969518661499023,
                41.19768524169922
              ],
              [
                30.47923469543457,
                41.19768524169922
              ],
              [
                30.783035278320312,
                41.06801223754883
              ]
            ]
          ]
        ]
      }
    }
  ]
}