{
  "type": "FeatureCollection",
  "name": "territory-495",
  "features": [
    {
      "type": "Feature",
      "properties": {
        "Name": "(Allegiance of Delhi Sultanate to Abbasid Caliphate)",
        "FromYear": 1250,
        "ToYear": 1259,
        "Area": 1505800.5243121812,
        "Type": "RELATION",
        "Wikipedia": "Delhi Sultanate",
        "Wikidata": "Q229411",
        "SeshatID": "in_delhi_sultanate;iq_abbasid_cal_2",
        "Components": "Mamluk Dynasty;Abbasid Caliphate;(Delhi Sultanate)",
        "MemberOf": ""
      },
      "geometry": {
        "type": "MultiPolygon",
        "coordinates": [
          [
            [
              [
                79.650390625,
                23.30057144165039
              ],
              [
                79.53402709960938,
                22.97913360595703
              ],
              [
                79.3768081665039,
                22.914846420288086
              ],
              [
                77.54969024658203,
                22.59341049194336
              ],
              [
                77.52561815861395,
                22.59341049194336
              ],
              [
                77.45313368401412,
                23.63233942129137
              ],
              [
                76.45828004619712,
                23.63233942129137
              ],
              [
                76.65725077376051,
                23.348095524772226
              ],
              [
                75.71924591524734,
                23.149124797208827
              ],
              [
                75.26445568081671,
                22.97857845929734
              ],
              [
                75.09390934290522,
                22.77960773173394
              ],
              [
                74.52542154986695,
                22.864880900689684
              ],
              [
                74.20210425039886,
                23.237939323152847
              ],
              [
                74.16651916503906,
                23.557723999023438
              ],
              [
                74.09194946289062,
                23.557723999023438
              ],
              [
                74.0982666015625,
                24.200613021850586
              ],
              [
                74.02359771728516,
                24.200613021850586
              ],
              [
                74.33035278320312,
                25.8721923828125
              ],
              [
                74.25540924072266,
                25.8721923828125
              ],
              [
                74.30402374267578,
                26.19365882873535
              ],
              [
                74.22901916503906,
                26.19365882873535
              ],
              [
                74.3094711303711,
                26.70800018310547
              ],
              [
                74.20068359375,
                26.96516990661621
              ],
              [
                73.6308364868164,
                27.158044815063477
              ],
              [
                72.80382537841797,
                27.158044815063477
              ],
              [
                72.31193542480469,
                26.900876998901367
              ],
              [
                72.10218048095703,
                26.515121459960938
              ],
              [
                71.97466278076172,
                25.100683212280273
              ],
              [
                71.4587173461914,
                24.586353302001953
              ],
              [
                70.76207733154297,
                24.393482208251953
              ],
              [
                70.58902740478516,
                24.200613021850586
              ],
              [
                69.0506591796875,
                23.814878463745117
              ],
              [
                68.6776351928711,
                23.814878463745117
              ],
              [
                68.42479705810547,
                23.557723999023438
              ],
              [
                68.12652587890625,
                23.557723999023438
              ],
              [
                68.15538787841797,
                23.814878463745117
              ],
              [
                67.49114990234375,
                23.879167556762695
              ],
              [
                67.43836975097656,
                24.07203483581543
              ],
              [
                67.36372375488281,
                24.07203483581543
              ],
              [
                67.53521728515625,
                24.264904022216797
              ],
              [
                67.76142883300781,
                24.907808303833008
              ],
              [
                68.21728515625,
                25.55072784423828
              ],
              [
                68.19380187988281,
                25.936485290527344
              ],
              [
                68.06137084960938,
                26.06507110595703
              ],
              [
                67.99220275878906,
                26.643707275390625
              ],
              [
                67.91712188720703,
                26.643707275390625
              ],
              [
                68.0865478515625,
                27.2866268157959
              ],
              [
                68.52191162109375,
                27.6723690032959
              ],
              [
                69.23017120361328,
                27.865236282348633
              ],
              [
                69.4979248046875,
                28.12238883972168
              ],
              [
                69.73467254638672,
                28.186676025390625
              ],
              [
                69.75604248046875,
                28.315250396728516
              ],
              [
                70.1657943725586,
                28.508106231689453
              ],
              [
                70.39486694335938,
                28.958093643188477
              ],
              [
                70.84602355957031,
                32.043148040771484
              ],
              [
                71.17280578613281,
                32.493072509765625
              ],
              [
                71.22974395751953,
                32.75019073486328
              ],
              [
                71.59382629394531,
                33.00732421875
              ],
              [
                71.4844970703125,
                33.20018768310547
              ],
              [
                71.52877807617188,
                33.393062591552734
              ],
              [
                72.1407699584961,
                34.03607940673828
              ],
              [
                72.4638671875,
                34.10039138793945
              ],
              [
                72.4175033569336,
                33.90746307373047
              ],
              [
                73.07823181152344,
                33.77885055541992
              ],
              [
                73.20095825195312,
                33.65024948120117
              ],
              [
                73.15493774414062,
                33.45735549926758
              ],
              [
                74.02940368652344,
                33.26447677612305
              ],
              [
                74.38238525390625,
                32.81447219848633
              ],
              [
                74.67338562011719,
                32.75019073486328
              ],
              [
                74.70465087890625,
                32.557350158691406
              ],
              [
                74.9040298461914,
                32.428794860839844
              ],
              [
                75.20977020263672,
                32.428794860839844
              ],
              [
                75.33260345458984,
                32.30024337768555
              ],
              [
                76.4021987915039,
                32.30024337768555
              ],
              [
                76.52459716796875,
                32.171695709228516
              ],
              [
                77.04389953613281,
                32.107421875
              ],
              [
                77.30365753173828,
                31.91460609436035
              ],
              [
                78.0361099243164,
                31.78606605529785
              ],
              [
                78.4480209350586,
                31.593257904052734
              ],
              [
                78.43291473388672,
                31.528987884521484
              ],
              [
                78.22080993652344,
                31.271915435791016
              ],
              [
                77.9015884399414,
                31.20764923095703
              ],
              [
                77.61511993408203,
                30.950578689575195
              ],
              [
                77.22660064697266,
                29.857990264892578
              ],
              [
                77.85149383544922,
                29.21521759033203
              ],
              [
                78.5427474975586,
                28.893810272216797
              ],
              [
                78.59268951416016,
                28.765243530273438
              ],
              [
                78.88200378417969,
                28.700960159301758
              ],
              [
                78.93211364746094,
                28.572391510009766
              ],
              [
                79.83744812011719,
                28.186676025390625
              ],
              [
                80.27729034423828,
                28.12238883972168
              ],
              [
                80.40313720703125,
                27.993812561035156
              ],
              [
                81.97351837158203,
                27.54378890991211
              ],
              [
                82.86630249023438,
                27.093751907348633
              ],
              [
                84.15892028808594,
                26.772293090820312
              ],
              [
                84.48697662353516,
                26.515121459960938
              ],
              [
                86.30399322509766,
                26.19365882873535
              ],
              [
                87.42899322509766,
                26.19365882873535
              ],
              [
                88.74291229248047,
                26.000778198242188
              ],
              [
                90.02947235107422,
                26.06507110595703
              ],
              [
                90.29296875,
                25.8721923828125
              ],
              [
                90.39512634277344,
                25.615020751953125
              ],
              [
                90.33695983886719,
                25.29355812072754
              ],
              [
                89.97022247314453,
                24.907808303833008
              ],
              [
                89.96919250488281,
                24.457773208618164
              ],
              [
                90.13041687011719,
                24.07203483581543
              ],
              [
                90.67623138427734,
                23.75058937072754
              ],
              [
                90.64187622070312,
                23.043420791625977
              ],
              [
                90.5385513305664,
                22.85055923461914
              ],
              [
                90.68748474121094,
                22.85055923461914
              ],
              [
                90.79834747314453,
                22.59341049194336
              ],
              [
                90.93775177001953,
                22.529123306274414
              ],
              [
                90.86321258544922,
                22.014829635620117
              ],
              [
                90.6309814453125,
                21.950544357299805
              ],
              [
                90.64935302734375,
                22.079116821289062
              ],
              [
                90.42626953125,
                22.079116821289062
              ],
              [
                90.23202514648438,
                21.7576847076416
              ],
              [
                89.89663696289062,
                22.014829635620117
              ],
              [
                89.86945343017578,
                21.821969985961914
              ],
              [
                89.71179962158203,
                21.7576847076416
              ],
              [
                89.11725616455078,
                21.7576847076416
              ],
              [
                89.09945678710938,
                21.629112243652344
              ],
              [
                88.72795104980469,
                21.629112243652344
              ],
              [
                88.71597290039062,
                22.079116821289062
              ],
              [
                88.64161682128906,
                22.079116821289062
              ],
              [
                88.51387023925781,
                21.693397521972656
              ],
              [
                88.3652572631836,
                21.693397521972656
              ],
              [
                88.34766387939453,
                21.5648250579834
              ],
              [
                88.133544921875,
                21.629112243652344
              ],
              [
                88.17765045166016,
                21.950544357299805
              ],
              [
                88.10330963134766,
                21.950544357299805
              ],
              [
                87.76203918457031,
                21.629112243652344
              ],
              [
                87.2246322631836,
                21.500539779663086
              ],
              [
                86.9301380275828,
                21.307680130004883
              ],
              [
                86.98596336352487,
                21.642632145657373
              ],
              [
                86.58802190839808,
                22.125846769739915
              ],
              [
                86.549728609266,
                22.44495759584056
              ],
              [
                86.20784569680372,
                22.609061393822454
              ],
              [
                85.5825091244616,
                22.694334562778195
              ],
              [
                85.04244572107523,
                22.182695549043743
              ],
              [
                84.55923109699268,
                21.955300431828427
              ],
              [
                84.04759208325822,
                22.04057360078417
              ],
              [
                83.63511689628359,
                21.892082533473303
              ],
              [
                83.6427001953125,
                21.950544357299805
              ],
              [
                82.84148406982422,
                22.079116821289062
              ],
              [
                82.42017364501953,
                22.271976470947266
              ],
              [
                82.36246490478516,
                22.400548934936523
              ],
              [
                81.9327163696289,
                22.529123306274414
              ],
              [
                81.7430419921875,
                22.786272048950195
              ],
              [
                81.25567626953125,
                23.043420791625977
              ],
              [
                81.08382415771484,
                23.429147720336914
              ],
              [
                80.87762451171875,
                23.557723999023438
              ],
              [
                80.8952407836914,
                23.68630027770996
              ],
              [
                80.6801330957411,
                23.749279445757715
              ],
              [
                80.75494875648297,
                23.741797879683528
              ],
              [
                82.55549833702034,
                23.875171922686295
              ],
              [
                82.93339145886151,
                24.297523058861724
              ],
              [
                83.57803266670822,
                24.386439087530235
              ],
              [
                83.02230748753003,
                24.786561216538537
              ],
              [
                82.46658230835183,
                24.831019230872794
              ],
              [
                81.39958996432969,
                25.364515402883864
              ],
              [
                81.04392584965564,
                25.72017951755791
              ],
              [
                80.75494875648297,
                25.764637531892166
              ],
              [
                80.04362052713489,
                26.14253065373334
              ],
              [
                79.55458236945807,
                25.94246958922919
              ],
              [
                79.53235336229095,
                25.6312634888894
              ],
              [
                78.82102513294285,
                25.09776731687833
              ],
              [
                78.82102513294285,
                24.386439087530235
              ],
              [
                79.31006329061967,
                23.29721773634097
              ],
              [
                79.53235336229095,
                23.40836277217661
              ],
              [
                79.90486299272133,
                23.532532648986734
              ],
              [
                79.89962005615234,
                23.493436813354492
              ],
              [
                79.82506561279297,
                23.493436813354492
              ],
              [
                79.81649017333984,
                23.429147720336914
              ],
              [
                79.650390625,
                23.30057144165039
              ]
            ]
          ],
          [
            [
              [
                45.180519104003906,
                35.38706970214844
              ],
              [
                45.203617095947266,
                35.00096893310547
              ],
              [
                45.340049743652344,
                34.87228775024414
              ],
              [
                45.57151794433594,
                34.87228775024414
              ],
              [
                45.6758918762207,
                35.065311431884766
              ],
              [
                45.821189880371094,
                35.00096893310547
              ],
              [
                45.68980026245117,
                34.614952087402344
              ],
              [
                45.535648345947266,
                34.614952087402344
              ],
              [
                45.50016784667969,
                34.3576545715332
              ],
              [
                45.64531326293945,
                34.2933349609375
              ],
              [
                45.43903350830078,
                33.90746307373047
              ],
              [
                45.59275817871094,
                33.90746307373047
              ],
              [
                46.137794494628906,
                33.393062591552734
              ],
              [
                46.231224060058594,
                32.94303894042969
              ],
              [
                46.682132720947266,
                32.878753662109375
              ],
              [
                46.945579528808594,
                32.557350158691406
              ],
              [
                47.31937026977539,
                32.493072509765625
              ],
              [
                47.599449157714844,
                32.30024337768555
              ],
              [
                47.58243942260742,
                32.171695709228516
              ],
              [
                47.98128890991211,
                31.7217960357666
              ],
              [
                47.79570007324219,
                31.464719772338867
              ],
              [
                47.738956451416016,
                31.014846801757812
              ],
              [
                48.103145599365234,
                30.886310577392578
              ],
              [
                48.04780960083008,
                30.436433792114258
              ],
              [
                48.27554702758789,
                30.436433792114258
              ],
              [
                48.41168975830078,
                30.307893753051758
              ],
              [
                48.38842010498047,
                30.115081787109375
              ],
              [
                48.6004753112793,
                29.986536026000977
              ],
              [
                48.592803955078125,
                29.922264099121094
              ],
              [
                48.14566421508789,
                29.986536026000977
              ],
              [
                48.069862365722656,
                29.986536026000977
              ],
              [
                47.570716857910156,
                29.600887298583984
              ],
              [
                47.45903015136719,
                29.279497146606445
              ],
              [
                47.383392333984375,
                29.279497146606445
              ],
              [
                47.10211944580078,
                29.472333908081055
              ],
              [
                46.868003845214844,
                29.40805435180664
              ],
              [
                46.74504852294922,
                29.665164947509766
              ],
              [
                46.58648681640625,
                29.600887298583984
              ],
              [
                46.53215789794922,
                29.79371452331543
              ],
              [
                46.09901428222656,
                29.986536026000977
              ],
              [
                45.55000686645508,
                30.500701904296875
              ],
              [
                45.39815139770508,
                30.500701904296875
              ],
              [
                44.79490280151367,
                31.20764923095703
              ],
              [
                44.63529586791992,
                31.143381118774414
              ],
              [
                44.657562255859375,
                31.336183547973633
              ],
              [
                44.44402313232422,
                31.464719772338867
              ],
              [
                44.459014892578125,
                31.593257904052734
              ],
              [
                43.152584075927734,
                32.81447219848633
              ],
              [
                42.708534240722656,
                32.94303894042969
              ],
              [
                42.578269958496094,
                33.13589859008789
              ],
              [
                42.355987548828125,
                33.20018768310547
              ],
              [
                42.36363983154297,
                33.26447677612305
              ],
              [
                42.57145309448242,
                33.71455001831055
              ],
              [
                42.89459991455078,
                33.84315490722656
              ],
              [
                43.242584228515625,
                34.164703369140625
              ],
              [
                43.39646530151367,
                34.164703369140625
              ],
              [
                43.660587310791016,
                34.42197799682617
              ],
              [
                43.81462097167969,
                34.42197799682617
              ],
              [
                43.92555618286133,
                34.679283142089844
              ],
              [
                44.1740608215332,
                34.80794906616211
              ],
              [
                44.40733337402344,
                35.38706970214844
              ],
              [
                44.898380279541016,
                35.58015823364258
              ],
              [
                44.9349250793457,
                35.837650299072266
              ],
              [
                45.180519104003906,
                35.38706970214844
              ]
            ]
          ]
        ]
      }
    }
  ]
}