{
  "type": "FeatureCollection",
  "name": "territory-497",
  "features": [
    {
      "type": "Feature",
      "properties": {
        "Name": "(Personal union of Holy Roman Empire with Kingdom of Sicily)",
        "FromYear": 1250,
        "ToYear": 1259,
        "Area": 1117429.4907363583,
        "Type": "RELATION",
        "Wikipedia": "Frederick II, Holy Roman Emperor",
        "Wikidata": "Q130221",
        "SeshatID": "de_empire_2;it_sicily_k_2",
        "Components": "Kingdom of Sicily;Kingdom of Bohemia;(Holy Roman Empire);Holy Roman Empire;(Kingdom of Bohemia);Teutonic Order",
        "MemberOf": ""
      },
      "geometry": {
        "type": "MultiPolygon",
        "coordinates": [
          [
            [
              [
                14.568227767944336,
                35.77327346801758
              ],
              [
                14.33681869506836,
                35.837650299072266
              ],
              [
                14.339592933654785,
                36.03080368041992
              ],
              [
                14.417119026184082,
                36.03080368041992
              ],
              [
                14.571182250976562,
                35.9664192199707
              ],
              [
                14.568227767944336,
                35.77327346801758
              ]
            ]
          ],
          [
            [
              [
                15.87384033203125,
                41.71668243408203
              ],
              [
                15.943941116333008,
                41.39224624633789
              ],
              [
                16.732860565185547,
                41.19768524169922
              ],
              [
                17.436086654663086,
                40.873565673828125
              ],
              [
                17.510658264160156,
                40.74397277832031
              ],
              [
                17.981229782104492,
                40.614410400390625
              ],
              [
                18.364234924316406,
                40.29063034057617
              ],
              [
                18.435537338256836,
                40.0964469909668
              ],
              [
                18.356534957885742,
                40.0964469909668
              ],
              [
                18.34894371032715,
                39.90232849121094
              ],
              [
                18.11216926574707,
                39.90232849121094
              ],
              [
                17.813072204589844,
                40.355369567871094
              ],
              [
                17.41753578186035,
                40.355369567871094
              ],
              [
                17.345230102539062,
                40.54964065551758
              ],
              [
                17.02848243713379,
                40.54964065551758
              ],
              [
                16.867990493774414,
                40.4848747253418
              ],
              [
                16.945016860961914,
                40.42012023925781
              ],
              [
                16.861696243286133,
                40.29063034057617
              ],
              [
                16.624452590942383,
                40.29063034057617
              ],
              [
                16.697484970092773,
                40.0964469909668
              ],
              [
                16.45665168762207,
                39.9670295715332
              ],
              [
                16.44725799560547,
                39.64360046386719
              ],
              [
                16.916194915771484,
                39.51427459716797
              ],
              [
                17.069679260253906,
                39.38497543334961
              ],
              [
                17.138301849365234,
                39.06184005737305
              ],
              [
                16.502395629882812,
                38.80344009399414
              ],
              [
                16.491945266723633,
                38.416015625
              ],
              [
                15.932764053344727,
                37.96426773071289
              ],
              [
                15.698192596435547,
                37.96426773071289
              ],
              [
                15.62426471710205,
                38.157840728759766
              ],
              [
                15.389483451843262,
                38.157840728759766
              ],
              [
                15.066489219665527,
                37.641746520996094
              ],
              [
                15.059245109558105,
                37.254878997802734
              ],
              [
                15.213889122009277,
                37.1904182434082
              ],
              [
                15.049844741821289,
                36.73930740356445
              ],
              [
                14.661029815673828,
                36.73930740356445
              ],
              [
                14.27791690826416,
                37.12596130371094
              ],
              [
                13.578389167785645,
                37.254878997802734
              ],
              [
                13.192005157470703,
                37.5772590637207
              ],
              [
                12.490468978881836,
                37.706241607666016
              ],
              [
                12.49189567565918,
                37.89975357055664
              ],
              [
                12.649824142456055,
                38.09331130981445
              ],
              [
                13.040358543395996,
                38.028785705566406
              ],
              [
                13.119925498962402,
                38.157840728759766
              ],
              [
                13.354706764221191,
                38.157840728759766
              ],
              [
                13.665236473083496,
                37.96426773071289
              ],
              [
                14.604636192321777,
                38.028785705566406
              ],
              [
                14.763398170471191,
                38.157840728759766
              ],
              [
                15.862062454223633,
                38.28691864013672
              ],
              [
                15.949724197387695,
                38.67427444458008
              ],
              [
                16.265209197998047,
                38.738853454589844
              ],
              [
                15.898874282836914,
                39.77294921875
              ],
              [
                15.665508270263672,
                39.90232849121094
              ],
              [
                15.747773170471191,
                40.031734466552734
              ],
              [
                15.431868553161621,
                40.031734466552734
              ],
              [
                15.199469566345215,
                40.225894927978516
              ],
              [
                15.041359901428223,
                40.225894927978516
              ],
              [
                14.893351554870605,
                40.6791877746582
              ],
              [
                14.417906761169434,
                40.6791877746582
              ],
              [
                14.421854972839355,
                40.873565673828125
              ],
              [
                14.104567527770996,
                40.873565673828125
              ],
              [
                13.950616836547852,
                41.132843017578125
              ],
              [
                13.791753768920898,
                41.132843017578125
              ],
              [
                13.792884826660156,
                41.19768524169922
              ],
              [
                14.03740406036377,
                41.521995544433594
              ],
              [
                13.96146297454834,
                41.71668243408203
              ],
              [
                13.804443359375,
                41.84651184082031
              ],
              [
                13.327016830444336,
                41.911441802978516
              ],
              [
                13.328027725219727,
                41.97637939453125
              ],
              [
                13.00974178314209,
                42.041324615478516
              ],
              [
                12.931666374206543,
                42.17123794555664
              ],
              [
                12.296512603759766,
                42.56119155883789
              ],
              [
                12.301782608032227,
                43.08163070678711
              ],
              [
                12.141195297241211,
                43.08163070678711
              ],
              [
                12.224648475646973,
                43.407203674316406
              ],
              [
                11.82194709777832,
                43.342071533203125
              ],
              [
                11.820984840393066,
                43.211830139160156
              ],
              [
                11.981149673461914,
                43.146724700927734
              ],
              [
                12.0580472946167,
                42.75628662109375
              ],
              [
                11.736565589904785,
                42.62621307373047
              ],
              [
                11.574831008911133,
                42.36617660522461
              ],
              [
                11.494861602783203,
                42.36617660522461
              ],
              [
                11.1754732131958,
                42.496177673339844
              ],
              [
                11.175962448120117,
                42.62621307373047
              ],
              [
                11.015789985656738,
                42.62621307373047
              ],
              [
                11.01634693145752,
                42.82133865356445
              ],
              [
                10.85624885559082,
                42.95146560668945
              ],
              [
                10.776015281677246,
                42.95146560668945
              ],
              [
                10.776388168334961,
                43.211830139160156
              ],
              [
                10.615739822387695,
                43.342071533203125
              ],
              [
                10.696523666381836,
                43.79821014404297
              ],
              [
                10.212483406066895,
                43.92862319946289
              ],
              [
                10.212339401245117,
                43.99384307861328
              ],
              [
                10.131620407104492,
                43.99384307861328
              ],
              [
                10.13144302368164,
                44.05907440185547
              ],
              [
                10.05069351196289,
                44.05907440185547
              ],
              [
                10.050901412963867,
                43.99384307861328
              ],
              [
                9.970182418823242,
                43.99384307861328
              ],
              [
                9.969943046569824,
                44.05907440185547
              ],
              [
                9.969700813293457,
                44.12431716918945
              ],
              [
                9.64546012878418,
                44.32010269165039
              ],
              [
                9.644309997558594,
                44.5159797668457
              ],
              [
                9.481462478637695,
                44.64661407470703
              ],
              [
                9.157340049743652,
                44.64661407470703
              ],
              [
                9.156752586364746,
                44.71194839477539
              ],
              [
                8.994627952575684,
                44.71194839477539
              ],
              [
                8.914925575256348,
                44.58129119873047
              ],
              [
                8.590126037597656,
                44.64661407470703
              ],
              [
                8.349712371826172,
                44.45067596435547
              ],
              [
                8.35147476196289,
                44.32010269165039
              ],
              [
                8.352349281311035,
                44.25482940673828
              ],
              [
                8.271506309509277,
                44.25482940673828
              ],
              [
                8.272406578063965,
                44.18956756591797
              ],
              [
                8.191595077514648,
                44.18956756591797
              ],
              [
                8.192523002624512,
                44.12431716918945
              ],
              [
                7.545100212097168,
                44.18956756591797
              ],
              [
                7.310199737548828,
                43.79821014404297
              ],
              [
                7.229573249816895,
                43.79821014404297
              ],
              [
                6.993107318878174,
                43.53750228881836
              ],
              [
                6.67255163192749,
                43.472347259521484
              ],
              [
                6.517646789550781,
                43.211830139160156
              ],
              [
                6.278174877166748,
                43.146724700927734
              ],
              [
                5.796233177185059,
                43.146724700927734
              ],
              [
                5.631923198699951,
                43.276947021484375
              ],
              [
                5.390771865844727,
                43.276947021484375
              ],
              [
                5.386905193328857,
                43.407203674316406
              ],
              [
                5.063065528869629,
                43.472347259521484
              ],
              [
                4.338796615600586,
                43.472347259521484
              ],
              [
                4.414638042449951,
                43.6026611328125
              ],
              [
                4.41231107711792,
                43.6678352355957
              ],
              [
                4.725685596466064,
                43.92862319946289
              ],
              [
                4.476603984832764,
                44.12431716918945
              ],
              [
                4.469520568847656,
                44.32010269165039
              ],
              [
                4.057530879974365,
                44.5159797668457
              ],
              [
                3.966166257858276,
                44.77729415893555
              ],
              [
                3.96091890335083,
                44.908016204833984
              ],
              [
                4.123232841491699,
                44.908016204833984
              ],
              [
                4.359247207641602,
                45.10417556762695
              ],
              [
                4.351718902587891,
                45.300437927246094
              ],
              [
                4.593333721160889,
                45.36587905883789
              ],
              [
                4.504523754119873,
                45.56227111816406
              ],
              [
                5.07259464263916,
                45.62776184082031
              ],
              [
                5.295057773590088,
                46.283294677734375
              ],
              [
                5.292815208435059,
                46.348915100097656
              ],
              [
                5.37468433380127,
                46.348915100097656
              ],
              [
                5.372467994689941,
                46.414546966552734
              ],
              [
                5.432206630706787,
                47.07159423828125
              ],
              [
                5.594502449035645,
                47.13737487792969
              ],
              [
                5.576864242553711,
                47.664100646972656
              ],
              [
                5.822384834289551,
                47.730003356933594
              ],
              [
                5.818123817443848,
                47.86185836791992
              ],
              [
                5.646180152893066,
                48.059749603271484
              ],
              [
                5.480661869049072,
                48.059749603271484
              ],
              [
                5.47376823425293,
                48.257774353027344
              ],
              [
                5.305657386779785,
                48.323814392089844
              ],
              [
                5.303273677825928,
                48.38986587524414
              ],
              [
                4.883440971374512,
                48.52202224731445
              ],
              [
                4.865273475646973,
                48.98506164550781
              ],
              [
                5.026719093322754,
                49.11750411987305
              ],
              [
                4.679802417755127,
                49.44889450073242
              ],
              [
                4.576823711395264,
                49.91355895996094
              ],
              [
                4.154837608337402,
                49.98000717163086
              ],
              [
                4.071000099182129,
                49.98000717163086
              ],
              [
                3.987162351608276,
                49.98000717163086
              ],
              [
                3.984085559844971,
                50.04647445678711
              ],
              [
                3.900208711624146,
                50.04647445678711
              ],
              [
                3.816332101821899,
                50.04647445678711
              ],
              [
                3.813170909881592,
                50.11296081542969
              ],
              [
                3.729254722595215,
                50.11296081542969
              ],
              [
                3.726047992706299,
                50.17946243286133
              ],
              [
                3.64209246635437,
                50.17946243286133
              ],
              [
                3.541608572006226,
                50.51224899291992
              ],
              [
                3.700162887573242,
                50.71213912963867
              ],
              [
                4.034165859222412,
                50.77880859375
              ],
              [
                4.103085994720459,
                51.112430572509766
              ],
              [
                3.254344463348389,
                51.17921447753906
              ],
              [
                3.159067630767822,
                51.37968063354492
              ],
              [
                3.155481338500977,
                51.44654083251953
              ],
              [
                3.74860668182373,
                51.44654083251953
              ],
              [
                3.40621018409729,
                51.51342010498047
              ],
              [
                3.399252653121948,
                51.64724349975586
              ],
              [
                3.738690614700317,
                51.64724349975586
              ],
              [
                3.647099733352661,
                51.78114318847656
              ],
              [
                3.81699013710022,
                51.78114318847656
              ],
              [
                3.810401916503906,
                51.91512680053711
              ],
              [
                3.980464458465576,
                51.91512680053711
              ],
              [
                3.974021434783936,
                52.0491943359375
              ],
              [
                4.223166942596436,
                52.18334197998047
              ],
              [
                4.21693229675293,
                52.31757736206055
              ],
              [
                4.463808536529541,
                52.51908493041992
              ],
              [
                4.454747676849365,
                52.720787048339844
              ],
              [
                4.699799060821533,
                52.99003219604492
              ],
              [
                4.871281623840332,
                52.99003219604492
              ],
              [
                4.970867156982422,
                52.653533935546875
              ],
              [
                5.390830039978027,
                52.85536575317383
              ],
              [
                5.385728359222412,
                52.99003219604492
              ],
              [
                5.20894193649292,
                53.124786376953125
              ],
              [
                5.542333602905273,
                53.39456558227539
              ],
              [
                6.226210117340088,
                53.52959060668945
              ],
              [
                6.916844367980957,
                53.462066650390625
              ],
              [
                6.913325786590576,
                53.597137451171875
              ],
              [
                7.082295417785645,
                53.732303619384766
              ],
              [
                7.944795608520508,
                53.732303619384766
              ],
              [
                8.032201766967773,
                53.664710998535156
              ],
              [
                7.94840145111084,
                53.52959060668945
              ],
              [
                8.120620727539062,
                53.52959060668945
              ],
              [
                8.204607963562012,
                53.664710998535156
              ],
              [
                8.37701416015625,
                53.664710998535156
              ],
              [
                8.459527015686035,
                53.93522644042969
              ],
              [
                8.892172813415527,
                53.86756134033203
              ],
              [
                8.80289077758789,
                54.138362884521484
              ],
              [
                8.802155494689941,
                54.20612335205078
              ],
              [
                8.887362480163574,
                54.341712951660156
              ],
              [
                9.148486137390137,
                54.20612335205078
              ],
              [
                9.927618026733398,
                54.27390670776367
              ],
              [
                10.187621116638184,
                54.47740173339844
              ],
              [
                10.274396896362305,
                54.47740173339844
              ],
              [
                11.054854393005371,
                54.4095458984375
              ],
              [
                11.053302764892578,
                54.20612335205078
              ],
              [
                10.879310607910156,
                54.07062530517578
              ],
              [
                11.138218879699707,
                54.00291442871094
              ],
              [
                11.397537231445312,
                54.00291442871094
              ],
              [
                11.398930549621582,
                54.138362884521484
              ],
              [
                12.006754875183105,
                54.27390670776367
              ],
              [
                12.093385696411133,
                54.27390670776367
              ],
              [
                12.177742958068848,
                54.138362884521484
              ],
              [
                12.695535659790039,
                54.07062530517578
              ],
              [
                13.389228820800781,
                54.138362884521484
              ],
              [
                13.475763320922852,
                54.138362884521484
              ],
              [
                13.737363815307617,
                54.20612335205078
              ],
              [
                13.819864273071289,
                54.07062530517578
              ],
              [
                14.165812492370605,
                54.07062530517578
              ],
              [
                14.159177780151367,
                53.86756134033203
              ],
              [
                13.98438835144043,
                53.799922943115234
              ],
              [
                14.499796867370605,
                53.732303619384766
              ],
              [
                14.50934886932373,
                54.00291442871094
              ],
              [
                15.036103248596191,
                54.20612335205078
              ],
              [
                15.991765975952148,
                54.27390670776367
              ],
              [
                16.619972229003906,
                54.681121826171875
              ],
              [
                17.410511016845703,
                54.817054748535156
              ],
              [
                17.49753189086914,
                54.817054748535156
              ],
              [
                17.489192962646484,
                54.681121826171875
              ],
              [
                17.576114654541016,
                54.681121826171875
              ],
              [
                17.53472328186035,
                54.00291442871094
              ],
              [
                17.77729606628418,
                53.732303619384766
              ],
              [
                17.764890670776367,
                53.52959060668945
              ],
              [
                16.90379524230957,
                53.52959060668945
              ],
              [
                16.476667404174805,
                53.597137451171875
              ],
              [
                16.208393096923828,
                53.39456558227539
              ],
              [
                15.439932823181152,
                53.52959060668945
              ],
              [
                15.34544563293457,
                53.32708740234375
              ],
              [
                14.731513977050781,
                52.99003219604492
              ],
              [
                14.476561546325684,
                53.057395935058594
              ],
              [
                14.481132507324219,
                53.192195892333984
              ],
              [
                14.133414268493652,
                53.057395935058594
              ],
              [
                14.125114440917969,
                52.78806686401367
              ],
              [
                14.548598289489746,
                52.653533935546875
              ],
              [
                14.537419319152832,
                52.31757736206055
              ],
              [
                14.956645011901855,
                52.11625671386719
              ],
              [
                14.951874732971191,
                51.98215103149414
              ],
              [
                14.607197761535645,
                51.84812545776367
              ],
              [
                14.602863311767578,
                51.71418380737305
              ],
              [
                14.517960548400879,
                51.71418380737305
              ],
              [
                14.515852928161621,
                51.64724349975586
              ],
              [
                14.600712776184082,
                51.64724349975586
              ],
              [
                14.76379108428955,
                51.44654083251953
              ],
              [
                14.933256149291992,
                51.44654083251953
              ],
              [
                15.19472885131836,
                51.64724349975586
              ],
              [
                15.534167289733887,
                51.64724349975586
              ],
              [
                15.528964042663574,
                51.51342010498047
              ],
              [
                15.693191528320312,
                51.37968063354492
              ],
              [
                15.680119514465332,
                51.04566955566406
              ],
              [
                15.930866241455078,
                50.97892379760742
              ],
              [
                15.928181648254395,
                50.912200927734375
              ],
              [
                15.925511360168457,
                50.84549331665039
              ],
              [
                15.922855377197266,
                50.77880859375
              ],
              [
                17.24604034423828,
                50.2459831237793
              ],
              [
                17.904199600219727,
                49.98000717163086
              ],
              [
                18.323387145996094,
                49.98000717163086
              ],
              [
                18.316205978393555,
                49.84712600708008
              ],
              [
                18.71640396118164,
                49.51522445678711
              ],
              [
                18.378620147705078,
                49.44889450073242
              ],
              [
                17.938142776489258,
                48.98506164550781
              ],
              [
                16.927988052368164,
                48.72037124633789
              ],
              [
                16.829010009765625,
                48.323814392089844
              ],
              [
                16.911911010742188,
                48.323814392089844
              ],
              [
                16.984167098999023,
                48.059749603271484
              ],
              [
                16.48518943786621,
                47.993770599365234
              ],
              [
                16.3150634765625,
                47.86185836791992
              ],
              [
                16.303508758544922,
                47.53233337402344
              ],
              [
                16.138551712036133,
                47.53233337402344
              ],
              [
                16.123157501220703,
                47.07159423828125
              ],
              [
                15.864084243774414,
                46.677207946777344
              ],
              [
                16.01764488220215,
                46.348915100097656
              ],
              [
                15.604452133178711,
                46.21768569946289
              ],
              [
                15.678460121154785,
                45.95537567138672
              ],
              [
                15.264768600463867,
                45.75876998901367
              ],
              [
                15.339118957519531,
                45.496795654296875
              ],
              [
                14.44612979888916,
                45.62776184082031
              ],
              [
                14.277569770812988,
                45.36587905883789
              ],
              [
                14.196189880371094,
                45.36587905883789
              ],
              [
                14.189410209655762,
                45.03877639770508
              ],
              [
                14.026969909667969,
                45.03877639770508
              ],
              [
                13.945749282836914,
                45.03877639770508
              ],
              [
                13.628785133361816,
                45.496795654296875
              ],
              [
                13.710229873657227,
                45.496795654296875
              ],
              [
                13.714865684509277,
                45.75876998901367
              ],
              [
                13.144780158996582,
                45.82429504394531
              ],
              [
                13.061376571655273,
                45.693260192871094
              ],
              [
                12.9815673828125,
                45.82429504394531
              ],
              [
                12.818355560302734,
                45.82429504394531
              ],
              [
                12.736748695373535,
                45.82429504394531
              ],
              [
                12.164421081542969,
                45.693260192871094
              ],
              [
                12.000378608703613,
                45.56227111816406
              ],
              [
                11.998926162719727,
                45.36587905883789
              ],
              [
                12.161685943603516,
                45.36587905883789
              ],
              [
                12.161133766174316,
                45.300437927246094
              ],
              [
                12.160021781921387,
                45.169586181640625
              ],
              [
                12.40256118774414,
                45.03877639770508
              ],
              [
                12.399906158447266,
                44.77729415893555
              ],
              [
                12.157197952270508,
                44.842647552490234
              ],
              [
                12.153728485107422,
                44.45067596435547
              ],
              [
                12.312999725341797,
                44.18956756591797
              ],
              [
                12.873446464538574,
                43.79821014404297
              ],
              [
                13.035634994506836,
                43.86341094970703
              ],
              [
                13.033763885498047,
                43.73301696777344
              ],
              [
                13.355091094970703,
                43.6678352355957
              ],
              [
                13.672640800476074,
                43.407203674316406
              ],
              [
                13.747068405151367,
                43.08163070678711
              ],
              [
                13.906397819519043,
                43.016544342041016
              ],
              [
                13.90514087677002,
                42.95146560668945
              ],
              [
                13.98537540435791,
                42.95146560668945
              ],
              [
                13.901384353637695,
                42.75628662109375
              ],
              [
                14.370945930480957,
                42.236209869384766
              ],
              [
                14.530768394470215,
                42.236209869384766
              ],
              [
                14.607714653015137,
                42.10627746582031
              ],
              [
                14.768959999084473,
                42.17123794555664
              ],
              [
                14.765887260437012,
                42.041324615478516
              ],
              [
                14.9239501953125,
                41.97637939453125
              ],
              [
                15.165011405944824,
                42.041324615478516
              ],
              [
                15.241438865661621,
                41.911441802978516
              ],
              [
                15.640276908874512,
                41.911441802978516
              ],
              [
                15.720044136047363,
                41.911441802978516
              ],
              [
                16.11888313293457,
                41.911441802978516
              ],
              [
                16.114879608154297,
                41.781593322753906
              ],
              [
                15.87384033203125,
                41.71668243408203
              ]
            ],
            [
              [
                8.112674713134766,
                48.98506164550781
              ],
              [
                8.029407501220703,
                48.98506164550781
              ],
              [
                8.030611038208008,
                48.91886520385742
              ],
              [
                8.11384105682373,
                48.91886520385742
              ],
              [
                8.112674713134766,
                48.98506164550781
              ]
            ]
          ],
          [
            [
              [
                22.434797286987305,
                53.732303619384766
              ],
              [
                22.428112030029297,
                53.664710998535156
              ],
              [
                22.42144775390625,
                53.597137451171875
              ],
              [
                21.28936767578125,
                53.462066650390625
              ],
              [
                20.927749633789062,
                53.25962829589844
              ],
              [
                20.66997718811035,
                53.25962829589844
              ],
              [
                20.395845413208008,
                53.057395935058594
              ],
              [
                19.724811553955078,
                53.25962829589844
              ],
              [
                19.628786087036133,
                53.124786376953125
              ],
              [
                19.099597930908203,
                52.92268753051758
              ],
              [
                18.928207397460938,
                52.92268753051758
              ],
              [
                18.689167022705078,
                53.192195892333984
              ],
              [
                18.517410278320312,
                53.192195892333984
              ],
              [
                18.526348114013672,
                53.32708740234375
              ],
              [
                18.965665817260742,
                53.462066650390625
              ],
              [
                19.061355590820312,
                53.597137451171875
              ],
              [
                19.40597915649414,
                53.597137451171875
              ],
              [
                19.421106338500977,
                53.799922943115234
              ],
              [
                19.25849151611328,
                53.93522644042969
              ],
              [
                19.375507354736328,
                54.341712951660156
              ],
              [
                19.462186813354492,
                54.341712951660156
              ],
              [
                19.559396743774414,
                54.47740173339844
              ],
              [
                19.819725036621094,
                54.47740173339844
              ],
              [
                19.830615997314453,
                54.613189697265625
              ],
              [
                20.009929656982422,
                54.681121826171875
              ],
              [
                21.64201545715332,
                54.47740173339844
              ],
              [
                21.982484817504883,
                54.4095458984375
              ],
              [
                21.882652282714844,
                54.27390670776367
              ],
              [
                22.275545120239258,
                53.86756134033203
              ],
              [
                22.268911361694336,
                53.799922943115234
              ],
              [
                22.355207443237305,
                53.799922943115234
              ],
              [
                22.348546981811523,
                53.732303619384766
              ],
              [
                22.434797286987305,
                53.732303619384766
              ]
            ]
          ],
          [
            [
              [
                21.68853187561035,
                56.731075286865234
              ],
              [
                21.77698516845703,
                56.731075286865234
              ],
              [
                21.769948959350586,
                56.662349700927734
              ],
              [
                21.681549072265625,
                56.662349700927734
              ],
              [
                21.68853187561035,
                56.731075286865234
              ]
            ]
          ],
          [
            [
              [
                25.766841888427734,
                56.799827575683594
              ],
              [
                25.94385528564453,
                56.799827575683594
              ],
              [
                26.18030548095703,
                56.59365463256836
              ],
              [
                26.072818756103516,
                56.45634460449219
              ],
              [
                26.318201065063477,
                56.319149017333984
              ],
              [
                26.367769241333008,
                56.04508590698242
              ],
              [
                26.80741310119629,
                56.04508590698242
              ],
              [
                27.091259002685547,
                56.182064056396484
              ],
              [
                26.92516326904297,
                56.25059127807617
              ],
              [
                26.86699676513672,
                56.45634460449219
              ],
              [
                26.59242820739746,
                56.387733459472656
              ],
              [
                26.455169677734375,
                56.662349700927734
              ],
              [
                26.82892417907715,
                56.799827575683594
              ],
              [
                27.182950973510742,
                56.799827575683594
              ],
              [
                27.162372589111328,
                56.662349700927734
              ],
              [
                27.791820526123047,
                56.731075286865234
              ],
              [
                27.880273818969727,
                56.731075286865234
              ],
              [
                28.123947143554688,
                56.59365463256836
              ],
              [
                28.14765167236328,
                56.182064056396484
              ],
              [
                27.971586227416992,
                56.182064056396484
              ],
              [
                27.470035552978516,
                55.77145767211914
              ],
              [
                26.865774154663086,
                55.83982467651367
              ],
              [
                26.583187103271484,
                55.70311737060547
              ],
              [
                25.8309326171875,
                55.97663879394531
              ],
              [
                25.761505126953125,
                56.11355972290039
              ],
              [
                25.066509246826172,
                56.182064056396484
              ],
              [
                24.82863998413086,
                56.387733459472656
              ],
              [
                24.1064510345459,
                56.25059127807617
              ],
              [
                22.190176010131836,
                56.45634460449219
              ],
              [
                22.19741439819336,
                56.524986267089844
              ],
              [
                21.844234466552734,
                56.524986267089844
              ],
              [
                21.769948959350586,
                56.662349700927734
              ],
              [
                21.86543846130371,
                56.731075286865234
              ],
              [
                21.695531845092773,
                56.799827575683594
              ],
              [
                21.57248306274414,
                56.45634460449219
              ],
              [
                21.56563377380371,
                56.387733459472656
              ],
              [
                20.916179656982422,
                56.04508590698242
              ],
              [
                20.92256736755371,
                56.11355972290039
              ],
              [
                20.866546630859375,
                56.45634460449219
              ],
              [
                20.954788208007812,
                56.45634460449219
              ],
              [
                20.987478256225586,
                56.799827575683594
              ],
              [
                21.24626350402832,
                56.731075286865234
              ],
              [
                21.232851028442383,
                56.59365463256836
              ],
              [
                21.41634750366211,
                56.662349700927734
              ],
              [
                21.36885643005371,
                57.07511901855469
              ],
              [
                21.280134201049805,
                57.07511901855469
              ],
              [
                21.307584762573242,
                57.35087585449219
              ],
              [
                21.506582260131836,
                57.55800247192383
              ],
              [
                21.677616119384766,
                57.488929748535156
              ],
              [
                21.649137496948242,
                57.21294021606445
              ],
              [
                22.00445556640625,
                57.21294021606445
              ],
              [
                22.204421997070312,
                57.41988754272461
              ],
              [
                22.374841690063477,
                57.35087585449219
              ],
              [
                22.746185302734375,
                57.488929748535156
              ],
              [
                22.672710418701172,
                57.62710189819336
              ],
              [
                22.851024627685547,
                57.62710189819336
              ],
              [
                23.40944480895996,
                57.07511901855469
              ],
              [
                23.667341232299805,
                57.00625228881836
              ],
              [
                23.473756790161133,
                56.86860656738281
              ],
              [
                23.739437103271484,
                56.86860656738281
              ],
              [
                23.81141471862793,
                56.731075286865234
              ],
              [
                24.439241409301758,
                56.799827575683594
              ],
              [
                24.527748107910156,
                56.799827575683594
              ],
              [
                25.50132179260254,
                56.799827575683594
              ],
              [
                25.69721221923828,
                56.937416076660156
              ],
              [
                25.766841888427734,
                56.799827575683594
              ]
            ]
          ],
          [
            [
              [
                26.83169937133789,
                58.59769821166992
              ],
              [
                26.731124877929688,
                58.528167724609375
              ],
              [
                26.678424835205078,
                58.180992126464844
              ],
              [
                26.768028259277344,
                58.180992126464844
              ],
              [
                26.73659324645996,
                57.97305679321289
              ],
              [
                27.105005264282227,
                58.042335510253906
              ],
              [
                27.273202896118164,
                57.97305679321289
              ],
              [
                27.251724243164062,
                57.8345832824707
              ],
              [
                27.43037223815918,
                57.8345832824707
              ],
              [
                27.398048400878906,
                57.62710189819336
              ],
              [
                27.198556900024414,
                57.488929748535156
              ],
              [
                27.255897521972656,
                57.28189468383789
              ],
              [
                26.89006996154785,
                57.21294021606445
              ],
              [
                26.643869400024414,
                57.35087585449219
              ],
              [
                25.942115783691406,
                57.41988754272461
              ],
              [
                25.961698532104492,
                57.55800247192383
              ],
              [
                25.42708396911621,
                57.55800247192383
              ],
              [
                25.32855987548828,
                57.488929748535156
              ],
              [
                25.487674713134766,
                57.35087585449219
              ],
              [
                25.361310958862305,
                57.07511901855469
              ],
              [
                24.447917938232422,
                56.86860656738281
              ],
              [
                23.9417724609375,
                57.07511901855469
              ],
              [
                24.144969940185547,
                57.28189468383789
              ],
              [
                24.402847290039062,
                57.21294021606445
              ],
              [
                24.60722541809082,
                57.41988754272461
              ],
              [
                24.78520965576172,
                57.41988754272461
              ],
              [
                24.72332763671875,
                57.62710189819336
              ],
              [
                24.990800857543945,
                57.62710189819336
              ],
              [
                24.920066833496094,
                57.7653923034668
              ],
              [
                25.009334564208984,
                57.7653923034668
              ],
              [
                25.027973175048828,
                57.903804779052734
              ],
              [
                24.59926414489746,
                58.042335510253906
              ],
              [
                24.232419967651367,
                57.97305679321289
              ],
              [
                24.38495445251465,
                58.45867156982422
              ],
              [
                24.583101272583008,
                58.59769821166992
              ],
              [
                24.592384338378906,
                58.66725540161133
              ],
              [
                24.971494674682617,
                58.80647277832031
              ],
              [
                25.18093490600586,
                59.015533447265625
              ],
              [
                25.732818603515625,
                59.08528518676758
              ],
              [
                25.954833984375,
                59.36461639404297
              ],
              [
                26.136001586914062,
                59.36461639404297
              ],
              [
                26.153352737426758,
                58.876129150390625
              ],
              [
                26.42387580871582,
                58.876129150390625
              ],
              [
                26.535289764404297,
                59.015533447265625
              ],
              [
                27.110170364379883,
                59.22488784790039
              ],
              [
                27.370315551757812,
                59.15507125854492
              ],
              [
                27.359094619750977,
                59.08528518676758
              ],
              [
                27.404638290405273,
                58.80647277832031
              ],
              [
                26.964920043945312,
                58.876129150390625
              ],
              [
                26.874746322631836,
                58.876129150390625
              ],
              [
                26.932416915893555,
                58.66725540161133
              ],
              [
                26.75241470336914,
                58.66725540161133
              ],
              [
                26.83169937133789,
                58.59769821166992
              ]
            ]
          ],
          [
            [
              [
                22.432353973388672,
                58.66725540161133
              ],
              [
                22.882360458374023,
                58.66725540161133
              ],
              [
                22.76801872253418,
                58.45867156982422
              ],
              [
                22.93134117126465,
                58.31977081298828
              ],
              [
                22.287872314453125,
                58.180992126464844
              ],
              [
                22.078466415405273,
                57.903804779052734
              ],
              [
                21.899707794189453,
                57.903804779052734
              ],
              [
                22.01906394958496,
                58.180992126464844
              ],
              [
                21.93695068359375,
                58.2503662109375
              ],
              [
                22.213611602783203,
                58.31977081298828
              ],
              [
                22.303327560424805,
                58.31977081298828
              ],
              [
                22.50644874572754,
                58.528167724609375
              ],
              [
                22.432353973388672,
                58.66725540161133
              ]
            ]
          ],
          [
            [
              [
                23.666316986083984,
                58.45867156982422
              ],
              [
                23.486656188964844,
                58.45867156982422
              ],
              [
                23.43092918395996,
                58.73685073852539
              ],
              [
                23.619747161865234,
                58.80647277832031
              ],
              [
                23.709863662719727,
                58.80647277832031
              ],
              [
                23.872373580932617,
                58.66725540161133
              ],
              [
                23.68366241455078,
                58.59769821166992
              ],
              [
                23.666316986083984,
                58.45867156982422
              ]
            ]
          ],
          [
            [
              [
                22.381933212280273,
                59.015533447265625
              ],
              [
                22.389917373657227,
                59.08528518676758
              ],
              [
                22.841659545898438,
                59.08528518676758
              ],
              [
                22.898815155029297,
                58.80647277832031
              ],
              [
                22.381933212280273,
                59.015533447265625
              ]
            ]
          ]
        ]
      }
    }
  ]
}