{
  "type": "FeatureCollection",
  "name": "territory-509",
  "features": [
    {
      "type": "Feature",
      "properties": {
        "Name": "Capetian House of Anjou",
        "FromYear": 1260,
        "ToYear": 1271,
        "Area": 59602.58385221244,
        "Type": "POLITY",
        "Wikipedia": "Capetian House of Anjou",
        "Wikidata": "Q939200",
        "SeshatID": "fr_capetian_k_2",
        "Components": "",
        "MemberOf": "(Kingdom of France)"
      },
      "geometry": {
        "type": "MultiPolygon",
        "coordinates": [
          [
            [
              [
                6.968075275421143,
                44.71194839477539
              ],
              [
                6.895741939544678,
                44.32010269165039
              ],
              [
                7.465495109558105,
                44.12431716918945
              ],
              [
                7.466696262359619,
                44.05907440185547
              ],
              [
                6.993107318878174,
                43.53750228881836
              ],
              [
                6.67255163192749,
                43.472347259521484
              ],
              [
                6.596527099609375,
                43.276947021484375
              ],
              [
                6.278174877166748,
                43.146724700927734
              ],
              [
                5.796233177185059,
                43.146724700927734
              ],
              [
                5.631923198699951,
                43.276947021484375
              ],
              [
                5.390771865844727,
                43.276947021484375
              ],
              [
                5.386905193328857,
                43.407203674316406
              ],
              [
                5.063065528869629,
                43.472347259521484
              ],
              [
                4.419270515441895,
                43.472347259521484
              ],
              [
                4.338796615600586,
                43.472347259521484
              ],
              [
                4.409977436065674,
                43.73301696777344
              ],
              [
                4.97415018081665,
                43.73301696777344
              ],
              [
                4.972023487091064,
                43.79821014404297
              ],
              [
                5.048438549041748,
                43.92862319946289
              ],
              [
                5.288479328155518,
                43.99384307861328
              ],
              [
                5.195291519165039,
                44.38538360595703
              ],
              [
                5.193189144134521,
                44.45067596435547
              ],
              [
                4.707570552825928,
                44.45067596435547
              ],
              [
                4.631268501281738,
                44.32010269165039
              ],
              [
                4.797497272491455,
                44.18956756591797
              ],
              [
                4.799726963043213,
                44.12431716918945
              ],
              [
                4.559700012207031,
                44.05907440185547
              ],
              [
                4.469520568847656,
                44.32010269165039
              ],
              [
                4.057530879974365,
                44.5159797668457
              ],
              [
                4.054975032806396,
                44.58129119873047
              ],
              [
                3.96091890335083,
                44.908016204833984
              ],
              [
                4.519313812255859,
                45.169586181640625
              ],
              [
                4.516868114471436,
                45.23500442504883
              ],
              [
                5.088302612304688,
                45.169586181640625
              ],
              [
                5.088302612304688,
                45.169586181640625
              ],
              [
                5.086080551147461,
                45.23500442504883
              ],
              [
                5.327895641326904,
                45.300437927246094
              ],
              [
                5.259429454803467,
                44.908016204833984
              ],
              [
                5.261550903320312,
                44.842647552490234
              ],
              [
                5.265771389007568,
                44.71194839477539
              ],
              [
                5.508957386016846,
                44.71194839477539
              ],
              [
                5.593959331512451,
                44.58129119873047
              ],
              [
                5.916115283966064,
                44.64661407470703
              ],
              [
                5.914268016815186,
                44.71194839477539
              ],
              [
                6.316179275512695,
                44.842647552490234
              ],
              [
                6.309300899505615,
                45.10417556762695
              ],
              [
                6.634309768676758,
                45.10417556762695
              ],
              [
                6.637507915496826,
                44.973392486572266
              ],
              [
                6.965181350708008,
                44.842647552490234
              ],
              [
                6.966631412506104,
                44.77729415893555
              ],
              [
                6.968075275421143,
                44.71194839477539
              ]
            ]
          ],
          [
            [
              [
                0.719330370426178,
                47.46647262573242
              ],
              [
                0.723574995994568,
                47.4006233215332
              ],
              [
                0.489324986934662,
                47.20316696166992
              ],
              [
                0.584407448768616,
                47.005828857421875
              ],
              [
                0.33779513835907,
                47.005828857421875
              ],
              [
                0.342133671045303,
                46.94007873535156
              ],
              [
                -0.150887623429298,
                46.94007873535156
              ],
              [
                -0.14635743200779,
                46.87434005737305
              ],
              [
                -0.228493839502335,
                46.87434005737305
              ],
              [
                -0.233057826757431,
                46.94007873535156
              ],
              [
                -0.315228044986725,
                46.94007873535156
              ],
              [
                -0.890419542789459,
                46.94007873535156
              ],
              [
                -0.885585069656372,
                46.87434005737305
              ],
              [
                -1.393554329872131,
                47.07159423828125
              ],
              [
                -1.161801099777222,
                47.26897048950195
              ],
              [
                -1.202268838882446,
                47.79592514038086
              ],
              [
                -1.042080402374268,
                47.86185836791992
              ],
              [
                -1.072641968727112,
                48.257774353027344
              ],
              [
                -0.994880259037018,
                48.323814392089844
              ],
              [
                -0.999997794628143,
                48.38986587524414
              ],
              [
                -0.668246686458588,
                48.38986587524414
              ],
              [
                -0.663272976875305,
                48.323814392089844
              ],
              [
                -0.092416204512119,
                48.455936431884766
              ],
              [
                -0.000058500339946,
                48.323814392089844
              ],
              [
                0.336079269647598,
                48.257774353027344
              ],
              [
                0.436810165643692,
                47.993770599365234
              ],
              [
                0.924667775630951,
                48.1257438659668
              ],
              [
                1.276269555091858,
                47.79592514038086
              ],
              [
                1.19774067401886,
                47.730003356933594
              ],
              [
                1.296437382698059,
                47.46647262573242
              ],
              [
                1.213993549346924,
                47.46647262573242
              ],
              [
                1.213993549346924,
                47.46647262573242
              ],
              [
                0.719330370426178,
                47.46647262573242
              ]
            ]
          ]
        ]
      }
    }
  ]
}