{
  "type": "FeatureCollection",
  "name": "territory-51",
  "features": [
    {
      "type": "Feature",
      "properties": {
        "Name": "Zapotec Civilization",
        "FromYear": -91,
        "ToYear": 206,
        "Area": 69767.7808673665,
        "Type": "POLITY",
        "Wikipedia": "Zapotec civilization",
        "Wikidata": "Q844750",
        "SeshatID": "mx_monte_alban_2",
        "Components": "",
        "MemberOf": ""
      },
      "geometry": {
        "type": "MultiPolygon",
        "coordinates": [
          [
            [
              [
                -95.5889663696289,
                17.321889877319336
              ],
              [
                -95.0726318359375,
                17.321889877319336
              ],
              [
                -94.59880065917969,
                17.129026412963867
              ],
              [
                -94.37985229492188,
                16.67901039123535
              ],
              [
                -94.63455200195312,
                16.421857833862305
              ],
              [
                -94.54115295410156,
                16.293283462524414
              ],
              [
                -94.84561157226562,
                16.35757064819336
              ],
              [
                -94.95361328125,
                16.100418090820312
              ],
              [
                -96.21102905273438,
                15.650403022766113
              ],
              [
                -96.7260513305664,
                15.650403022766113
              ],
              [
                -97.0493392944336,
                15.843266487121582
              ],
              [
                -97.7215347290039,
                15.907554626464844
              ],
              [
                -98.04580688476562,
                16.100418090820312
              ],
              [
                -98.0434799194336,
                16.550434112548828
              ],
              [
                -97.7695083618164,
                16.67901039123535
              ],
              [
                -97.8957748413086,
                17.000450134277344
              ],
              [
                -98.03260803222656,
                16.9361629486084
              ],
              [
                -98.02313232421875,
                17.321889877319336
              ],
              [
                -98.22529602050781,
                17.643327713012695
              ],
              [
                -98.24739837646484,
                17.77190399169922
              ],
              [
                -98.05928802490234,
                17.964767456054688
              ],
              [
                -97.54241180419922,
                17.964767456054688
              ],
              [
                -96.90778350830078,
                17.707616806030273
              ],
              [
                -96.612548828125,
                17.707616806030273
              ],
              [
                -96.284912109375,
                17.514753341674805
              ],
              [
                -95.98977661132812,
                17.514753341674805
              ],
              [
                -95.66272735595703,
                17.321889877319336
              ],
              [
                -95.5889663696289,
                17.321889877319336
              ]
            ]
          ],
          [
            [
              [
                -94.76710510253906,
                17.257600784301758
              ],
              [
                -94.84086608886719,
                17.257600784301758
              ],
              [
                -94.8513412475586,
                17.321889877319336
              ],
              [
                -94.77758026123047,
                17.321889877319336
              ],
              [
                -94.76710510253906,
                17.257600784301758
              ]
            ]
          ]
        ]
      }
    }
  ]
}