{
  "type": "FeatureCollection",
  "name": "territory-512",
  "features": [
    {
      "type": "Feature",
      "properties": {
        "Name": "House of Hohenstaufen",
        "FromYear": 1260,
        "ToYear": 1271,
        "Area": 51141.71791998426,
        "Type": "POLITY",
        "Wikipedia": "Hohenstaufen",
        "Wikidata": "Q130875",
        "SeshatID": "de_empire_3",
        "Components": "",
        "MemberOf": "(Holy Roman Empire)"
      },
      "geometry": {
        "type": "Polygon",
        "coordinates": [
          [
            [
              8.221721649169922,
              47.46647262573242
            ],
            [
              8.139277458190918,
              47.46647262573242
            ],
            [
              7.644614696502686,
              47.46647262573242
            ],
            [
              7.317800998687744,
              47.33478927612305
            ],
            [
              7.314839363098145,
              47.46647262573242
            ],
            [
              7.06591796875,
              47.53233337402344
            ],
            [
              7.057919979095459,
              47.86185836791992
            ],
            [
              7.140573024749756,
              47.86185836791992
            ],
            [
              7.131087303161621,
              48.257774353027344
            ],
            [
              7.292257308959961,
              48.455936431884766
            ],
            [
              7.287676811218262,
              48.654239654541016
            ],
            [
              7.450925827026367,
              48.786521911621094
            ],
            [
              7.446540832519531,
              48.98506164550781
            ],
            [
              7.861595630645752,
              49.051273345947266
            ],
            [
              7.944899559020996,
              49.051273345947266
            ],
            [
              7.946140766143799,
              48.98506164550781
            ],
            [
              8.029407501220703,
              48.98506164550781
            ],
            [
              8.030611038208008,
              48.91886520385742
            ],
            [
              8.033018112182617,
              48.786521911621094
            ],
            [
              7.869256496429443,
              48.654239654541016
            ],
            [
              8.202715873718262,
              48.5881233215332
            ],
            [
              8.287943840026855,
              48.455936431884766
            ],
            [
              9.032415390014648,
              48.654239654541016
            ],
            [
              9.362898826599121,
              48.852684020996094
            ],
            [
              9.61247730255127,
              48.852684020996094
            ],
            [
              9.861274719238281,
              48.98506164550781
            ],
            [
              9.860503196716309,
              49.11750411987305
            ],
            [
              10.027185440063477,
              49.11750411987305
            ],
            [
              10.02780818939209,
              48.98506164550781
            ],
            [
              10.278019905090332,
              48.852684020996094
            ],
            [
              10.2784423828125,
              48.72037124633789
            ],
            [
              10.444967269897461,
              48.5881233215332
            ],
            [
              10.44556999206543,
              48.323814392089844
            ],
            [
              10.528471946716309,
              48.323814392089844
            ],
            [
              10.44686222076416,
              47.79592514038086
            ],
            [
              10.447029113769531,
              47.730003356933594
            ],
            [
              10.447197914123535,
              47.664100646972656
            ],
            [
              10.447366714477539,
              47.598209381103516
            ],
            [
              10.36567211151123,
              47.33478927612305
            ],
            [
              10.20119571685791,
              47.26897048950195
            ],
            [
              9.626349449157715,
              47.07159423828125
            ],
            [
              9.709537506103516,
              46.94007873535156
            ],
            [
              9.8734712600708,
              47.005828857421875
            ],
            [
              10.038893699645996,
              46.808616638183594
            ],
            [
              9.876291275024414,
              46.54585266113281
            ],
            [
              9.71235466003418,
              46.54585266113281
            ],
            [
              9.631868362426758,
              46.348915100097656
            ],
            [
              9.306249618530273,
              46.1520881652832
            ],
            [
              8.893464088439941,
              46.480194091796875
            ],
            [
              8.40284538269043,
              46.414546966552734
            ],
            [
              8.313692092895508,
              46.87434005737305
            ],
            [
              8.38867473602295,
              47.33478927612305
            ],
            [
              8.222824096679688,
              47.4006233215332
            ],
            [
              8.221721649169922,
              47.46647262573242
            ]
          ]
        ]
      }
    }
  ]
}