{
  "type": "FeatureCollection",
  "name": "territory-513",
  "features": [
    {
      "type": "Feature",
      "properties": {
        "Name": "House of Habsburg",
        "FromYear": 1453,
        "ToYear": 1458,
        "Area": 561532.0127875889,
        "Type": "POLITY",
        "Wikipedia": "House of Habsburg",
        "Wikidata": "Q65968",
        "SeshatID": "de_empire_3",
        "Components": "",
        "MemberOf": "(Holy Roman Empire)"
      },
      "geometry": {
        "type": "MultiPolygon",
        "coordinates": [
          [
            [
              [
                6.983439445495605,
                47.53233337402344
              ],
              [
                6.890934467315674,
                47.92780685424805
              ],
              [
                6.973622798919678,
                47.92780685424805
              ],
              [
                7.056310653686523,
                47.92780685424805
              ],
              [
                7.218601703643799,
                48.059749603271484
              ],
              [
                7.466878890991211,
                48.059749603271484
              ],
              [
                7.55383825302124,
                47.86185836791992
              ],
              [
                7.555233955383301,
                47.79592514038086
              ],
              [
                7.559404373168945,
                47.598209381103516
              ],
              [
                7.39728307723999,
                47.46647262573242
              ],
              [
                6.983439445495605,
                47.53233337402344
              ]
            ]
          ],
          [
            [
              [
                7.628283500671387,
                48.257774353027344
              ],
              [
                7.709810256958008,
                48.323814392089844
              ],
              [
                7.792711734771729,
                48.323814392089844
              ],
              [
                7.796617031097412,
                48.1257438659668
              ],
              [
                7.959747314453125,
                48.257774353027344
              ],
              [
                8.208345413208008,
                48.257774353027344
              ],
              [
                8.210589408874512,
                48.1257438659668
              ],
              [
                8.127795219421387,
                48.1257438659668
              ],
              [
                8.218400955200195,
                47.664100646972656
              ],
              [
                8.054483413696289,
                47.598209381103516
              ],
              [
                8.138138771057129,
                47.53233337402344
              ],
              [
                8.059174537658691,
                47.33478927612305
              ],
              [
                7.72967529296875,
                47.33478927612305
              ],
              [
                7.728368282318115,
                47.4006233215332
              ],
              [
                7.64595890045166,
                47.4006233215332
              ],
              [
                7.644614696502686,
                47.46647262573242
              ],
              [
                7.56217098236084,
                47.46647262573242
              ],
              [
                7.560789108276367,
                47.53233337402344
              ],
              [
                7.643267631530762,
                47.53233337402344
              ],
              [
                7.725746154785156,
                47.53233337402344
              ],
              [
                7.886958122253418,
                47.730003356933594
              ],
              [
                7.637851715087891,
                47.79592514038086
              ],
              [
                7.628283500671387,
                48.257774353027344
              ]
            ]
          ],
          [
            [
              [
                9.122788429260254,
                47.993770599365234
              ],
              [
                9.288235664367676,
                47.993770599365234
              ],
              [
                9.290210723876953,
                47.79592514038086
              ],
              [
                8.87795352935791,
                47.730003356933594
              ],
              [
                8.959738731384277,
                47.79592514038086
              ],
              [
                8.958940505981445,
                47.86185836791992
              ],
              [
                8.957342147827148,
                47.993770599365234
              ],
              [
                9.124246597290039,
                47.86185836791992
              ],
              [
                9.122788429260254,
                47.993770599365234
              ]
            ]
          ],
          [
            [
              [
                9.37220573425293,
                47.86185836791992
              ],
              [
                9.371582984924316,
                47.92780685424805
              ],
              [
                9.45427131652832,
                47.92780685424805
              ],
              [
                9.453682899475098,
                47.993770599365234
              ],
              [
                9.536406517028809,
                47.993770599365234
              ],
              [
                9.536959648132324,
                47.92780685424805
              ],
              [
                9.537511825561523,
                47.86185836791992
              ],
              [
                9.454858779907227,
                47.86185836791992
              ],
              [
                9.37220573425293,
                47.86185836791992
              ]
            ]
          ],
          [
            [
              [
                8.210589408874512,
                48.1257438659668
              ],
              [
                8.293384552001953,
                48.1257438659668
              ],
              [
                8.376178741455078,
                48.1257438659668
              ],
              [
                8.461000442504883,
                47.993770599365234
              ],
              [
                8.21282958984375,
                47.993770599365234
              ],
              [
                8.210589408874512,
                48.1257438659668
              ]
            ]
          ],
          [
            [
              [
                8.788406372070312,
                48.257774353027344
              ],
              [
                8.705540657043457,
                48.257774353027344
              ],
              [
                8.540788650512695,
                48.191749572753906
              ],
              [
                8.537846565246582,
                48.38986587524414
              ],
              [
                8.788406372070312,
                48.257774353027344
              ]
            ]
          ],
          [
            [
              [
                8.206095695495605,
                48.38986587524414
              ],
              [
                8.289033889770508,
                48.38986587524414
              ],
              [
                8.371971130371094,
                48.38986587524414
              ],
              [
                8.455925941467285,
                48.323814392089844
              ],
              [
                8.208345413208008,
                48.257774353027344
              ],
              [
                8.206095695495605,
                48.38986587524414
              ]
            ]
          ],
          [
            [
              [
                9.36660385131836,
                48.455936431884766
              ],
              [
                9.36722469329834,
                48.38986587524414
              ],
              [
                9.368468284606934,
                48.257774353027344
              ],
              [
                9.202736854553223,
                48.257774353027344
              ],
              [
                9.201349258422852,
                48.38986587524414
              ],
              [
                9.36660385131836,
                48.455936431884766
              ]
            ]
          ],
          [
            [
              [
                8.451854705810547,
                48.5881233215332
              ],
              [
                8.45389175415039,
                48.455936431884766
              ],
              [
                8.286852836608887,
                48.52202224731445
              ],
              [
                8.36880874633789,
                48.5881233215332
              ],
              [
                8.451854705810547,
                48.5881233215332
              ]
            ]
          ],
          [
            [
              [
                8.535882949829102,
                48.52202224731445
              ],
              [
                8.53490161895752,
                48.5881233215332
              ],
              [
                8.617947578430176,
                48.5881233215332
              ],
              [
                8.6170015335083,
                48.654239654541016
              ],
              [
                8.700084686279297,
                48.654239654541016
              ],
              [
                8.700993537902832,
                48.5881233215332
              ],
              [
                8.701903343200684,
                48.52202224731445
              ],
              [
                8.61889362335205,
                48.52202224731445
              ],
              [
                8.535882949829102,
                48.52202224731445
              ]
            ]
          ],
          [
            [
              [
                9.789048194885254,
                47.33478927612305
              ],
              [
                9.707152366638184,
                47.26897048950195
              ],
              [
                9.707632064819336,
                47.20316696166992
              ],
              [
                9.541923522949219,
                47.33478927612305
              ],
              [
                9.706192016601562,
                47.4006233215332
              ],
              [
                9.789048194885254,
                47.33478927612305
              ]
            ]
          ],
          [
            [
              [
                16.55561637878418,
                51.71418380737305
              ],
              [
                16.718996047973633,
                51.580322265625
              ],
              [
                16.980127334594727,
                51.71418380737305
              ],
              [
                17.31973648071289,
                51.71418380737305
              ],
              [
                17.549257278442383,
                51.24601745605469
              ],
              [
                17.972288131713867,
                51.24601745605469
              ],
              [
                18.049345016479492,
                51.112430572509766
              ],
              [
                18.709320068359375,
                50.84549331665039
              ],
              [
                18.70132827758789,
                50.71213912963867
              ],
              [
                19.030193328857422,
                50.578861236572266
              ],
              [
                19.022031784057617,
                50.445655822753906
              ],
              [
                19.18613052368164,
                50.37908172607422
              ],
              [
                19.17385482788086,
                50.17946243286133
              ],
              [
                19.089900970458984,
                50.17946243286133
              ],
              [
                19.085887908935547,
                50.11296081542969
              ],
              [
                19.081897735595703,
                50.04647445678711
              ],
              [
                19.165773391723633,
                50.04647445678711
              ],
              [
                19.23756217956543,
                49.84712600708008
              ],
              [
                18.887298583984375,
                49.58156967163086
              ],
              [
                18.87979507446289,
                49.44889450073242
              ],
              [
                19.472537994384766,
                49.58156967163086
              ],
              [
                19.865541458129883,
                49.18375015258789
              ],
              [
                20.21193504333496,
                49.38258361816406
              ],
              [
                20.545900344848633,
                49.38258361816406
              ],
              [
                20.453577041625977,
                49.2500114440918
              ],
              [
                20.703824996948242,
                49.2500114440918
              ],
              [
                20.71288299560547,
                49.38258361816406
              ],
              [
                21.79827117919922,
                49.38258361816406
              ],
              [
                22.5230712890625,
                49.051273345947266
              ],
              [
                22.77837371826172,
                49.11750411987305
              ],
              [
                22.928722381591797,
                48.91886520385742
              ],
              [
                23.666343688964844,
                48.786521911621094
              ],
              [
                24.052976608276367,
                48.455936431884766
              ],
              [
                24.378963470458984,
                48.38986587524414
              ],
              [
                24.367206573486328,
                48.257774353027344
              ],
              [
                24.686708450317383,
                48.1257438659668
              ],
              [
                24.586227416992188,
                47.92780685424805
              ],
              [
                24.90500259399414,
                47.79592514038086
              ],
              [
                24.881271362304688,
                47.53233337402344
              ],
              [
                25.03432846069336,
                47.4006233215332
              ],
              [
                25.016605377197266,
                47.20316696166992
              ],
              [
                25.668907165527344,
                47.13737487792969
              ],
              [
                25.72661018371582,
                46.87434005737305
              ],
              [
                25.966814041137695,
                46.808616638183594
              ],
              [
                25.942142486572266,
                46.54585266113281
              ],
              [
                26.477930068969727,
                46.1520881652832
              ],
              [
                26.44038200378418,
                45.75876998901367
              ],
              [
                26.10191535949707,
                45.62776184082031
              ],
              [
                25.93889808654785,
                45.62776184082031
              ],
              [
                25.84545135498047,
                45.496795654296875
              ],
              [
                25.438228607177734,
                45.496795654296875
              ],
              [
                25.34526824951172,
                45.36587905883789
              ],
              [
                25.042299270629883,
                45.62776184082031
              ],
              [
                23.483562469482422,
                45.496795654296875
              ],
              [
                23.47352409362793,
                45.36587905883789
              ],
              [
                23.138248443603516,
                45.23500442504883
              ],
              [
                22.650352478027344,
                45.23500442504883
              ],
              [
                22.531999588012695,
                44.71194839477539
              ],
              [
                22.113351821899414,
                44.5159797668457
              ],
              [
                21.40547752380371,
                44.842647552490234
              ],
              [
                20.748632431030273,
                44.71194839477539
              ],
              [
                20.107473373413086,
                44.842647552490234
              ],
              [
                20.019073486328125,
                44.71194839477539
              ],
              [
                19.856950759887695,
                44.71194839477539
              ],
              [
                19.624204635620117,
                44.908016204833984
              ],
              [
                19.296220779418945,
                44.842647552490234
              ],
              [
                19.14055824279785,
                44.973392486572266
              ],
              [
                18.890594482421875,
                44.842647552490234
              ],
              [
                18.57839012145996,
                45.10417556762695
              ],
              [
                16.544801712036133,
                45.03877639770508
              ],
              [
                16.294586181640625,
                44.842647552490234
              ],
              [
                16.285852432250977,
                44.58129119873047
              ],
              [
                16.52429962158203,
                44.45067596435547
              ],
              [
                16.51975440979004,
                44.32010269165039
              ],
              [
                16.27495574951172,
                44.25482940673828
              ],
              [
                16.268434524536133,
                44.05907440185547
              ],
              [
                16.429935455322266,
                44.05907440185547
              ],
              [
                16.741186141967773,
                43.73301696777344
              ],
              [
                15.945435523986816,
                44.05907440185547
              ],
              [
                15.70318603515625,
                44.05907440185547
              ],
              [
                15.547369003295898,
                44.25482940673828
              ],
              [
                15.146636962890625,
                44.38538360595703
              ],
              [
                15.148378372192383,
                44.45067596435547
              ],
              [
                14.908865928649902,
                44.58129119873047
              ],
              [
                14.91874885559082,
                44.973392486572266
              ],
              [
                14.75637149810791,
                44.973392486572266
              ],
              [
                14.759533882141113,
                45.10417556762695
              ],
              [
                14.59854507446289,
                45.169586181640625
              ],
              [
                14.603090286254883,
                45.36587905883789
              ],
              [
                14.196189880371094,
                45.36587905883789
              ],
              [
                14.189410209655762,
                45.03877639770508
              ],
              [
                14.108189582824707,
                45.03877639770508
              ],
              [
                14.026969909667969,
                45.03877639770508
              ],
              [
                13.786900520324707,
                45.23500442504883
              ],
              [
                14.117451667785645,
                45.496795654296875
              ],
              [
                13.710229873657227,
                45.496795654296875
              ],
              [
                13.711389541625977,
                45.56227111816406
              ],
              [
                13.71254825592041,
                45.62776184082031
              ],
              [
                13.713706970214844,
                45.693260192871094
              ],
              [
                13.714865684509277,
                45.75876998901367
              ],
              [
                13.633292198181152,
                45.75876998901367
              ],
              [
                13.5560941696167,
                46.02093505859375
              ],
              [
                13.885364532470703,
                46.1520881652832
              ],
              [
                13.887821197509766,
                46.283294677734375
              ],
              [
                13.725314140319824,
                46.348915100097656
              ],
              [
                13.72764778137207,
                46.480194091796875
              ],
              [
                13.563776969909668,
                46.480194091796875
              ],
              [
                12.09045124053955,
                46.677207946777344
              ],
              [
                11.515933990478516,
                46.61152267456055
              ],
              [
                11.269417762756348,
                46.414546966552734
              ],
              [
                11.105613708496094,
                46.414546966552734
              ],
              [
                11.187925338745117,
                46.61152267456055
              ],
              [
                10.5320405960083,
                46.54585266113281
              ],
              [
                10.450072288513184,
                46.54585266113281
              ],
              [
                10.36810302734375,
                46.54585266113281
              ],
              [
                10.367905616760254,
                46.61152267456055
              ],
              [
                10.44906997680664,
                46.94007873535156
              ],
              [
                10.120388984680176,
                46.94007873535156
              ],
              [
                10.119163513183594,
                47.20316696166992
              ],
              [
                10.200922012329102,
                47.33478927612305
              ],
              [
                10.36567211151123,
                47.33478927612305
              ],
              [
                10.447366714477539,
                47.598209381103516
              ],
              [
                10.61239242553711,
                47.598209381103516
              ],
              [
                10.694906234741211,
                47.598209381103516
              ],
              [
                10.694971084594727,
                47.53233337402344
              ],
              [
                10.777449607849121,
                47.53233337402344
              ],
              [
                10.859928131103516,
                47.53233337402344
              ],
              [
                10.94240665435791,
                47.53233337402344
              ],
              [
                11.024742126464844,
                47.4006233215332
              ],
              [
                11.272144317626953,
                47.46647262573242
              ],
              [
                11.437032699584961,
                47.46647262573242
              ],
              [
                11.436545372009277,
                47.33478927612305
              ],
              [
                11.600985527038574,
                47.26897048950195
              ],
              [
                11.848007202148438,
                47.26897048950195
              ],
              [
                12.014627456665039,
                47.53233337402344
              ],
              [
                12.262062072753906,
                47.53233337402344
              ],
              [
                12.342669486999512,
                47.33478927612305
              ],
              [
                12.177369117736816,
                47.26897048950195
              ],
              [
                12.175729751586914,
                47.07159423828125
              ],
              [
                13.738253593444824,
                47.07159423828125
              ],
              [
                13.659500122070312,
                47.26897048950195
              ],
              [
                13.41247844696045,
                47.26897048950195
              ],
              [
                13.418926239013672,
                47.664100646972656
              ],
              [
                13.175244331359863,
                47.92780685424805
              ],
              [
                13.177251815795898,
                48.059749603271484
              ],
              [
                13.847192764282227,
                48.455936431884766
              ],
              [
                14.100465774536133,
                48.654239654541016
              ],
              [
                13.358475685119629,
                48.98506164550781
              ],
              [
                13.02955150604248,
                49.2500114440918
              ],
              [
                12.532414436340332,
                49.51522445678711
              ],
              [
                12.534139633178711,
                49.64793395996094
              ],
              [
                12.36764907836914,
                49.71431350708008
              ],
              [
                12.370920181274414,
                49.98000717163086
              ],
              [
                12.12159538269043,
                50.17946243286133
              ],
              [
                12.12234115600586,
                50.2459831237793
              ],
              [
                12.290331840515137,
                50.2459831237793
              ],
              [
                12.376081466674805,
                50.37908172607422
              ],
              [
                12.796454429626465,
                50.37908172607422
              ],
              [
                13.391927719116211,
                50.71213912963867
              ],
              [
                14.153997421264648,
                50.84549331665039
              ],
              [
                14.326505661010742,
                50.97892379760742
              ],
              [
                14.334224700927734,
                51.24601745605469
              ],
              [
                14.336182594299316,
                51.31283950805664
              ],
              [
                14.251534461975098,
                51.31283950805664
              ],
              [
                14.253460884094238,
                51.37968063354492
              ],
              [
                14.25539779663086,
                51.44654083251953
              ],
              [
                14.257346153259277,
                51.51342010498047
              ],
              [
                14.259305000305176,
                51.580322265625
              ],
              [
                14.263254165649414,
                51.71418380737305
              ],
              [
                14.097269058227539,
                51.84812545776367
              ],
              [
                13.757316589355469,
                51.84812545776367
              ],
              [
                13.675755500793457,
                51.98215103149414
              ],
              [
                13.422128677368164,
                52.0491943359375
              ],
              [
                13.425350189208984,
                52.18334197998047
              ],
              [
                13.940366744995117,
                52.31757736206055
              ],
              [
                14.360513687133789,
                52.11625671386719
              ],
              [
                14.615998268127441,
                52.11625671386719
              ],
              [
                14.779444694519043,
                51.91512680053711
              ],
              [
                14.869136810302734,
                52.0491943359375
              ],
              [
                15.039372444152832,
                52.0491943359375
              ],
              [
                15.131959915161133,
                52.250450134277344
              ],
              [
                15.470279693603516,
                52.18334197998047
              ],
              [
                15.646231651306152,
                52.31757736206055
              ],
              [
                15.813953399658203,
                52.250450134277344
              ],
              [
                15.80826187133789,
                52.11625671386719
              ],
              [
                15.972770690917969,
                51.98215103149414
              ],
              [
                15.96988296508789,
                51.91512680053711
              ],
              [
                16.136985778808594,
                51.84812545776367
              ],
              [
                16.131103515625,
                51.71418380737305
              ],
              [
                16.55561637878418,
                51.71418380737305
              ]
            ],
            [
              [
                20.370161056518555,
                49.2500114440918
              ],
              [
                20.286745071411133,
                49.2500114440918
              ],
              [
                20.278141021728516,
                49.11750411987305
              ],
              [
                20.44919204711914,
                49.18375015258789
              ],
              [
                20.370161056518555,
                49.2500114440918
              ]
            ]
          ],
          [
            [
              [
                10.528592109680176,
                48.257774353027344
              ],
              [
                10.52871322631836,
                48.191749572753906
              ],
              [
                10.363642692565918,
                47.993770599365234
              ],
              [
                10.115167617797852,
                48.059749603271484
              ],
              [
                10.197128295898438,
                48.257774353027344
              ],
              [
                10.528592109680176,
                48.257774353027344
              ]
            ]
          ],
          [
            [
              [
                10.03139591217041,
                48.257774353027344
              ],
              [
                9.865257263183594,
                48.323814392089844
              ],
              [
                9.782355308532715,
                48.323814392089844
              ],
              [
                9.451920509338379,
                48.191749572753906
              ],
              [
                9.449578285217285,
                48.455936431884766
              ],
              [
                9.947421073913574,
                48.455936431884766
              ],
              [
                10.03139591217041,
                48.257774353027344
              ]
            ]
          ],
          [
            [
              [
                10.11336898803711,
                48.455936431884766
              ],
              [
                10.196342468261719,
                48.455936431884766
              ],
              [
                10.196602821350098,
                48.38986587524414
              ],
              [
                10.279766082763672,
                48.323814392089844
              ],
              [
                10.113962173461914,
                48.323814392089844
              ],
              [
                10.11336898803711,
                48.455936431884766
              ]
            ]
          ],
          [
            [
              [
                13.670628547668457,
                51.78114318847656
              ],
              [
                13.667257308959961,
                51.64724349975586
              ],
              [
                13.5823974609375,
                51.64724349975586
              ],
              [
                13.497538566589355,
                51.64724349975586
              ],
              [
                13.244426727294922,
                51.71418380737305
              ],
              [
                13.247386932373047,
                51.84812545776367
              ],
              [
                13.587339401245117,
                51.84812545776367
              ],
              [
                13.670628547668457,
                51.78114318847656
              ]
            ]
          ]
        ]
      }
    }
  ]
}