{
  "type": "FeatureCollection",
  "name": "territory-52",
  "features": [
    {
      "type": "Feature",
      "properties": {
        "Name": "Magadha - Haryanka dynasty",
        "FromYear": -450,
        "ToYear": -405,
        "Area": 335215.3988098988,
        "Type": "POLITY",
        "Wikipedia": "Haryanka dynasty",
        "Wikidata": "Q12459974",
        "SeshatID": "in_mahajanapada",
        "Components": "",
        "MemberOf": "(Mahajanapadas)"
      },
      "geometry": {
        "type": "MultiPolygon",
        "coordinates": [
          [
            [
              [
                82.48889923095703,
                23.879167556762695
              ],
              [
                82.4142837524414,
                23.879167556762695
              ],
              [
                82.42347717285156,
                23.943456649780273
              ],
              [
                82.49810028076172,
                23.943456649780273
              ],
              [
                82.48889923095703,
                23.879167556762695
              ]
            ]
          ],
          [
            [
              [
                85.29671478271484,
                27.222335815429688
              ],
              [
                85.53491973876953,
                27.2866268157959
              ],
              [
                85.50975036621094,
                27.158044815063477
              ],
              [
                85.72277069091797,
                27.093751907348633
              ],
              [
                86.09862518310547,
                27.093751907348633
              ],
              [
                86.19914245605469,
                26.836584091186523
              ],
              [
                86.43689727783203,
                26.900876998901367
              ],
              [
                86.47499084472656,
                26.70800018310547
              ],
              [
                86.62518310546875,
                26.70800018310547
              ],
              [
                86.73875427246094,
                26.515121459960938
              ],
              [
                86.96393585205078,
                26.515121459960938
              ],
              [
                86.86473083496094,
                26.386537551879883
              ],
              [
                87.27899169921875,
                26.19365882873535
              ],
              [
                87.39354705810547,
                26.000778198242188
              ],
              [
                87.54347229003906,
                26.000778198242188
              ],
              [
                87.73332214355469,
                25.807899475097656
              ],
              [
                87.76237487792969,
                25.55072784423828
              ],
              [
                88.10289764404297,
                25.357851028442383
              ],
              [
                88.13339233398438,
                25.100683212280273
              ],
              [
                88.4107437133789,
                24.97209930419922
              ],
              [
                88.30364227294922,
                24.779226303100586
              ],
              [
                88.46471405029297,
                24.393482208251953
              ],
              [
                88.61410522460938,
                24.393482208251953
              ],
              [
                88.49835968017578,
                24.136323928833008
              ],
              [
                88.57301330566406,
                24.136323928833008
              ],
              [
                88.44497680664062,
                23.30057144165039
              ],
              [
                88.23938751220703,
                22.914846420288086
              ],
              [
                88.18415069580078,
                22.529123306274414
              ],
              [
                88.01718139648438,
                22.400548934936523
              ],
              [
                88.21334838867188,
                22.20768928527832
              ],
              [
                88.17765045166016,
                21.950544357299805
              ],
              [
                87.76203918457031,
                21.629112243652344
              ],
              [
                87.2246322631836,
                21.500539779663086
              ],
              [
                86.97603607177734,
                21.307680130004883
              ],
              [
                86.69078063964844,
                21.950544357299805
              ],
              [
                86.42827606201172,
                22.20768928527832
              ],
              [
                86.27078247070312,
                22.143402099609375
              ],
              [
                86.1570816040039,
                22.400548934936523
              ],
              [
                84.91832733154297,
                22.59341049194336
              ],
              [
                84.7869873046875,
                22.72198486328125
              ],
              [
                84.42351531982422,
                22.786272048950195
              ],
              [
                84.36666107177734,
                22.914846420288086
              ],
              [
                84.20890808105469,
                22.85055923461914
              ],
              [
                84.0119400024414,
                23.043420791625977
              ],
              [
                83.5081558227539,
                23.171995162963867
              ],
              [
                83.04009246826172,
                23.557723999023438
              ],
              [
                82.89096069335938,
                23.557723999023438
              ],
              [
                82.70355987548828,
                23.814878463745117
              ],
              [
                82.5543441772461,
                23.814878463745117
              ],
              [
                82.57272338867188,
                23.943456649780273
              ],
              [
                82.37667083740234,
                24.136323928833008
              ],
              [
                82.22736358642578,
                24.136323928833008
              ],
              [
                81.7056884765625,
                24.650644302368164
              ],
              [
                81.72510528564453,
                24.779226303100586
              ],
              [
                81.45549774169922,
                24.97209930419922
              ],
              [
                81.41061401367188,
                25.164974212646484
              ],
              [
                81.26097869873047,
                25.164974212646484
              ],
              [
                81.00212860107422,
                25.422143936157227
              ],
              [
                81.0330581665039,
                25.615020751953125
              ],
              [
                80.90412902832031,
                25.743606567382812
              ],
              [
                81.0794906616211,
                26.772293090820312
              ],
              [
                81.4104232788086,
                27.35091781616211
              ],
              [
                81.56086730957031,
                27.35091781616211
              ],
              [
                81.76000213623047,
                27.608078002929688
              ],
              [
                82.13636779785156,
                27.608078002929688
              ],
              [
                82.7009048461914,
                27.800947189331055
              ],
              [
                83.31572723388672,
                27.4794979095459
              ],
              [
                84.36918640136719,
                27.4794979095459
              ],
              [
                84.9458236694336,
                27.35091781616211
              ],
              [
                85.02104949951172,
                27.35091781616211
              ],
              [
                85.29671478271484,
                27.222335815429688
              ]
            ]
          ],
          [
            [
              [
                80.98179626464844,
                25.29355812072754
              ],
              [
                80.99192810058594,
                25.357851028442383
              ],
              [
                81.06678771972656,
                25.357851028442383
              ],
              [
                81.056640625,
                25.29355812072754
              ],
              [
                80.98179626464844,
                25.29355812072754
              ]
            ]
          ]
        ]
      }
    }
  ]
}