{
  "type": "FeatureCollection",
  "name": "territory-525",
  "features": [
    {
      "type": "Feature",
      "properties": {
        "Name": "Kingdom of Scotland",
        "FromYear": 1579,
        "ToYear": 1601,
        "Area": 92385.93634706685,
        "Type": "POLITY",
        "Wikipedia": "Kingdom of Scotland",
        "Wikidata": "Q230791",
        "SeshatID": "gb_scotland_k",
        "Components": "",
        "MemberOf": ""
      },
      "geometry": {
        "type": "MultiPolygon",
        "coordinates": [
          [
            [
              [
                -6.345999717712402,
                54.817054748535156
              ],
              [
                -6.499140739440918,
                55.29362487792969
              ],
              [
                -6.41177225112915,
                55.29362487792969
              ],
              [
                -6.149667739868164,
                55.29362487792969
              ],
              [
                -5.938195705413818,
                55.021148681640625
              ],
              [
                -5.929072856903076,
                54.95309066772461
              ],
              [
                -5.988819122314453,
                54.74907684326172
              ],
              [
                -5.727906227111816,
                54.74907684326172
              ],
              [
                -5.640934944152832,
                54.74907684326172
              ],
              [
                -5.553964138031006,
                54.74907684326172
              ],
              [
                -5.423318386077881,
                54.4095458984375
              ],
              [
                -5.674689769744873,
                54.341712951660156
              ],
              [
                -5.821469783782959,
                54.138362884521484
              ],
              [
                -5.994539260864258,
                54.138362884521484
              ],
              [
                -6.021405220031738,
                54.341712951660156
              ],
              [
                -5.934726238250732,
                54.341712951660156
              ],
              [
                -5.943681716918945,
                54.4095458984375
              ],
              [
                -5.961664199829102,
                54.545284271240234
              ],
              [
                -6.345999717712402,
                54.817054748535156
              ]
            ]
          ],
          [
            [
              [
                -1.823600172996521,
                57.41988754272461
              ],
              [
                -2.075707674026489,
                57.28189468383789
              ],
              [
                -2.208682298660278,
                56.86860656738281
              ],
              [
                -2.532599925994873,
                56.59365463256836
              ],
              [
                -2.789952516555786,
                56.524986267089844
              ],
              [
                -2.671310901641846,
                56.25059127807617
              ],
              [
                -3.27212119102478,
                56.11355972290039
              ],
              [
                -3.000474214553833,
                56.04508590698242
              ],
              [
                -2.656256437301636,
                56.11355972290039
              ],
              [
                -2.19469428062439,
                55.90821838378906
              ],
              [
                -2.106868505477905,
                55.90821838378906
              ],
              [
                -2.268072366714478,
                55.77145767211914
              ],
              [
                -2.239403486251831,
                55.498252868652344
              ],
              [
                -2.560305595397949,
                55.225467681884766
              ],
              [
                -2.734941720962524,
                55.225467681884766
              ],
              [
                -2.807486772537231,
                55.089229583740234
              ],
              [
                -3.141266584396362,
                54.95309066772461
              ],
              [
                -3.402623414993286,
                54.95309066772461
              ],
              [
                -3.489742517471313,
                54.95309066772461
              ],
              [
                -3.735394239425659,
                54.817054748535156
              ],
              [
                -4.423340797424316,
                54.74907684326172
              ],
              [
                -4.953676700592041,
                54.817054748535156
              ],
              [
                -4.936679363250732,
                54.681121826171875
              ],
              [
                -5.110523223876953,
                54.681121826171875
              ],
              [
                -5.32801628112793,
                55.021148681640625
              ],
              [
                -5.153679370880127,
                55.021148681640625
              ],
              [
                -5.171102046966553,
                55.15733337402344
              ],
              [
                -4.768880844116211,
                55.430015563964844
              ],
              [
                -4.794708251953125,
                55.63479995727539
              ],
              [
                -4.978706836700439,
                55.70311737060547
              ],
              [
                -4.996289253234863,
                55.83982467651367
              ],
              [
                -5.444243907928467,
                55.90821838378906
              ],
              [
                -5.426101684570312,
                55.77145767211914
              ],
              [
                -5.162932395935059,
                55.77145767211914
              ],
              [
                -5.118756771087646,
                55.430015563964844
              ],
              [
                -5.381163120269775,
                55.430015563964844
              ],
              [
                -5.574207305908203,
                55.56651306152344
              ],
              [
                -5.625458240509033,
                55.29362487792969
              ],
              [
                -5.887563228607178,
                55.29362487792969
              ],
              [
                -5.915220260620117,
                55.498252868652344
              ],
              [
                -5.689270496368408,
                55.77145767211914
              ],
              [
                -5.80486011505127,
                55.97663879394531
              ],
              [
                -5.89273738861084,
                55.97663879394531
              ],
              [
                -5.952439785003662,
                55.77145767211914
              ],
              [
                -6.127885818481445,
                55.77145767211914
              ],
              [
                -6.187198638916016,
                55.56651306152344
              ],
              [
                -6.362338542938232,
                55.56651306152344
              ],
              [
                -6.381457328796387,
                55.70311737060547
              ],
              [
                -6.634748458862305,
                55.63479995727539
              ],
              [
                -6.507877826690674,
                55.97663879394531
              ],
              [
                -6.068491458892822,
                55.97663879394531
              ],
              [
                -5.920981407165527,
                56.182064056396484
              ],
              [
                -5.656883716583252,
                56.182064056396484
              ],
              [
                -5.684883117675781,
                56.387733459472656
              ],
              [
                -6.292484283447266,
                56.319149017333984
              ],
              [
                -6.23344087600708,
                56.524986267089844
              ],
              [
                -6.341366291046143,
                56.662349700927734
              ],
              [
                -5.908953666687012,
                56.731075286865234
              ],
              [
                -5.947565078735352,
                57.00625228881836
              ],
              [
                -6.055799961090088,
                57.14401626586914
              ],
              [
                -6.410901069641113,
                57.14401626586914
              ],
              [
                -6.618975639343262,
                57.35087585449219
              ],
              [
                -6.796852111816406,
                57.35087585449219
              ],
              [
                -6.817555904388428,
                57.488929748535156
              ],
              [
                -6.471539974212646,
                57.55800247192383
              ],
              [
                -6.502223968505859,
                57.7653923034668
              ],
              [
                -6.323688507080078,
                57.7653923034668
              ],
              [
                -6.11513090133667,
                57.55800247192383
              ],
              [
                -6.085347175598145,
                57.35087585449219
              ],
              [
                -5.808821201324463,
                57.28189468383789
              ],
              [
                -5.700699329376221,
                57.14401626586914
              ],
              [
                -5.729594707489014,
                57.35087585449219
              ],
              [
                -5.917263507843018,
                57.41988754272461
              ],
              [
                -5.887243270874023,
                57.8345832824707
              ],
              [
                -5.728240966796875,
                57.97305679321289
              ],
              [
                -5.459936618804932,
                57.97305679321289
              ],
              [
                -5.418947219848633,
                58.31977081298828
              ],
              [
                -5.239514827728271,
                58.31977081298828
              ],
              [
                -5.258847236633301,
                58.45867156982422
              ],
              [
                -5.169017314910889,
                58.45867156982422
              ],
              [
                -5.198037147521973,
                58.66725540161133
              ],
              [
                -4.019067287445068,
                58.59769821166992
              ],
              [
                -3.676762819290161,
                58.73685073852539
              ],
              [
                -3.136410236358643,
                58.73685073852539
              ],
              [
                -3.021383285522461,
                58.528167724609375
              ],
              [
                -3.428223133087158,
                58.180992126464844
              ],
              [
                -4.118414402008057,
                57.97305679321289
              ],
              [
                -3.930825471878052,
                57.903804779052734
              ],
              [
                -3.994018077850342,
                57.696231842041016
              ],
              [
                -3.726380348205566,
                57.696231842041016
              ],
              [
                -3.734920263290405,
                57.7653923034668
              ],
              [
                -1.852917313575745,
                57.696231842041016
              ],
              [
                -1.823600172996521,
                57.41988754272461
              ]
            ]
          ],
          [
            [
              [
                -7.465542793273926,
                57.07511901855469
              ],
              [
                -7.597294807434082,
                57.35087585449219
              ],
              [
                -7.252153396606445,
                57.41988754272461
              ],
              [
                -7.230959415435791,
                57.28189468383789
              ],
              [
                -7.319843292236328,
                57.28189468383789
              ],
              [
                -7.288100242614746,
                57.07511901855469
              ],
              [
                -7.465542793273926,
                57.07511901855469
              ]
            ]
          ],
          [
            [
              [
                -7.562519073486328,
                57.696231842041016
              ],
              [
                -7.116456508636475,
                57.696231842041016
              ],
              [
                -7.105842113494873,
                57.62710189819336
              ],
              [
                -7.440887928009033,
                57.488929748535156
              ],
              [
                -7.562519073486328,
                57.696231842041016
              ]
            ]
          ],
          [
            [
              [
                -6.25730562210083,
                58.528167724609375
              ],
              [
                -6.205919742584229,
                58.180992126464844
              ],
              [
                -6.385126113891602,
                58.180992126464844
              ],
              [
                -6.52281665802002,
                57.903804779052734
              ],
              [
                -7.12709903717041,
                57.7653923034668
              ],
              [
                -7.06976318359375,
                57.97305679321289
              ],
              [
                -7.281157493591309,
                58.180992126464844
              ],
              [
                -6.854404926300049,
                58.31977081298828
              ],
              [
                -6.764688491821289,
                58.31977081298828
              ],
              [
                -6.785952091217041,
                58.45867156982422
              ],
              [
                -6.25730562210083,
                58.528167724609375
              ]
            ]
          ],
          [
            [
              [
                -3.531404256820679,
                59.015533447265625
              ],
              [
                -3.441113948822021,
                59.015533447265625
              ],
              [
                -3.376785039901733,
                59.22488784790039
              ],
              [
                -3.195853710174561,
                59.22488784790039
              ],
              [
                -3.088408470153809,
                59.08528518676758
              ],
              [
                -2.809081315994263,
                59.015533447265625
              ],
              [
                -2.792584657669067,
                58.876129150390625
              ],
              [
                -2.972933053970337,
                58.876129150390625
              ],
              [
                -3.063107252120972,
                58.876129150390625
              ],
              [
                -3.415184020996094,
                58.80647277832031
              ],
              [
                -3.531404256820679,
                59.015533447265625
              ]
            ]
          ],
          [
            [
              [
                -2.842337846755981,
                59.294734954833984
              ],
              [
                -2.578956842422485,
                59.36461639404297
              ],
              [
                -2.562593460083008,
                59.22488784790039
              ],
              [
                -2.653059244155884,
                59.22488784790039
              ],
              [
                -2.644851207733154,
                59.15507125854492
              ],
              [
                -2.825665473937988,
                59.15507125854492
              ],
              [
                -2.842337846755981,
                59.294734954833984
              ]
            ]
          ],
          [
            [
              [
                -0.827084124088287,
                60.83990478515625
              ],
              [
                -0.805085599422455,
                60.628211975097656
              ],
              [
                -1.164233803749084,
                60.557716369628906
              ],
              [
                -1.050302863121033,
                60.34645080566406
              ],
              [
                -1.141728639602661,
                60.34645080566406
              ],
              [
                -1.203181028366089,
                60.065250396728516
              ],
              [
                -1.674645304679871,
                60.20578384399414
              ],
              [
                -1.63013768196106,
                60.628211975097656
              ],
              [
                -1.36280632019043,
                60.69873809814453
              ],
              [
                -1.347454905509949,
                60.557716369628906
              ],
              [
                -1.255844354629517,
                60.557716369628906
              ],
              [
                -1.278715848922729,
                60.76930236816406
              ],
              [
                -0.827084124088287,
                60.83990478515625
              ]
            ]
          ]
        ]
      }
    }
  ]
}