{
  "type": "FeatureCollection",
  "name": "territory-530",
  "features": [
    {
      "type": "Feature",
      "properties": {
        "Name": "Hanthawaddy Kingdom",
        "FromYear": 1294,
        "ToYear": 1374,
        "Area": 78655.89879878008,
        "Type": "POLITY",
        "Wikipedia": "Hanthawaddy Kingdom",
        "Wikidata": "Q1572529",
        "SeshatID": "",
        "Components": "",
        "MemberOf": ""
      },
      "geometry": {
        "type": "Polygon",
        "coordinates": [
          [
            [
              98.66506958007812,
              16.550434112548828
            ],
            [
              98.63817596435547,
              16.35757064819336
            ],
            [
              98.93278503417969,
              16.35757064819336
            ],
            [
              98.90609741210938,
              16.16470718383789
            ],
            [
              98.49432373046875,
              15.843266487121582
            ],
            [
              98.19135284423828,
              15.77897834777832
            ],
            [
              98.08381652832031,
              15.52182674407959
            ],
            [
              97.78120422363281,
              15.457538604736328
            ],
            [
              97.78956604003906,
              15.52182674407959
            ],
            [
              97.71600341796875,
              15.52182674407959
            ],
            [
              97.69335174560547,
              15.907554626464844
            ],
            [
              97.55474090576172,
              15.971842765808105
            ],
            [
              97.62474060058594,
              16.486146926879883
            ],
            [
              97.40374755859375,
              16.486146926879883
            ],
            [
              97.27415466308594,
              16.614723205566406
            ],
            [
              97.16256713867188,
              16.87187385559082
            ],
            [
              97.19876861572266,
              17.129026412963867
            ],
            [
              97.0512924194336,
              17.129026412963867
            ],
            [
              97.00489807128906,
              17.321889877319336
            ],
            [
              96.9311294555664,
              17.321889877319336
            ],
            [
              96.92353820800781,
              16.743297576904297
            ],
            [
              96.83206939697266,
              16.614723205566406
            ],
            [
              96.66708374023438,
              16.486146926879883
            ],
            [
              96.3724136352539,
              16.486146926879883
            ],
            [
              96.35496520996094,
              16.35757064819336
            ],
            [
              96.03450012207031,
              16.16470718383789
            ],
            [
              95.81361389160156,
              16.16470718383789
            ],
            [
              95.60743713378906,
              15.714691162109375
            ],
            [
              95.3131103515625,
              15.714691162109375
            ],
            [
              95.33806610107422,
              15.907554626464844
            ],
            [
              94.87162017822266,
              15.714691162109375
            ],
            [
              94.81454467773438,
              15.843266487121582
            ],
            [
              94.2423095703125,
              15.971842765808105
            ],
            [
              94.35287475585938,
              16.807586669921875
            ],
            [
              94.57398223876953,
              16.807586669921875
            ],
            [
              94.84796905517578,
              17.193313598632812
            ],
            [
              94.80095672607422,
              17.38617706298828
            ],
            [
              94.91069793701172,
              17.643327713012695
            ],
            [
              94.98450469970703,
              17.643327713012695
            ],
            [
              96.20211791992188,
              17.90047836303711
            ],
            [
              97.16192626953125,
              17.90047836303711
            ],
            [
              97.77141571044922,
              18.029054641723633
            ],
            [
              97.7619857788086,
              17.964767456054688
            ],
            [
              97.83582305908203,
              17.964767456054688
            ],
            [
              97.79826354980469,
              17.707616806030273
            ],
            [
              97.9365234375,
              17.643327713012695
            ],
            [
              97.9178695678711,
              17.514753341674805
            ],
            [
              98.62763977050781,
              16.807586669921875
            ],
            [
              98.60041046142578,
              16.614723205566406
            ],
            [
              98.6740951538086,
              16.614723205566406
            ],
            [
              98.66506958007812,
              16.550434112548828
            ]
          ]
        ]
      }
    }
  ]
}