{
  "type": "FeatureCollection",
  "name": "territory-538",
  "features": [
    {
      "type": "Feature",
      "properties": {
        "Name": "(Personal union of Kingdom of Bohemia with Kingdom of Poland)",
        "FromYear": 1305,
        "ToYear": 1313,
        "Area": 313981.2222304313,
        "Type": "RELATION",
        "Wikipedia": "Wenceslaus II of Bohemia",
        "Wikidata": "Q155581",
        "SeshatID": "cz_bohemian_k_1;pl_piast_dyn_2",
        "Components": "Duchy of Głogów;Duchy of Jawor;(Kingdom of Bohemia);Duchy of Legnica;(Kingdom of Poland);Kingdom of Poland;Kingdom of Bohemia",
        "MemberOf": ""
      },
      "geometry": {
        "type": "Polygon",
        "coordinates": [
          [
            [
              21.79827117919922,
              49.38258361816406
            ],
            [
              22.43976593017578,
              49.051273345947266
            ],
            [
              22.056705474853516,
              48.38986587524414
            ],
            [
              20.576623916625977,
              48.5881233215332
            ],
            [
              20.13701820373535,
              48.191749572753906
            ],
            [
              19.474376678466797,
              48.191749572753906
            ],
            [
              19.523818969726562,
              47.598209381103516
            ],
            [
              19.262161254882812,
              47.33478927612305
            ],
            [
              18.7745361328125,
              47.46647262573242
            ],
            [
              18.622739791870117,
              47.730003356933594
            ],
            [
              17.714326858520508,
              47.730003356933594
            ],
            [
              17.064254760742188,
              47.993770599365234
            ],
            [
              17.056297302246094,
              47.79592514038086
            ],
            [
              16.885942459106445,
              47.664100646972656
            ],
            [
              16.475584030151367,
              47.730003356933594
            ],
            [
              16.63585662841797,
              47.598209381103516
            ],
            [
              16.63099479675293,
              47.46647262573242
            ],
            [
              16.46375846862793,
              47.4006233215332
            ],
            [
              16.452110290527344,
              47.07159423828125
            ],
            [
              16.036643981933594,
              46.94007873535156
            ],
            [
              16.138551712036133,
              47.53233337402344
            ],
            [
              16.303508758544922,
              47.53233337402344
            ],
            [
              16.3150634765625,
              47.86185836791992
            ],
            [
              16.986814498901367,
              48.1257438659668
            ],
            [
              16.989469528198242,
              48.191749572753906
            ],
            [
              16.829010009765625,
              48.323814392089844
            ],
            [
              16.92527961730957,
              48.654239654541016
            ],
            [
              16.84486961364746,
              48.72037124633789
            ],
            [
              16.179914474487305,
              48.72037124633789
            ],
            [
              15.68774127960205,
              48.91886520385742
            ],
            [
              14.940543174743652,
              48.98506164550781
            ],
            [
              14.850005149841309,
              48.72037124633789
            ],
            [
              14.597285270690918,
              48.5881233215332
            ],
            [
              14.100465774536133,
              48.654239654541016
            ],
            [
              13.606999397277832,
              48.91886520385742
            ],
            [
              13.52376937866211,
              48.91886520385742
            ],
            [
              13.525009155273438,
              48.98506164550781
            ],
            [
              13.441741943359375,
              48.98506164550781
            ],
            [
              13.358475685119629,
              48.98506164550781
            ],
            [
              13.112967491149902,
              49.2500114440918
            ],
            [
              12.780244827270508,
              49.316287994384766
            ],
            [
              12.36764907836914,
              49.71431350708008
            ],
            [
              12.370920181274414,
              49.98000717163086
            ],
            [
              12.12159538269043,
              50.17946243286133
            ],
            [
              12.12234115600586,
              50.2459831237793
            ],
            [
              12.290331840515137,
              50.2459831237793
            ],
            [
              12.376081466674805,
              50.37908172607422
            ],
            [
              12.796454429626465,
              50.37908172607422
            ],
            [
              13.2220458984375,
              50.64549255371094
            ],
            [
              13.985281944274902,
              50.84549331665039
            ],
            [
              14.069639205932617,
              50.84549331665039
            ],
            [
              14.153997421264648,
              50.84549331665039
            ],
            [
              14.155805587768555,
              50.912200927734375
            ],
            [
              14.240204811096191,
              50.912200927734375
            ],
            [
              14.2420654296875,
              50.97892379760742
            ],
            [
              14.326505661010742,
              50.97892379760742
            ],
            [
              14.328418731689453,
              51.04566955566406
            ],
            [
              14.497381210327148,
              51.04566955566406
            ],
            [
              14.577799797058105,
              50.912200927734375
            ],
            [
              15.255345344543457,
              50.97892379760742
            ],
            [
              15.416954040527344,
              50.77880859375
            ],
            [
              15.922855377197266,
              50.77880859375
            ],
            [
              15.930866241455078,
              50.97892379760742
            ],
            [
              15.680119514465332,
              51.04566955566406
            ],
            [
              15.693191528320312,
              51.37968063354492
            ],
            [
              15.528964042663574,
              51.51342010498047
            ],
            [
              15.534167289733887,
              51.64724349975586
            ],
            [
              15.19472885131836,
              51.64724349975586
            ],
            [
              14.933256149291992,
              51.44654083251953
            ],
            [
              14.76379108428955,
              51.44654083251953
            ],
            [
              14.600712776184082,
              51.64724349975586
            ],
            [
              14.602863311767578,
              51.71418380737305
            ],
            [
              14.607197761535645,
              51.84812545776367
            ],
            [
              14.951874732971191,
              51.98215103149414
            ],
            [
              14.956645011901855,
              52.11625671386719
            ],
            [
              14.622712135314941,
              52.31757736206055
            ],
            [
              14.708005905151367,
              52.31757736206055
            ],
            [
              14.712623596191406,
              52.4518928527832
            ],
            [
              15.483783721923828,
              52.51908493041992
            ],
            [
              15.577588081359863,
              52.720787048339844
            ],
            [
              16.008432388305664,
              52.78806686401367
            ],
            [
              16.011486053466797,
              52.85536575317383
            ],
            [
              16.281322479248047,
              53.124786376953125
            ],
            [
              16.713966369628906,
              53.192195892333984
            ],
            [
              16.7244930267334,
              53.39456558227539
            ],
            [
              16.90379524230957,
              53.52959060668945
            ],
            [
              16.989904403686523,
              53.52959060668945
            ],
            [
              17.165918350219727,
              53.597137451171875
            ],
            [
              17.158342361450195,
              53.462066650390625
            ],
            [
              17.412626266479492,
              53.39456558227539
            ],
            [
              17.506561279296875,
              53.52959060668945
            ],
            [
              17.678781509399414,
              53.52959060668945
            ],
            [
              17.764890670776367,
              53.52959060668945
            ],
            [
              17.77729606628418,
              53.732303619384766
            ],
            [
              17.53472328186035,
              54.00291442871094
            ],
            [
              17.576114654541016,
              54.681121826171875
            ],
            [
              17.489192962646484,
              54.681121826171875
            ],
            [
              17.49753189086914,
              54.817054748535156
            ],
            [
              17.501720428466797,
              54.88506317138672
            ],
            [
              18.459484100341797,
              54.88506317138672
            ],
            [
              18.44533348083496,
              54.681121826171875
            ],
            [
              18.686851501464844,
              54.4095458984375
            ],
            [
              19.288827896118164,
              54.341712951660156
            ],
            [
              19.375507354736328,
              54.341712951660156
            ],
            [
              19.25849151611328,
              53.93522644042969
            ],
            [
              19.421106338500977,
              53.799922943115234
            ],
            [
              19.40597915649414,
              53.597137451171875
            ],
            [
              19.061355590820312,
              53.597137451171875
            ],
            [
              18.965665817260742,
              53.462066650390625
            ],
            [
              18.616859436035156,
              53.39456558227539
            ],
            [
              18.517410278320312,
              53.192195892333984
            ],
            [
              18.689167022705078,
              53.192195892333984
            ],
            [
              18.928207397460938,
              52.92268753051758
            ],
            [
              19.099597930908203,
              52.92268753051758
            ],
            [
              19.4229793548584,
              52.653533935546875
            ],
            [
              19.48443031311035,
              52.31757736206055
            ],
            [
              20.076417922973633,
              52.250450134277344
            ],
            [
              20.06634521484375,
              52.11625671386719
            ],
            [
              20.306482315063477,
              51.91512680053711
            ],
            [
              20.561574935913086,
              51.91512680053711
            ],
            [
              20.72107696533203,
              51.78114318847656
            ],
            [
              20.710599899291992,
              51.64724349975586
            ],
            [
              21.044660568237305,
              51.580322265625
            ],
            [
              22.10417366027832,
              52.0491943359375
            ],
            [
              22.347232818603516,
              51.91512680053711
            ],
            [
              22.687358856201172,
              51.91512680053711
            ],
            [
              22.6685791015625,
              51.71418380737305
            ],
            [
              22.995450973510742,
              51.580322265625
            ],
            [
              22.87944221496582,
              51.24601745605469
            ],
            [
              23.042409896850586,
              51.17921447753906
            ],
            [
              23.023828506469727,
              50.97892379760742
            ],
            [
              23.10826873779297,
              50.97892379760742
            ],
            [
              23.08979606628418,
              50.77880859375
            ],
            [
              22.91514015197754,
              50.71213912963867
            ],
            [
              22.946025848388672,
              50.11296081542969
            ],
            [
              22.258319854736328,
              49.91355895996094
            ],
            [
              22.158485412597656,
              49.71431350708008
            ],
            [
              21.385677337646484,
              49.44889450073242
            ],
            [
              21.79827117919922,
              49.38258361816406
            ]
          ],
          [
            [
              16.420143127441406,
              50.578861236572266
            ],
            [
              16.335948944091797,
              50.578861236572266
            ],
            [
              16.419195861852657,
              50.55664343709512
            ],
            [
              16.420143127441406,
              50.578861236572266
            ]
          ],
          [
            [
              16.669767379760742,
              50.51224899291992
            ],
            [
              16.58561134338379,
              50.51224899291992
            ],
            [
              16.585535496301766,
              50.51224899291992
            ],
            [
              16.66878418589016,
              50.4900307205591
            ],
            [
              16.669767379760742,
              50.51224899291992
            ]
          ],
          [
            [
              15.56644058227539,
              52.4518928527832
            ],
            [
              15.56368350982666,
              52.38472366333008
            ],
            [
              15.64902114868164,
              52.38472366333008
            ],
            [
              15.651822090148926,
              52.4518928527832
            ],
            [
              15.56644058227539,
              52.4518928527832
            ]
          ]
        ]
      }
    }
  ]
}