{
  "type": "FeatureCollection",
  "name": "territory-539",
  "features": [
    {
      "type": "Feature",
      "properties": {
        "Name": "Beylik of Hamid",
        "FromYear": 1305,
        "ToYear": 1325,
        "Area": 57306.95634276229,
        "Type": "POLITY",
        "Wikipedia": "Hamidids",
        "Wikidata": "Q2410637",
        "SeshatID": "",
        "Components": "",
        "MemberOf": ""
      },
      "geometry": {
        "type": "Polygon",
        "coordinates": [
          [
            [
              31.03112030029297,
              37.1904182434082
            ],
            [
              31.40899085998535,
              37.06150817871094
            ],
            [
              31.960105895996094,
              37.12596130371094
            ],
            [
              31.76885223388672,
              36.73930740356445
            ],
            [
              31.691089630126953,
              36.73930740356445
            ],
            [
              31.08603858947754,
              36.932613372802734
            ],
            [
              30.619068145751953,
              36.932613372802734
            ],
            [
              30.49193572998047,
              36.3527946472168
            ],
            [
              30.02613639831543,
              36.3527946472168
            ],
            [
              29.938032150268555,
              36.2239875793457
            ],
            [
              29.239721298217773,
              36.2239875793457
            ],
            [
              29.124916076660156,
              36.73930740356445
            ],
            [
              28.736103057861328,
              36.73930740356445
            ],
            [
              28.512718200683594,
              36.8681755065918
            ],
            [
              28.434911727905273,
              36.8681755065918
            ],
            [
              28.630977630615234,
              37.38381576538086
            ],
            [
              28.71411895751953,
              37.44829177856445
            ],
            [
              28.677833557128906,
              37.96426773071289
            ],
            [
              28.37550163269043,
              38.09331130981445
            ],
            [
              28.642396926879883,
              38.48057174682617
            ],
            [
              30.149328231811523,
              38.67427444458008
            ],
            [
              30.48135757446289,
              38.8680305480957
            ],
            [
              31.03731346130371,
              38.93262481689453
            ],
            [
              31.031021118164062,
              38.8680305480957
            ],
            [
              31.02475357055664,
              38.80344009399414
            ],
            [
              30.94625473022461,
              38.80344009399414
            ],
            [
              30.940032958984375,
              38.738853454589844
            ],
            [
              30.933835983276367,
              38.67427444458008
            ],
            [
              31.012287139892578,
              38.67427444458008
            ],
            [
              31.404542922973633,
              38.67427444458008
            ],
            [
              31.84954261779785,
              38.416015625
            ],
            [
              31.843175888061523,
              38.351463317871094
            ],
            [
              31.51737403869629,
              38.22237777709961
            ],
            [
              30.921676635742188,
              37.706241607666016
            ],
            [
              31.03112030029297,
              37.1904182434082
            ]
          ],
          [
            [
              30.25319480895996,
              38.09331130981445
            ],
            [
              30.24740982055664,
              38.028785705566406
            ],
            [
              30.32562255859375,
              38.028785705566406
            ],
            [
              30.331432342529297,
              38.09331130981445
            ],
            [
              30.25319480895996,
              38.09331130981445
            ]
          ]
        ]
      }
    }
  ]
}