{
  "type": "FeatureCollection",
  "name": "territory-541",
  "features": [
    {
      "type": "Feature",
      "properties": {
        "Name": "Michoacán",
        "FromYear": 1468,
        "ToYear": 1474,
        "Area": 74593.15234352926,
        "Type": "POLITY",
        "Wikipedia": "Michoacán",
        "Wikidata": "Q79861",
        "SeshatID": "",
        "Components": "",
        "MemberOf": ""
      },
      "geometry": {
        "type": "Polygon",
        "coordinates": [
          [
            [
              -101.05933380126953,
              20.214815139770508
            ],
            [
              -101.04713439941406,
              20.150527954101562
            ],
            [
              -100.73854064941406,
              20.08624267578125
            ],
            [
              -100.29566955566406,
              19.700523376464844
            ],
            [
              -100.32437133789062,
              19.057653427124023
            ],
            [
              -100.39834594726562,
              19.057653427124023
            ],
            [
              -100.28895568847656,
              18.864791870117188
            ],
            [
              -100.48725891113281,
              18.736217498779297
            ],
            [
              -100.4172592163086,
              18.350492477416992
            ],
            [
              -100.68963623046875,
              18.2219181060791
            ],
            [
              -101.56443786621094,
              18.157629013061523
            ],
            [
              -101.71674346923828,
              17.77190399169922
            ],
            [
              -101.89891815185547,
              17.964767456054688
            ],
            [
              -102.25653076171875,
              17.90047836303711
            ],
            [
              -102.64896392822266,
              18.029054641723633
            ],
            [
              -102.51294708251953,
              18.093341827392578
            ],
            [
              -102.41218566894531,
              18.350492477416992
            ],
            [
              -102.20230865478516,
              18.414779663085938
            ],
            [
              -102.17581176757812,
              18.67193031311035
            ],
            [
              -102.59552001953125,
              18.543354034423828
            ],
            [
              -102.64567565917969,
              18.414779663085938
            ],
            [
              -102.9650650024414,
              18.543354034423828
            ],
            [
              -103.0749282836914,
              18.736217498779297
            ],
            [
              -102.70362091064453,
              19.12194061279297
            ],
            [
              -102.86373138427734,
              19.186227798461914
            ],
            [
              -102.98654174804688,
              19.443374633789062
            ],
            [
              -103.22088623046875,
              19.507661819458008
            ],
            [
              -103.35665130615234,
              19.443374633789062
            ],
            [
              -103.39388275146484,
              19.25051498413086
            ],
            [
              -103.7884521484375,
              19.379087448120117
            ],
            [
              -103.99835968017578,
              19.700523376464844
            ],
            [
              -104.09820556640625,
              20.214815139770508
            ],
            [
              -103.76519775390625,
              20.40767478942871
            ],
            [
              -101.7633285522461,
              20.40767478942871
            ],
            [
              -101.05933380126953,
              20.214815139770508
            ]
          ]
        ]
      }
    }
  ]
}