{
  "type": "FeatureCollection",
  "name": "territory-543",
  "features": [
    {
      "type": "Feature",
      "properties": {
        "Name": "(Allegiance of Teutonic Order to Holy Roman Empire)",
        "FromYear": 1333,
        "ToYear": 1343,
        "Area": 1057020.149491037,
        "Type": "RELATION",
        "Wikipedia": "Teutonic Order",
        "Wikidata": "Q48189",
        "SeshatID": "pl_teutonic_order;de_empire_3",
        "Components": "Swiss Confederation;County of Holland;County of Savoy;(Kingdom of Bohemia);Republic of Florence;Principality of Orange;Kingdom of Bohemia;House of Luxembourg;Electorate of Trier;House of Habsburg;Free County of Burgundy;House of Ascania;(Holy Roman Empire);Teutonic Order;Margraviate of Brandenburg;Holy Roman Empire Minor States;County of Brabant;Patriarchate of Aquileia",
        "MemberOf": ""
      },
      "geometry": {
        "type": "MultiPolygon",
        "coordinates": [
          [
            [
              [
                4.95694637298584,
                44.25482940673828
              ],
              [
                5.039933204650879,
                44.18956756591797
              ],
              [
                4.799726963043213,
                44.12431716918945
              ],
              [
                4.876103401184082,
                44.25482940673828
              ],
              [
                4.95694637298584,
                44.25482940673828
              ]
            ]
          ],
          [
            [
              [
                5.889627456665039,
                45.56227111816406
              ],
              [
                5.812080860137939,
                45.431331634521484
              ],
              [
                5.649256229400635,
                45.431331634521484
              ],
              [
                5.478028297424316,
                45.693260192871094
              ],
              [
                5.154103755950928,
                45.62776184082031
              ],
              [
                5.07259464263916,
                45.62776184082031
              ],
              [
                5.065754413604736,
                45.82429504394531
              ],
              [
                5.147360801696777,
                45.82429504394531
              ],
              [
                5.295057773590088,
                46.283294677734375
              ],
              [
                5.376893997192383,
                46.283294677734375
              ],
              [
                5.432206630706787,
                47.07159423828125
              ],
              [
                5.594502449035645,
                47.13737487792969
              ],
              [
                5.576864242553711,
                47.664100646972656
              ],
              [
                5.659412384033203,
                47.664100646972656
              ],
              [
                5.657218933105469,
                47.730003356933594
              ],
              [
                5.73980188369751,
                47.730003356933594
              ],
              [
                5.822384834289551,
                47.730003356933594
              ],
              [
                5.82025671005249,
                47.79592514038086
              ],
              [
                5.818123817443848,
                47.86185836791992
              ],
              [
                5.646180152893066,
                48.059749603271484
              ],
              [
                5.480661869049072,
                48.059749603271484
              ],
              [
                5.47376823425293,
                48.257774353027344
              ],
              [
                5.217910766601562,
                48.455936431884766
              ],
              [
                4.883440971374512,
                48.52202224731445
              ],
              [
                4.865273475646973,
                48.98506164550781
              ],
              [
                5.026719093322754,
                49.11750411987305
              ],
              [
                4.85741138458252,
                49.18375015258789
              ],
              [
                4.674346446990967,
                49.58156967163086
              ],
              [
                4.576823711395264,
                49.91355895996094
              ],
              [
                4.493024826049805,
                49.91355895996094
              ],
              [
                4.490188121795654,
                49.98000717163086
              ],
              [
                4.406350135803223,
                49.98000717163086
              ],
              [
                4.322512626647949,
                49.98000717163086
              ],
              [
                4.238675117492676,
                49.98000717163086
              ],
              [
                4.154837608337402,
                49.98000717163086
              ],
              [
                4.151839256286621,
                50.04647445678711
              ],
              [
                4.067962169647217,
                50.04647445678711
              ],
              [
                4.071000099182129,
                49.98000717163086
              ],
              [
                3.987162351608276,
                49.98000717163086
              ],
              [
                3.984085559844971,
                50.04647445678711
              ],
              [
                3.900208711624146,
                50.04647445678711
              ],
              [
                3.816332101821899,
                50.04647445678711
              ],
              [
                3.813170909881592,
                50.11296081542969
              ],
              [
                3.729254722595215,
                50.11296081542969
              ],
              [
                2.554430246353149,
                50.11296081542969
              ],
              [
                1.782671809196472,
                50.37908172607422
              ],
              [
                1.601793885231018,
                50.578861236572266
              ],
              [
                1.841925024986267,
                50.77880859375
              ],
              [
                1.580376505851746,
                50.912200927734375
              ],
              [
                1.576062202453613,
                50.97892379760742
              ],
              [
                1.990016341209412,
                51.112430572509766
              ],
              [
                2.074539184570312,
                51.112430572509766
              ],
              [
                2.094875812530518,
                50.77880859375
              ],
              [
                2.263509750366211,
                50.77880859375
              ],
              [
                2.271415710449219,
                50.64549255371094
              ],
              [
                2.776829481124878,
                50.64549255371094
              ],
              [
                3.211941242218018,
                50.37908172607422
              ],
              [
                3.296015977859497,
                50.37908172607422
              ],
              [
                3.37329888343811,
                50.51224899291992
              ],
              [
                3.541608572006226,
                50.51224899291992
              ],
              [
                3.700162887573242,
                50.71213912963867
              ],
              [
                4.034165859222412,
                50.77880859375
              ],
              [
                4.10617733001709,
                51.04566955566406
              ],
              [
                4.269116878509521,
                51.17921447753906
              ],
              [
                4.263070583343506,
                51.31283950805664
              ],
              [
                4.087535381317139,
                51.44654083251953
              ],
              [
                4.08440637588501,
                51.51342010498047
              ],
              [
                3.999631881713867,
                51.51342010498047
              ],
              [
                3.40621018409729,
                51.51342010498047
              ],
              [
                3.399252653121948,
                51.64724349975586
              ],
              [
                3.738690614700317,
                51.64724349975586
              ],
              [
                3.647099733352661,
                51.78114318847656
              ],
              [
                3.81699013710022,
                51.78114318847656
              ],
              [
                3.810401916503906,
                51.91512680053711
              ],
              [
                3.980464458465576,
                51.91512680053711
              ],
              [
                3.974021434783936,
                52.0491943359375
              ],
              [
                4.223166942596436,
                52.18334197998047
              ],
              [
                4.21693229675293,
                52.31757736206055
              ],
              [
                4.463808536529541,
                52.51908493041992
              ],
              [
                4.534325122833252,
                52.85536575317383
              ],
              [
                4.702715873718262,
                52.92268753051758
              ],
              [
                4.608114719390869,
                53.124786376953125
              ],
              [
                4.691011905670166,
                53.192195892333984
              ],
              [
                4.862768650054932,
                53.192195892333984
              ],
              [
                4.785540580749512,
                52.99003219604492
              ],
              [
                4.871281623840332,
                52.99003219604492
              ],
              [
                4.970867156982422,
                52.653533935546875
              ],
              [
                5.056382656097412,
                52.653533935546875
              ],
              [
                5.053669929504395,
                52.720787048339844
              ],
              [
                5.390830039978027,
                52.85536575317383
              ],
              [
                5.385728359222412,
                52.99003219604492
              ],
              [
                5.20894193649292,
                53.124786376953125
              ],
              [
                5.542333602905273,
                53.39456558227539
              ],
              [
                6.226210117340088,
                53.52959060668945
              ],
              [
                6.916844367980957,
                53.462066650390625
              ],
              [
                6.913325786590576,
                53.597137451171875
              ],
              [
                7.082295417785645,
                53.732303619384766
              ],
              [
                7.944795608520508,
                53.732303619384766
              ],
              [
                8.032201766967773,
                53.664710998535156
              ],
              [
                7.94840145111084,
                53.52959060668945
              ],
              [
                8.120620727539062,
                53.52959060668945
              ],
              [
                8.204607963562012,
                53.664710998535156
              ],
              [
                8.37701416015625,
                53.664710998535156
              ],
              [
                8.459527015686035,
                53.93522644042969
              ],
              [
                8.892172813415527,
                53.86756134033203
              ],
              [
                8.80289077758789,
                54.138362884521484
              ],
              [
                8.802155494689941,
                54.20612335205078
              ],
              [
                8.887362480163574,
                54.341712951660156
              ],
              [
                9.148486137390137,
                54.20612335205078
              ],
              [
                9.927618026733398,
                54.27390670776367
              ],
              [
                10.187621116638184,
                54.47740173339844
              ],
              [
                10.274396896362305,
                54.47740173339844
              ],
              [
                11.054854393005371,
                54.4095458984375
              ],
              [
                11.053302764892578,
                54.20612335205078
              ],
              [
                10.879310607910156,
                54.07062530517578
              ],
              [
                11.397537231445312,
                54.00291442871094
              ],
              [
                11.398930549621582,
                54.138362884521484
              ],
              [
                12.093385696411133,
                54.27390670776367
              ],
              [
                12.4437894821167,
                54.47740173339844
              ],
              [
                13.05121898651123,
                54.47740173339844
              ],
              [
                13.14309310913086,
                54.681121826171875
              ],
              [
                13.405717849731445,
                54.74907684326172
              ],
              [
                13.662626266479492,
                54.613189697265625
              ],
              [
                13.739368438720703,
                54.27390670776367
              ],
              [
                13.304450988769531,
                54.20612335205078
              ],
              [
                14.165812492370605,
                54.07062530517578
              ],
              [
                14.159177780151367,
                53.86756134033203
              ],
              [
                13.98438835144043,
                53.799922943115234
              ],
              [
                14.499796867370605,
                53.732303619384766
              ],
              [
                14.50934886932373,
                54.00291442871094
              ],
              [
                15.036103248596191,
                54.20612335205078
              ],
              [
                15.991765975952148,
                54.27390670776367
              ],
              [
                16.619972229003906,
                54.681121826171875
              ],
              [
                17.410511016845703,
                54.817054748535156
              ],
              [
                17.49753189086914,
                54.817054748535156
              ],
              [
                17.501720428466797,
                54.88506317138672
              ],
              [
                18.459484100341797,
                54.88506317138672
              ],
              [
                18.44533348083496,
                54.681121826171875
              ],
              [
                18.686851501464844,
                54.4095458984375
              ],
              [
                19.462186813354492,
                54.341712951660156
              ],
              [
                19.559396743774414,
                54.47740173339844
              ],
              [
                19.819725036621094,
                54.47740173339844
              ],
              [
                19.830615997314453,
                54.613189697265625
              ],
              [
                20.004362106323242,
                54.613189697265625
              ],
              [
                19.83608627319336,
                54.681121826171875
              ],
              [
                19.950855255126953,
                55.021148681640625
              ],
              [
                20.654220581054688,
                55.089229583740234
              ],
              [
                20.72932243347168,
                54.95309066772461
              ],
              [
                20.990678787231445,
                54.95309066772461
              ],
              [
                21.202974319458008,
                55.36180877685547
              ],
              [
                20.96585464477539,
                55.63479995727539
              ],
              [
                20.98489761352539,
                55.83982467651367
              ],
              [
                20.991283416748047,
                55.90821838378906
              ],
              [
                21.248220443725586,
                55.83982467651367
              ],
              [
                21.235198974609375,
                55.70311737060547
              ],
              [
                21.640066146850586,
                55.36180877685547
              ],
              [
                22.070266723632812,
                55.29362487792969
              ],
              [
                22.31136703491211,
                55.089229583740234
              ],
              [
                22.573020935058594,
                55.089229583740234
              ],
              [
                22.812959671020508,
                54.88506317138672
              ],
              [
                22.704511642456055,
                54.681121826171875
              ],
              [
                22.69742774963379,
                54.613189697265625
              ],
              [
                22.66232681274414,
                54.27390670776367
              ],
              [
                22.482206344604492,
                54.20612335205078
              ],
              [
                22.461759567260742,
                54.00291442871094
              ],
              [
                22.548198699951172,
                54.00291442871094
              ],
              [
                22.42144775390625,
                53.597137451171875
              ],
              [
                21.28936767578125,
                53.462066650390625
              ],
              [
                20.224271774291992,
                53.057395935058594
              ],
              [
                20.127946853637695,
                52.92268753051758
              ],
              [
                20.11748695373535,
                52.78806686401367
              ],
              [
                20.203092575073242,
                52.78806686401367
              ],
              [
                20.06634521484375,
                52.11625671386719
              ],
              [
                20.226503372192383,
                51.98215103149414
              ],
              [
                19.871623992919922,
                51.78114318847656
              ],
              [
                19.62150001525879,
                51.84812545776367
              ],
              [
                18.653339385986328,
                52.653533935546875
              ],
              [
                18.66219711303711,
                52.78806686401367
              ],
              [
                18.3326416015625,
                52.99003219604492
              ],
              [
                18.26409912109375,
                53.25962829589844
              ],
              [
                18.100759506225586,
                53.39456558227539
              ],
              [
                17.928726196289062,
                53.39456558227539
              ],
              [
                17.85099983215332,
                53.52959060668945
              ],
              [
                17.506561279296875,
                53.52959060668945
              ],
              [
                17.326608657836914,
                53.39456558227539
              ],
              [
                17.079761505126953,
                53.597137451171875
              ],
              [
                16.99360466003418,
                53.597137451171875
              ],
              [
                16.989904403686523,
                53.52959060668945
              ],
              [
                16.90379524230957,
                53.52959060668945
              ],
              [
                16.7244930267334,
                53.39456558227539
              ],
              [
                16.713966369628906,
                53.192195892333984
              ],
              [
                16.281322479248047,
                53.124786376953125
              ],
              [
                16.011486053466797,
                52.85536575317383
              ],
              [
                16.008432388305664,
                52.78806686401367
              ],
              [
                15.48926830291748,
                52.653533935546875
              ],
              [
                15.646231651306152,
                52.31757736206055
              ],
              [
                15.987404823303223,
                52.31757736206055
              ],
              [
                16.136985778808594,
                51.84812545776367
              ],
              [
                16.718996047973633,
                51.580322265625
              ],
              [
                16.980127334594727,
                51.71418380737305
              ],
              [
                17.31973648071289,
                51.71418380737305
              ],
              [
                17.549257278442383,
                51.24601745605469
              ],
              [
                17.972288131713867,
                51.24601745605469
              ],
              [
                18.049345016479492,
                51.112430572509766
              ],
              [
                18.709320068359375,
                50.84549331665039
              ],
              [
                18.70132827758789,
                50.71213912963867
              ],
              [
                19.030193328857422,
                50.578861236572266
              ],
              [
                19.022031784057617,
                50.445655822753906
              ],
              [
                19.18613052368164,
                50.37908172607422
              ],
              [
                19.17385482788086,
                50.17946243286133
              ],
              [
                19.089900970458984,
                50.17946243286133
              ],
              [
                19.085887908935547,
                50.11296081542969
              ],
              [
                19.081897735595703,
                50.04647445678711
              ],
              [
                19.165773391723633,
                50.04647445678711
              ],
              [
                19.23756217956543,
                49.84712600708008
              ],
              [
                18.88353729248047,
                49.51522445678711
              ],
              [
                18.378620147705078,
                49.44889450073242
              ],
              [
                17.938142776489258,
                48.98506164550781
              ],
              [
                16.927988052368164,
                48.72037124633789
              ],
              [
                16.829010009765625,
                48.323814392089844
              ],
              [
                16.989469528198242,
                48.191749572753906
              ],
              [
                16.986814498901367,
                48.1257438659668
              ],
              [
                16.3150634765625,
                47.86185836791992
              ],
              [
                16.303508758544922,
                47.53233337402344
              ],
              [
                16.138551712036133,
                47.53233337402344
              ],
              [
                16.032390594482422,
                46.808616638183594
              ],
              [
                15.864084243774414,
                46.677207946777344
              ],
              [
                16.01764488220215,
                46.348915100097656
              ],
              [
                15.604452133178711,
                46.21768569946289
              ],
              [
                15.678460121154785,
                45.95537567138672
              ],
              [
                15.513239860534668,
                45.889827728271484
              ],
              [
                15.264768600463867,
                45.75876998901367
              ],
              [
                15.339118957519531,
                45.496795654296875
              ],
              [
                14.44612979888916,
                45.62776184082031
              ],
              [
                14.278955459594727,
                45.431331634521484
              ],
              [
                14.189410209655762,
                45.03877639770508
              ],
              [
                13.865758895874023,
                45.10417556762695
              ],
              [
                13.866988182067871,
                45.169586181640625
              ],
              [
                13.786900520324707,
                45.23500442504883
              ],
              [
                14.117451667785645,
                45.496795654296875
              ],
              [
                14.03600788116455,
                45.496795654296875
              ],
              [
                13.95456314086914,
                45.496795654296875
              ],
              [
                13.70906925201416,
                45.431331634521484
              ],
              [
                13.714865684509277,
                45.75876998901367
              ],
              [
                13.633292198181152,
                45.75876998901367
              ],
              [
                13.551718711853027,
                45.75876998901367
              ],
              [
                13.14384937286377,
                45.75876998901367
              ],
              [
                13.14291763305664,
                45.693260192871094
              ],
              [
                13.061376571655273,
                45.693260192871094
              ],
              [
                12.9815673828125,
                45.82429504394531
              ],
              [
                12.49125862121582,
                45.75876998901367
              ],
              [
                12.000378608703613,
                45.56227111816406
              ],
              [
                11.998926162719727,
                45.36587905883789
              ],
              [
                12.161685943603516,
                45.36587905883789
              ],
              [
                12.161133766174316,
                45.300437927246094
              ],
              [
                12.160021781921387,
                45.169586181640625
              ],
              [
                12.40256118774414,
                45.03877639770508
              ],
              [
                12.399906158447266,
                44.77729415893555
              ],
              [
                12.156624794006348,
                44.77729415893555
              ],
              [
                12.156049728393555,
                44.71194839477539
              ],
              [
                11.993412017822266,
                44.64661407470703
              ],
              [
                11.751571655273438,
                44.842647552490234
              ],
              [
                11.346199035644531,
                44.908016204833984
              ],
              [
                11.182066917419434,
                44.32010269165039
              ],
              [
                11.505900382995605,
                44.38538360595703
              ],
              [
                11.746879577636719,
                44.12431716918945
              ],
              [
                11.744671821594238,
                43.79821014404297
              ],
              [
                12.226542472839355,
                43.6026611328125
              ],
              [
                12.144204139709473,
                43.407203674316406
              ],
              [
                11.82194709777832,
                43.342071533203125
              ],
              [
                11.900826454162598,
                43.146724700927734
              ],
              [
                11.981149673461914,
                43.146724700927734
              ],
              [
                12.0580472946167,
                42.75628662109375
              ],
              [
                11.736565589904785,
                42.62621307373047
              ],
              [
                11.574831008911133,
                42.36617660522461
              ],
              [
                11.494861602783203,
                42.36617660522461
              ],
              [
                11.414892196655273,
                42.36617660522461
              ],
              [
                11.415224075317383,
                42.43117141723633
              ],
              [
                11.335225105285645,
                42.43117141723633
              ],
              [
                11.255227088928223,
                42.43117141723633
              ],
              [
                11.255500793457031,
                42.496177673339844
              ],
              [
                11.175962448120117,
                42.62621307373047
              ],
              [
                11.015789985656738,
                42.62621307373047
              ],
              [
                11.01634693145752,
                42.82133865356445
              ],
              [
                10.776015281677246,
                42.95146560668945
              ],
              [
                10.77629566192627,
                43.146724700927734
              ],
              [
                10.776388168334961,
                43.211830139160156
              ],
              [
                10.615739822387695,
                43.342071533203125
              ],
              [
                10.696523666381836,
                43.79821014404297
              ],
              [
                10.212483406066895,
                43.92862319946289
              ],
              [
                10.212339401245117,
                43.99384307861328
              ],
              [
                10.131620407104492,
                43.99384307861328
              ],
              [
                10.13144302368164,
                44.05907440185547
              ],
              [
                10.05069351196289,
                44.05907440185547
              ],
              [
                10.050901412963867,
                43.99384307861328
              ],
              [
                9.970182418823242,
                43.99384307861328
              ],
              [
                9.969943046569824,
                44.05907440185547
              ],
              [
                9.969700813293457,
                44.12431716918945
              ],
              [
                9.64546012878418,
                44.32010269165039
              ],
              [
                9.644309997558594,
                44.5159797668457
              ],
              [
                9.481462478637695,
                44.64661407470703
              ],
              [
                9.156752586364746,
                44.71194839477539
              ],
              [
                8.994627952575684,
                44.71194839477539
              ],
              [
                8.914925575256348,
                44.58129119873047
              ],
              [
                8.590126037597656,
                44.64661407470703
              ],
              [
                8.349712371826172,
                44.45067596435547
              ],
              [
                8.35147476196289,
                44.32010269165039
              ],
              [
                8.352349281311035,
                44.25482940673828
              ],
              [
                8.271506309509277,
                44.25482940673828
              ],
              [
                8.272406578063965,
                44.18956756591797
              ],
              [
                8.191595077514648,
                44.18956756591797
              ],
              [
                8.192523002624512,
                44.12431716918945
              ],
              [
                7.465495109558105,
                44.12431716918945
              ],
              [
                7.465495109558105,
                44.12431716918945
              ],
              [
                6.895741939544678,
                44.32010269165039
              ],
              [
                6.968075275421143,
                44.71194839477539
              ],
              [
                6.966631412506104,
                44.77729415893555
              ],
              [
                6.965181350708008,
                44.842647552490234
              ],
              [
                6.637507915496826,
                44.973392486572266
              ],
              [
                6.634309768676758,
                45.10417556762695
              ],
              [
                6.309300899505615,
                45.10417556762695
              ],
              [
                6.21734094619751,
                45.496795654296875
              ],
              [
                5.889627456665039,
                45.56227111816406
              ]
            ],
            [
              [
                3.632314682006836,
                50.37908172607422
              ],
              [
                3.581818025086298,
                50.37908172607422
              ],
              [
                3.64209246635437,
                50.17946243286133
              ],
              [
                3.638839721679688,
                50.2459831237793
              ],
              [
                3.635580539703369,
                50.312522888183594
              ],
              [
                3.632314682006836,
                50.37908172607422
              ]
            ],
            [
              [
                14.43099308013916,
                51.64724349975586
              ],
              [
                14.515852928161621,
                51.64724349975586
              ],
              [
                14.600712776184082,
                51.64724349975586
              ],
              [
                14.602863311767578,
                51.71418380737305
              ],
              [
                14.3461332321167,
                51.64724349975586
              ],
              [
                14.43099308013916,
                51.64724349975586
              ]
            ],
            [
              [
                13.47651481628418,
                46.1520881652832
              ],
              [
                13.31297492980957,
                46.1520881652832
              ],
              [
                13.309985160827637,
                45.95537567138672
              ],
              [
                13.474390029907227,
                46.02093505859375
              ],
              [
                13.5560941696167,
                46.02093505859375
              ],
              [
                13.47651481628418,
                46.1520881652832
              ]
            ]
          ],
          [
            [
              [
                25.94385528564453,
                56.799827575683594
              ],
              [
                26.18030548095703,
                56.59365463256836
              ],
              [
                26.072818756103516,
                56.45634460449219
              ],
              [
                26.318201065063477,
                56.319149017333984
              ],
              [
                26.367769241333008,
                56.04508590698242
              ],
              [
                26.80741310119629,
                56.04508590698242
              ],
              [
                27.091259002685547,
                56.182064056396484
              ],
              [
                26.92516326904297,
                56.25059127807617
              ],
              [
                26.86699676513672,
                56.45634460449219
              ],
              [
                26.59242820739746,
                56.387733459472656
              ],
              [
                26.455169677734375,
                56.662349700927734
              ],
              [
                26.82892417907715,
                56.799827575683594
              ],
              [
                27.182950973510742,
                56.799827575683594
              ],
              [
                27.162372589111328,
                56.662349700927734
              ],
              [
                27.791820526123047,
                56.731075286865234
              ],
              [
                27.880273818969727,
                56.731075286865234
              ],
              [
                28.123947143554688,
                56.59365463256836
              ],
              [
                28.14765167236328,
                56.182064056396484
              ],
              [
                27.971586227416992,
                56.182064056396484
              ],
              [
                27.470035552978516,
                55.77145767211914
              ],
              [
                26.865774154663086,
                55.83982467651367
              ],
              [
                26.583187103271484,
                55.70311737060547
              ],
              [
                25.8309326171875,
                55.97663879394531
              ],
              [
                25.761505126953125,
                56.11355972290039
              ],
              [
                25.066509246826172,
                56.182064056396484
              ],
              [
                24.82863998413086,
                56.387733459472656
              ],
              [
                24.1064510345459,
                56.25059127807617
              ],
              [
                22.190176010131836,
                56.45634460449219
              ],
              [
                22.19741439819336,
                56.524986267089844
              ],
              [
                21.844234466552734,
                56.524986267089844
              ],
              [
                21.769948959350586,
                56.662349700927734
              ],
              [
                21.86543846130371,
                56.731075286865234
              ],
              [
                21.695531845092773,
                56.799827575683594
              ],
              [
                21.57248306274414,
                56.45634460449219
              ],
              [
                21.56563377380371,
                56.387733459472656
              ],
              [
                20.916179656982422,
                56.04508590698242
              ],
              [
                20.92256736755371,
                56.11355972290039
              ],
              [
                20.866546630859375,
                56.45634460449219
              ],
              [
                20.954788208007812,
                56.45634460449219
              ],
              [
                20.987478256225586,
                56.799827575683594
              ],
              [
                21.24626350402832,
                56.731075286865234
              ],
              [
                21.232851028442383,
                56.59365463256836
              ],
              [
                21.41634750366211,
                56.662349700927734
              ],
              [
                21.36885643005371,
                57.07511901855469
              ],
              [
                21.280134201049805,
                57.07511901855469
              ],
              [
                21.307584762573242,
                57.35087585449219
              ],
              [
                21.506582260131836,
                57.55800247192383
              ],
              [
                21.677616119384766,
                57.488929748535156
              ],
              [
                21.649137496948242,
                57.21294021606445
              ],
              [
                22.00445556640625,
                57.21294021606445
              ],
              [
                22.204421997070312,
                57.41988754272461
              ],
              [
                22.374841690063477,
                57.35087585449219
              ],
              [
                22.746185302734375,
                57.488929748535156
              ],
              [
                22.672710418701172,
                57.62710189819336
              ],
              [
                22.851024627685547,
                57.62710189819336
              ],
              [
                23.40944480895996,
                57.07511901855469
              ],
              [
                23.667341232299805,
                57.00625228881836
              ],
              [
                23.473756790161133,
                56.86860656738281
              ],
              [
                23.739437103271484,
                56.86860656738281
              ],
              [
                23.81141471862793,
                56.731075286865234
              ],
              [
                24.439241409301758,
                56.799827575683594
              ],
              [
                24.527748107910156,
                56.799827575683594
              ],
              [
                25.50132179260254,
                56.799827575683594
              ],
              [
                25.69721221923828,
                56.937416076660156
              ],
              [
                25.766841888427734,
                56.799827575683594
              ],
              [
                25.94385528564453,
                56.799827575683594
              ]
            ]
          ],
          [
            [
              [
                21.681549072265625,
                56.662349700927734
              ],
              [
                21.68853187561035,
                56.731075286865234
              ],
              [
                21.77698516845703,
                56.731075286865234
              ],
              [
                21.769948959350586,
                56.662349700927734
              ],
              [
                21.681549072265625,
                56.662349700927734
              ]
            ]
          ],
          [
            [
              [
                26.678424835205078,
                58.180992126464844
              ],
              [
                26.768028259277344,
                58.180992126464844
              ],
              [
                26.73659324645996,
                57.97305679321289
              ],
              [
                27.105005264282227,
                58.042335510253906
              ],
              [
                27.273202896118164,
                57.97305679321289
              ],
              [
                27.251724243164062,
                57.8345832824707
              ],
              [
                27.43037223815918,
                57.8345832824707
              ],
              [
                27.398048400878906,
                57.62710189819336
              ],
              [
                27.198556900024414,
                57.488929748535156
              ],
              [
                27.255897521972656,
                57.28189468383789
              ],
              [
                26.89006996154785,
                57.21294021606445
              ],
              [
                26.643869400024414,
                57.35087585449219
              ],
              [
                25.942115783691406,
                57.41988754272461
              ],
              [
                25.961698532104492,
                57.55800247192383
              ],
              [
                25.42708396911621,
                57.55800247192383
              ],
              [
                25.32855987548828,
                57.488929748535156
              ],
              [
                25.487674713134766,
                57.35087585449219
              ],
              [
                25.361310958862305,
                57.07511901855469
              ],
              [
                24.447917938232422,
                56.86860656738281
              ],
              [
                23.9417724609375,
                57.07511901855469
              ],
              [
                24.144969940185547,
                57.28189468383789
              ],
              [
                24.402847290039062,
                57.21294021606445
              ],
              [
                24.60722541809082,
                57.41988754272461
              ],
              [
                24.78520965576172,
                57.41988754272461
              ],
              [
                24.72332763671875,
                57.62710189819336
              ],
              [
                24.990800857543945,
                57.62710189819336
              ],
              [
                24.920066833496094,
                57.7653923034668
              ],
              [
                25.009334564208984,
                57.7653923034668
              ],
              [
                25.027973175048828,
                57.903804779052734
              ],
              [
                24.59926414489746,
                58.042335510253906
              ],
              [
                24.232419967651367,
                57.97305679321289
              ],
              [
                24.38495445251465,
                58.45867156982422
              ],
              [
                24.583101272583008,
                58.59769821166992
              ],
              [
                24.592384338378906,
                58.66725540161133
              ],
              [
                24.971494674682617,
                58.80647277832031
              ],
              [
                25.18093490600586,
                59.015533447265625
              ],
              [
                25.732818603515625,
                59.08528518676758
              ],
              [
                25.954833984375,
                59.36461639404297
              ],
              [
                26.136001586914062,
                59.36461639404297
              ],
              [
                26.153352737426758,
                58.876129150390625
              ],
              [
                26.42387580871582,
                58.876129150390625
              ],
              [
                26.535289764404297,
                59.015533447265625
              ],
              [
                27.110170364379883,
                59.22488784790039
              ],
              [
                27.370315551757812,
                59.15507125854492
              ],
              [
                27.359094619750977,
                59.08528518676758
              ],
              [
                27.404638290405273,
                58.80647277832031
              ],
              [
                26.964920043945312,
                58.876129150390625
              ],
              [
                26.874746322631836,
                58.876129150390625
              ],
              [
                26.932416915893555,
                58.66725540161133
              ],
              [
                26.75241470336914,
                58.66725540161133
              ],
              [
                26.83169937133789,
                58.59769821166992
              ],
              [
                26.731124877929688,
                58.528167724609375
              ],
              [
                26.678424835205078,
                58.180992126464844
              ]
            ]
          ],
          [
            [
              [
                22.76801872253418,
                58.45867156982422
              ],
              [
                22.93134117126465,
                58.31977081298828
              ],
              [
                22.287872314453125,
                58.180992126464844
              ],
              [
                22.078466415405273,
                57.903804779052734
              ],
              [
                21.899707794189453,
                57.903804779052734
              ],
              [
                22.01906394958496,
                58.180992126464844
              ],
              [
                21.93695068359375,
                58.2503662109375
              ],
              [
                22.213611602783203,
                58.31977081298828
              ],
              [
                22.303327560424805,
                58.31977081298828
              ],
              [
                22.50644874572754,
                58.528167724609375
              ],
              [
                22.432353973388672,
                58.66725540161133
              ],
              [
                22.882360458374023,
                58.66725540161133
              ],
              [
                22.76801872253418,
                58.45867156982422
              ]
            ]
          ],
          [
            [
              [
                23.43092918395996,
                58.73685073852539
              ],
              [
                23.619747161865234,
                58.80647277832031
              ],
              [
                23.709863662719727,
                58.80647277832031
              ],
              [
                23.872373580932617,
                58.66725540161133
              ],
              [
                23.68366241455078,
                58.59769821166992
              ],
              [
                23.666316986083984,
                58.45867156982422
              ],
              [
                23.486656188964844,
                58.45867156982422
              ],
              [
                23.43092918395996,
                58.73685073852539
              ]
            ]
          ],
          [
            [
              [
                22.841659545898438,
                59.08528518676758
              ],
              [
                22.898815155029297,
                58.80647277832031
              ],
              [
                22.381933212280273,
                59.015533447265625
              ],
              [
                22.389917373657227,
                59.08528518676758
              ],
              [
                22.841659545898438,
                59.08528518676758
              ]
            ]
          ]
        ]
      }
    }
  ]
}