{
  "type": "FeatureCollection",
  "name": "territory-545",
  "features": [
    {
      "type": "Feature",
      "properties": {
        "Name": "Principality of Wallachia",
        "FromYear": 1395,
        "ToYear": 1401,
        "Area": 74679.7444170476,
        "Type": "POLITY",
        "Wikipedia": "Wallachia",
        "Wikidata": "Q171393",
        "SeshatID": "ro_wallachia_principality_1",
        "Components": "",
        "MemberOf": ""
      },
      "geometry": {
        "type": "Polygon",
        "coordinates": [
          [
            [
              27.630565643310547,
              45.431331634521484
            ],
            [
              27.861310958862305,
              45.300437927246094
            ],
            [
              27.847858428955078,
              45.169586181640625
            ],
            [
              27.99687957763672,
              45.03877639770508
            ],
            [
              27.969886779785156,
              44.77729415893555
            ],
            [
              27.801036834716797,
              44.71194839477539
            ],
            [
              27.787734985351562,
              44.58129119873047
            ],
            [
              27.943035125732422,
              44.5159797668457
            ],
            [
              27.828874588012695,
              44.18956756591797
            ],
            [
              27.492671966552734,
              44.05907440185547
            ],
            [
              26.281423568725586,
              44.05907440185547
            ],
            [
              25.84855079650879,
              43.73301696777344
            ],
            [
              25.434297561645508,
              43.6026611328125
            ],
            [
              24.7954044342041,
              43.6678352355957
            ],
            [
              24.15087890625,
              43.6678352355957
            ],
            [
              23.601760864257812,
              43.86341094970703
            ],
            [
              22.951791763305664,
              43.79821014404297
            ],
            [
              22.894636154174805,
              44.12431716918945
            ],
            [
              22.50443458557129,
              44.32010269165039
            ],
            [
              22.518192291259766,
              44.5159797668457
            ],
            [
              22.689453125,
              44.64661407470703
            ],
            [
              22.531999588012695,
              44.71194839477539
            ],
            [
              22.650352478027344,
              45.23500442504883
            ],
            [
              23.138248443603516,
              45.23500442504883
            ],
            [
              23.47352409362793,
              45.36587905883789
            ],
            [
              23.483562469482422,
              45.496795654296875
            ],
            [
              25.042299270629883,
              45.62776184082031
            ],
            [
              25.34526824951172,
              45.36587905883789
            ],
            [
              25.438228607177734,
              45.496795654296875
            ],
            [
              25.84545135498047,
              45.496795654296875
            ],
            [
              25.93889808654785,
              45.62776184082031
            ],
            [
              26.10191535949707,
              45.62776184082031
            ],
            [
              26.240449905395508,
              45.36587905883789
            ],
            [
              26.41556167602539,
              45.496795654296875
            ],
            [
              26.659894943237305,
              45.496795654296875
            ],
            [
              27.630565643310547,
              45.431331634521484
            ]
          ]
        ]
      }
    }
  ]
}