{
  "type": "FeatureCollection",
  "name": "territory-547",
  "features": [
    {
      "type": "Feature",
      "properties": {
        "Name": "Sagaing Kingdom",
        "FromYear": 1326,
        "ToYear": 1362,
        "Area": 98300.2777376483,
        "Type": "POLITY",
        "Wikipedia": "Sagaing Kingdom",
        "Wikidata": "Q3446223",
        "SeshatID": "",
        "Components": "",
        "MemberOf": ""
      },
      "geometry": {
        "type": "Polygon",
        "coordinates": [
          [
            [
              96.99653625488281,
              22.72198486328125
            ],
            [
              96.98628997802734,
              22.657697677612305
            ],
            [
              95.96891021728516,
              20.857677459716797
            ],
            [
              95.92159271240234,
              20.53624725341797
            ],
            [
              95.6614761352539,
              20.279102325439453
            ],
            [
              95.6238784790039,
              20.021955490112305
            ],
            [
              95.11312103271484,
              19.057653427124023
            ],
            [
              94.86334228515625,
              18.864791870117188
            ],
            [
              94.87261962890625,
              18.929079055786133
            ],
            [
              94.7990493774414,
              19.443374633789062
            ],
            [
              94.72502899169922,
              19.443374633789062
            ],
            [
              94.83631896972656,
              19.700523376464844
            ],
            [
              94.32719421386719,
              20.793392181396484
            ],
            [
              94.33857727050781,
              21.88625717163086
            ],
            [
              94.26424407958984,
              21.88625717163086
            ],
            [
              94.36115264892578,
              22.529123306274414
            ],
            [
              94.28673553466797,
              22.529123306274414
            ],
            [
              94.29658508300781,
              22.59341049194336
            ],
            [
              94.89637756347656,
              23.557723999023438
            ],
            [
              95.62125396728516,
              23.879167556762695
            ],
            [
              96.6880111694336,
              24.00774574279785
            ],
            [
              97.03894805908203,
              23.879167556762695
            ],
            [
              97.42085266113281,
              23.493436813354492
            ],
            [
              96.99653625488281,
              22.72198486328125
            ]
          ]
        ]
      }
    }
  ]
}