{
  "type": "FeatureCollection",
  "name": "territory-549",
  "features": [
    {
      "type": "Feature",
      "properties": {
        "Name": "(Allegiance of Swiss Confederation to Holy Roman Empire)",
        "FromYear": 1453,
        "ToYear": 1458,
        "Area": 1212897.1375141074,
        "Type": "RELATION",
        "Wikipedia": "Switzerland",
        "Wikidata": "Q39",
        "SeshatID": "ch_swiss_conf_1;de_empire_3",
        "Components": "Swiss Confederation;County of Savoy;Republic of Florence;Principality of Orange;Electorate of Trier;House of Habsburg;Duchy of Lorraine;Duchy of Milan;House of Ascania;(Holy Roman Empire);Electorate of Brandenburg;Teutonic Order;Holy Roman Empire Minor States;Duchy of Bavaria",
        "MemberOf": ""
      },
      "geometry": {
        "type": "MultiPolygon",
        "coordinates": [
          [
            [
              [
                5.039933204650879,
                44.18956756591797
              ],
              [
                4.799726963043213,
                44.12431716918945
              ],
              [
                4.876103401184082,
                44.25482940673828
              ],
              [
                4.95694637298584,
                44.25482940673828
              ],
              [
                5.039933204650879,
                44.18956756591797
              ]
            ]
          ],
          [
            [
              [
                7.629331111907959,
                43.99384307861328
              ],
              [
                7.388396263122559,
                43.92862319946289
              ],
              [
                7.310199737548828,
                43.79821014404297
              ],
              [
                7.229573249816895,
                43.79821014404297
              ],
              [
                6.993107318878174,
                43.53750228881836
              ],
              [
                6.91260290145874,
                43.53750228881836
              ],
              [
                6.829278945922852,
                43.6678352355957
              ],
              [
                6.668147563934326,
                43.6678352355957
              ],
              [
                6.660702705383301,
                43.99384307861328
              ],
              [
                6.898605823516846,
                44.18956756591797
              ],
              [
                6.895741939544678,
                44.32010269165039
              ],
              [
                6.966631412506104,
                44.77729415893555
              ],
              [
                6.637507915496826,
                44.973392486572266
              ],
              [
                6.634309768676758,
                45.10417556762695
              ],
              [
                6.309300899505615,
                45.10417556762695
              ],
              [
                6.134057521820068,
                45.56227111816406
              ],
              [
                5.649256229400635,
                45.431331634521484
              ],
              [
                5.478028297424316,
                45.693260192871094
              ],
              [
                5.070321559906006,
                45.693260192871094
              ],
              [
                5.068041324615479,
                45.75876998901367
              ],
              [
                5.065754413604736,
                45.82429504394531
              ],
              [
                5.063460350036621,
                45.889827728271484
              ],
              [
                4.981821060180664,
                45.889827728271484
              ],
              [
                4.979487419128418,
                45.95537567138672
              ],
              [
                4.897816181182861,
                45.95537567138672
              ],
              [
                4.967714786529541,
                46.283294677734375
              ],
              [
                5.867908954620361,
                46.283294677734375
              ],
              [
                6.107663631439209,
                46.480194091796875
              ],
              [
                6.103800296783447,
                46.61152267456055
              ],
              [
                6.506691455841064,
                46.87434005737305
              ],
              [
                6.828584671020508,
                47.13737487792969
              ],
              [
                6.826910972595215,
                47.20316696166992
              ],
              [
                6.909217357635498,
                47.20316696166992
              ],
              [
                6.907573699951172,
                47.26897048950195
              ],
              [
                6.989914417266846,
                47.26897048950195
              ],
              [
                6.988301277160645,
                47.33478927612305
              ],
              [
                6.986684322357178,
                47.4006233215332
              ],
              [
                6.985063552856445,
                47.46647262573242
              ],
              [
                6.983439445495605,
                47.53233337402344
              ],
              [
                6.890934467315674,
                47.92780685424805
              ],
              [
                6.062015533447266,
                47.993770599365234
              ],
              [
                5.881701946258545,
                48.455936431884766
              ],
              [
                5.462185859680176,
                48.5881233215332
              ],
              [
                5.386211395263672,
                48.38986587524414
              ],
              [
                5.303273677825928,
                48.38986587524414
              ],
              [
                5.220335960388184,
                48.38986587524414
              ],
              [
                5.217910766601562,
                48.455936431884766
              ],
              [
                5.134937286376953,
                48.455936431884766
              ],
              [
                5.051963329315186,
                48.455936431884766
              ],
              [
                5.049460887908936,
                48.52202224731445
              ],
              [
                4.966451168060303,
                48.52202224731445
              ],
              [
                4.883440971374512,
                48.52202224731445
              ],
              [
                4.880861282348633,
                48.5881233215332
              ],
              [
                4.878275871276855,
                48.654239654541016
              ],
              [
                5.127524375915527,
                48.654239654541016
              ],
              [
                5.286453723907471,
                48.852684020996094
              ],
              [
                5.296092987060547,
                48.5881233215332
              ],
              [
                5.379139423370361,
                48.5881233215332
              ],
              [
                5.455182075500488,
                48.786521911621094
              ],
              [
                5.868803024291992,
                48.852684020996094
              ],
              [
                5.949869632720947,
                48.91886520385742
              ],
              [
                6.03309965133667,
                48.91886520385742
              ],
              [
                5.864473819732666,
                48.98506164550781
              ],
              [
                5.94133186340332,
                49.18375015258789
              ],
              [
                6.024710655212402,
                49.18375015258789
              ],
              [
                6.108088970184326,
                49.18375015258789
              ],
              [
                6.19146728515625,
                49.18375015258789
              ],
              [
                6.189437389373779,
                49.2500114440918
              ],
              [
                6.272853374481201,
                49.2500114440918
              ],
              [
                6.356269359588623,
                49.2500114440918
              ],
              [
                6.264857769012451,
                49.51522445678711
              ],
              [
                6.346458435058594,
                49.58156967163086
              ],
              [
                6.340545177459717,
                49.78071212768555
              ],
              [
                6.586127281188965,
                49.98000717163086
              ],
              [
                6.582399845123291,
                50.11296081542969
              ],
              [
                6.07469654083252,
                50.2459831237793
              ],
              [
                6.402873992919922,
                50.51224899291992
              ],
              [
                6.068368434906006,
                50.445655822753906
              ],
              [
                6.057772636413574,
                50.77880859375
              ],
              [
                5.973455429077148,
                50.77880859375
              ],
              [
                5.880285263061523,
                51.04566955566406
              ],
              [
                5.711322784423828,
                51.04566955566406
              ],
              [
                5.727356910705566,
                50.578861236572266
              ],
              [
                5.902330875396729,
                50.37908172607422
              ],
              [
                5.479565620422363,
                50.445655822753906
              ],
              [
                5.232241630554199,
                50.312522888183594
              ],
              [
                5.058992385864258,
                50.445655822753906
              ],
              [
                5.048582077026367,
                50.71213912963867
              ],
              [
                5.217134952545166,
                50.71213912963867
              ],
              [
                5.283889770507812,
                51.17921447753906
              ],
              [
                5.784458637237549,
                51.37968063354492
              ],
              [
                5.779896259307861,
                51.51342010498047
              ],
              [
                5.605600833892822,
                51.64724349975586
              ],
              [
                5.176112651824951,
                51.78114318847656
              ],
              [
                5.250792980194092,
                52.0491943359375
              ],
              [
                4.995438575744629,
                52.0491943359375
              ],
              [
                5.069864749908447,
                52.31757736206055
              ],
              [
                4.896504402160645,
                52.38472366333008
              ],
              [
                4.890939235687256,
                52.51908493041992
              ],
              [
                5.06179141998291,
                52.51908493041992
              ],
              [
                5.056382656097412,
                52.653533935546875
              ],
              [
                5.053669929504395,
                52.720787048339844
              ],
              [
                5.390830039978027,
                52.85536575317383
              ],
              [
                5.385728359222412,
                52.99003219604492
              ],
              [
                5.20894193649292,
                53.124786376953125
              ],
              [
                5.542333602905273,
                53.39456558227539
              ],
              [
                6.226210117340088,
                53.52959060668945
              ],
              [
                6.916844367980957,
                53.462066650390625
              ],
              [
                6.913325786590576,
                53.597137451171875
              ],
              [
                7.082295417785645,
                53.732303619384766
              ],
              [
                7.944795608520508,
                53.732303619384766
              ],
              [
                8.032201766967773,
                53.664710998535156
              ],
              [
                7.947200775146484,
                53.597137451171875
              ],
              [
                7.94840145111084,
                53.52959060668945
              ],
              [
                7.782629013061523,
                53.192195892333984
              ],
              [
                8.042557716369629,
                53.057395935058594
              ],
              [
                8.384740829467773,
                53.124786376953125
              ],
              [
                8.380881309509277,
                53.39456558227539
              ],
              [
                8.466897964477539,
                53.39456558227539
              ],
              [
                8.374106407165527,
                53.86756134033203
              ],
              [
                8.892172813415527,
                53.86756134033203
              ],
              [
                8.80289077758789,
                54.138362884521484
              ],
              [
                8.802155494689941,
                54.20612335205078
              ],
              [
                8.887362480163574,
                54.341712951660156
              ],
              [
                9.148486137390137,
                54.20612335205078
              ],
              [
                9.927618026733398,
                54.27390670776367
              ],
              [
                10.187621116638184,
                54.47740173339844
              ],
              [
                10.274396896362305,
                54.47740173339844
              ],
              [
                11.054854393005371,
                54.4095458984375
              ],
              [
                11.053302764892578,
                54.20612335205078
              ],
              [
                10.879310607910156,
                54.07062530517578
              ],
              [
                11.397537231445312,
                54.00291442871094
              ],
              [
                11.398930549621582,
                54.138362884521484
              ],
              [
                12.093385696411133,
                54.27390670776367
              ],
              [
                12.4437894821167,
                54.47740173339844
              ],
              [
                13.05121898651123,
                54.47740173339844
              ],
              [
                13.14309310913086,
                54.681121826171875
              ],
              [
                13.405717849731445,
                54.74907684326172
              ],
              [
                13.662626266479492,
                54.613189697265625
              ],
              [
                13.739368438720703,
                54.27390670776367
              ],
              [
                13.304450988769531,
                54.20612335205078
              ],
              [
                14.165812492370605,
                54.07062530517578
              ],
              [
                14.159177780151367,
                53.86756134033203
              ],
              [
                13.98438835144043,
                53.799922943115234
              ],
              [
                14.499796867370605,
                53.732303619384766
              ],
              [
                14.50934886932373,
                54.00291442871094
              ],
              [
                15.036103248596191,
                54.20612335205078
              ],
              [
                15.991765975952148,
                54.27390670776367
              ],
              [
                16.619972229003906,
                54.681121826171875
              ],
              [
                17.410511016845703,
                54.817054748535156
              ],
              [
                17.49753189086914,
                54.817054748535156
              ],
              [
                17.501720428466797,
                54.88506317138672
              ],
              [
                18.459484100341797,
                54.88506317138672
              ],
              [
                18.44533348083496,
                54.681121826171875
              ],
              [
                18.686851501464844,
                54.4095458984375
              ],
              [
                19.462186813354492,
                54.341712951660156
              ],
              [
                19.559396743774414,
                54.47740173339844
              ],
              [
                19.819725036621094,
                54.47740173339844
              ],
              [
                19.830615997314453,
                54.613189697265625
              ],
              [
                20.004362106323242,
                54.613189697265625
              ],
              [
                19.83608627319336,
                54.681121826171875
              ],
              [
                19.950855255126953,
                55.021148681640625
              ],
              [
                20.654220581054688,
                55.089229583740234
              ],
              [
                20.72932243347168,
                54.95309066772461
              ],
              [
                20.990678787231445,
                54.95309066772461
              ],
              [
                21.202974319458008,
                55.36180877685547
              ],
              [
                20.96585464477539,
                55.63479995727539
              ],
              [
                20.98489761352539,
                55.83982467651367
              ],
              [
                20.991283416748047,
                55.90821838378906
              ],
              [
                21.248220443725586,
                55.83982467651367
              ],
              [
                21.235198974609375,
                55.70311737060547
              ],
              [
                21.640066146850586,
                55.36180877685547
              ],
              [
                22.412668228149414,
                55.225467681884766
              ],
              [
                22.398584365844727,
                55.089229583740234
              ],
              [
                22.573020935058594,
                55.089229583740234
              ],
              [
                22.812959671020508,
                54.88506317138672
              ],
              [
                22.704511642456055,
                54.681121826171875
              ],
              [
                22.69742774963379,
                54.613189697265625
              ],
              [
                22.66232681274414,
                54.27390670776367
              ],
              [
                22.482206344604492,
                54.20612335205078
              ],
              [
                22.461759567260742,
                54.00291442871094
              ],
              [
                22.548198699951172,
                54.00291442871094
              ],
              [
                22.42144775390625,
                53.597137451171875
              ],
              [
                21.28936767578125,
                53.462066650390625
              ],
              [
                20.927749633789062,
                53.25962829589844
              ],
              [
                20.66997718811035,
                53.25962829589844
              ],
              [
                20.395845413208008,
                53.057395935058594
              ],
              [
                19.724811553955078,
                53.25962829589844
              ],
              [
                19.361536026000977,
                52.99003219604492
              ],
              [
                18.928207397460938,
                52.92268753051758
              ],
              [
                18.689167022705078,
                53.192195892333984
              ],
              [
                18.517410278320312,
                53.192195892333984
              ],
              [
                18.44928741455078,
                53.462066650390625
              ],
              [
                17.506561279296875,
                53.52959060668945
              ],
              [
                17.326608657836914,
                53.39456558227539
              ],
              [
                17.079761505126953,
                53.597137451171875
              ],
              [
                16.821292877197266,
                53.597137451171875
              ],
              [
                16.65959930419922,
                53.799922943115234
              ],
              [
                16.400707244873047,
                53.799922943115234
              ],
              [
                16.476667404174805,
                53.597137451171875
              ],
              [
                16.301027297973633,
                53.52959060668945
              ],
              [
                16.294410705566406,
                53.39456558227539
              ],
              [
                16.119178771972656,
                53.32708740234375
              ],
              [
                16.109657287597656,
                53.124786376953125
              ],
              [
                16.02382469177246,
                53.124786376953125
              ],
              [
                16.097135543823242,
                52.85536575317383
              ],
              [
                15.574783325195312,
                52.653533935546875
              ],
              [
                15.48926830291748,
                52.653533935546875
              ],
              [
                15.646231651306152,
                52.31757736206055
              ],
              [
                15.813953399658203,
                52.250450134277344
              ],
              [
                15.80826187133789,
                52.11625671386719
              ],
              [
                15.972770690917969,
                51.98215103149414
              ],
              [
                15.96988296508789,
                51.91512680053711
              ],
              [
                16.136985778808594,
                51.84812545776367
              ],
              [
                16.131103515625,
                51.71418380737305
              ],
              [
                16.55561637878418,
                51.71418380737305
              ],
              [
                16.718996047973633,
                51.580322265625
              ],
              [
                16.980127334594727,
                51.71418380737305
              ],
              [
                17.31973648071289,
                51.71418380737305
              ],
              [
                17.549257278442383,
                51.24601745605469
              ],
              [
                17.972288131713867,
                51.24601745605469
              ],
              [
                18.049345016479492,
                51.112430572509766
              ],
              [
                18.709320068359375,
                50.84549331665039
              ],
              [
                18.70132827758789,
                50.71213912963867
              ],
              [
                19.030193328857422,
                50.578861236572266
              ],
              [
                19.022031784057617,
                50.445655822753906
              ],
              [
                19.18613052368164,
                50.37908172607422
              ],
              [
                19.17385482788086,
                50.17946243286133
              ],
              [
                19.089900970458984,
                50.17946243286133
              ],
              [
                19.085887908935547,
                50.11296081542969
              ],
              [
                19.081897735595703,
                50.04647445678711
              ],
              [
                19.165773391723633,
                50.04647445678711
              ],
              [
                19.23756217956543,
                49.84712600708008
              ],
              [
                18.887298583984375,
                49.58156967163086
              ],
              [
                18.87979507446289,
                49.44889450073242
              ],
              [
                19.472537994384766,
                49.58156967163086
              ],
              [
                19.865541458129883,
                49.18375015258789
              ],
              [
                20.21193504333496,
                49.38258361816406
              ],
              [
                20.545900344848633,
                49.38258361816406
              ],
              [
                20.453577041625977,
                49.2500114440918
              ],
              [
                20.703824996948242,
                49.2500114440918
              ],
              [
                20.71288299560547,
                49.38258361816406
              ],
              [
                21.79827117919922,
                49.38258361816406
              ],
              [
                22.5230712890625,
                49.051273345947266
              ],
              [
                22.77837371826172,
                49.11750411987305
              ],
              [
                22.928722381591797,
                48.91886520385742
              ],
              [
                23.666343688964844,
                48.786521911621094
              ],
              [
                24.052976608276367,
                48.455936431884766
              ],
              [
                24.378963470458984,
                48.38986587524414
              ],
              [
                24.367206573486328,
                48.257774353027344
              ],
              [
                24.686708450317383,
                48.1257438659668
              ],
              [
                24.586227416992188,
                47.92780685424805
              ],
              [
                24.90500259399414,
                47.79592514038086
              ],
              [
                24.881271362304688,
                47.53233337402344
              ],
              [
                25.03432846069336,
                47.4006233215332
              ],
              [
                25.016605377197266,
                47.20316696166992
              ],
              [
                25.668907165527344,
                47.13737487792969
              ],
              [
                25.72661018371582,
                46.87434005737305
              ],
              [
                25.966814041137695,
                46.808616638183594
              ],
              [
                25.942142486572266,
                46.54585266113281
              ],
              [
                26.477930068969727,
                46.1520881652832
              ],
              [
                26.44038200378418,
                45.75876998901367
              ],
              [
                26.10191535949707,
                45.62776184082031
              ],
              [
                25.93889808654785,
                45.62776184082031
              ],
              [
                25.84545135498047,
                45.496795654296875
              ],
              [
                25.438228607177734,
                45.496795654296875
              ],
              [
                25.34526824951172,
                45.36587905883789
              ],
              [
                25.042299270629883,
                45.62776184082031
              ],
              [
                23.483562469482422,
                45.496795654296875
              ],
              [
                23.47352409362793,
                45.36587905883789
              ],
              [
                23.138248443603516,
                45.23500442504883
              ],
              [
                22.650352478027344,
                45.23500442504883
              ],
              [
                22.531999588012695,
                44.71194839477539
              ],
              [
                22.113351821899414,
                44.5159797668457
              ],
              [
                21.40547752380371,
                44.842647552490234
              ],
              [
                20.748632431030273,
                44.71194839477539
              ],
              [
                20.107473373413086,
                44.842647552490234
              ],
              [
                20.019073486328125,
                44.71194839477539
              ],
              [
                19.856950759887695,
                44.71194839477539
              ],
              [
                19.624204635620117,
                44.908016204833984
              ],
              [
                19.296220779418945,
                44.842647552490234
              ],
              [
                19.14055824279785,
                44.973392486572266
              ],
              [
                18.890594482421875,
                44.842647552490234
              ],
              [
                18.57839012145996,
                45.10417556762695
              ],
              [
                16.544801712036133,
                45.03877639770508
              ],
              [
                16.294586181640625,
                44.842647552490234
              ],
              [
                16.285852432250977,
                44.58129119873047
              ],
              [
                16.52429962158203,
                44.45067596435547
              ],
              [
                16.51975440979004,
                44.32010269165039
              ],
              [
                16.27495574951172,
                44.25482940673828
              ],
              [
                16.268434524536133,
                44.05907440185547
              ],
              [
                16.429935455322266,
                44.05907440185547
              ],
              [
                16.741186141967773,
                43.73301696777344
              ],
              [
                15.945435523986816,
                44.05907440185547
              ],
              [
                15.70318603515625,
                44.05907440185547
              ],
              [
                15.547369003295898,
                44.25482940673828
              ],
              [
                15.146636962890625,
                44.38538360595703
              ],
              [
                15.148378372192383,
                44.45067596435547
              ],
              [
                14.908865928649902,
                44.58129119873047
              ],
              [
                14.91874885559082,
                44.973392486572266
              ],
              [
                14.75637149810791,
                44.973392486572266
              ],
              [
                14.759533882141113,
                45.10417556762695
              ],
              [
                14.59854507446289,
                45.169586181640625
              ],
              [
                14.603090286254883,
                45.36587905883789
              ],
              [
                14.196189880371094,
                45.36587905883789
              ],
              [
                14.189410209655762,
                45.03877639770508
              ],
              [
                14.108189582824707,
                45.03877639770508
              ],
              [
                14.026969909667969,
                45.03877639770508
              ],
              [
                13.786900520324707,
                45.23500442504883
              ],
              [
                14.117451667785645,
                45.496795654296875
              ],
              [
                13.710229873657227,
                45.496795654296875
              ],
              [
                13.711389541625977,
                45.56227111816406
              ],
              [
                13.71254825592041,
                45.62776184082031
              ],
              [
                13.713706970214844,
                45.693260192871094
              ],
              [
                13.714865684509277,
                45.75876998901367
              ],
              [
                13.633292198181152,
                45.75876998901367
              ],
              [
                13.5560941696167,
                46.02093505859375
              ],
              [
                13.885364532470703,
                46.1520881652832
              ],
              [
                13.887821197509766,
                46.283294677734375
              ],
              [
                13.725314140319824,
                46.348915100097656
              ],
              [
                13.72764778137207,
                46.480194091796875
              ],
              [
                13.563776969909668,
                46.480194091796875
              ],
              [
                12.09045124053955,
                46.677207946777344
              ],
              [
                11.843135833740234,
                46.480194091796875
              ],
              [
                11.841521263122559,
                46.21768569946289
              ],
              [
                11.677236557006836,
                46.08650588989258
              ],
              [
                11.350288391113281,
                46.08650588989258
              ],
              [
                11.022930145263672,
                45.75876998901367
              ],
              [
                10.696676254272461,
                45.693260192871094
              ],
              [
                10.451627731323242,
                45.889827728271484
              ],
              [
                10.451480865478516,
                45.95537567138672
              ],
              [
                10.503675436234,
                46.29485845243355
              ],
              [
                10.368688583374023,
                46.348915100097656
              ],
              [
                10.124515533447266,
                46.02093505859375
              ],
              [
                9.633810997009277,
                46.08650588989258
              ],
              [
                9.389177322387695,
                46.02093505859375
              ],
              [
                9.308683395385742,
                45.889827728271484
              ],
              [
                9.310473442077637,
                45.693260192871094
              ],
              [
                9.474601745605469,
                45.56227111816406
              ],
              [
                9.71903133392334,
                45.56227111816406
              ],
              [
                9.883387565612793,
                45.300437927246094
              ],
              [
                10.453055381774902,
                45.169586181640625
              ],
              [
                10.533991813659668,
                45.431331634521484
              ],
              [
                11.103182792663574,
                45.10417556762695
              ],
              [
                11.428733825683594,
                45.23500442504883
              ],
              [
                12.160578727722168,
                45.23500442504883
              ],
              [
                12.160021781921387,
                45.169586181640625
              ],
              [
                12.40256118774414,
                45.03877639770508
              ],
              [
                12.399906158447266,
                44.77729415893555
              ],
              [
                12.157197952270508,
                44.842647552490234
              ],
              [
                12.156624794006348,
                44.77729415893555
              ],
              [
                12.156049728393555,
                44.71194839477539
              ],
              [
                11.993412017822266,
                44.64661407470703
              ],
              [
                11.751571655273438,
                44.842647552490234
              ],
              [
                11.346199035644531,
                44.908016204833984
              ],
              [
                11.182066917419434,
                44.32010269165039
              ],
              [
                11.505900382995605,
                44.38538360595703
              ],
              [
                11.746879577636719,
                44.12431716918945
              ],
              [
                11.744671821594238,
                43.79821014404297
              ],
              [
                12.226542472839355,
                43.6026611328125
              ],
              [
                12.144204139709473,
                43.407203674316406
              ],
              [
                11.82194709777832,
                43.342071533203125
              ],
              [
                11.900826454162598,
                43.146724700927734
              ],
              [
                11.981149673461914,
                43.146724700927734
              ],
              [
                12.0580472946167,
                42.75628662109375
              ],
              [
                11.736565589904785,
                42.62621307373047
              ],
              [
                11.574831008911133,
                42.36617660522461
              ],
              [
                11.494861602783203,
                42.36617660522461
              ],
              [
                11.414892196655273,
                42.36617660522461
              ],
              [
                11.415224075317383,
                42.43117141723633
              ],
              [
                11.335225105285645,
                42.43117141723633
              ],
              [
                11.255227088928223,
                42.43117141723633
              ],
              [
                11.255500793457031,
                42.496177673339844
              ],
              [
                11.175962448120117,
                42.62621307373047
              ],
              [
                11.015789985656738,
                42.62621307373047
              ],
              [
                11.01634693145752,
                42.82133865356445
              ],
              [
                10.85624885559082,
                42.95146560668945
              ],
              [
                10.776015281677246,
                42.95146560668945
              ],
              [
                10.695780754089355,
                42.95146560668945
              ],
              [
                10.535322189331055,
                43.08163070678711
              ],
              [
                10.374164581298828,
                43.6678352355957
              ],
              [
                10.212624549865723,
                43.86341094970703
              ],
              [
                10.212483406066895,
                43.92862319946289
              ],
              [
                10.212339401245117,
                43.99384307861328
              ],
              [
                9.970182418823242,
                43.99384307861328
              ],
              [
                9.969700813293457,
                44.12431716918945
              ],
              [
                9.96945571899414,
                44.18956756591797
              ],
              [
                9.64546012878418,
                44.32010269165039
              ],
              [
                9.644309997558594,
                44.5159797668457
              ],
              [
                9.481462478637695,
                44.64661407470703
              ],
              [
                9.156752586364746,
                44.71194839477539
              ],
              [
                8.994627952575684,
                44.71194839477539
              ],
              [
                8.914925575256348,
                44.58129119873047
              ],
              [
                8.590126037597656,
                44.64661407470703
              ],
              [
                8.429792404174805,
                44.5159797668457
              ],
              [
                8.105920791625977,
                44.5159797668457
              ],
              [
                8.030961036682129,
                44.12431716918945
              ],
              [
                7.950180053710938,
                44.12431716918945
              ],
              [
                7.869399070739746,
                44.12431716918945
              ],
              [
                7.788618564605713,
                44.12431716918945
              ],
              [
                7.707837581634521,
                44.12431716918945
              ],
              [
                7.62705659866333,
                44.12431716918945
              ],
              [
                7.629331111907959,
                43.99384307861328
              ]
            ],
            [
              [
                6.037274360656738,
                48.786521911621094
              ],
              [
                6.035188674926758,
                48.852684020996094
              ],
              [
                6.03309965133667,
                48.91886520385742
              ],
              [
                6.037274360656738,
                48.786521911621094
              ]
            ],
            [
              [
                5.95305728493278,
                48.81959566467323
              ],
              [
                5.954118251800537,
                48.786521911621094
              ],
              [
                6.037274360656738,
                48.786521911621094
              ],
              [
                5.95305728493278,
                48.81959566467323
              ]
            ],
            [
              [
                7.857559204101562,
                44.842647552490234
              ],
              [
                7.776433944702148,
                44.842647552490234
              ],
              [
                7.695308685302734,
                44.842647552490234
              ],
              [
                7.696474075317383,
                44.77729415893555
              ],
              [
                7.697634220123291,
                44.71194839477539
              ],
              [
                7.698789119720459,
                44.64661407470703
              ],
              [
                7.699938297271729,
                44.58129119873047
              ],
              [
                7.701082229614258,
                44.5159797668457
              ],
              [
                7.864093780517578,
                44.45067596435547
              ],
              [
                7.941880702972412,
                44.64661407470703
              ],
              [
                7.940820693969727,
                44.71194839477539
              ],
              [
                7.939755439758301,
                44.77729415893555
              ],
              [
                7.858661651611328,
                44.77729415893555
              ],
              [
                7.857559204101562,
                44.842647552490234
              ]
            ],
            [
              [
                8.029407501220703,
                48.98506164550781
              ],
              [
                8.030611038208008,
                48.91886520385742
              ],
              [
                8.11384105682373,
                48.91886520385742
              ],
              [
                8.112674713134766,
                48.98506164550781
              ],
              [
                8.029407501220703,
                48.98506164550781
              ]
            ],
            [
              [
                11.024885177612305,
                47.53233337402344
              ],
              [
                11.024916641328776,
                47.56055918803566
              ],
              [
                10.694906234741211,
                47.598209381103516
              ],
              [
                10.694971084594727,
                47.53233337402344
              ],
              [
                10.777449607849121,
                47.53233337402344
              ],
              [
                10.859928131103516,
                47.53233337402344
              ],
              [
                10.94240665435791,
                47.53233337402344
              ],
              [
                11.024885177612305,
                47.53233337402344
              ]
            ],
            [
              [
                20.278141021728516,
                49.11750411987305
              ],
              [
                20.44919204711914,
                49.18375015258789
              ],
              [
                20.370161056518555,
                49.2500114440918
              ],
              [
                20.286745071411133,
                49.2500114440918
              ],
              [
                20.278141021728516,
                49.11750411987305
              ]
            ]
          ],
          [
            [
              [
                5.697940349578857,
                48.98506164550781
              ],
              [
                5.448140144348145,
                48.98506164550781
              ],
              [
                5.36487340927124,
                48.98506164550781
              ],
              [
                5.35286808013916,
                49.316287994384766
              ],
              [
                5.85140323638916,
                49.38258361816406
              ],
              [
                5.85359001159668,
                49.316287994384766
              ],
              [
                5.607818126678467,
                49.18375015258789
              ],
              [
                5.697940349578857,
                48.98506164550781
              ]
            ]
          ],
          [
            [
              [
                4.47592830657959,
                50.312522888183594
              ],
              [
                4.730775356292725,
                50.2459831237793
              ],
              [
                5.165934562683105,
                49.84712600708008
              ],
              [
                5.175980091094971,
                49.58156967163086
              ],
              [
                4.940790176391602,
                49.18375015258789
              ],
              [
                4.674346446990967,
                49.58156967163086
              ],
              [
                4.671611309051514,
                49.64793395996094
              ],
              [
                4.66887092590332,
                49.71431350708008
              ],
              [
                4.585188388824463,
                49.71431350708008
              ],
              [
                4.582405090332031,
                49.78071212768555
              ],
              [
                4.579616546630859,
                49.84712600708008
              ],
              [
                4.576823711395264,
                49.91355895996094
              ],
              [
                4.493024826049805,
                49.91355895996094
              ],
              [
                4.490188121795654,
                49.98000717163086
              ],
              [
                4.406350135803223,
                49.98000717163086
              ],
              [
                4.47592830657959,
                50.312522888183594
              ]
            ]
          ],
          [
            [
              [
                3.987162351608276,
                49.98000717163086
              ],
              [
                3.813170909881592,
                50.11296081542969
              ],
              [
                3.729254722595215,
                50.11296081542969
              ],
              [
                3.635580539703369,
                50.312522888183594
              ],
              [
                3.968613386154175,
                50.37908172607422
              ],
              [
                4.142810344696045,
                50.2459831237793
              ],
              [
                4.151839256286621,
                50.04647445678711
              ],
              [
                3.987162351608276,
                49.98000717163086
              ]
            ]
          ],
          [
            [
              [
                10.214488983154297,
                42.88639831542969
              ],
              [
                10.45510196685791,
                42.88639831542969
              ],
              [
                10.455166816711426,
                42.691246032714844
              ],
              [
                10.21481990814209,
                42.691246032714844
              ],
              [
                10.134284973144531,
                42.88639831542969
              ],
              [
                10.214488983154297,
                42.88639831542969
              ]
            ]
          ]
        ]
      }
    }
  ]
}