{
  "type": "FeatureCollection",
  "name": "territory-552",
  "features": [
    {
      "type": "Feature",
      "properties": {
        "Name": "House of Bourbon",
        "FromYear": 1564,
        "ToYear": 1587,
        "Area": 74258.51357473637,
        "Type": "POLITY",
        "Wikipedia": "House of Bourbon",
        "Wikidata": "Q58389",
        "SeshatID": "fr_valois_k_2",
        "Components": "",
        "MemberOf": "(Kingdom of France)"
      },
      "geometry": {
        "type": "MultiPolygon",
        "coordinates": [
          [
            [
              [
                -1.048617839813232,
                43.407203674316406
              ],
              [
                -0.654836595058441,
                43.53750228881836
              ],
              [
                -0.248239919543266,
                43.472347259521484
              ],
              [
                -0.071348160505295,
                43.211830139160156
              ],
              [
                0.089359037578106,
                43.211830139160156
              ],
              [
                0.081529356539249,
                43.342071533203125
              ],
              [
                0.322770833969116,
                43.342071533203125
              ],
              [
                0.246216833591461,
                43.276947021484375
              ],
              [
                0.349362075328827,
                42.88639831542969
              ],
              [
                0.196577131748199,
                42.75628662109375
              ],
              [
                0.040142297744751,
                42.691246032714844
              ],
              [
                -0.208102732896805,
                42.82133865356445
              ],
              [
                -0.528801321983337,
                42.82133865356445
              ],
              [
                -1.026964664459229,
                43.08163070678711
              ],
              [
                -1.428432941436768,
                43.08163070678711
              ],
              [
                -1.441840410232544,
                43.276947021484375
              ],
              [
                -1.12030565738678,
                43.276947021484375
              ],
              [
                -1.048617839813232,
                43.407203674316406
              ]
            ]
          ],
          [
            [
              [
                0.966081380844116,
                43.342071533203125
              ],
              [
                0.640706896781921,
                43.407203674316406
              ],
              [
                0.867425560951233,
                43.6678352355957
              ],
              [
                1.277275562286377,
                43.53750228881836
              ],
              [
                1.304981589317322,
                43.016544342041016
              ],
              [
                1.388636231422424,
                42.95146560668945
              ],
              [
                1.873243570327759,
                42.88639831542969
              ],
              [
                1.725796341896057,
                42.62621307373047
              ],
              [
                1.645710229873657,
                42.62621307373047
              ],
              [
                1.565624117851257,
                42.62621307373047
              ],
              [
                1.485537886619568,
                42.62621307373047
              ],
              [
                0.994516909122467,
                42.82133865356445
              ],
              [
                0.983926355838776,
                43.016544342041016
              ],
              [
                0.812541425228119,
                43.211830139160156
              ],
              [
                0.966081380844116,
                43.342071533203125
              ]
            ]
          ],
          [
            [
              [
                5.063460350036621,
                45.889827728271484
              ],
              [
                5.065754413604736,
                45.82429504394531
              ],
              [
                5.068041324615479,
                45.75876998901367
              ],
              [
                5.070321559906006,
                45.693260192871094
              ],
              [
                4.58107328414917,
                45.693260192871094
              ],
              [
                4.593333721160889,
                45.36587905883789
              ],
              [
                4.839807033538818,
                45.300437927246094
              ],
              [
                4.846760749816895,
                45.10417556762695
              ],
              [
                4.524181365966797,
                45.03877639770508
              ],
              [
                4.356745719909668,
                45.169586181640625
              ],
              [
                4.123232841491699,
                44.908016204833984
              ],
              [
                3.96091890335083,
                44.908016204833984
              ],
              [
                3.966166257858276,
                44.77729415893555
              ],
              [
                3.56069803237915,
                44.77729415893555
              ],
              [
                3.473977327346802,
                44.908016204833984
              ],
              [
                3.230506658554077,
                44.908016204833984
              ],
              [
                3.158156394958496,
                44.71194839477539
              ],
              [
                2.917982816696167,
                44.64661407470703
              ],
              [
                2.746667861938477,
                44.842647552490234
              ],
              [
                2.584417343139648,
                44.842647552490234
              ],
              [
                2.515990495681763,
                44.58129119873047
              ],
              [
                2.276238918304443,
                44.5159797668457
              ],
              [
                2.101012229919434,
                44.77729415893555
              ],
              [
                1.448663711547852,
                44.842647552490234
              ],
              [
                1.378401041030884,
                44.64661407470703
              ],
              [
                1.065428018569946,
                44.45067596435547
              ],
              [
                0.094190031290054,
                44.45067596435547
              ],
              [
                -0.161180675029755,
                44.64661407470703
              ],
              [
                -0.17808398604393,
                44.908016204833984
              ],
              [
                0.223605588078499,
                44.973392486572266
              ],
              [
                0.532380819320679,
                45.23500442504883
              ],
              [
                0.524327039718628,
                45.36587905883789
              ],
              [
                0.838072597980499,
                45.56227111816406
              ],
              [
                0.895910263061523,
                45.95537567138672
              ],
              [
                1.214894890785217,
                46.08650588989258
              ],
              [
                1.207152485847473,
                46.21768569946289
              ],
              [
                0.953762292861938,
                46.348915100097656
              ],
              [
                0.941711187362671,
                46.54585266113281
              ],
              [
                1.515491604804993,
                46.54585266113281
              ],
              [
                2.345533847808838,
                46.348915100097656
              ],
              [
                2.403344392776489,
                46.808616638183594
              ],
              [
                2.978063106536865,
                46.808616638183594
              ],
              [
                3.069725751876831,
                46.61152267456055
              ],
              [
                3.728644609451294,
                46.54585266113281
              ],
              [
                3.985684394836426,
                46.283294677734375
              ],
              [
                4.081100463867188,
                45.95537567138672
              ],
              [
                4.326115131378174,
                45.95537567138672
              ],
              [
                4.402639865875244,
                46.08650588989258
              ],
              [
                4.897816181182861,
                45.95537567138672
              ],
              [
                4.979487419128418,
                45.95537567138672
              ],
              [
                4.981821060180664,
                45.889827728271484
              ],
              [
                5.063460350036621,
                45.889827728271484
              ]
            ]
          ]
        ]
      }
    }
  ]
}