{
  "type": "FeatureCollection",
  "name": "territory-554",
  "features": [
    {
      "type": "Feature",
      "properties": {
        "Name": "Sarbadars",
        "FromYear": 1344,
        "ToYear": 1351,
        "Area": 418561.7772055562,
        "Type": "POLITY",
        "Wikipedia": "Sarbadars",
        "Wikidata": "Q1931074",
        "SeshatID": "",
        "Components": "",
        "MemberOf": ""
      },
      "geometry": {
        "type": "Polygon",
        "coordinates": [
          [
            [
              61.70730209350586,
              40.614410400390625
            ],
            [
              61.690025329589844,
              40.54964065551758
            ],
            [
              62.226932525634766,
              40.4848747253418
            ],
            [
              62.254180908203125,
              40.29063034057617
            ],
            [
              62.45697021484375,
              40.16116714477539
            ],
            [
              62.42277526855469,
              40.031734466552734
            ],
            [
              62.687564849853516,
              39.8376350402832
            ],
            [
              62.65380859375,
              39.70827102661133
            ],
            [
              62.38391876220703,
              39.57893371582031
            ],
            [
              61.65839385986328,
              39.51427459716797
            ],
            [
              60.19400405883789,
              38.997230529785156
            ],
            [
              59.82230758666992,
              38.416015625
            ],
            [
              59.90066146850586,
              38.416015625
            ],
            [
              59.856224060058594,
              38.22237777709961
            ],
            [
              59.93450927734375,
              38.22237777709961
            ],
            [
              59.890464782714844,
              38.028785705566406
            ],
            [
              59.96867752075195,
              38.028785705566406
            ],
            [
              59.925018310546875,
              37.835243225097656
            ],
            [
              60.08732223510742,
              37.51277160644531
            ],
            [
              60.13008117675781,
              36.9970588684082
            ],
            [
              60.116127014160156,
              36.932613372802734
            ],
            [
              60.19395446777344,
              36.932613372802734
            ],
            [
              59.99968719482422,
              35.258358001708984
            ],
            [
              59.628108978271484,
              34.55062484741211
            ],
            [
              59.28273391723633,
              34.3576545715332
            ],
            [
              58.56551742553711,
              34.22901916503906
            ],
            [
              57.383174896240234,
              33.65024948120117
            ],
            [
              56.99924850463867,
              33.65024948120117
            ],
            [
              56.9453125,
              33.77885055541992
            ],
            [
              55.871971130371094,
              34.22901916503906
            ],
            [
              55.81784439086914,
              34.3576545715332
            ],
            [
              55.03883361816406,
              34.743614196777344
            ],
            [
              54.984580993652344,
              34.87228775024414
            ],
            [
              54.83026885986328,
              34.87228775024414
            ],
            [
              54.77598190307617,
              35.00096893310547
            ],
            [
              54.4013786315918,
              35.065311431884766
            ],
            [
              54.13801193237305,
              35.32271194458008
            ],
            [
              53.553592681884766,
              35.51579284667969
            ],
            [
              53.04470443725586,
              35.258358001708984
            ],
            [
              52.6374397277832,
              34.679283142089844
            ],
            [
              52.129798889160156,
              34.87228775024414
            ],
            [
              52.151302337646484,
              35.00096893310547
            ],
            [
              52.007659912109375,
              35.065311431884766
            ],
            [
              52.07279586791992,
              35.45143127441406
            ],
            [
              51.93999099731445,
              35.58015823364258
            ],
            [
              51.97303009033203,
              35.77327346801758
            ],
            [
              51.297855377197266,
              35.902034759521484
            ],
            [
              51.01142501831055,
              35.58015823364258
            ],
            [
              50.856666564941406,
              35.58015823364258
            ],
            [
              50.73394775390625,
              35.77327346801758
            ],
            [
              50.76626968383789,
              35.9664192199707
            ],
            [
              50.68876266479492,
              35.9664192199707
            ],
            [
              50.721309661865234,
              36.15959167480469
            ],
            [
              50.587947845458984,
              36.28839111328125
            ],
            [
              50.53199768066406,
              36.8681755065918
            ],
            [
              50.60980224609375,
              36.8681755065918
            ],
            [
              51.26472473144531,
              36.61045455932617
            ],
            [
              52.18585205078125,
              36.5460319519043
            ],
            [
              53.08772277832031,
              36.80373764038086
            ],
            [
              54.033294677734375,
              36.8681755065918
            ],
            [
              54.09466552734375,
              37.1904182434082
            ],
            [
              53.91046905517578,
              37.44829177856445
            ],
            [
              53.90790557861328,
              37.835243225097656
            ],
            [
              53.82976150512695,
              37.835243225097656
            ],
            [
              53.93320846557617,
              38.738853454589844
            ],
            [
              53.946529388427734,
              38.80344009399414
            ],
            [
              54.95338439941406,
              38.738853454589844
            ],
            [
              55.45184326171875,
              38.8680305480957
            ],
            [
              55.89362335205078,
              39.449623107910156
            ],
            [
              55.95176315307617,
              39.70827102661133
            ],
            [
              56.13896179199219,
              39.8376350402832
            ],
            [
              56.35368347167969,
              40.42012023925781
            ],
            [
              58.82558822631836,
              40.80876541137695
            ],
            [
              59.49873352050781,
              41.26253128051758
            ],
            [
              59.74843215942383,
              41.00318908691406
            ],
            [
              61.70730209350586,
              40.614410400390625
            ]
          ]
        ]
      }
    }
  ]
}