{
  "type": "FeatureCollection",
  "name": "territory-556",
  "features": [
    {
      "type": "Feature",
      "properties": {
        "Name": "Injuids",
        "FromYear": 1344,
        "ToYear": 1351,
        "Area": 85841.3499367995,
        "Type": "POLITY",
        "Wikipedia": "Injuids",
        "Wikidata": "Q1067513",
        "SeshatID": "",
        "Components": "",
        "MemberOf": ""
      },
      "geometry": {
        "type": "Polygon",
        "coordinates": [
          [
            [
              53.21352767944336,
              31.528987884521484
            ],
            [
              53.537906646728516,
              31.143381118774414
            ],
            [
              53.82355880737305,
              31.014846801757812
            ],
            [
              53.747501373291016,
              31.014846801757812
            ],
            [
              52.68720626831055,
              30.500701904296875
            ],
            [
              51.49958801269531,
              29.536611557006836
            ],
            [
              51.30859375,
              29.21521759033203
            ],
            [
              50.990631103515625,
              29.08665657043457
            ],
            [
              50.620323181152344,
              29.150936126708984
            ],
            [
              50.65126037597656,
              29.40805435180664
            ],
            [
              50.23628234863281,
              29.729440689086914
            ],
            [
              50.0648078918457,
              30.179353713989258
            ],
            [
              49.585899353027344,
              29.986536026000977
            ],
            [
              49.01873016357422,
              30.307893753051758
            ],
            [
              49.11860656738281,
              30.500701904296875
            ],
            [
              49.04267883300781,
              30.500701904296875
            ],
            [
              49.34452438354492,
              31.079113006591797
            ],
            [
              49.691444396972656,
              31.40045166015625
            ],
            [
              49.990196228027344,
              31.91460609436035
            ],
            [
              50.41706848144531,
              32.23596954345703
            ],
            [
              50.43545150756836,
              32.36451721191406
            ],
            [
              50.759769439697266,
              32.493072509765625
            ],
            [
              51.305686950683594,
              32.043148040771484
            ],
            [
              52.62269592285156,
              31.65752601623535
            ],
            [
              52.69892120361328,
              31.65752601623535
            ],
            [
              52.775146484375,
              31.65752601623535
            ],
            [
              52.851375579833984,
              31.65752601623535
            ],
            [
              52.84195327758789,
              31.593257904052734
            ],
            [
              52.91816329956055,
              31.593257904052734
            ],
            [
              52.9943733215332,
              31.593257904052734
            ],
            [
              52.984954833984375,
              31.528987884521484
            ],
            [
              53.21352767944336,
              31.528987884521484
            ]
          ]
        ]
      }
    }
  ]
}