{
  "type": "FeatureCollection",
  "name": "territory-557",
  "features": [
    {
      "type": "Feature",
      "properties": {
        "Name": "Chobanids",
        "FromYear": 1344,
        "ToYear": 1351,
        "Area": 207603.5746608791,
        "Type": "POLITY",
        "Wikipedia": "Chobanids",
        "Wikidata": "Q1089675",
        "SeshatID": "",
        "Components": "",
        "MemberOf": ""
      },
      "geometry": {
        "type": "Polygon",
        "coordinates": [
          [
            [
              47.4007568359375,
              39.51427459716797
            ],
            [
              47.89728927612305,
              39.64360046386719
            ],
            [
              48.091285705566406,
              39.8376350402832
            ],
            [
              48.722476959228516,
              39.8376350402832
            ],
            [
              48.77663040161133,
              39.70827102661133
            ],
            [
              49.000797271728516,
              39.64360046386719
            ],
            [
              49.030479431152344,
              39.38497543334961
            ],
            [
              49.17570495605469,
              39.320335388183594
            ],
            [
              49.16353225708008,
              39.25570297241211
            ],
            [
              48.91546630859375,
              39.19107437133789
            ],
            [
              48.74217987060547,
              38.67427444458008
            ],
            [
              48.82062911987305,
              38.67427444458008
            ],
            [
              48.76274490356445,
              38.351463317871094
            ],
            [
              48.8410758972168,
              38.351463317871094
            ],
            [
              48.88429260253906,
              37.706241607666016
            ],
            [
              49.08510208129883,
              37.51277160644531
            ],
            [
              49.998783111572266,
              37.38381576538086
            ],
            [
              50.320892333984375,
              36.9970588684082
            ],
            [
              50.56571960449219,
              37.06150817871094
            ],
            [
              50.632293701171875,
              36.9970588684082
            ],
            [
              50.5432014465332,
              36.932613372802734
            ],
            [
              50.53199768066406,
              36.8681755065918
            ],
            [
              50.587947845458984,
              36.28839111328125
            ],
            [
              50.721309661865234,
              36.15959167480469
            ],
            [
              50.68876266479492,
              35.9664192199707
            ],
            [
              50.76626968383789,
              35.9664192199707
            ],
            [
              50.73394775390625,
              35.77327346801758
            ],
            [
              50.856666564941406,
              35.58015823364258
            ],
            [
              50.25233840942383,
              35.194007873535156
            ],
            [
              49.2379150390625,
              35.12965774536133
            ],
            [
              48.340660095214844,
              35.32271194458008
            ],
            [
              48.1384162902832,
              35.51579284667969
            ],
            [
              47.36481857299805,
              35.51579284667969
            ],
            [
              46.25180435180664,
              35.837650299072266
            ],
            [
              45.78702163696289,
              35.837650299072266
            ],
            [
              45.350242614746094,
              36.03080368041992
            ],
            [
              45.37849426269531,
              36.2239875793457
            ],
            [
              45.09638595581055,
              36.417205810546875
            ],
            [
              45.056724548339844,
              36.67487716674805
            ],
            [
              44.910770416259766,
              36.73930740356445
            ],
            [
              44.86170959472656,
              36.932613372802734
            ],
            [
              44.58888626098633,
              37.706241607666016
            ],
            [
              44.30603790283203,
              37.89975357055664
            ],
            [
              44.277687072753906,
              38.22237777709961
            ],
            [
              44.19940185546875,
              38.22237777709961
            ],
            [
              43.946510314941406,
              38.60969924926758
            ],
            [
              43.57450866699219,
              38.738853454589844
            ],
            [
              43.59478759765625,
              38.8680305480957
            ],
            [
              43.516265869140625,
              38.8680305480957
            ],
            [
              43.488861083984375,
              39.19107437133789
            ],
            [
              43.687950134277344,
              39.449623107910156
            ],
            [
              44.506309509277344,
              40.0964469909668
            ],
            [
              44.82231903076172,
              40.0964469909668
            ],
            [
              44.94651412963867,
              39.90232849121094
            ],
            [
              45.31856155395508,
              39.77294921875
            ],
            [
              45.51023864746094,
              39.51427459716797
            ],
            [
              45.7578010559082,
              39.57893371582031
            ],
            [
              45.892845153808594,
              39.449623107910156
            ],
            [
              45.87046432495117,
              39.320335388183594
            ],
            [
              46.08419418334961,
              39.19107437133789
            ],
            [
              46.05096435546875,
              38.997230529785156
            ],
            [
              46.186065673828125,
              38.8680305480957
            ],
            [
              46.668357849121094,
              38.93262481689453
            ],
            [
              47.4007568359375,
              39.51427459716797
            ]
          ]
        ]
      }
    }
  ]
}