{
  "type": "FeatureCollection",
  "name": "territory-56",
  "features": [
    {
      "type": "Feature",
      "properties": {
        "Name": "Zhao",
        "FromYear": -350,
        "ToYear": -338,
        "Area": 66759.78057962979,
        "Type": "POLITY",
        "Wikipedia": "Zhao (state)",
        "Wikidata": "Q1574107",
        "SeshatID": "",
        "Components": "",
        "MemberOf": "(Warring States China)"
      },
      "geometry": {
        "type": "Polygon",
        "coordinates": [
          [
            [
              114.9074935913086,
              36.932613372802734
            ],
            [
              116.12299346923828,
              36.8681755065918
            ],
            [
              115.60665893554688,
              36.417205810546875
            ],
            [
              115.3638916015625,
              36.73930740356445
            ],
            [
              114.60979461669922,
              36.09519577026367
            ],
            [
              114.5815200805664,
              36.03080368041992
            ],
            [
              114.82849884033203,
              35.708900451660156
            ],
            [
              115.07646179199219,
              35.38706970214844
            ],
            [
              114.99391174316406,
              35.194007873535156
            ],
            [
              114.4990234375,
              34.93662643432617
            ],
            [
              114.47595977783203,
              35.065311431884766
            ],
            [
              114.27141571044922,
              35.12965774536133
            ],
            [
              113.47579956054688,
              35.258358001708984
            ],
            [
              113.53009033203125,
              35.38706970214844
            ],
            [
              113.40267181396484,
              35.45143127441406
            ],
            [
              113.09331512451172,
              35.45143127441406
            ],
            [
              112.93863677978516,
              35.45143127441406
            ],
            [
              112.91567993164062,
              35.58015823364258
            ],
            [
              111.98711395263672,
              35.58015823364258
            ],
            [
              111.85588836669922,
              35.45143127441406
            ],
            [
              111.15983581542969,
              35.45143127441406
            ],
            [
              111.24016571044922,
              35.644527435302734
            ],
            [
              112.14026641845703,
              36.48161697387695
            ],
            [
              112.38654327392578,
              37.38381576538086
            ],
            [
              112.46452331542969,
              37.38381576538086
            ],
            [
              113.26740264892578,
              37.7707405090332
            ],
            [
              113.7466812133789,
              38.28691864013672
            ],
            [
              113.82498931884766,
              38.28691864013672
            ],
            [
              113.63429260253906,
              37.38381576538086
            ],
            [
              114.60680389404297,
              37.12596130371094
            ],
            [
              115.14617919921875,
              37.44829177856445
            ],
            [
              114.94815063476562,
              37.1904182434082
            ],
            [
              114.9074935913086,
              36.932613372802734
            ]
          ]
        ]
      }
    }
  ]
}