{
  "type": "FeatureCollection",
  "name": "territory-561",
  "features": [
    {
      "type": "Feature",
      "properties": {
        "Name": "Vijayanagara Empire",
        "FromYear": 1450,
        "ToYear": 1474,
        "Area": 567572.9327057255,
        "Type": "POLITY",
        "Wikipedia": "Vijayanagara Empire",
        "Wikidata": "Q167639",
        "SeshatID": "in_vijayanagara_emp",
        "Components": "",
        "MemberOf": ""
      },
      "geometry": {
        "type": "Polygon",
        "coordinates": [
          [
            [
              82.49674987792969,
              17.514753341674805
            ],
            [
              82.62889862060547,
              17.38617706298828
            ],
            [
              82.60589599609375,
              17.193313598632812
            ],
            [
              82.36188507080078,
              17.000450134277344
            ],
            [
              82.3832015991211,
              16.550434112548828
            ],
            [
              82.06647491455078,
              16.35757064819336
            ],
            [
              81.32273864746094,
              16.293283462524414
            ],
            [
              81.11875915527344,
              15.77897834777832
            ],
            [
              80.61058044433594,
              15.843266487121582
            ],
            [
              80.20161437988281,
              15.457538604736328
            ],
            [
              80.0882339477539,
              15.07181167602539
            ],
            [
              80.21576690673828,
              14.878947257995605
            ],
            [
              80.20819854736328,
              14.043206214904785
            ],
            [
              80.2816162109375,
              14.043206214904785
            ],
            [
              80.16102600097656,
              13.528904914855957
            ],
            [
              80.3077621459961,
              13.528904914855957
            ],
            [
              80.43157196044922,
              13.271754264831543
            ],
            [
              80.30301666259766,
              12.628878593444824
            ],
            [
              79.8844223022461,
              11.986002922058105
            ],
            [
              79.90264892578125,
              10.250240325927734
            ],
            [
              79.3176498413086,
              10.250240325927734
            ],
            [
              79.29590606689453,
              9.928803443908691
            ],
            [
              78.98654174804688,
              9.671652793884277
            ],
            [
              78.95767211914062,
              9.221640586853027
            ],
            [
              78.58833312988281,
              9.157352447509766
            ],
            [
              78.28418731689453,
              8.964489936828613
            ],
            [
              78.1802749633789,
              8.450189590454102
            ],
            [
              77.57392883300781,
              8.06446361541748
            ],
            [
              77.1395492553711,
              8.128751754760742
            ],
            [
              76.72357177734375,
              8.514476776123047
            ],
            [
              76.7310791015625,
              8.643052101135254
            ],
            [
              76.58878326416016,
              8.707340240478516
            ],
            [
              76.53102111816406,
              8.964489936828613
            ],
            [
              76.32349395751953,
              9.157352447509766
            ],
            [
              76.33528137207031,
              9.350214958190918
            ],
            [
              76.19708251953125,
              9.478790283203125
            ],
            [
              76.20915222167969,
              9.671652793884277
            ],
            [
              76.3553237915039,
              9.671652793884277
            ],
            [
              76.36347961425781,
              9.800228118896484
            ],
            [
              76.22138977050781,
              9.86451530456543
            ],
            [
              76.23381042480469,
              10.057377815246582
            ],
            [
              75.90209197998047,
              10.571678161621094
            ],
            [
              75.72676849365234,
              11.214552879333496
            ],
            [
              75.58491516113281,
              11.278841018676758
            ],
            [
              75.3384780883789,
              11.92171573638916
            ],
            [
              75.06465148925781,
              12.178865432739258
            ],
            [
              74.74769592285156,
              12.821741104125977
            ],
            [
              74.66364288330078,
              13.593193054199219
            ],
            [
              74.4706802368164,
              13.914630889892578
            ],
            [
              74.3744888305664,
              14.493220329284668
            ],
            [
              73.97454071044922,
              14.943235397338867
            ],
            [
              73.74736785888672,
              15.650403022766113
            ],
            [
              73.53911590576172,
              15.77897834777832
            ],
            [
              73.41714477539062,
              16.036130905151367
            ],
            [
              73.18632507324219,
              17.38617706298828
            ],
            [
              73.19306182861328,
              17.450464248657227
            ],
            [
              73.41439056396484,
              17.450464248657227
            ],
            [
              73.54842376708984,
              17.321889877319336
            ],
            [
              73.89762878417969,
              16.421857833862305
            ],
            [
              74.09904479980469,
              16.228994369506836
            ],
            [
              74.380615234375,
              16.100418090820312
            ],
            [
              74.89598083496094,
              16.100418090820312
            ],
            [
              75.35750579833984,
              16.293283462524414
            ],
            [
              75.75933837890625,
              16.614723205566406
            ],
            [
              76.44308471679688,
              16.807586669921875
            ],
            [
              76.99402618408203,
              17.129026412963867
            ],
            [
              77.21524810791016,
              17.129026412963867
            ],
            [
              78.52698516845703,
              17.643327713012695
            ],
            [
              79.11738586425781,
              17.643327713012695
            ],
            [
              79.4274673461914,
              17.77190399169922
            ],
            [
              80.30781555175781,
              18.350492477416992
            ],
            [
              80.76654052734375,
              18.479066848754883
            ],
            [
              81.57166290283203,
              18.414779663085938
            ],
            [
              81.64555358886719,
              18.414779663085938
            ],
            [
              81.62997436523438,
              18.286205291748047
            ],
            [
              81.98374938964844,
              18.157629013061523
            ],
            [
              82.50447082519531,
              17.57904052734375
            ],
            [
              82.49674987792969,
              17.514753341674805
            ]
          ]
        ]
      }
    }
  ]
}