{
  "type": "FeatureCollection",
  "name": "territory-570",
  "features": [
    {
      "type": "Feature",
      "properties": {
        "Name": "House of Valois-Anjou",
        "FromYear": 1440,
        "ToYear": 1449,
        "Area": 63142.16362330441,
        "Type": "POLITY",
        "Wikipedia": "House of Valois-Anjou",
        "Wikidata": "Q1716871",
        "SeshatID": "fr_valois_k_1",
        "Components": "",
        "MemberOf": "(Kingdom of France)"
      },
      "geometry": {
        "type": "MultiPolygon",
        "coordinates": [
          [
            [
              [
                6.517646789550781,
                43.211830139160156
              ],
              [
                5.796233177185059,
                43.146724700927734
              ],
              [
                5.631923198699951,
                43.276947021484375
              ],
              [
                5.390771865844727,
                43.276947021484375
              ],
              [
                5.386905193328857,
                43.407203674316406
              ],
              [
                4.577967166900635,
                43.53750228881836
              ],
              [
                4.419270515441895,
                43.472347259521484
              ],
              [
                4.338796615600586,
                43.472347259521484
              ],
              [
                4.409977436065674,
                43.73301696777344
              ],
              [
                4.730143547058105,
                43.79821014404297
              ],
              [
                4.97415018081665,
                43.73301696777344
              ],
              [
                5.048438549041748,
                43.92862319946289
              ],
              [
                5.288479328155518,
                43.99384307861328
              ],
              [
                5.199475288391113,
                44.25482940673828
              ],
              [
                5.280318260192871,
                44.25482940673828
              ],
              [
                5.686428070068359,
                44.18956756591797
              ],
              [
                5.595919132232666,
                44.5159797668457
              ],
              [
                6.316179275512695,
                44.842647552490234
              ],
              [
                6.309300899505615,
                45.10417556762695
              ],
              [
                6.634309768676758,
                45.10417556762695
              ],
              [
                6.637507915496826,
                44.973392486572266
              ],
              [
                6.966631412506104,
                44.77729415893555
              ],
              [
                6.895741939544678,
                44.32010269165039
              ],
              [
                6.898605823516846,
                44.18956756591797
              ],
              [
                6.660702705383301,
                43.99384307861328
              ],
              [
                6.668147563934326,
                43.6678352355957
              ],
              [
                6.829278945922852,
                43.6678352355957
              ],
              [
                6.91260290145874,
                43.53750228881836
              ],
              [
                6.832098007202148,
                43.53750228881836
              ],
              [
                6.833500385284424,
                43.472347259521484
              ],
              [
                6.753026008605957,
                43.472347259521484
              ],
              [
                6.593565464019775,
                43.407203674316406
              ],
              [
                6.517646789550781,
                43.211830139160156
              ]
            ]
          ],
          [
            [
              [
                0.489324986934662,
                47.20316696166992
              ],
              [
                0.584407448768616,
                47.005828857421875
              ],
              [
                0.342133671045303,
                46.94007873535156
              ],
              [
                -1.04985785484314,
                46.87434005737305
              ],
              [
                -1.388491034507751,
                47.005828857421875
              ],
              [
                -1.32141387462616,
                47.20316696166992
              ],
              [
                -1.161801099777222,
                47.26897048950195
              ],
              [
                -1.202268838882446,
                47.79592514038086
              ],
              [
                -1.042080402374268,
                47.86185836791992
              ],
              [
                -0.999997794628143,
                48.38986587524414
              ],
              [
                -0.580371201038361,
                48.323814392089844
              ],
              [
                -0.092416204512119,
                48.455936431884766
              ],
              [
                -0.000058500339946,
                48.323814392089844
              ],
              [
                0.336079269647598,
                48.257774353027344
              ],
              [
                0.436810165643692,
                47.993770599365234
              ],
              [
                0.924667775630951,
                48.1257438659668
              ],
              [
                1.276269555091858,
                47.79592514038086
              ],
              [
                1.19774067401886,
                47.730003356933594
              ],
              [
                1.296437382698059,
                47.46647262573242
              ],
              [
                1.213993549346924,
                47.46647262573242
              ],
              [
                1.131549596786499,
                47.46647262573242
              ],
              [
                0.719330370426178,
                47.46647262573242
              ],
              [
                0.489324986934662,
                47.20316696166992
              ]
            ]
          ],
          [
            [
              [
                5.462185859680176,
                48.5881233215332
              ],
              [
                5.881701946258545,
                48.455936431884766
              ],
              [
                5.787806034088135,
                48.786521911621094
              ],
              [
                5.868803024291992,
                48.852684020996094
              ],
              [
                5.951995849609375,
                48.852684020996094
              ],
              [
                5.954118251800537,
                48.786521911621094
              ],
              [
                6.037274360656738,
                48.786521911621094
              ],
              [
                6.035188674926758,
                48.852684020996094
              ],
              [
                6.03309965133667,
                48.91886520385742
              ],
              [
                6.451152324676514,
                48.852684020996094
              ],
              [
                6.371833801269531,
                48.72037124633789
              ],
              [
                6.872262954711914,
                48.654239654541016
              ],
              [
                6.875682353973389,
                48.52202224731445
              ],
              [
                7.041702270507812,
                48.52202224731445
              ],
              [
                7.046595573425293,
                48.323814392089844
              ],
              [
                7.129497528076172,
                48.323814392089844
              ],
              [
                7.056310653686523,
                47.92780685424805
              ],
              [
                6.973622798919678,
                47.92780685424805
              ],
              [
                6.890934467315674,
                47.92780685424805
              ],
              [
                6.144739151000977,
                47.993770599365234
              ],
              [
                5.818123817443848,
                47.86185836791992
              ],
              [
                5.646180152893066,
                48.059749603271484
              ],
              [
                5.480661869049072,
                48.059749603271484
              ],
              [
                5.386211395263672,
                48.38986587524414
              ],
              [
                5.462185859680176,
                48.5881233215332
              ]
            ],
            [
              [
                6.635694026947021,
                48.191749572753906
              ],
              [
                6.797890186309814,
                48.323814392089844
              ],
              [
                6.796153545379639,
                48.38986587524414
              ],
              [
                6.709661960601807,
                48.52202224731445
              ],
              [
                6.462518692016602,
                48.455936431884766
              ],
              [
                6.635694026947021,
                48.191749572753906
              ]
            ]
          ],
          [
            [
              [
                7.031855583190918,
                48.91886520385742
              ],
              [
                7.033501625061035,
                48.852684020996094
              ],
              [
                6.702522277832031,
                48.786521911621094
              ],
              [
                6.613873958587646,
                48.98506164550781
              ],
              [
                7.031855583190918,
                48.91886520385742
              ]
            ]
          ],
          [
            [
              [
                7.526952266693115,
                49.11750411987305
              ],
              [
                7.529807567596436,
                48.98506164550781
              ],
              [
                7.198314666748047,
                48.91886520385742
              ],
              [
                6.945253372192383,
                49.051273345947266
              ],
              [
                6.861949920654297,
                49.051273345947266
              ],
              [
                6.858495712280273,
                49.18375015258789
              ],
              [
                7.108631134033203,
                49.18375015258789
              ],
              [
                7.526952266693115,
                49.11750411987305
              ]
            ]
          ],
          [
            [
              [
                5.175980091094971,
                49.58156967163086
              ],
              [
                5.259585380554199,
                49.58156967163086
              ],
              [
                5.36487340927124,
                48.98506164550781
              ],
              [
                5.448140144348145,
                48.98506164550781
              ],
              [
                5.697940349578857,
                48.98506164550781
              ],
              [
                5.607818126678467,
                49.18375015258789
              ],
              [
                5.85359001159668,
                49.316287994384766
              ],
              [
                5.855773448944092,
                49.2500114440918
              ],
              [
                5.857953548431396,
                49.18375015258789
              ],
              [
                5.94133186340332,
                49.18375015258789
              ],
              [
                5.864473819732666,
                48.98506164550781
              ],
              [
                6.03309965133667,
                48.91886520385742
              ],
              [
                5.949869632720947,
                48.91886520385742
              ],
              [
                5.866640090942383,
                48.91886520385742
              ],
              [
                5.868803024291992,
                48.852684020996094
              ],
              [
                5.455182075500488,
                48.786521911621094
              ],
              [
                5.379139423370361,
                48.5881233215332
              ],
              [
                5.296092987060547,
                48.5881233215332
              ],
              [
                5.286453723907471,
                48.852684020996094
              ],
              [
                5.127524375915527,
                48.654239654541016
              ],
              [
                4.878275871276855,
                48.654239654541016
              ],
              [
                4.865273475646973,
                48.98506164550781
              ],
              [
                5.029265403747559,
                49.051273345947266
              ],
              [
                4.940790176391602,
                49.18375015258789
              ],
              [
                5.175980091094971,
                49.58156967163086
              ]
            ]
          ],
          [
            [
              [
                6.264857769012451,
                49.51522445678711
              ],
              [
                6.346458435058594,
                49.58156967163086
              ],
              [
                7.015303134918213,
                49.58156967163086
              ],
              [
                7.016964435577393,
                49.51522445678711
              ],
              [
                7.100532054901123,
                49.51522445678711
              ],
              [
                7.10215425491333,
                49.44889450073242
              ],
              [
                6.851565837860107,
                49.44889450073242
              ],
              [
                6.855033874511719,
                49.316287994384766
              ],
              [
                6.688126564025879,
                49.316287994384766
              ],
              [
                6.526859283447266,
                49.11750411987305
              ],
              [
                6.360177040100098,
                49.11750411987305
              ],
              [
                6.356269359588623,
                49.2500114440918
              ],
              [
                6.264857769012451,
                49.51522445678711
              ]
            ]
          ],
          [
            [
              [
                5.9370436668396,
                49.316287994384766
              ],
              [
                5.85359001159668,
                49.316287994384766
              ],
              [
                5.85140323638916,
                49.38258361816406
              ],
              [
                5.767911911010742,
                49.38258361816406
              ],
              [
                5.684420585632324,
                49.38258361816406
              ],
              [
                5.596318244934082,
                49.51522445678711
              ],
              [
                5.677613735198975,
                49.58156967163086
              ],
              [
                6.014155387878418,
                49.51522445678711
              ],
              [
                6.01627254486084,
                49.44889450073242
              ],
              [
                6.018386363983154,
                49.38258361816406
              ],
              [
                5.934895038604736,
                49.38258361816406
              ],
              [
                5.9370436668396,
                49.316287994384766
              ]
            ]
          ]
        ]
      }
    }
  ]
}