{
  "type": "FeatureCollection",
  "name": "territory-574",
  "features": [
    {
      "type": "Feature",
      "properties": {
        "Name": "Lan Xang",
        "FromYear": 1375,
        "ToYear": 1384,
        "Area": 377421.0661056114,
        "Type": "POLITY",
        "Wikipedia": "Lan Xang",
        "Wikidata": "Q853477",
        "SeshatID": "la_lan_xang_k",
        "Components": "",
        "MemberOf": ""
      },
      "geometry": {
        "type": "Polygon",
        "coordinates": [
          [
            [
              104.2573471069336,
              22.079116821289062
            ],
            [
              104.24657440185547,
              22.014829635620117
            ],
            [
              104.32093048095703,
              22.014829635620117
            ],
            [
              104.4481201171875,
              21.88625717163086
            ],
            [
              104.41606140136719,
              21.693397521972656
            ],
            [
              104.56468200683594,
              21.693397521972656
            ],
            [
              104.6176986694336,
              21.5648250579834
            ],
            [
              104.58592224121094,
              21.371967315673828
            ],
            [
              104.73445129394531,
              21.371967315673828
            ],
            [
              104.69229888916016,
              21.114822387695312
            ],
            [
              104.81974792480469,
              20.986249923706055
            ],
            [
              104.50334167480469,
              20.40767478942871
            ],
            [
              104.65162658691406,
              20.40767478942871
            ],
            [
              104.98062133789062,
              20.150527954101562
            ],
            [
              104.94934844970703,
              19.95766830444336
            ],
            [
              104.68548583984375,
              19.700523376464844
            ],
            [
              104.08272552490234,
              19.6362361907959
            ],
            [
              103.95710754394531,
              19.314802169799805
            ],
            [
              104.50773620605469,
              19.057653427124023
            ],
            [
              104.6246566772461,
              18.864791870117188
            ],
            [
              105.12155151367188,
              18.736217498779297
            ],
            [
              105.24868774414062,
              18.607641220092773
            ],
            [
              105.20738220214844,
              18.350492477416992
            ],
            [
              106.60742950439453,
              16.9361629486084
            ],
            [
              106.68570709228516,
              16.486146926879883
            ],
            [
              106.97059631347656,
              16.421857833862305
            ],
            [
              107.1527328491211,
              16.16470718383789
            ],
            [
              107.5016098022461,
              16.036130905151367
            ],
            [
              107.29759979248047,
              15.650403022766113
            ],
            [
              107.69268798828125,
              15.328963279724121
            ],
            [
              107.5127182006836,
              14.55750846862793
            ],
            [
              106.89125061035156,
              14.300357818603516
            ],
            [
              106.63114166259766,
              14.55750846862793
            ],
            [
              106.17350769042969,
              14.428933143615723
            ],
            [
              106.03453826904297,
              13.914630889892578
            ],
            [
              105.69166564941406,
              14.107494354248047
            ],
            [
              105.25923156738281,
              14.171781539916992
            ],
            [
              105.27556610107422,
              14.300357818603516
            ],
            [
              104.9818115234375,
              14.300357818603516
            ],
            [
              104.9248275756836,
              14.428933143615723
            ],
            [
              103.81488037109375,
              14.364645004272461
            ],
            [
              103.61087036132812,
              14.493220329284668
            ],
            [
              103.2850341796875,
              14.81466007232666
            ],
            [
              103.23311614990234,
              15.52182674407959
            ],
            [
              103.04821014404297,
              15.77897834777832
            ],
            [
              103.05729675292969,
              16.35757064819336
            ],
            [
              103.23283386230469,
              16.550434112548828
            ],
            [
              102.10115051269531,
              16.87187385559082
            ],
            [
              101.73259735107422,
              16.87187385559082
            ],
            [
              101.61363220214844,
              17.06473731994629
            ],
            [
              101.4661636352539,
              17.06473731994629
            ],
            [
              101.3119888305664,
              17.514753341674805
            ],
            [
              101.08100891113281,
              17.450464248657227
            ],
            [
              100.96234130859375,
              17.643327713012695
            ],
            [
              100.97201538085938,
              17.707616806030273
            ],
            [
              101.04582214355469,
              17.707616806030273
            ],
            [
              101.05552673339844,
              17.77190399169922
            ],
            [
              101.25202941894531,
              18.093341827392578
            ],
            [
              101.27169799804688,
              18.2219181060791
            ],
            [
              101.13379669189453,
              18.286205291748047
            ],
            [
              101.1832275390625,
              18.607641220092773
            ],
            [
              101.3509521484375,
              18.736217498779297
            ],
            [
              101.4008560180664,
              19.057653427124023
            ],
            [
              101.28290557861328,
              19.25051498413086
            ],
            [
              101.31295013427734,
              19.443374633789062
            ],
            [
              101.18492889404297,
              19.571949005126953
            ],
            [
              100.65670776367188,
              19.507661819458008
            ],
            [
              100.46441650390625,
              19.700523376464844
            ],
            [
              100.59814453125,
              20.08624267578125
            ],
            [
              100.5439224243164,
              20.214815139770508
            ],
            [
              100.1288833618164,
              20.40767478942871
            ],
            [
              100.24270629882812,
              20.664819717407227
            ],
            [
              100.6435546875,
              20.857677459716797
            ],
            [
              100.69373321533203,
              21.179107666015625
            ],
            [
              101.2643051147461,
              21.500539779663086
            ],
            [
              101.25408935546875,
              21.43625259399414
            ],
            [
              101.328369140625,
              21.43625259399414
            ],
            [
              101.29782104492188,
              21.24339485168457
            ],
            [
              101.80736541748047,
              21.179107666015625
            ],
            [
              101.81523895263672,
              21.693397521972656
            ],
            [
              101.58036804199219,
              22.079116821289062
            ],
            [
              101.72891235351562,
              22.529123306274414
            ],
            [
              102.23910522460938,
              22.46483612060547
            ],
            [
              102.59111785888672,
              22.786272048950195
            ],
            [
              102.74003601074219,
              22.786272048950195
            ],
            [
              102.7925796508789,
              22.657697677612305
            ],
            [
              103.14292907714844,
              22.529123306274414
            ],
            [
              103.335693359375,
              22.786272048950195
            ],
            [
              103.53697204589844,
              22.657697677612305
            ],
            [
              103.78244018554688,
              22.786272048950195
            ],
            [
              103.88714599609375,
              22.529123306274414
            ],
            [
              103.96156311035156,
              22.529123306274414
            ],
            [
              104.2573471069336,
              22.079116821289062
            ]
          ]
        ]
      }
    }
  ]
}