{
  "type": "FeatureCollection",
  "name": "territory-58",
  "features": [
    {
      "type": "Feature",
      "properties": {
        "Name": "Wei",
        "FromYear": -291,
        "ToYear": -226,
        "Area": 97232.22956111001,
        "Type": "POLITY",
        "Wikipedia": "Wei (state)",
        "Wikidata": "Q320930",
        "SeshatID": "cn_wei_dyn_warring_states",
        "Components": "",
        "MemberOf": "(Warring States China)"
      },
      "geometry": {
        "type": "Polygon",
        "coordinates": [
          [
            [
              115.29240417480469,
              40.0964469909668
            ],
            [
              115.37140655517578,
              40.0964469909668
            ],
            [
              115.54975891113281,
              39.8376350402832
            ],
            [
              116.10205078125,
              39.8376350402832
            ],
            [
              116.95145416259766,
              40.0964469909668
            ],
            [
              117.03045654296875,
              40.0964469909668
            ],
            [
              116.92569732666016,
              39.90232849121094
            ],
            [
              117.0142593383789,
              39.77294921875
            ],
            [
              116.79842376708984,
              39.51427459716797
            ],
            [
              116.93310546875,
              39.320335388183594
            ],
            [
              116.70021057128906,
              38.8680305480957
            ],
            [
              117.22977447509766,
              38.67427444458008
            ],
            [
              116.61474609375,
              37.254878997802734
            ],
            [
              116.12299346923828,
              36.8681755065918
            ],
            [
              114.9074935913086,
              36.932613372802734
            ],
            [
              114.94815063476562,
              37.1904182434082
            ],
            [
              115.14617919921875,
              37.44829177856445
            ],
            [
              114.60680389404297,
              37.12596130371094
            ],
            [
              114.16897583007812,
              37.1904182434082
            ],
            [
              114.1986083984375,
              37.254878997802734
            ],
            [
              113.93522644042969,
              37.1904182434082
            ],
            [
              113.91649627685547,
              37.3193473815918
            ],
            [
              113.63429260253906,
              37.38381576538086
            ],
            [
              113.77981567382812,
              38.028785705566406
            ],
            [
              113.70160675048828,
              38.028785705566406
            ],
            [
              113.88731384277344,
              38.416015625
            ],
            [
              114.35895538330078,
              38.738853454589844
            ],
            [
              114.80831146240234,
              39.320335388183594
            ],
            [
              114.33613586425781,
              39.320335388183594
            ],
            [
              114.27063751220703,
              39.19107437133789
            ],
            [
              114.11334228515625,
              39.19107437133789
            ],
            [
              114.14598083496094,
              39.25570297241211
            ],
            [
              114.0541763305664,
              39.38497543334961
            ],
            [
              113.89673614501953,
              39.38497543334961
            ],
            [
              113.92963409423828,
              39.449623107910156
            ],
            [
              113.77214050292969,
              39.449623107910156
            ],
            [
              113.80511474609375,
              39.51427459716797
            ],
            [
              113.08319091796875,
              39.64360046386719
            ],
            [
              113.11627197265625,
              39.70827102661133
            ],
            [
              112.17009735107422,
              39.70827102661133
            ],
            [
              112.23601531982422,
              39.8376350402832
            ],
            [
              112.1113052368164,
              39.90232849121094
            ],
            [
              112.74192810058594,
              40.355369567871094
            ],
            [
              113.0926742553711,
              40.42012023925781
            ],
            [
              114.5962142944336,
              40.42012023925781
            ],
            [
              114.5267105102539,
              40.29063034057617
            ],
            [
              115.15935516357422,
              40.29063034057617
            ],
            [
              115.29240417480469,
              40.0964469909668
            ]
          ]
        ]
      }
    }
  ]
}