{
  "type": "FeatureCollection",
  "name": "territory-580",
  "features": [
    {
      "type": "Feature",
      "properties": {
        "Name": "Albanian Principalities",
        "FromYear": 1375,
        "ToYear": 1384,
        "Area": 69573.3449238294,
        "Type": "POLITY",
        "Wikipedia": "Albanian principalities",
        "Wikidata": "Q2658979",
        "SeshatID": "",
        "Components": "",
        "MemberOf": ""
      },
      "geometry": {
        "type": "MultiPolygon",
        "coordinates": [
          [
            [
              [
                20.148855209350586,
                39.57893371582031
              ],
              [
                20.070056915283203,
                39.57893371582031
              ],
              [
                20.073074340820312,
                39.64360046386719
              ],
              [
                20.151897430419922,
                39.64360046386719
              ],
              [
                20.148855209350586,
                39.57893371582031
              ]
            ]
          ],
          [
            [
              [
                19.75778579711914,
                39.64360046386719
              ],
              [
                19.76365852355957,
                39.77294921875
              ],
              [
                19.921405792236328,
                39.77294921875
              ],
              [
                19.918411254882812,
                39.70827102661133
              ],
              [
                19.912464141845703,
                39.57893371582031
              ],
              [
                19.75778579711914,
                39.64360046386719
              ]
            ]
          ],
          [
            [
              [
                20.15495491027832,
                39.70827102661133
              ],
              [
                19.918411254882812,
                39.70827102661133
              ],
              [
                20.006359100341797,
                39.90232849121094
              ],
              [
                20.009418487548828,
                39.9670295715332
              ],
              [
                19.930469512939453,
                39.9670295715332
              ],
              [
                19.62952995300293,
                40.29063034057617
              ],
              [
                19.47136878967285,
                40.29063034057617
              ],
              [
                19.48629379272461,
                40.614410400390625
              ],
              [
                19.2486515045166,
                40.614410400390625
              ],
              [
                19.254547119140625,
                40.74397277832031
              ],
              [
                19.498455047607422,
                40.873565673828125
              ],
              [
                19.428295135498047,
                41.06801223754883
              ],
              [
                19.6760196685791,
                41.26253128051758
              ],
              [
                19.682415008544922,
                41.39224624633789
              ],
              [
                19.450061798095703,
                41.521995544433594
              ],
              [
                19.453214645385742,
                41.586883544921875
              ],
              [
                19.771717071533203,
                41.586883544921875
              ],
              [
                19.788190841674805,
                41.911441802978516
              ],
              [
                19.86795997619629,
                41.911441802978516
              ],
              [
                19.871313095092773,
                41.97637939453125
              ],
              [
                20.11414909362793,
                42.041324615478516
              ],
              [
                20.26679801940918,
                41.911441802978516
              ],
              [
                20.2633113861084,
                41.84651184082031
              ],
              [
                20.343050003051758,
                41.84651184082031
              ],
              [
                20.422788619995117,
                41.84651184082031
              ],
              [
                20.41925811767578,
                41.781593322753906
              ],
              [
                20.49896812438965,
                41.781593322753906
              ],
              [
                20.578678131103516,
                41.781593322753906
              ],
              [
                20.83629035949707,
                42.10627746582031
              ],
              [
                21.45939826965332,
                41.84651184082031
              ],
              [
                21.47117042541504,
                42.041324615478516
              ],
              [
                21.315410614013672,
                42.10627746582031
              ],
              [
                21.323223114013672,
                42.236209869384766
              ],
              [
                21.566965103149414,
                42.30118942260742
              ],
              [
                21.579051971435547,
                42.496177673339844
              ],
              [
                22.08901023864746,
                42.95146560668945
              ],
              [
                22.574888229370117,
                43.016544342041016
              ],
              [
                22.664188385009766,
                43.146724700927734
              ],
              [
                22.82025146484375,
                43.08163070678711
              ],
              [
                22.948627471923828,
                42.62621307373047
              ],
              [
                23.179603576660156,
                42.496177673339844
              ],
              [
                23.165767669677734,
                42.30118942260742
              ],
              [
                23.55130958557129,
                42.10627746582031
              ],
              [
                22.82819366455078,
                42.041324615478516
              ],
              [
                22.819360733032227,
                41.911441802978516
              ],
              [
                22.899127960205078,
                41.911441802978516
              ],
              [
                22.89470100402832,
                41.84651184082031
              ],
              [
                23.0363826751709,
                41.586883544921875
              ],
              [
                23.416379928588867,
                41.32738494873047
              ],
              [
                22.21146583557129,
                41.132843017578125
              ],
              [
                22.120044708251953,
                40.93837356567383
              ],
              [
                21.881996154785156,
                40.93837356567383
              ],
              [
                21.874238967895508,
                40.80876541137695
              ],
              [
                21.07770347595215,
                40.74397277832031
              ],
              [
                21.214691162109375,
                40.355369567871094
              ],
              [
                21.721254348754883,
                39.51427459716797
              ],
              [
                21.39595603942871,
                39.320335388183594
              ],
              [
                20.68769073486328,
                39.320335388183594
              ],
              [
                20.684539794921875,
                39.25570297241211
              ],
              [
                20.448524475097656,
                39.25570297241211
              ],
              [
                20.29724884033203,
                39.38497543334961
              ],
              [
                20.15495491027832,
                39.70827102661133
              ]
            ]
          ]
        ]
      }
    }
  ]
}