{
  "type": "FeatureCollection",
  "name": "territory-581",
  "features": [
    {
      "type": "Feature",
      "properties": {
        "Name": "(Personal union of Kingdom of Poland with Kingdom of Hungary)",
        "FromYear": 1375,
        "ToYear": 1384,
        "Area": 568377.0729149592,
        "Type": "RELATION",
        "Wikipedia": "Union of Hungary and Poland",
        "Wikidata": "Q9366696",
        "SeshatID": "pl_piast_dyn_2;hu_later_dyn",
        "Components": "Kingdom of Poland;Kingdom of Hungary;(Kingdom of Poland)",
        "MemberOf": ""
      },
      "geometry": {
        "type": "MultiPolygon",
        "coordinates": [
          [
            [
              [
                17.590667724609375,
                42.82133865356445
              ],
              [
                17.588058471679688,
                42.75628662109375
              ],
              [
                17.50791358947754,
                42.75628662109375
              ],
              [
                17.510494232177734,
                42.82133865356445
              ],
              [
                17.590667724609375,
                42.82133865356445
              ]
            ]
          ],
          [
            [
              [
                16.791240692138672,
                42.88639831542969
              ],
              [
                16.795894622802734,
                43.016544342041016
              ],
              [
                17.119401931762695,
                43.08163070678711
              ],
              [
                17.199695587158203,
                43.08163070678711
              ],
              [
                17.192262649536133,
                42.88639831542969
              ],
              [
                16.791240692138672,
                42.88639831542969
              ]
            ]
          ],
          [
            [
              [
                17.119401931762695,
                43.08163070678711
              ],
              [
                16.717933654785156,
                43.08163070678711
              ],
              [
                16.722553253173828,
                43.211830139160156
              ],
              [
                16.802907943725586,
                43.211830139160156
              ],
              [
                17.12432289123535,
                43.211830139160156
              ],
              [
                17.119401931762695,
                43.08163070678711
              ]
            ]
          ],
          [
            [
              [
                16.734172821044922,
                43.53750228881836
              ],
              [
                16.81231689453125,
                43.472347259521484
              ],
              [
                16.80995750427246,
                43.407203674316406
              ],
              [
                16.727190017700195,
                43.342071533203125
              ],
              [
                16.734172821044922,
                43.53750228881836
              ]
            ]
          ],
          [
            [
              [
                14.502378463745117,
                44.5159797668457
              ],
              [
                14.260871887207031,
                44.58129119873047
              ],
              [
                14.269240379333496,
                44.973392486572266
              ],
              [
                14.350428581237793,
                44.973392486572266
              ],
              [
                14.51131820678711,
                44.908016204833984
              ],
              [
                14.502378463745117,
                44.5159797668457
              ]
            ]
          ],
          [
            [
              [
                25.016605377197266,
                47.20316696166992
              ],
              [
                25.668907165527344,
                47.13737487792969
              ],
              [
                25.72661018371582,
                46.87434005737305
              ],
              [
                25.966814041137695,
                46.808616638183594
              ],
              [
                25.942142486572266,
                46.54585266113281
              ],
              [
                26.477930068969727,
                46.1520881652832
              ],
              [
                26.44038200378418,
                45.75876998901367
              ],
              [
                26.10191535949707,
                45.62776184082031
              ],
              [
                25.93889808654785,
                45.62776184082031
              ],
              [
                25.84545135498047,
                45.496795654296875
              ],
              [
                25.438228607177734,
                45.496795654296875
              ],
              [
                25.34526824951172,
                45.36587905883789
              ],
              [
                25.042299270629883,
                45.62776184082031
              ],
              [
                23.483562469482422,
                45.496795654296875
              ],
              [
                23.47352409362793,
                45.36587905883789
              ],
              [
                23.138248443603516,
                45.23500442504883
              ],
              [
                22.650352478027344,
                45.23500442504883
              ],
              [
                22.531999588012695,
                44.71194839477539
              ],
              [
                22.52739143371582,
                44.64661407470703
              ],
              [
                22.446361541748047,
                44.64661407470703
              ],
              [
                22.36532974243164,
                44.64661407470703
              ],
              [
                22.360790252685547,
                44.58129119873047
              ],
              [
                21.951416015625,
                44.5159797668457
              ],
              [
                21.79811668395996,
                44.64661407470703
              ],
              [
                21.717084884643555,
                44.64661407470703
              ],
              [
                21.40547752380371,
                44.842647552490234
              ],
              [
                21.080976486206055,
                44.842647552490234
              ],
              [
                20.829694747924805,
                44.71194839477539
              ],
              [
                20.350849151611328,
                44.842647552490234
              ],
              [
                19.856950759887695,
                44.71194839477539
              ],
              [
                19.624204635620117,
                44.908016204833984
              ],
              [
                19.296220779418945,
                44.842647552490234
              ],
              [
                19.22174644470215,
                44.973392486572266
              ],
              [
                18.890594482421875,
                44.842647552490234
              ],
              [
                18.57839012145996,
                45.10417556762695
              ],
              [
                18.09087562561035,
                45.10417556762695
              ],
              [
                18.00962257385254,
                45.10417556762695
              ],
              [
                16.544801712036133,
                45.03877639770508
              ],
              [
                16.377927780151367,
                44.908016204833984
              ],
              [
                16.37571144104004,
                44.842647552490234
              ],
              [
                16.294586181640625,
                44.842647552490234
              ],
              [
                16.285852432250977,
                44.58129119873047
              ],
              [
                16.52429962158203,
                44.45067596435547
              ],
              [
                16.51975440979004,
                44.32010269165039
              ],
              [
                16.438880920410156,
                44.32010269165039
              ],
              [
                16.27495574951172,
                44.25482940673828
              ],
              [
                16.268434524536133,
                44.05907440185547
              ],
              [
                16.429935455322266,
                44.05907440185547
              ],
              [
                16.7435302734375,
                43.79821014404297
              ],
              [
                16.734172821044922,
                43.53750228881836
              ],
              [
                16.253297805786133,
                43.6026611328125
              ],
              [
                16.168521881103516,
                43.472347259521484
              ],
              [
                15.927099227905273,
                43.472347259521484
              ],
              [
                16.01169204711914,
                43.6026611328125
              ],
              [
                15.856636047363281,
                43.79821014404297
              ],
              [
                15.695383071899414,
                43.79821014404297
              ],
              [
                15.618592262268066,
                43.92862319946289
              ],
              [
                15.374701499938965,
                43.86341094970703
              ],
              [
                15.459075927734375,
                43.99384307861328
              ],
              [
                15.218687057495117,
                44.05907440185547
              ],
              [
                15.146636962890625,
                44.38538360595703
              ],
              [
                14.908865928649902,
                44.58129119873047
              ],
              [
                14.91874885559082,
                44.973392486572266
              ],
              [
                14.515777587890625,
                45.10417556762695
              ],
              [
                14.603090286254883,
                45.36587905883789
              ],
              [
                14.521710395812988,
                45.36587905883789
              ],
              [
                14.440329551696777,
                45.36587905883789
              ],
              [
                14.524674415588379,
                45.496795654296875
              ],
              [
                15.339118957519531,
                45.496795654296875
              ],
              [
                15.264768600463867,
                45.75876998901367
              ],
              [
                15.678460121154785,
                45.95537567138672
              ],
              [
                15.604452133178711,
                46.21768569946289
              ],
              [
                16.01764488220215,
                46.348915100097656
              ],
              [
                15.864084243774414,
                46.677207946777344
              ],
              [
                16.032390594482422,
                46.808616638183594
              ],
              [
                16.138551712036133,
                47.53233337402344
              ],
              [
                16.303508758544922,
                47.53233337402344
              ],
              [
                16.3150634765625,
                47.86185836791992
              ],
              [
                16.986814498901367,
                48.1257438659668
              ],
              [
                16.989469528198242,
                48.191749572753906
              ],
              [
                16.829010009765625,
                48.323814392089844
              ],
              [
                16.927988052368164,
                48.72037124633789
              ],
              [
                17.938142776489258,
                48.98506164550781
              ],
              [
                18.378620147705078,
                49.44889450073242
              ],
              [
                18.88353729248047,
                49.51522445678711
              ],
              [
                19.23756217956543,
                49.84712600708008
              ],
              [
                19.16176414489746,
                49.98000717163086
              ],
              [
                19.165773391723633,
                50.04647445678711
              ],
              [
                19.081897735595703,
                50.04647445678711
              ],
              [
                19.085887908935547,
                50.11296081542969
              ],
              [
                19.089900970458984,
                50.17946243286133
              ],
              [
                19.17385482788086,
                50.17946243286133
              ],
              [
                19.18613052368164,
                50.37908172607422
              ],
              [
                19.022031784057617,
                50.445655822753906
              ],
              [
                19.030193328857422,
                50.578861236572266
              ],
              [
                18.70132827758789,
                50.71213912963867
              ],
              [
                18.709320068359375,
                50.84549331665039
              ],
              [
                18.049345016479492,
                51.112430572509766
              ],
              [
                17.972288131713867,
                51.24601745605469
              ],
              [
                17.549257278442383,
                51.24601745605469
              ],
              [
                17.31973648071289,
                51.71418380737305
              ],
              [
                16.980127334594727,
                51.71418380737305
              ],
              [
                16.718996047973633,
                51.580322265625
              ],
              [
                16.55561637878418,
                51.71418380737305
              ],
              [
                16.131103515625,
                51.71418380737305
              ],
              [
                16.136985778808594,
                51.84812545776367
              ],
              [
                15.80826187133789,
                52.11625671386719
              ],
              [
                15.813953399658203,
                52.250450134277344
              ],
              [
                15.483783721923828,
                52.51908493041992
              ],
              [
                15.577588081359863,
                52.720787048339844
              ],
              [
                16.097135543823242,
                52.85536575317383
              ],
              [
                16.02382469177246,
                53.124786376953125
              ],
              [
                16.109657287597656,
                53.124786376953125
              ],
              [
                16.119178771972656,
                53.32708740234375
              ],
              [
                16.294410705566406,
                53.39456558227539
              ],
              [
                16.301027297973633,
                53.52959060668945
              ],
              [
                16.476667404174805,
                53.597137451171875
              ],
              [
                16.400707244873047,
                53.799922943115234
              ],
              [
                16.65959930419922,
                53.799922943115234
              ],
              [
                16.821292877197266,
                53.597137451171875
              ],
              [
                17.079761505126953,
                53.597137451171875
              ],
              [
                17.326608657836914,
                53.39456558227539
              ],
              [
                17.506561279296875,
                53.52959060668945
              ],
              [
                18.44928741455078,
                53.462066650390625
              ],
              [
                18.517410278320312,
                53.192195892333984
              ],
              [
                18.689167022705078,
                53.192195892333984
              ],
              [
                18.928207397460938,
                52.92268753051758
              ],
              [
                19.361536026000977,
                52.99003219604492
              ],
              [
                19.724811553955078,
                53.25962829589844
              ],
              [
                20.395845413208008,
                53.057395935058594
              ],
              [
                20.66997718811035,
                53.25962829589844
              ],
              [
                20.927749633789062,
                53.25962829589844
              ],
              [
                21.28936767578125,
                53.462066650390625
              ],
              [
                22.42144775390625,
                53.597137451171875
              ],
              [
                22.738895416259766,
                53.32708740234375
              ],
              [
                22.698820114135742,
                52.92268753051758
              ],
              [
                22.343225479125977,
                52.78806686401367
              ],
              [
                22.403303146362305,
                52.51908493041992
              ],
              [
                22.147024154663086,
                52.51908493041992
              ],
              [
                22.122400283813477,
                52.250450134277344
              ],
              [
                22.687358856201172,
                51.91512680053711
              ],
              [
                22.747228622436523,
                51.64724349975586
              ],
              [
                23.589168548583984,
                51.580322265625
              ],
              [
                23.93526268005371,
                51.64724349975586
              ],
              [
                24.04088592529297,
                51.84812545776367
              ],
              [
                24.64307975769043,
                51.91512680053711
              ],
              [
                24.84287452697754,
                52.18334197998047
              ],
              [
                25.261207580566406,
                52.11625671386719
              ],
              [
                25.223169326782227,
                51.78114318847656
              ],
              [
                24.960941314697266,
                51.71418380737305
              ],
              [
                24.73369789123535,
                51.17921447753906
              ],
              [
                24.199270248413086,
                50.912200927734375
              ],
              [
                24.368066787719727,
                50.912200927734375
              ],
              [
                24.334489822387695,
                50.578861236572266
              ],
              [
                24.587074279785156,
                50.578861236572266
              ],
              [
                24.769216537475586,
                50.71213912963867
              ],
              [
                24.83966064453125,
                50.578861236572266
              ],
              [
                25.736732482910156,
                50.312522888183594
              ],
              [
                25.799171447753906,
                50.11296081542969
              ],
              [
                25.967002868652344,
                50.11296081542969
              ],
              [
                26.029254913330078,
                49.91355895996094
              ],
              [
                26.189617156982422,
                49.84712600708008
              ],
              [
                26.22332000732422,
                49.38258361816406
              ],
              [
                25.778654098510742,
                49.11750411987305
              ],
              [
                25.35540199279785,
                49.051273345947266
              ],
              [
                25.252717971801758,
                48.852684020996094
              ],
              [
                25.559406280517578,
                48.5881233215332
              ],
              [
                25.54009246826172,
                48.38986587524414
              ],
              [
                25.01179313659668,
                48.059749603271484
              ],
              [
                24.987621307373047,
                47.79592514038086
              ],
              [
                24.90500259399414,
                47.79592514038086
              ],
              [
                24.8990421295166,
                47.730003356933594
              ],
              [
                25.016605377197266,
                47.20316696166992
              ]
            ]
          ]
        ]
      }
    }
  ]
}