{
  "type": "FeatureCollection",
  "name": "territory-582",
  "features": [
    {
      "type": "Feature",
      "properties": {
        "Name": "(Allegiance of Jalayirid Sultanate to Timurid Empire)",
        "FromYear": 1385,
        "ToYear": 1394,
        "Area": 3025193.047493729,
        "Type": "RELATION",
        "Wikipedia": "Jalayirid Sultanate",
        "Wikidata": "Q866716",
        "SeshatID": "ir_jayarid_khanate;uz_timurid_emp",
        "Components": "Jalayirid Sultanate;Timurid Empire",
        "MemberOf": ""
      },
      "geometry": {
        "type": "MultiPolygon",
        "coordinates": [
          [
            [
              [
                56.09872817993164,
                31.464719772338867
              ],
              [
                56.17490005493164,
                31.464719772338867
              ],
              [
                56.251075744628906,
                31.464719772338867
              ],
              [
                56.8254508972168,
                31.7217960357666
              ],
              [
                56.842960357666016,
                32.75019073486328
              ],
              [
                56.72270584106445,
                32.94303894042969
              ],
              [
                56.75582504272461,
                33.13589859008789
              ],
              [
                56.6791877746582,
                33.13589859008789
              ],
              [
                56.6494140625,
                33.84315490722656
              ],
              [
                57.19887924194336,
                33.90746307373047
              ],
              [
                57.299015045166016,
                34.03607940673828
              ],
              [
                58.44789505004883,
                34.42197799682617
              ],
              [
                59.39427947998047,
                35.32271194458008
              ],
              [
                59.91484451293945,
                36.3527946472168
              ],
              [
                60.12258529663086,
                37.3193473815918
              ],
              [
                59.959877014160156,
                37.641746520996094
              ],
              [
                59.86714553833008,
                38.60969924926758
              ],
              [
                60.19400405883789,
                38.997230529785156
              ],
              [
                60.88554763793945,
                39.25570297241211
              ],
              [
                61.65839385986328,
                39.51427459716797
              ],
              [
                62.637027740478516,
                39.64360046386719
              ],
              [
                62.687564849853516,
                39.8376350402832
              ],
              [
                62.42277526855469,
                40.031734466552734
              ],
              [
                62.45697021484375,
                40.16116714477539
              ],
              [
                62.254180908203125,
                40.29063034057617
              ],
              [
                62.226932525634766,
                40.4848747253418
              ],
              [
                61.690025329589844,
                40.54964065551758
              ],
              [
                61.70730209350586,
                40.614410400390625
              ],
              [
                59.74843215942383,
                41.00318908691406
              ],
              [
                59.49873352050781,
                41.26253128051758
              ],
              [
                60.451820373535156,
                41.84651184082031
              ],
              [
                60.60334777832031,
                42.10627746582031
              ],
              [
                60.781185150146484,
                42.17123794555664
              ],
              [
                61.13116455078125,
                42.56119155883789
              ],
              [
                61.20567321777344,
                42.82133865356445
              ],
              [
                61.52179718017578,
                43.08163070678711
              ],
              [
                61.7556266784668,
                43.6026611328125
              ],
              [
                61.95561981201172,
                43.73301696777344
              ],
              [
                66.75863647460938,
                44.12431716918945
              ],
              [
                66.99546813964844,
                43.86341094970703
              ],
              [
                67.15678405761719,
                43.86341094970703
              ],
              [
                67.25346374511719,
                43.6678352355957
              ],
              [
                67.41459655761719,
                43.6678352355957
              ],
              [
                67.82744598388672,
                43.211830139160156
              ],
              [
                67.8011703491211,
                42.88639831542969
              ],
              [
                67.8813705444336,
                42.88639831542969
              ],
              [
                67.48921203613281,
                41.911441802978516
              ],
              [
                67.78618621826172,
                41.586883544921875
              ],
              [
                68.36212921142578,
                41.39224624633789
              ],
              [
                68.4605484008789,
                41.19768524169922
              ],
              [
                68.7581787109375,
                41.132843017578125
              ],
              [
                68.7973403930664,
                41.00318908691406
              ],
              [
                70.0290756225586,
                41.132843017578125
              ],
              [
                70.35067749023438,
                41.39224624633789
              ],
              [
                70.68994903564453,
                41.45711898803711
              ],
              [
                70.73234558105469,
                41.586883544921875
              ],
              [
                71.28972625732422,
                41.586883544921875
              ],
              [
                72.10060119628906,
                41.39224624633789
              ],
              [
                72.92491149902344,
                41.00318908691406
              ],
              [
                72.94004821777344,
                40.80876541137695
              ],
              [
                73.17793273925781,
                40.80876541137695
              ],
              [
                73.46772003173828,
                40.4848747253418
              ],
              [
                73.62603759765625,
                40.4848747253418
              ],
              [
                73.85803985595703,
                40.225894927978516
              ],
              [
                73.81617736816406,
                40.0964469909668
              ],
              [
                73.95331573486328,
                40.031734466552734
              ],
              [
                73.88824462890625,
                39.57893371582031
              ],
              [
                73.7104263305664,
                39.51427459716797
              ],
              [
                73.61043548583984,
                39.19107437133789
              ],
              [
                73.6890869140625,
                39.19107437133789
              ],
              [
                73.64955139160156,
                39.06184005737305
              ],
              [
                73.78703308105469,
                38.997230529785156
              ],
              [
                73.72833251953125,
                38.80344009399414
              ],
              [
                73.80683135986328,
                38.80344009399414
              ],
              [
                73.67025756835938,
                38.60969924926758
              ],
              [
                73.74868774414062,
                38.60969924926758
              ],
              [
                73.61882019042969,
                37.89975357055664
              ],
              [
                73.69699096679688,
                37.89975357055664
              ],
              [
                73.62308502197266,
                37.641746520996094
              ],
              [
                73.70115661621094,
                37.641746520996094
              ],
              [
                73.64630889892578,
                37.44829177856445
              ],
              [
                73.78411865234375,
                37.38381576538086
              ],
              [
                73.69396209716797,
                37.06150817871094
              ],
              [
                73.79618072509766,
                36.8681755065918
              ],
              [
                73.77845764160156,
                36.80373764038086
              ],
              [
                73.93402099609375,
                36.80373764038086
              ],
              [
                73.97638702392578,
                36.67487716674805
              ],
              [
                73.18156433105469,
                36.61045455932617
              ],
              [
                73.22457885742188,
                36.48161697387695
              ],
              [
                72.65644836425781,
                36.09519577026367
              ],
              [
                72.6061019897461,
                35.902034759521484
              ],
              [
                73.2259750366211,
                35.902034759521484
              ],
              [
                73.25298309326172,
                35.708900451660156
              ],
              [
                73.838623046875,
                35.58015823364258
              ],
              [
                73.94300842285156,
                35.38706970214844
              ],
              [
                73.69441223144531,
                35.32271194458008
              ],
              [
                73.66128540039062,
                35.194007873535156
              ],
              [
                74.09162902832031,
                35.065311431884766
              ],
              [
                74.1688461303711,
                35.065311431884766
              ],
              [
                73.96501922607422,
                34.87228775024414
              ],
              [
                73.64009857177734,
                34.80794906616211
              ],
              [
                73.32818603515625,
                34.48630142211914
              ],
              [
                73.02003479003906,
                34.48630142211914
              ],
              [
                72.66459655761719,
                34.2933349609375
              ],
              [
                72.54078674316406,
                34.10039138793945
              ],
              [
                72.1407699584961,
                34.03607940673828
              ],
              [
                71.52877807617188,
                33.393062591552734
              ],
              [
                71.4844970703125,
                33.20018768310547
              ],
              [
                71.59382629394531,
                33.00732421875
              ],
              [
                71.22974395751953,
                32.75019073486328
              ],
              [
                71.17280578613281,
                32.493072509765625
              ],
              [
                70.84602355957031,
                32.043148040771484
              ],
              [
                70.41765594482422,
                29.08665657043457
              ],
              [
                70.40623474121094,
                29.022375106811523
              ],
              [
                70.1657943725586,
                28.508106231689453
              ],
              [
                69.75604248046875,
                28.315250396728516
              ],
              [
                69.648681640625,
                28.12238883972168
              ],
              [
                69.4979248046875,
                28.12238883972168
              ],
              [
                69.06927490234375,
                27.800947189331055
              ],
              [
                68.52191162109375,
                27.6723690032959
              ],
              [
                68.34153747558594,
                27.4794979095459
              ],
              [
                67.71050262451172,
                27.2866268157959
              ],
              [
                66.95917510986328,
                26.772293090820312
              ],
              [
                66.48686218261719,
                26.06507110595703
              ],
              [
                66.34514617919922,
                25.55072784423828
              ],
              [
                66.17919921875,
                25.422143936157227
              ],
              [
                64.8160629272461,
                25.29355812072754
              ],
              [
                64.80064392089844,
                25.164974212646484
              ],
              [
                64.2845230102539,
                25.229267120361328
              ],
              [
                64.22502136230469,
                25.357851028442383
              ],
              [
                63.62620544433594,
                25.357851028442383
              ],
              [
                63.536216735839844,
                25.229267120361328
              ],
              [
                62.563419342041016,
                25.229267120361328
              ],
              [
                62.47393035888672,
                25.100683212280273
              ],
              [
                62.18195724487305,
                25.164974212646484
              ],
              [
                62.01787185668945,
                25.03639030456543
              ],
              [
                61.71868133544922,
                25.03639030456543
              ],
              [
                61.65822219848633,
                25.164974212646484
              ],
              [
                61.12736892700195,
                25.100683212280273
              ],
              [
                60.91714859008789,
                25.229267120361328
              ],
              [
                60.617828369140625,
                25.229267120361328
              ],
              [
                60.63211441040039,
                25.357851028442383
              ],
              [
                59.060218811035156,
                25.357851028442383
              ],
              [
                58.78172302246094,
                25.55072784423828
              ],
              [
                57.957984924316406,
                25.55072784423828
              ],
              [
                57.7402229309082,
                25.615020751953125
              ],
              [
                57.67921447753906,
                25.743606567382812
              ],
              [
                57.37953567504883,
                25.743606567382812
              ],
              [
                57.11480712890625,
                26.06507110595703
              ],
              [
                57.05242156982422,
                26.836584091186523
              ],
              [
                56.714656829833984,
                27.158044815063477
              ],
              [
                56.188377380371094,
                27.158044815063477
              ],
              [
                56.098140716552734,
                27.029460906982422
              ],
              [
                56.32361602783203,
                27.029460906982422
              ],
              [
                56.30864334106445,
                26.900876998901367
              ],
              [
                56.06119155883789,
                26.70800018310547
              ],
              [
                55.60341262817383,
                26.643707275390625
              ],
              [
                55.439002990722656,
                26.515121459960938
              ],
              [
                55.28888702392578,
                26.515121459960938
              ],
              [
                55.31023025512695,
                26.70800018310547
              ],
              [
                55.542747497558594,
                26.772293090820312
              ],
              [
                55.242313385009766,
                26.772293090820312
              ],
              [
                54.83156204223633,
                26.450830459594727
              ],
              [
                54.463233947753906,
                26.515121459960938
              ],
              [
                54.25889205932617,
                26.70800018310547
              ],
              [
                53.65812301635742,
                26.70800018310547
              ],
              [
                53.46059036254883,
                26.96516990661621
              ],
              [
                52.736968994140625,
                27.222335815429688
              ],
              [
                52.478694915771484,
                27.608078002929688
              ],
              [
                52.04855728149414,
                27.800947189331055
              ],
              [
                51.45318603515625,
                27.865236282348633
              ],
              [
                51.06624984741211,
                28.44382095336914
              ],
              [
                51.028076171875,
                28.765243530273438
              ],
              [
                50.80903244018555,
                28.829526901245117
              ],
              [
                50.907371520996094,
                29.022375106811523
              ],
              [
                50.9150390625,
                29.08665657043457
              ],
              [
                51.30859375,
                29.21521759033203
              ],
              [
                51.49958801269531,
                29.536611557006836
              ],
              [
                52.16315841674805,
                29.986536026000977
              ],
              [
                52.18006134033203,
                30.115081787109375
              ],
              [
                53.26371383666992,
                30.822044372558594
              ],
              [
                53.747501373291016,
                31.014846801757812
              ],
              [
                54.441490173339844,
                31.079113006591797
              ],
              [
                54.850730895996094,
                31.271915435791016
              ],
              [
                56.088687896728516,
                31.40045166015625
              ],
              [
                56.09872817993164,
                31.464719772338867
              ]
            ]
          ],
          [
            [
              [
                52.5175666809082,
                34.42197799682617
              ],
              [
                51.587974548339844,
                33.90746307373047
              ],
              [
                50.91222381591797,
                33.00732421875
              ],
              [
                50.769142150878906,
                32.557350158691406
              ],
              [
                49.990196228027344,
                31.91460609436035
              ],
              [
                49.691444396972656,
                31.40045166015625
              ],
              [
                49.34452438354492,
                31.079113006591797
              ],
              [
                49.04267883300781,
                30.500701904296875
              ],
              [
                49.034664154052734,
                30.436433792114258
              ],
              [
                48.903682708740234,
                29.986536026000977
              ],
              [
                48.14566421508789,
                29.986536026000977
              ],
              [
                48.069862365722656,
                29.986536026000977
              ],
              [
                47.570716857910156,
                29.600887298583984
              ],
              [
                47.45903015136719,
                29.279497146606445
              ],
              [
                47.383392333984375,
                29.279497146606445
              ],
              [
                47.10211944580078,
                29.472333908081055
              ],
              [
                46.868003845214844,
                29.40805435180664
              ],
              [
                46.74504852294922,
                29.665164947509766
              ],
              [
                46.58648681640625,
                29.600887298583984
              ],
              [
                46.53215789794922,
                29.79371452331543
              ],
              [
                46.09901428222656,
                29.986536026000977
              ],
              [
                45.55000686645508,
                30.500701904296875
              ],
              [
                45.39815139770508,
                30.500701904296875
              ],
              [
                44.79490280151367,
                31.20764923095703
              ],
              [
                44.63529586791992,
                31.143381118774414
              ],
              [
                44.657562255859375,
                31.336183547973633
              ],
              [
                44.44402313232422,
                31.464719772338867
              ],
              [
                44.459014892578125,
                31.593257904052734
              ],
              [
                43.152584075927734,
                32.81447219848633
              ],
              [
                42.708534240722656,
                32.94303894042969
              ],
              [
                42.578269958496094,
                33.13589859008789
              ],
              [
                42.064544677734375,
                33.32876968383789
              ],
              [
                41.86487579345703,
                33.5859489440918
              ],
              [
                41.426979064941406,
                33.77885055541992
              ],
              [
                41.04199981689453,
                34.42197799682617
              ],
              [
                40.96498489379883,
                34.42197799682617
              ],
              [
                40.7723274230957,
                34.743614196777344
              ],
              [
                40.54866027832031,
                34.80794906616211
              ],
              [
                40.51013946533203,
                35.12965774536133
              ],
              [
                41.058353424072266,
                36.417205810546875
              ],
              [
                41.46357727050781,
                36.5460319519043
              ],
              [
                41.610443115234375,
                36.48161697387695
              ],
              [
                41.59345626831055,
                36.3527946472168
              ],
              [
                41.80934524536133,
                36.2239875793457
              ],
              [
                41.79243469238281,
                36.09519577026367
              ],
              [
                42.00814437866211,
                35.9664192199707
              ],
              [
                41.991310119628906,
                35.837650299072266
              ],
              [
                42.12941360473633,
                35.708900451660156
              ],
              [
                42.370140075683594,
                35.77327346801758
              ],
              [
                42.43064498901367,
                35.644527435302734
              ],
              [
                42.65435028076172,
                35.58015823364258
              ],
              [
                43.514259338378906,
                35.644527435302734
              ],
              [
                43.49683380126953,
                35.51579284667969
              ],
              [
                43.720176696777344,
                35.45143127441406
              ],
              [
                43.91899490356445,
                35.77327346801758
              ],
              [
                44.46109390258789,
                35.77327346801758
              ],
              [
                44.866641998291016,
                35.902034759521484
              ],
              [
                45.00319290161133,
                35.77327346801758
              ],
              [
                46.15534973144531,
                35.708900451660156
              ],
              [
                46.408206939697266,
                35.32271194458008
              ],
              [
                46.38014602661133,
                35.12965774536133
              ],
              [
                46.59315490722656,
                35.00096893310547
              ],
              [
                46.57455062866211,
                34.87228775024414
              ],
              [
                46.796695709228516,
                34.80794906616211
              ],
              [
                47.22975158691406,
                35.12965774536133
              ],
              [
                47.38422775268555,
                35.12965774536133
              ],
              [
                47.50995635986328,
                34.93662643432617
              ],
              [
                47.741485595703125,
                34.93662643432617
              ],
              [
                47.84764862060547,
                35.12965774536133
              ],
              [
                47.702850341796875,
                35.194007873535156
              ],
              [
                47.6840705871582,
                35.58015823364258
              ],
              [
                47.94601058959961,
                35.77327346801758
              ],
              [
                48.158321380615234,
                35.644527435302734
              ],
              [
                48.62272644042969,
                35.644527435302734
              ],
              [
                48.68388748168945,
                36.03080368041992
              ],
              [
                49.15947341918945,
                36.09519577026367
              ],
              [
                49.212074279785156,
                36.417205810546875
              ],
              [
                48.844852447509766,
                36.5460319519043
              ],
              [
                48.88734817504883,
                36.80373764038086
              ],
              [
                49.04291915893555,
                36.80373764038086
              ],
              [
                49.62006759643555,
                37.44829177856445
              ],
              [
                49.69807434082031,
                37.44829177856445
              ],
              [
                49.998783111572266,
                37.38381576538086
              ],
              [
                50.320892333984375,
                36.9970588684082
              ],
              [
                50.56571960449219,
                37.06150817871094
              ],
              [
                50.632293701171875,
                36.9970588684082
              ],
              [
                50.5432014465332,
                36.932613372802734
              ],
              [
                50.53199768066406,
                36.8681755065918
              ],
              [
                50.789955139160156,
                35.644527435302734
              ],
              [
                51.01142501831055,
                35.58015823364258
              ],
              [
                51.297855377197266,
                35.902034759521484
              ],
              [
                51.97303009033203,
                35.77327346801758
              ],
              [
                51.93999099731445,
                35.58015823364258
              ],
              [
                52.07279586791992,
                35.45143127441406
              ],
              [
                52.007659912109375,
                35.065311431884766
              ],
              [
                52.151302337646484,
                35.00096893310547
              ],
              [
                52.129798889160156,
                34.87228775024414
              ],
              [
                52.6374397277832,
                34.679283142089844
              ],
              [
                52.5175666809082,
                34.42197799682617
              ]
            ]
          ]
        ]
      }
    }
  ]
}