{
  "type": "FeatureCollection",
  "name": "territory-584",
  "features": [
    {
      "type": "Feature",
      "properties": {
        "Name": "Kingdom of Bosnia",
        "FromYear": 1385,
        "ToYear": 1394,
        "Area": 52467.48374081758,
        "Type": "POLITY",
        "Wikipedia": "Kingdom of Bosnia",
        "Wikidata": "Q2980623",
        "SeshatID": "ba_bosnia_k",
        "Components": "",
        "MemberOf": ""
      },
      "geometry": {
        "type": "MultiPolygon",
        "coordinates": [
          [
            [
              [
                17.748348236083984,
                42.75628662109375
              ],
              [
                17.745683670043945,
                42.691246032714844
              ],
              [
                17.665569305419922,
                42.691246032714844
              ],
              [
                17.668203353881836,
                42.75628662109375
              ],
              [
                17.748348236083984,
                42.75628662109375
              ]
            ]
          ],
          [
            [
              [
                17.914100646972656,
                42.88639831542969
              ],
              [
                17.911367416381836,
                42.82133865356445
              ],
              [
                17.831192016601562,
                42.82133865356445
              ],
              [
                17.83389663696289,
                42.88639831542969
              ],
              [
                17.914100646972656,
                42.88639831542969
              ]
            ]
          ],
          [
            [
              [
                19.2070369720459,
                43.08163070678711
              ],
              [
                19.046449661254883,
                43.08163070678711
              ],
              [
                18.956756591796875,
                42.88639831542969
              ],
              [
                18.538005828857422,
                42.496177673339844
              ],
              [
                18.457979202270508,
                42.496177673339844
              ],
              [
                17.98878288269043,
                42.75628662109375
              ],
              [
                18.07171630859375,
                42.82133865356445
              ],
              [
                18.15188980102539,
                42.82133865356445
              ],
              [
                18.23491859436035,
                42.88639831542969
              ],
              [
                18.080114364624023,
                43.016544342041016
              ],
              [
                17.839323043823242,
                43.016544342041016
              ],
              [
                17.83389663696289,
                42.88639831542969
              ],
              [
                17.753692626953125,
                42.88639831542969
              ],
              [
                17.510494232177734,
                42.82133865356445
              ],
              [
                17.515670776367188,
                42.95146560668945
              ],
              [
                17.35520362854004,
                42.95146560668945
              ],
              [
                17.36538314819336,
                43.211830139160156
              ],
              [
                17.12186050415039,
                43.146724700927734
              ],
              [
                17.12925910949707,
                43.342071533203125
              ],
              [
                16.80995750427246,
                43.407203674316406
              ],
              [
                16.814678192138672,
                43.53750228881836
              ],
              [
                16.734172821044922,
                43.53750228881836
              ],
              [
                16.7435302734375,
                43.79821014404297
              ],
              [
                16.429935455322266,
                44.05907440185547
              ],
              [
                16.268434524536133,
                44.05907440185547
              ],
              [
                16.27495574951172,
                44.25482940673828
              ],
              [
                16.51975440979004,
                44.32010269165039
              ],
              [
                16.52429962158203,
                44.45067596435547
              ],
              [
                16.285852432250977,
                44.58129119873047
              ],
              [
                16.294586181640625,
                44.842647552490234
              ],
              [
                16.544801712036133,
                45.03877639770508
              ],
              [
                18.57839012145996,
                45.10417556762695
              ],
              [
                18.890594482421875,
                44.842647552490234
              ],
              [
                19.14055824279785,
                44.973392486572266
              ],
              [
                19.296220779418945,
                44.842647552490234
              ],
              [
                19.107723236083984,
                44.32010269165039
              ],
              [
                19.498432159423828,
                44.05907440185547
              ],
              [
                19.397510528564453,
                43.6678352355957
              ],
              [
                19.709392547607422,
                43.472347259521484
              ],
              [
                19.2070369720459,
                43.08163070678711
              ]
            ]
          ]
        ]
      }
    }
  ]
}