{
  "type": "FeatureCollection",
  "name": "territory-587",
  "features": [
    {
      "type": "Feature",
      "properties": {
        "Name": "(Alliance between Golden Horde and Timurid Empire)",
        "FromYear": 1395,
        "ToYear": 1401,
        "Area": 8257988.427860812,
        "Type": "RELATION",
        "Wikipedia": "Golden Horde",
        "Wikidata": "Q79965",
        "SeshatID": "ru_golden_horde;uz_timurid_emp",
        "Components": "Golden Horde;Timurid Empire",
        "MemberOf": ""
      },
      "geometry": {
        "type": "MultiPolygon",
        "coordinates": [
          [
            [
              [
                70.29608154296875,
                43.146724700927734
              ],
              [
                70.2072982788086,
                42.88639831542969
              ],
              [
                70.32351684570312,
                42.75628662109375
              ],
              [
                70.1123046875,
                42.36617660522461
              ],
              [
                70.19226837158203,
                42.36617660522461
              ],
              [
                70.1857681274414,
                42.10627746582031
              ],
              [
                70.49894714355469,
                41.84651184082031
              ],
              [
                71.03555297851562,
                41.781593322753906
              ],
              [
                71.05084991455078,
                41.586883544921875
              ],
              [
                72.10060119628906,
                41.39224624633789
              ],
              [
                72.92491149902344,
                41.00318908691406
              ],
              [
                72.94004821777344,
                40.80876541137695
              ],
              [
                73.17793273925781,
                40.80876541137695
              ],
              [
                73.21454620361328,
                40.6791877746582
              ],
              [
                73.37303161621094,
                40.6791877746582
              ],
              [
                73.46772003173828,
                40.4848747253418
              ],
              [
                73.62603759765625,
                40.4848747253418
              ],
              [
                73.85803985595703,
                40.225894927978516
              ],
              [
                73.81617736816406,
                40.0964469909668
              ],
              [
                73.95331573486328,
                40.031734466552734
              ],
              [
                73.85016632080078,
                39.70827102661133
              ],
              [
                73.92901611328125,
                39.70827102661133
              ],
              [
                73.7104263305664,
                39.51427459716797
              ],
              [
                73.61043548583984,
                39.19107437133789
              ],
              [
                73.6890869140625,
                39.19107437133789
              ],
              [
                73.64955139160156,
                39.06184005737305
              ],
              [
                73.78703308105469,
                38.997230529785156
              ],
              [
                73.72833251953125,
                38.80344009399414
              ],
              [
                73.80683135986328,
                38.80344009399414
              ],
              [
                73.67025756835938,
                38.60969924926758
              ],
              [
                73.74868774414062,
                38.60969924926758
              ],
              [
                73.61882019042969,
                37.89975357055664
              ],
              [
                73.69699096679688,
                37.89975357055664
              ],
              [
                73.62308502197266,
                37.641746520996094
              ],
              [
                73.70115661621094,
                37.641746520996094
              ],
              [
                73.64630889892578,
                37.44829177856445
              ],
              [
                73.78411865234375,
                37.38381576538086
              ],
              [
                73.69396209716797,
                37.06150817871094
              ],
              [
                73.79618072509766,
                36.8681755065918
              ],
              [
                73.77845764160156,
                36.80373764038086
              ],
              [
                73.93402099609375,
                36.80373764038086
              ],
              [
                73.97638702392578,
                36.67487716674805
              ],
              [
                73.18156433105469,
                36.61045455932617
              ],
              [
                73.22457885742188,
                36.48161697387695
              ],
              [
                72.65644836425781,
                36.09519577026367
              ],
              [
                72.6061019897461,
                35.902034759521484
              ],
              [
                73.2259750366211,
                35.902034759521484
              ],
              [
                73.25298309326172,
                35.708900451660156
              ],
              [
                73.838623046875,
                35.58015823364258
              ],
              [
                73.94300842285156,
                35.38706970214844
              ],
              [
                73.69441223144531,
                35.32271194458008
              ],
              [
                73.66128540039062,
                35.194007873535156
              ],
              [
                74.09162902832031,
                35.065311431884766
              ],
              [
                74.1688461303711,
                35.065311431884766
              ],
              [
                73.96501922607422,
                34.87228775024414
              ],
              [
                73.64009857177734,
                34.80794906616211
              ],
              [
                73.32818603515625,
                34.48630142211914
              ],
              [
                73.02003479003906,
                34.48630142211914
              ],
              [
                72.66459655761719,
                34.2933349609375
              ],
              [
                72.54078674316406,
                34.10039138793945
              ],
              [
                72.1407699584961,
                34.03607940673828
              ],
              [
                71.52877807617188,
                33.393062591552734
              ],
              [
                71.4844970703125,
                33.20018768310547
              ],
              [
                71.59382629394531,
                33.00732421875
              ],
              [
                71.22974395751953,
                32.75019073486328
              ],
              [
                71.17280578613281,
                32.493072509765625
              ],
              [
                70.84602355957031,
                32.043148040771484
              ],
              [
                70.41765594482422,
                29.08665657043457
              ],
              [
                70.40623474121094,
                29.022375106811523
              ],
              [
                70.1657943725586,
                28.508106231689453
              ],
              [
                69.75604248046875,
                28.315250396728516
              ],
              [
                69.648681640625,
                28.12238883972168
              ],
              [
                69.4979248046875,
                28.12238883972168
              ],
              [
                69.06927490234375,
                27.800947189331055
              ],
              [
                68.52191162109375,
                27.6723690032959
              ],
              [
                68.34153747558594,
                27.4794979095459
              ],
              [
                67.71050262451172,
                27.2866268157959
              ],
              [
                66.95917510986328,
                26.772293090820312
              ],
              [
                66.48686218261719,
                26.06507110595703
              ],
              [
                66.34514617919922,
                25.55072784423828
              ],
              [
                66.17919921875,
                25.422143936157227
              ],
              [
                64.8160629272461,
                25.29355812072754
              ],
              [
                64.80064392089844,
                25.164974212646484
              ],
              [
                64.2845230102539,
                25.229267120361328
              ],
              [
                64.22502136230469,
                25.357851028442383
              ],
              [
                63.62620544433594,
                25.357851028442383
              ],
              [
                63.536216735839844,
                25.229267120361328
              ],
              [
                62.563419342041016,
                25.229267120361328
              ],
              [
                62.47393035888672,
                25.100683212280273
              ],
              [
                62.18195724487305,
                25.164974212646484
              ],
              [
                62.01787185668945,
                25.03639030456543
              ],
              [
                61.71868133544922,
                25.03639030456543
              ],
              [
                61.65822219848633,
                25.164974212646484
              ],
              [
                61.12736892700195,
                25.100683212280273
              ],
              [
                60.91714859008789,
                25.229267120361328
              ],
              [
                60.617828369140625,
                25.229267120361328
              ],
              [
                60.63211441040039,
                25.357851028442383
              ],
              [
                59.060218811035156,
                25.357851028442383
              ],
              [
                58.78172302246094,
                25.55072784423828
              ],
              [
                57.957984924316406,
                25.55072784423828
              ],
              [
                57.7402229309082,
                25.615020751953125
              ],
              [
                57.67921447753906,
                25.743606567382812
              ],
              [
                57.37953567504883,
                25.743606567382812
              ],
              [
                57.11480712890625,
                26.06507110595703
              ],
              [
                57.05242156982422,
                26.836584091186523
              ],
              [
                56.714656829833984,
                27.158044815063477
              ],
              [
                56.188377380371094,
                27.158044815063477
              ],
              [
                56.098140716552734,
                27.029460906982422
              ],
              [
                56.32361602783203,
                27.029460906982422
              ],
              [
                56.30864334106445,
                26.900876998901367
              ],
              [
                56.06119155883789,
                26.70800018310547
              ],
              [
                55.60341262817383,
                26.643707275390625
              ],
              [
                55.439002990722656,
                26.515121459960938
              ],
              [
                55.28888702392578,
                26.515121459960938
              ],
              [
                55.31023025512695,
                26.70800018310547
              ],
              [
                55.542747497558594,
                26.772293090820312
              ],
              [
                55.242313385009766,
                26.772293090820312
              ],
              [
                54.83156204223633,
                26.450830459594727
              ],
              [
                54.463233947753906,
                26.515121459960938
              ],
              [
                54.25889205932617,
                26.70800018310547
              ],
              [
                53.65812301635742,
                26.70800018310547
              ],
              [
                53.46059036254883,
                26.96516990661621
              ],
              [
                52.736968994140625,
                27.222335815429688
              ],
              [
                52.478694915771484,
                27.608078002929688
              ],
              [
                52.04855728149414,
                27.800947189331055
              ],
              [
                51.5966796875,
                27.800947189331055
              ],
              [
                51.31684494018555,
                27.993812561035156
              ],
              [
                51.331298828125,
                28.12238883972168
              ],
              [
                51.06624984741211,
                28.44382095336914
              ],
              [
                51.028076171875,
                28.765243530273438
              ],
              [
                50.80903244018555,
                28.829526901245117
              ],
              [
                50.9150390625,
                29.08665657043457
              ],
              [
                50.620323181152344,
                29.150936126708984
              ],
              [
                50.65126037597656,
                29.40805435180664
              ],
              [
                50.23628234863281,
                29.729440689086914
              ],
              [
                50.0648078918457,
                30.179353713989258
              ],
              [
                49.585899353027344,
                29.986536026000977
              ],
              [
                48.942848205566406,
                30.307893753051758
              ],
              [
                48.987266540527344,
                30.050809860229492
              ],
              [
                48.67627716064453,
                29.986536026000977
              ],
              [
                48.6004753112793,
                29.986536026000977
              ],
              [
                48.38842010498047,
                30.115081787109375
              ],
              [
                48.41168975830078,
                30.307893753051758
              ],
              [
                48.27554702758789,
                30.436433792114258
              ],
              [
                48.04780960083008,
                30.436433792114258
              ],
              [
                48.103145599365234,
                30.886310577392578
              ],
              [
                47.738956451416016,
                31.014846801757812
              ],
              [
                47.79570007324219,
                31.464719772338867
              ],
              [
                47.98128890991211,
                31.7217960357666
              ],
              [
                47.58243942260742,
                32.171695709228516
              ],
              [
                47.599449157714844,
                32.30024337768555
              ],
              [
                47.31937026977539,
                32.493072509765625
              ],
              [
                46.945579528808594,
                32.557350158691406
              ],
              [
                46.682132720947266,
                32.878753662109375
              ],
              [
                46.231224060058594,
                32.94303894042969
              ],
              [
                46.137794494628906,
                33.393062591552734
              ],
              [
                45.59275817871094,
                33.90746307373047
              ],
              [
                45.43903350830078,
                33.90746307373047
              ],
              [
                45.64531326293945,
                34.2933349609375
              ],
              [
                45.50016784667969,
                34.3576545715332
              ],
              [
                45.535648345947266,
                34.614952087402344
              ],
              [
                45.68980026245117,
                34.614952087402344
              ],
              [
                45.7167854309082,
                34.80794906616211
              ],
              [
                45.340049743652344,
                34.87228775024414
              ],
              [
                45.203617095947266,
                35.00096893310547
              ],
              [
                45.180519104003906,
                35.38706970214844
              ],
              [
                45.044029235839844,
                35.51579284667969
              ],
              [
                45.071441650390625,
                35.708900451660156
              ],
              [
                44.94412612915039,
                35.902034759521484
              ],
              [
                44.593360900878906,
                36.15959167480469
              ],
              [
                44.611854553222656,
                36.28839111328125
              ],
              [
                44.3383903503418,
                36.5460319519043
              ],
              [
                44.37583541870117,
                36.80373764038086
              ],
              [
                44.871337890625,
                36.9970588684082
              ],
              [
                44.74457931518555,
                37.1904182434082
              ],
              [
                44.773807525634766,
                37.38381576538086
              ],
              [
                44.627601623535156,
                37.44829177856445
              ],
              [
                44.58888626098633,
                37.706241607666016
              ],
              [
                44.30603790283203,
                37.89975357055664
              ],
              [
                44.34591293334961,
                38.157840728759766
              ],
              [
                44.13113784790039,
                38.28691864013672
              ],
              [
                44.15129089355469,
                38.416015625
              ],
              [
                43.7314567565918,
                38.738853454589844
              ],
              [
                43.57450866699219,
                38.738853454589844
              ],
              [
                43.488861083984375,
                39.19107437133789
              ],
              [
                43.687950134277344,
                39.449623107910156
              ],
              [
                43.057979583740234,
                39.449623107910156
              ],
              [
                43.16796112060547,
                39.64360046386719
              ],
              [
                43.099605560302734,
                39.70827102661133
              ],
              [
                43.110111236572266,
                39.77294921875
              ],
              [
                42.8155517578125,
                39.90232849121094
              ],
              [
                42.489471435546875,
                39.8376350402832
              ],
              [
                42.2734260559082,
                39.9670295715332
              ],
              [
                41.86845779418945,
                39.90232849121094
              ],
              [
                41.42521667480469,
                40.0964469909668
              ],
              [
                41.3870735168457,
                40.355369567871094
              ],
              [
                41.149749755859375,
                40.355369567871094
              ],
              [
                40.932769775390625,
                40.4848747253418
              ],
              [
                40.9532585144043,
                40.614410400390625
              ],
              [
                41.2856330871582,
                41.19768524169922
              ],
              [
                41.715553283691406,
                41.39224624633789
              ],
              [
                41.74848937988281,
                41.586883544921875
              ],
              [
                41.91884231567383,
                41.65177917480469
              ],
              [
                43.13680648803711,
                41.781593322753906
              ],
              [
                43.49097442626953,
                41.97637939453125
              ],
              [
                44.12934494018555,
                41.97637939453125
              ],
              [
                44.58973693847656,
                42.30118942260742
              ],
              [
                45.216678619384766,
                42.236209869384766
              ],
              [
                45.52008819580078,
                42.56119155883789
              ],
              [
                45.22532653808594,
                42.691246032714844
              ],
              [
                44.82474899291992,
                42.691246032714844
              ],
              [
                44.83738327026367,
                42.75628662109375
              ],
              [
                44.75723648071289,
                42.75628662109375
              ],
              [
                43.851112365722656,
                42.62621307373047
              ],
              [
                43.65967559814453,
                42.88639831542969
              ],
              [
                43.419063568115234,
                42.88639831542969
              ],
              [
                42.98605728149414,
                43.146724700927734
              ],
              [
                41.7125244140625,
                43.211830139160156
              ],
              [
                41.115562438964844,
                43.472347259521484
              ],
              [
                40.40254592895508,
                43.53750228881836
              ],
              [
                40.26399612426758,
                43.6678352355957
              ],
              [
                40.28654479980469,
                43.79821014404297
              ],
              [
                40.033470153808594,
                43.73301696777344
              ],
              [
                39.351905822753906,
                43.99384307861328
              ],
              [
                39.36290740966797,
                44.05907440185547
              ],
              [
                38.21527862548828,
                44.45067596435547
              ],
              [
                38.014862060546875,
                44.71194839477539
              ],
              [
                37.52848815917969,
                44.71194839477539
              ],
              [
                37.17478561401367,
                45.03877639770508
              ],
              [
                37.216339111328125,
                45.300437927246094
              ],
              [
                37.704429626464844,
                45.300437927246094
              ],
              [
                37.747013092041016,
                45.56227111816406
              ],
              [
                37.59468460083008,
                45.62776184082031
              ],
              [
                37.7577018737793,
                45.62776184082031
              ],
              [
                37.89311981201172,
                45.95537567138672
              ],
              [
                38.334564208984375,
                46.1520881652832
              ],
              [
                38.36785888671875,
                46.348915100097656
              ],
              [
                37.89856719970703,
                46.480194091796875
              ],
              [
                37.83858108520508,
                46.61152267456055
              ],
              [
                38.494598388671875,
                46.61152267456055
              ],
              [
                38.62202453613281,
                46.87434005737305
              ],
              [
                39.13813400268555,
                47.005828857421875
              ],
              [
                39.2203369140625,
                47.005828857421875
              ],
              [
                39.47877502441406,
                47.07159423828125
              ],
              [
                39.52638626098633,
                47.33478927612305
              ],
              [
                39.220611572265625,
                47.46647262573242
              ],
              [
                39.1145133972168,
                47.33478927612305
              ],
              [
                39.03213882446289,
                47.33478927612305
              ],
              [
                38.6794548034668,
                47.20316696166992
              ],
              [
                37.51609802246094,
                47.13737487792969
              ],
              [
                37.16523361206055,
                47.005828857421875
              ],
              [
                37.2257080078125,
                46.87434005737305
              ],
              [
                36.90787887573242,
                46.94007873535156
              ],
              [
                36.80437088012695,
                46.808616638183594
              ],
              [
                35.634639739990234,
                46.677207946777344
              ],
              [
                35.24697494506836,
                46.283294677734375
              ],
              [
                34.75596237182617,
                46.283294677734375
              ],
              [
                34.736690521240234,
                46.1520881652832
              ],
              [
                34.0825309753418,
                46.1520881652832
              ],
              [
                34.019439697265625,
                46.283294677734375
              ],
              [
                33.610260009765625,
                46.283294677734375
              ],
              [
                33.59191131591797,
                46.1520881652832
              ],
              [
                32.946651458740234,
                46.21768569946289
              ],
              [
                32.84713363647461,
                46.08650588989258
              ],
              [
                32.683658599853516,
                46.08650588989258
              ],
              [
                32.0639533996582,
                46.348915100097656
              ],
              [
                31.81834602355957,
                46.348915100097656
              ],
              [
                31.835351943969727,
                46.480194091796875
              ],
              [
                32.16309356689453,
                46.480194091796875
              ],
              [
                32.171756744384766,
                46.54585266113281
              ],
              [
                32.918460845947266,
                46.61152267456055
              ],
              [
                33.69384002685547,
                46.87434005737305
              ],
              [
                34.079959869384766,
                47.26897048950195
              ],
              [
                34.109092712402344,
                47.46647262573242
              ],
              [
                34.37619400024414,
                47.598209381103516
              ],
              [
                35.026123046875,
                47.53233337402344
              ],
              [
                35.496402740478516,
                48.91886520385742
              ],
              [
                35.77958679199219,
                49.11750411987305
              ],
              [
                35.94626998901367,
                49.11750411987305
              ],
              [
                36.007015228271484,
                48.98506164550781
              ],
              [
                35.99578094482422,
                48.91886520385742
              ],
              [
                35.8071174621582,
                48.786521911621094
              ],
              [
                36.06777572631836,
                48.852684020996094
              ],
              [
                36.079010009765625,
                48.91886520385742
              ],
              [
                36.328697204589844,
                48.91886520385742
              ],
              [
                36.306053161621094,
                48.786521911621094
              ],
              [
                36.62726974487305,
                48.72037124633789
              ],
              [
                36.687618255615234,
                48.5881233215332
              ],
              [
                36.9367561340332,
                48.5881233215332
              ],
              [
                37.83888244628906,
                48.98506164550781
              ],
              [
                37.86311340332031,
                49.11750411987305
              ],
              [
                37.70854187011719,
                49.18375015258789
              ],
              [
                37.67390441894531,
                49.44889450073242
              ],
              [
                37.59037399291992,
                49.44889450073242
              ],
              [
                37.627315521240234,
                49.64793395996094
              ],
              [
                37.543670654296875,
                49.64793395996094
              ],
              [
                37.75370788574219,
                50.312522888183594
              ],
              [
                37.83774185180664,
                50.312522888183594
              ],
              [
                37.898712158203125,
                51.04566955566406
              ],
              [
                38.09486770629883,
                51.17921447753906
              ],
              [
                38.14987564086914,
                51.44654083251953
              ],
              [
                37.93708801269531,
                51.64724349975586
              ],
              [
                37.964942932128906,
                51.78114318847656
              ],
              [
                37.482810974121094,
                51.91512680053711
              ],
              [
                37.42543029785156,
                52.0491943359375
              ],
              [
                37.013519287109375,
                52.11625671386719
              ],
              [
                36.74110794067383,
                52.4518928527832
              ],
              [
                36.426849365234375,
                52.586299896240234
              ],
              [
                36.324440002441406,
                52.92268753051758
              ],
              [
                35.765281677246094,
                53.124786376953125
              ],
              [
                35.83401870727539,
                53.462066650390625
              ],
              [
                36.048194885253906,
                53.664710998535156
              ],
              [
                35.78958511352539,
                53.664710998535156
              ],
              [
                35.90385437011719,
                53.799922943115234
              ],
              [
                35.831607818603516,
                53.86756134033203
              ],
              [
                35.931175231933594,
                54.341712951660156
              ],
              [
                35.728389739990234,
                54.613189697265625
              ],
              [
                35.91665267944336,
                54.681121826171875
              ],
              [
                35.9458122253418,
                54.817054748535156
              ],
              [
                36.49785232543945,
                54.95309066772461
              ],
              [
                36.54304885864258,
                55.15733337402344
              ],
              [
                37.17942810058594,
                54.88506317138672
              ],
              [
                37.80463409423828,
                54.95309066772461
              ],
              [
                38.453369140625,
                54.74907684326172
              ],
              [
                38.866424560546875,
                55.021148681640625
              ],
              [
                39.12027359008789,
                55.70311737060547
              ],
              [
                39.295616149902344,
                55.70311737060547
              ],
              [
                39.3297233581543,
                55.83982467651367
              ],
              [
                39.94414138793945,
                55.83982467651367
              ],
              [
                40.15491485595703,
                55.97663879394531
              ],
              [
                40.33198165893555,
                56.319149017333984
              ],
              [
                41.23186492919922,
                56.387733459472656
              ],
              [
                41.21335220336914,
                56.319149017333984
              ],
              [
                41.63531494140625,
                56.25059127807617
              ],
              [
                41.8432502746582,
                56.04508590698242
              ],
              [
                42.21389389038086,
                56.11355972290039
              ],
              [
                42.19496536254883,
                56.04508590698242
              ],
              [
                42.22627258300781,
                55.83982467651367
              ],
              [
                42.314048767089844,
                55.83982467651367
              ],
              [
                45.293216705322266,
                56.11355972290039
              ],
              [
                45.754180908203125,
                56.182064056396484
              ],
              [
                45.884613037109375,
                56.319149017333984
              ],
              [
                46.85411834716797,
                56.319149017333984
              ],
              [
                47.53795623779297,
                56.524986267089844
              ],
              [
                47.956809997558594,
                56.45634460449219
              ],
              [
                48.267154693603516,
                56.59365463256836
              ],
              [
                49.238975524902344,
                56.59365463256836
              ],
              [
                49.215553283691406,
                56.524986267089844
              ],
              [
                49.98637390136719,
                56.45634460449219
              ],
              [
                49.96261215209961,
                56.387733459472656
              ],
              [
                50.29146194458008,
                56.319149017333984
              ],
              [
                50.572059631347656,
                56.11355972290039
              ],
              [
                51.075782775878906,
                56.04508590698242
              ],
              [
                51.05168914794922,
                55.97663879394531
              ],
              [
                51.818092346191406,
                55.90821838378906
              ],
              [
                51.793670654296875,
                55.83982467651367
              ],
              [
                52.271060943603516,
                55.70311737060547
              ],
              [
                52.30965042114258,
                55.56651306152344
              ],
              [
                52.48479080200195,
                55.56651306152344
              ],
              [
                52.52324676513672,
                55.430015563964844
              ],
              [
                52.698184967041016,
                55.430015563964844
              ],
              [
                52.64914321899414,
                55.29362487792969
              ],
              [
                52.96332931518555,
                54.95309066772461
              ],
              [
                53.137569427490234,
                54.95309066772461
              ],
              [
                53.17580795288086,
                54.817054748535156
              ],
              [
                53.99642562866211,
                54.681121826171875
              ],
              [
                53.971736907958984,
                54.613189697265625
              ],
              [
                55.36170959472656,
                54.613189697265625
              ],
              [
                57.031272888183594,
                54.88506317138672
              ],
              [
                57.25898361206055,
                55.021148681640625
              ],
              [
                58.04349899291992,
                55.021148681640625
              ],
              [
                58.1855354309082,
                55.15733337402344
              ],
              [
                59.40485382080078,
                55.36180877685547
              ],
              [
                59.66554260253906,
                55.56651306152344
              ],
              [
                60.570526123046875,
                55.63479995727539
              ],
              [
                60.51203918457031,
                55.498252868652344
              ],
              [
                60.59955978393555,
                55.498252868652344
              ],
              [
                61.183876037597656,
                55.63479995727539
              ],
              [
                61.97246170043945,
                55.63479995727539
              ],
              [
                62.67768096923828,
                55.83982467651367
              ],
              [
                62.9461784362793,
                56.04508590698242
              ],
              [
                63.178741455078125,
                55.97663879394531
              ],
              [
                64.00884246826172,
                56.25059127807617
              ],
              [
                65.57212829589844,
                56.387733459472656
              ],
              [
                65.99152374267578,
                56.524986267089844
              ],
              [
                66.840576171875,
                56.45634460449219
              ],
              [
                66.86121368408203,
                56.319149017333984
              ],
              [
                67.15953826904297,
                56.387733459472656
              ],
              [
                67.12562561035156,
                56.319149017333984
              ],
              [
                67.7964859008789,
                56.25059127807617
              ],
              [
                67.76234436035156,
                56.182064056396484
              ],
              [
                68.7840576171875,
                56.11355972290039
              ],
              [
                68.7494888305664,
                56.04508590698242
              ],
              [
                70.12104034423828,
                55.97663879394531
              ],
              [
                70.08583068847656,
                55.90821838378906
              ],
              [
                70.5604248046875,
                55.97663879394531
              ],
              [
                70.48959350585938,
                55.83982467651367
              ],
              [
                76.78040313720703,
                55.63479995727539
              ],
              [
                76.74171447753906,
                55.56651306152344
              ],
              [
                77.1795654296875,
                55.56651306152344
              ],
              [
                77.14073181152344,
                55.498252868652344
              ],
              [
                79.55855560302734,
                55.29362487792969
              ],
              [
                79.5186996459961,
                55.225467681884766
              ],
              [
                79.86797332763672,
                55.225467681884766
              ],
              [
                79.8280258178711,
                55.15733337402344
              ],
              [
                80.7542724609375,
                54.95309066772461
              ],
              [
                80.71417236328125,
                54.88506317138672
              ],
              [
                81.28992462158203,
                54.681121826171875
              ],
              [
                81.29678344726562,
                54.545284271240234
              ],
              [
                81.6040267944336,
                54.47740173339844
              ],
              [
                81.5640869140625,
                54.4095458984375
              ],
              [
                81.7843017578125,
                54.341712951660156
              ],
              [
                81.79129028320312,
                54.20612335205078
              ],
              [
                82.09776306152344,
                54.138362884521484
              ],
              [
                82.10482788085938,
                54.00291442871094
              ],
              [
                82.41083526611328,
                53.93522644042969
              ],
              [
                82.33169555664062,
                53.799922943115234
              ],
              [
                82.4179916381836,
                53.799922943115234
              ],
              [
                82.4254379272461,
                53.664710998535156
              ],
              [
                82.59783935546875,
                53.664710998535156
              ],
              [
                82.65229797363281,
                53.462066650390625
              ],
              [
                82.82442474365234,
                53.462066650390625
              ],
              [
                82.7852554321289,
                53.39456558227539
              ],
              [
                82.96504974365234,
                53.25962829589844
              ],
              [
                82.88727569580078,
                53.124786376953125
              ],
              [
                83.06720733642578,
                52.99003219604492
              ],
              [
                83.04647827148438,
                52.653533935546875
              ],
              [
                83.23626708984375,
                52.38472366333008
              ],
              [
                83.16088104248047,
                52.250450134277344
              ],
              [
                83.25630950927734,
                52.11625671386719
              ],
              [
                83.14463806152344,
                51.91512680053711
              ],
              [
                83.22966766357422,
                51.91512680053711
              ],
              [
                83.11900329589844,
                51.71418380737305
              ],
              [
                83.20390319824219,
                51.71418380737305
              ],
              [
                83.09423828125,
                51.51342010498047
              ],
              [
                83.1911392211914,
                51.37968063354492
              ],
              [
                83.08312225341797,
                51.17921447753906
              ],
              [
                83.16768646240234,
                51.17921447753906
              ],
              [
                83.09622192382812,
                51.04566955566406
              ],
              [
                83.26518249511719,
                51.04566955566406
              ],
              [
                83.10967254638672,
                50.912200927734375
              ],
              [
                83.29209899902344,
                50.77880859375
              ],
              [
                83.22184753417969,
                50.64549255371094
              ],
              [
                83.41918182373047,
                50.37908172607422
              ],
              [
                83.58733367919922,
                50.37908172607422
              ],
              [
                83.6861343383789,
                50.2459831237793
              ],
              [
                84.54039001464844,
                50.11296081542969
              ],
              [
                84.50574493408203,
                50.04647445678711
              ],
              [
                84.5896224975586,
                50.04647445678711
              ],
              [
                85.02344512939453,
                49.91355895996094
              ],
              [
                85.13705444335938,
                49.64793395996094
              ],
              [
                85.3043441772461,
                49.64793395996094
              ],
              [
                85.25177764892578,
                49.38258361816406
              ],
              [
                85.55069732666016,
                48.98506164550781
              ],
              [
                85.48428344726562,
                48.852684020996094
              ],
              [
                85.6175537109375,
                48.786521911621094
              ],
              [
                85.55166625976562,
                48.654239654541016
              ],
              [
                85.6347427368164,
                48.654239654541016
              ],
              [
                85.5692138671875,
                48.52202224731445
              ],
              [
                85.66998291015625,
                48.38986587524414
              ],
              [
                85.47667694091797,
                47.993770599365234
              ],
              [
                85.55940246582031,
                47.993770599365234
              ],
              [
                85.5149154663086,
                47.730003356933594
              ],
              [
                85.3497543334961,
                47.730003356933594
              ],
              [
                85.17304229736328,
                47.53233337402344
              ],
              [
                83.97834014892578,
                47.26897048950195
              ],
              [
                83.36394500732422,
                47.005828857421875
              ],
              [
                80.88964080810547,
                46.61152267456055
              ],
              [
                80.750732421875,
                46.480194091796875
              ],
              [
                80.04412841796875,
                46.74290466308594
              ],
              [
                80.0724868774414,
                46.808616638183594
              ],
              [
                79.60565948486328,
                46.677207946777344
              ],
              [
                79.30550384521484,
                46.74290466308594
              ],
              [
                79.33355712890625,
                46.808616638183594
              ],
              [
                78.70458984375,
                46.87434005737305
              ],
              [
                78.10157012939453,
                46.61152267456055
              ],
              [
                77.91033172607422,
                46.74290466308594
              ],
              [
                76.73442077636719,
                46.677207946777344
              ],
              [
                76.76136779785156,
                46.74290466308594
              ],
              [
                76.35102081298828,
                46.74290466308594
              ],
              [
                76.32263946533203,
                46.87434005737305
              ],
              [
                74.59777069091797,
                46.87434005737305
              ],
              [
                74.43742370605469,
                46.677207946777344
              ],
              [
                73.95010375976562,
                46.480194091796875
              ],
              [
                73.87349700927734,
                46.283294677734375
              ],
              [
                73.62798309326172,
                46.283294677734375
              ],
              [
                73.577392578125,
                46.1520881652832
              ],
              [
                73.55218505859375,
                46.08650588989258
              ],
              [
                71.35236358642578,
                44.32010269165039
              ],
              [
                70.29608154296875,
                43.146724700927734
              ]
            ],
            [
              [
                48.33207702636719,
                45.889827728271484
              ],
              [
                47.47183609008789,
                45.693260192871094
              ],
              [
                47.48066329956055,
                45.36587905883789
              ],
              [
                47.332332611083984,
                45.431331634521484
              ],
              [
                47.04105758666992,
                44.842647552490234
              ],
              [
                46.688507080078125,
                44.71194839477539
              ],
              [
                46.63267517089844,
                44.45067596435547
              ],
              [
                47.00926971435547,
                44.32010269165039
              ],
              [
                47.34308624267578,
                43.99384307861328
              ],
              [
                47.33984375,
                43.6026611328125
              ],
              [
                47.459136962890625,
                43.407203674316406
              ],
              [
                47.376399993896484,
                43.016544342041016
              ],
              [
                47.656158447265625,
                42.82133865356445
              ],
              [
                47.68162155151367,
                42.56119155883789
              ],
              [
                47.9608268737793,
                42.36617660522461
              ],
              [
                47.933658599853516,
                42.236209869384766
              ],
              [
                49.08600997924805,
                41.26253128051758
              ],
              [
                49.059226989746094,
                41.132843017578125
              ],
              [
                49.270748138427734,
                41.00318908691406
              ],
              [
                49.2441520690918,
                40.873565673828125
              ],
              [
                49.50836181640625,
                40.614410400390625
              ],
              [
                50.04951477050781,
                40.54964065551758
              ],
              [
                50.2603759765625,
                40.42012023925781
              ],
              [
                49.6933479309082,
                40.355369567871094
              ],
              [
                49.50919723510742,
                40.225894927978516
              ],
              [
                49.26664352416992,
                39.38497543334961
              ],
              [
                49.151405334472656,
                39.19107437133789
              ],
              [
                48.91546630859375,
                39.19107437133789
              ],
              [
                48.801002502441406,
                38.997230529785156
              ],
              [
                48.76274490356445,
                38.351463317871094
              ],
              [
                48.8410758972168,
                38.351463317871094
              ],
              [
                48.88429260253906,
                37.706241607666016
              ],
              [
                49.08510208129883,
                37.51277160644531
              ],
              [
                49.998783111572266,
                37.38381576538086
              ],
              [
                50.320892333984375,
                36.9970588684082
              ],
              [
                50.56571960449219,
                37.06150817871094
              ],
              [
                50.632293701171875,
                36.9970588684082
              ],
              [
                50.53199768066406,
                36.8681755065918
              ],
              [
                50.82074737548828,
                36.73930740356445
              ],
              [
                51.6419677734375,
                36.5460319519043
              ],
              [
                52.58595275878906,
                36.61045455932617
              ],
              [
                53.488651275634766,
                36.8681755065918
              ],
              [
                54.033294677734375,
                36.8681755065918
              ],
              [
                54.09466552734375,
                37.1904182434082
              ],
              [
                53.91046905517578,
                37.44829177856445
              ],
              [
                53.90790557861328,
                37.835243225097656
              ],
              [
                53.82976150512695,
                37.835243225097656
              ],
              [
                53.93320846557617,
                38.738853454589844
              ],
              [
                53.946529388427734,
                38.80344009399414
              ],
              [
                53.959896087646484,
                38.8680305480957
              ],
              [
                53.98678207397461,
                38.997230529785156
              ],
              [
                53.726463317871094,
                39.25570297241211
              ],
              [
                53.13750457763672,
                39.449623107910156
              ],
              [
                53.54492950439453,
                39.51427459716797
              ],
              [
                53.498451232910156,
                40.031734466552734
              ],
              [
                52.78766632080078,
                40.031734466552734
              ],
              [
                52.71352767944336,
                40.42012023925781
              ],
              [
                52.792659759521484,
                40.42012023925781
              ],
              [
                52.89295959472656,
                40.873565673828125
              ],
              [
                52.97228240966797,
                40.873565673828125
              ],
              [
                52.943321228027344,
                40.74397277832031
              ],
              [
                53.33966064453125,
                40.74397277832031
              ],
              [
                53.448211669921875,
                40.873565673828125
              ],
              [
                53.40435791015625,
                40.6791877746582
              ],
              [
                54.370140075683594,
                40.74397277832031
              ],
              [
                54.40007400512695,
                40.873565673828125
              ],
              [
                54.66834259033203,
                41.00318908691406
              ],
              [
                54.729549407958984,
                41.26253128051758
              ],
              [
                54.090518951416016,
                41.586883544921875
              ],
              [
                53.91130447387695,
                42.17123794555664
              ],
              [
                53.19236373901367,
                42.17123794555664
              ],
              [
                52.811973571777344,
                41.911441802978516
              ],
              [
                52.80158615112305,
                41.521995544433594
              ],
              [
                52.721988677978516,
                41.521995544433594
              ],
              [
                52.49290466308594,
                41.911441802978516
              ],
              [
                52.52302169799805,
                42.041324615478516
              ],
              [
                52.44319534301758,
                42.041324615478516
              ],
              [
                52.679012298583984,
                42.36617660522461
              ],
              [
                52.78733444213867,
                42.82133865356445
              ],
              [
                52.41746520996094,
                42.95146560668945
              ],
              [
                51.936058044433594,
                42.95146560668945
              ],
              [
                51.772151947021484,
                43.276947021484375
              ],
              [
                51.43531036376953,
                43.211830139160156
              ],
              [
                51.30513381958008,
                43.342071533203125
              ],
              [
                51.31692886352539,
                43.73301696777344
              ],
              [
                51.040714263916016,
                43.92862319946289
              ],
              [
                51.07164001464844,
                44.05907440185547
              ],
              [
                50.87572479248047,
                44.25482940673828
              ],
              [
                50.19388198852539,
                44.45067596435547
              ],
              [
                50.224510192871094,
                44.58129119873047
              ],
              [
                50.40192413330078,
                44.64661407470703
              ],
              [
                50.85692596435547,
                44.5159797668457
              ],
              [
                51.42369842529297,
                44.5159797668457
              ],
              [
                51.47117233276367,
                44.71194839477539
              ],
              [
                51.016197204589844,
                44.842647552490234
              ],
              [
                51.0634765625,
                45.03877639770508
              ],
              [
                51.468292236328125,
                45.36587905883789
              ],
              [
                51.87519073486328,
                45.36587905883789
              ],
              [
                52.086769104003906,
                45.23500442504883
              ],
              [
                53.8757209777832,
                45.23500442504883
              ],
              [
                53.80810546875,
                44.973392486572266
              ],
              [
                54.29523849487305,
                44.973392486572266
              ],
              [
                54.363616943359375,
                45.23500442504883
              ],
              [
                54.21808624267578,
                45.300437927246094
              ],
              [
                54.286781311035156,
                45.56227111816406
              ],
              [
                53.87939453125,
                45.56227111816406
              ],
              [
                53.66555404663086,
                45.36587905883789
              ],
              [
                53.42141342163086,
                45.36587905883789
              ],
              [
                53.06462860107422,
                45.56227111816406
              ],
              [
                53.067134857177734,
                45.889827728271484
              ],
              [
                53.247371673583984,
                45.95537567138672
              ],
              [
                53.34987258911133,
                46.348915100097656
              ],
              [
                53.26800537109375,
                46.348915100097656
              ],
              [
                53.27227020263672,
                46.677207946777344
              ],
              [
                53.19023513793945,
                46.677207946777344
              ],
              [
                53.242305755615234,
                46.87434005737305
              ],
              [
                53.112831115722656,
                47.005828857421875
              ],
              [
                51.862857818603516,
                46.94007873535156
              ],
              [
                51.81448745727539,
                47.07159423828125
              ],
              [
                51.58463668823242,
                47.13737487792969
              ],
              [
                50.84418869018555,
                47.13737487792969
              ],
              [
                50.3016242980957,
                46.94007873535156
              ],
              [
                49.990848541259766,
                46.677207946777344
              ],
              [
                49.303199768066406,
                46.54585266113281
              ],
              [
                49.06181335449219,
                46.21768569946289
              ],
              [
                48.6375732421875,
                46.1520881652832
              ],
              [
                48.59209442138672,
                45.95537567138672
              ],
              [
                48.428749084472656,
                45.95537567138672
              ],
              [
                48.34708023071289,
                45.95537567138672
              ],
              [
                48.33207702636719,
                45.889827728271484
              ]
            ],
            [
              [
                46.46075439453125,
                47.4006233215332
              ],
              [
                46.37834548950195,
                47.4006233215332
              ],
              [
                46.363502502441406,
                47.33478927612305
              ],
              [
                46.44587707519531,
                47.33478927612305
              ],
              [
                46.46075439453125,
                47.4006233215332
              ]
            ],
            [
              [
                46.310787200927734,
                47.46647262573242
              ],
              [
                46.295936584472656,
                47.4006233215332
              ],
              [
                46.32567596435547,
                47.53233337402344
              ],
              [
                46.310787200927734,
                47.46647262573242
              ]
            ]
          ],
          [
            [
              [
                53.100955963134766,
                46.02093505859375
              ],
              [
                53.18265914916992,
                46.02093505859375
              ],
              [
                53.16569900512695,
                45.95537567138672
              ],
              [
                53.08402633666992,
                45.95537567138672
              ],
              [
                53.100955963134766,
                46.02093505859375
              ]
            ]
          ],
          [
            [
              [
                51.09994125366211,
                56.11355972290039
              ],
              [
                51.187923431396484,
                56.11355972290039
              ],
              [
                51.16371154785156,
                56.04508590698242
              ],
              [
                51.075782775878906,
                56.04508590698242
              ],
              [
                51.09994125366211,
                56.11355972290039
              ]
            ]
          ]
        ]
      }
    }
  ]
}