{
  "type": "FeatureCollection",
  "name": "territory-592",
  "features": [
    {
      "type": "Feature",
      "properties": {
        "Name": "(Polish-Lithuania Kingdom)",
        "FromYear": 1395,
        "ToYear": 1401,
        "Area": 1040496.9643030039,
        "Type": "POLITY",
        "Wikipedia": "Jagiellonian dynasty",
        "Wikidata": "Q194355",
        "SeshatID": "pl_jagiellonian_dyn",
        "Components": "Kingdom of Poland;Grand Duchy of Lithuania;(Kingdom of Poland)",
        "MemberOf": ""
      },
      "geometry": {
        "type": "Polygon",
        "coordinates": [
          [
            [
              19.17385482788086,
              50.17946243286133
            ],
            [
              19.18613052368164,
              50.37908172607422
            ],
            [
              19.022031784057617,
              50.445655822753906
            ],
            [
              19.030193328857422,
              50.578861236572266
            ],
            [
              18.70132827758789,
              50.71213912963867
            ],
            [
              18.709320068359375,
              50.84549331665039
            ],
            [
              18.049345016479492,
              51.112430572509766
            ],
            [
              17.972288131713867,
              51.24601745605469
            ],
            [
              17.549257278442383,
              51.24601745605469
            ],
            [
              17.31973648071289,
              51.71418380737305
            ],
            [
              16.980127334594727,
              51.71418380737305
            ],
            [
              16.718996047973633,
              51.580322265625
            ],
            [
              16.55561637878418,
              51.71418380737305
            ],
            [
              16.131103515625,
              51.71418380737305
            ],
            [
              16.136985778808594,
              51.84812545776367
            ],
            [
              15.80826187133789,
              52.11625671386719
            ],
            [
              15.813953399658203,
              52.250450134277344
            ],
            [
              15.646231651306152,
              52.31757736206055
            ],
            [
              15.48926830291748,
              52.653533935546875
            ],
            [
              16.097135543823242,
              52.85536575317383
            ],
            [
              16.02382469177246,
              53.124786376953125
            ],
            [
              16.109657287597656,
              53.124786376953125
            ],
            [
              16.119178771972656,
              53.32708740234375
            ],
            [
              16.294410705566406,
              53.39456558227539
            ],
            [
              16.301027297973633,
              53.52959060668945
            ],
            [
              16.476667404174805,
              53.597137451171875
            ],
            [
              16.400707244873047,
              53.799922943115234
            ],
            [
              16.65959930419922,
              53.799922943115234
            ],
            [
              16.821292877197266,
              53.597137451171875
            ],
            [
              17.079761505126953,
              53.597137451171875
            ],
            [
              17.326608657836914,
              53.39456558227539
            ],
            [
              17.506561279296875,
              53.52959060668945
            ],
            [
              18.44928741455078,
              53.462066650390625
            ],
            [
              18.517410278320312,
              53.192195892333984
            ],
            [
              18.689167022705078,
              53.192195892333984
            ],
            [
              18.928207397460938,
              52.92268753051758
            ],
            [
              19.361536026000977,
              52.99003219604492
            ],
            [
              19.724811553955078,
              53.25962829589844
            ],
            [
              20.395845413208008,
              53.057395935058594
            ],
            [
              20.66997718811035,
              53.25962829589844
            ],
            [
              20.927749633789062,
              53.25962829589844
            ],
            [
              21.28936767578125,
              53.462066650390625
            ],
            [
              22.42144775390625,
              53.597137451171875
            ],
            [
              22.548198699951172,
              54.00291442871094
            ],
            [
              22.461759567260742,
              54.00291442871094
            ],
            [
              22.482206344604492,
              54.20612335205078
            ],
            [
              22.66232681274414,
              54.27390670776367
            ],
            [
              22.69742774963379,
              54.613189697265625
            ],
            [
              22.704511642456055,
              54.681121826171875
            ],
            [
              22.812959671020508,
              54.88506317138672
            ],
            [
              22.573020935058594,
              55.089229583740234
            ],
            [
              22.31136703491211,
              55.089229583740234
            ],
            [
              22.070266723632812,
              55.29362487792969
            ],
            [
              21.640066146850586,
              55.36180877685547
            ],
            [
              21.235198974609375,
              55.70311737060547
            ],
            [
              21.248220443725586,
              55.83982467651367
            ],
            [
              20.991283416748047,
              55.90821838378906
            ],
            [
              20.9976863861084,
              55.97663879394531
            ],
            [
              20.909809112548828,
              55.97663879394531
            ],
            [
              20.916179656982422,
              56.04508590698242
            ],
            [
              21.56563377380371,
              56.387733459472656
            ],
            [
              21.65382194519043,
              56.387733459472656
            ],
            [
              21.74201202392578,
              56.387733459472656
            ],
            [
              21.830202102661133,
              56.387733459472656
            ],
            [
              21.837207794189453,
              56.45634460449219
            ],
            [
              21.92544937133789,
              56.45634460449219
            ],
            [
              22.01369285583496,
              56.45634460449219
            ],
            [
              22.1019344329834,
              56.45634460449219
            ],
            [
              22.190176010131836,
              56.45634460449219
            ],
            [
              24.1064510345459,
              56.25059127807617
            ],
            [
              24.82863998413086,
              56.387733459472656
            ],
            [
              25.066509246826172,
              56.182064056396484
            ],
            [
              25.761505126953125,
              56.11355972290039
            ],
            [
              25.8309326171875,
              55.97663879394531
            ],
            [
              26.583187103271484,
              55.70311737060547
            ],
            [
              26.865774154663086,
              55.83982467651367
            ],
            [
              27.470035552978516,
              55.77145767211914
            ],
            [
              27.971586227416992,
              56.182064056396484
            ],
            [
              28.14765167236328,
              56.182064056396484
            ],
            [
              28.123947143554688,
              56.59365463256836
            ],
            [
              27.880273818969727,
              56.731075286865234
            ],
            [
              27.89100456237793,
              56.799827575683594
            ],
            [
              28.377832412719727,
              57.07511901855469
            ],
            [
              29.58440589904785,
              56.86860656738281
            ],
            [
              29.979244232177734,
              56.59365463256836
            ],
            [
              29.955463409423828,
              56.45634460449219
            ],
            [
              30.108091354370117,
              56.319149017333984
            ],
            [
              30.372501373291016,
              56.319149017333984
            ],
            [
              30.83788299560547,
              56.45634460449219
            ],
            [
              31.128190994262695,
              57.07511901855469
            ],
            [
              31.660518646240234,
              57.07511901855469
            ],
            [
              32.13100051879883,
              57.21294021606445
            ],
            [
              32.452354431152344,
              57.488929748535156
            ],
            [
              32.63044738769531,
              57.488929748535156
            ],
            [
              32.864906311035156,
              57.7653923034668
            ],
            [
              33.13270950317383,
              57.7653923034668
            ],
            [
              33.3571891784668,
              57.55800247192383
            ],
            [
              33.701107025146484,
              57.07511901855469
            ],
            [
              34.79452896118164,
              56.799827575683594
            ],
            [
              34.95655059814453,
              56.731075286865234
            ],
            [
              34.92669677734375,
              56.59365463256836
            ],
            [
              33.97194290161133,
              56.25059127807617
            ],
            [
              33.94371032714844,
              56.11355972290039
            ],
            [
              33.67976760864258,
              56.11355972290039
            ],
            [
              33.00997543334961,
              55.83982467651367
            ],
            [
              32.658878326416016,
              55.83982467651367
            ],
            [
              32.3565788269043,
              55.63479995727539
            ],
            [
              31.85618782043457,
              55.77145767211914
            ],
            [
              30.87911033630371,
              55.70311737060547
            ],
            [
              30.882522583007812,
              55.225467681884766
            ],
            [
              30.96984100341797,
              55.225467681884766
            ],
            [
              30.7999210357666,
              54.74907684326172
            ],
            [
              30.886892318725586,
              54.74907684326172
            ],
            [
              30.938674926757812,
              54.545284271240234
            ],
            [
              31.645355224609375,
              54.613189697265625
            ],
            [
              31.79477310180664,
              54.47740173339844
            ],
            [
              31.74848747253418,
              52.720787048339844
            ],
            [
              31.993751525878906,
              52.653533935546875
            ],
            [
              32.04511260986328,
              52.4518928527832
            ],
            [
              32.215877532958984,
              52.4518928527832
            ],
            [
              32.46813201904297,
              52.92268753051758
            ],
            [
              32.871219635009766,
              53.25962829589844
            ],
            [
              33.300838470458984,
              53.25962829589844
            ],
            [
              33.68244171142578,
              53.462066650390625
            ],
            [
              33.84568786621094,
              53.86756134033203
            ],
            [
              34.04461669921875,
              54.00291442871094
            ],
            [
              34.01094436645508,
              54.27390670776367
            ],
            [
              34.42529296875,
              54.613189697265625
            ],
            [
              35.728389739990234,
              54.613189697265625
            ],
            [
              35.931175231933594,
              54.341712951660156
            ],
            [
              35.831607818603516,
              53.86756134033203
            ],
            [
              35.90385437011719,
              53.799922943115234
            ],
            [
              35.78958511352539,
              53.664710998535156
            ],
            [
              36.048194885253906,
              53.664710998535156
            ],
            [
              35.83401870727539,
              53.462066650390625
            ],
            [
              35.765281677246094,
              53.124786376953125
            ],
            [
              36.324440002441406,
              52.92268753051758
            ],
            [
              36.426849365234375,
              52.586299896240234
            ],
            [
              36.74110794067383,
              52.4518928527832
            ],
            [
              37.013519287109375,
              52.11625671386719
            ],
            [
              37.42543029785156,
              52.0491943359375
            ],
            [
              37.482810974121094,
              51.91512680053711
            ],
            [
              37.964942932128906,
              51.78114318847656
            ],
            [
              37.93708801269531,
              51.64724349975586
            ],
            [
              38.14987564086914,
              51.44654083251953
            ],
            [
              38.09486770629883,
              51.17921447753906
            ],
            [
              37.898712158203125,
              51.04566955566406
            ],
            [
              37.83774185180664,
              50.312522888183594
            ],
            [
              37.75370788574219,
              50.312522888183594
            ],
            [
              37.543670654296875,
              49.64793395996094
            ],
            [
              37.627315521240234,
              49.64793395996094
            ],
            [
              37.59037399291992,
              49.44889450073242
            ],
            [
              37.67390441894531,
              49.44889450073242
            ],
            [
              37.70854187011719,
              49.18375015258789
            ],
            [
              37.86311340332031,
              49.11750411987305
            ],
            [
              37.83888244628906,
              48.98506164550781
            ],
            [
              36.9367561340332,
              48.5881233215332
            ],
            [
              36.687618255615234,
              48.5881233215332
            ],
            [
              36.62726974487305,
              48.72037124633789
            ],
            [
              36.306053161621094,
              48.786521911621094
            ],
            [
              36.328697204589844,
              48.91886520385742
            ],
            [
              36.079010009765625,
              48.91886520385742
            ],
            [
              36.09028244018555,
              48.98506164550781
            ],
            [
              36.007015228271484,
              48.98506164550781
            ],
            [
              35.94626998901367,
              49.11750411987305
            ],
            [
              35.77958679199219,
              49.11750411987305
            ],
            [
              35.496402740478516,
              48.91886520385742
            ],
            [
              35.026123046875,
              47.53233337402344
            ],
            [
              34.37619400024414,
              47.598209381103516
            ],
            [
              34.109092712402344,
              47.46647262573242
            ],
            [
              34.079959869384766,
              47.26897048950195
            ],
            [
              33.69384002685547,
              46.87434005737305
            ],
            [
              32.918460845947266,
              46.61152267456055
            ],
            [
              32.171756744384766,
              46.54585266113281
            ],
            [
              32.180442810058594,
              46.61152267456055
            ],
            [
              32.03373336791992,
              46.74290466308594
            ],
            [
              31.787527084350586,
              46.74290466308594
            ],
            [
              31.606428146362305,
              46.61152267456055
            ],
            [
              30.87657928466797,
              46.677207946777344
            ],
            [
              30.484655380249023,
              46.1520881652832
            ],
            [
              30.40288543701172,
              46.1520881652832
            ],
            [
              30.262836456298828,
              46.348915100097656
            ],
            [
              29.943092346191406,
              46.414546966552734
            ],
            [
              29.899938583374023,
              46.74290466308594
            ],
            [
              29.527965545654297,
              47.07159423828125
            ],
            [
              29.551227569580078,
              47.26897048950195
            ],
            [
              29.16246223449707,
              47.46647262573242
            ],
            [
              29.208942413330078,
              47.86185836791992
            ],
            [
              28.984228134155273,
              48.059749603271484
            ],
            [
              28.013307571411133,
              48.257774353027344
            ],
            [
              27.537879943847656,
              48.455936431884766
            ],
            [
              27.39371109008789,
              48.654239654541016
            ],
            [
              26.472915649414062,
              48.5881233215332
            ],
            [
              25.981304168701172,
              48.654239654541016
            ],
            [
              25.50884246826172,
              48.91886520385742
            ],
            [
              25.252717971801758,
              48.852684020996094
            ],
            [
              25.559406280517578,
              48.5881233215332
            ],
            [
              25.54009246826172,
              48.38986587524414
            ],
            [
              25.01179313659668,
              48.059749603271484
            ],
            [
              24.987621307373047,
              47.79592514038086
            ],
            [
              24.90500259399414,
              47.79592514038086
            ],
            [
              24.586227416992188,
              47.92780685424805
            ],
            [
              24.686708450317383,
              48.1257438659668
            ],
            [
              24.367206573486328,
              48.257774353027344
            ],
            [
              24.378963470458984,
              48.38986587524414
            ],
            [
              24.052976608276367,
              48.455936431884766
            ],
            [
              23.666343688964844,
              48.786521911621094
            ],
            [
              22.928722381591797,
              48.91886520385742
            ],
            [
              22.77837371826172,
              49.11750411987305
            ],
            [
              22.5230712890625,
              49.051273345947266
            ],
            [
              21.79827117919922,
              49.38258361816406
            ],
            [
              20.21193504333496,
              49.38258361816406
            ],
            [
              19.865541458129883,
              49.18375015258789
            ],
            [
              19.472537994384766,
              49.58156967163086
            ],
            [
              19.13038444519043,
              49.44889450073242
            ],
            [
              18.88353729248047,
              49.51522445678711
            ],
            [
              19.23756217956543,
              49.84712600708008
            ],
            [
              19.165773391723633,
              50.04647445678711
            ],
            [
              19.081897735595703,
              50.04647445678711
            ],
            [
              19.085887908935547,
              50.11296081542969
            ],
            [
              19.089900970458984,
              50.17946243286133
            ],
            [
              19.17385482788086,
              50.17946243286133
            ]
          ]
        ]
      }
    }
  ]
}