{
  "type": "FeatureCollection",
  "name": "territory-6",
  "features": [
    {
      "type": "Feature",
      "properties": {
        "Name": "Akkadian Empire",
        "FromYear": -2250,
        "ToYear": -2201,
        "Area": 526585.1114920083,
        "Type": "POLITY",
        "Wikipedia": "Akkadian Empire",
        "Wikidata": "Q4461035",
        "SeshatID": "iq_akkad_emp",
        "Components": "",
        "MemberOf": ""
      },
      "geometry": {
        "type": "MultiPolygon",
        "coordinates": [
          [
            [
              [
                56.027706146240234,
                24.97209930419922
              ],
              [
                55.84116744995117,
                24.586353302001953
              ],
              [
                55.62303161621094,
                24.650644302368164
              ],
              [
                55.461551666259766,
                24.522062301635742
              ],
              [
                55.16269302368164,
                24.522062301635742
              ],
              [
                55.180633544921875,
                24.714935302734375
              ],
              [
                54.98067855834961,
                24.97209930419922
              ],
              [
                55.311214447021484,
                25.29355812072754
              ],
              [
                55.41188049316406,
                25.55072784423828
              ],
              [
                55.9695930480957,
                25.8721923828125
              ],
              [
                56.16815948486328,
                26.32224464416504
              ],
              [
                56.47541046142578,
                26.386537551879883
              ],
              [
                56.543277740478516,
                26.32224464416504
              ],
              [
                56.38539123535156,
                25.55072784423828
              ],
              [
                56.46027374267578,
                25.55072784423828
              ],
              [
                56.48921585083008,
                25.100683212280273
              ],
              [
                56.30181884765625,
                24.714935302734375
              ],
              [
                56.15232849121094,
                24.714935302734375
              ],
              [
                56.02143096923828,
                24.907808303833008
              ],
              [
                56.027706146240234,
                24.97209930419922
              ]
            ]
          ],
          [
            [
              [
                50.46181106567383,
                31.464719772338867
              ],
              [
                50.47063446044922,
                31.528987884521484
              ],
              [
                50.54682540893555,
                31.528987884521484
              ],
              [
                50.537986755371094,
                31.464719772338867
              ],
              [
                50.46181106567383,
                31.464719772338867
              ]
            ]
          ],
          [
            [
              [
                37.3729248046875,
                37.44829177856445
              ],
              [
                37.68495559692383,
                37.44829177856445
              ],
              [
                37.7083740234375,
                37.641746520996094
              ],
              [
                37.95052719116211,
                37.706241607666016
              ],
              [
                38.23894500732422,
                37.51277160644531
              ],
              [
                38.4810676574707,
                37.5772590637207
              ],
              [
                39.913700103759766,
                37.1904182434082
              ],
              [
                40.14745330810547,
                37.1904182434082
              ],
              [
                40.242225646972656,
                37.3193473815918
              ],
              [
                40.36437225341797,
                37.06150817871094
              ],
              [
                40.84870910644531,
                37.1904182434082
              ],
              [
                41.696990966796875,
                37.12596130371094
              ],
              [
                42.03535842895508,
                37.3193473815918
              ],
              [
                42.26924514770508,
                37.3193473815918
              ],
              [
                42.604679107666016,
                36.932613372802734
              ],
              [
                42.586788177490234,
                36.80373764038086
              ],
              [
                43.053497314453125,
                36.80373764038086
              ],
              [
                43.15862274169922,
                36.9970588684082
              ],
              [
                43.60720443725586,
                36.8681755065918
              ],
              [
                43.557159423828125,
                37.06150817871094
              ],
              [
                43.79077911376953,
                37.06150817871094
              ],
              [
                43.849937438964844,
                36.932613372802734
              ],
              [
                44.29805374145508,
                36.80373764038086
              ],
              [
                44.4382209777832,
                36.15959167480469
              ],
              [
                44.51579284667969,
                36.15959167480469
              ],
              [
                44.55670166015625,
                35.902034759521484
              ],
              [
                44.711673736572266,
                35.902034759521484
              ],
              [
                44.7526741027832,
                35.644527435302734
              ],
              [
                45.662906646728516,
                35.51579284667969
              ],
              [
                46.059085845947266,
                35.58015823364258
              ],
              [
                46.09901809692383,
                35.32271194458008
              ],
              [
                46.2442741394043,
                35.258358001708984
              ],
              [
                46.22567367553711,
                35.12965774536133
              ],
              [
                45.98476028442383,
                35.065311431884766
              ],
              [
                45.7167854309082,
                34.80794906616211
              ],
              [
                45.766876220703125,
                34.614952087402344
              ],
              [
                45.535648345947266,
                34.614952087402344
              ],
              [
                45.50899887084961,
                34.42197799682617
              ],
              [
                45.6541633605957,
                34.3576545715332
              ],
              [
                45.61892318725586,
                34.10039138793945
              ],
              [
                45.44769287109375,
                33.971771240234375
              ],
              [
                45.88273620605469,
                33.77885055541992
              ],
              [
                45.86537170410156,
                33.65024948120117
              ],
              [
                46.14643478393555,
                33.45735549926758
              ],
              [
                46.16311264038086,
                33.00732421875
              ],
              [
                46.75869369506836,
                32.878753662109375
              ],
              [
                47.02205276489258,
                32.557350158691406
              ],
              [
                47.242916107177734,
                32.493072509765625
              ],
              [
                47.77809143066406,
                32.493072509765625
              ],
              [
                48.0870361328125,
                33.07160949707031
              ],
              [
                48.98810958862305,
                32.94303894042969
              ],
              [
                49.046443939208984,
                32.81447219848633
              ],
              [
                49.27607345581055,
                32.81447219848633
              ],
              [
                49.24876022338867,
                32.62162780761719
              ],
              [
                49.716880798339844,
                32.685909271240234
              ],
              [
                49.85148620605469,
                32.557350158691406
              ],
              [
                49.8241081237793,
                32.36451721191406
              ],
              [
                50.03515625,
                32.23596954345703
              ],
              [
                50.0170783996582,
                32.107421875
              ],
              [
                50.286407470703125,
                31.8503360748291
              ],
              [
                50.259700775146484,
                31.65752601623535
              ],
              [
                50.4794921875,
                31.593257904052734
              ],
              [
                50.38563537597656,
                31.464719772338867
              ],
              [
                50.72254943847656,
                31.143381118774414
              ],
              [
                50.7052001953125,
                31.014846801757812
              ],
              [
                50.983463287353516,
                30.822044372558594
              ],
              [
                51.1012077331543,
                30.564971923828125
              ],
              [
                51.47236251831055,
                30.500701904296875
              ],
              [
                51.51433181762695,
                30.243623733520508
              ],
              [
                52.11332702636719,
                29.600887298583984
              ],
              [
                52.097007751464844,
                29.472333908081055
              ],
              [
                52.240230560302734,
                29.40805435180664
              ],
              [
                52.20804977416992,
                29.150936126708984
              ],
              [
                51.88204574584961,
                28.958093643188477
              ],
              [
                51.858787536621094,
                28.765243530273438
              ],
              [
                51.55670928955078,
                28.765243530273438
              ],
              [
                51.06624984741211,
                28.44382095336914
              ],
              [
                51.028076171875,
                28.765243530273438
              ],
              [
                50.80903244018555,
                28.829526901245117
              ],
              [
                50.9150390625,
                29.08665657043457
              ],
              [
                50.620323181152344,
                29.150936126708984
              ],
              [
                50.65126037597656,
                29.40805435180664
              ],
              [
                50.23628234863281,
                29.729440689086914
              ],
              [
                50.0648078918457,
                30.179353713989258
              ],
              [
                49.34638977050781,
                30.500701904296875
              ],
              [
                49.110572814941406,
                30.436433792114258
              ],
              [
                49.126670837402344,
                30.564971923828125
              ],
              [
                49.28668975830078,
                30.629240036010742
              ],
              [
                49.14290237426758,
                30.69350814819336
              ],
              [
                47.799049377441406,
                30.886310577392578
              ],
              [
                47.25126266479492,
                30.757776260375977
              ],
              [
                47.235774993896484,
                30.629240036010742
              ],
              [
                46.696475982666016,
                30.564971923828125
              ],
              [
                46.590572357177734,
                30.307893753051758
              ],
              [
                46.37775421142578,
                30.436433792114258
              ],
              [
                45.77779006958008,
                30.500701904296875
              ],
              [
                45.50344467163086,
                30.757776260375977
              ],
              [
                45.518306732177734,
                30.886310577392578
              ],
              [
                45.29023361206055,
                30.886310577392578
              ],
              [
                45.15299987792969,
                31.014846801757812
              ],
              [
                45.167930603027344,
                31.143381118774414
              ],
              [
                45.015750885009766,
                31.143381118774414
              ],
              [
                44.80984115600586,
                31.336183547973633
              ],
              [
                44.5814208984375,
                31.336183547973633
              ],
              [
                44.459014892578125,
                31.593257904052734
              ],
              [
                43.152584075927734,
                32.81447219848633
              ],
              [
                42.708534240722656,
                32.94303894042969
              ],
              [
                42.578269958496094,
                33.13589859008789
              ],
              [
                41.48860549926758,
                33.65024948120117
              ],
              [
                41.211639404296875,
                33.90746307373047
              ],
              [
                40.91171646118164,
                33.971771240234375
              ],
              [
                40.84990692138672,
                34.10039138793945
              ],
              [
                40.472782135009766,
                34.164703369140625
              ],
              [
                40.41832733154297,
                34.3576545715332
              ],
              [
                40.117794036865234,
                34.42197799682617
              ],
              [
                40.05571746826172,
                34.55062484741211
              ],
              [
                38.80360794067383,
                35.065311431884766
              ],
              [
                38.17873764038086,
                35.00096893310547
              ],
              [
                37.926029205322266,
                34.80794906616211
              ],
              [
                37.72257614135742,
                35.065311431884766
              ],
              [
                37.56814193725586,
                35.065311431884766
              ],
              [
                37.47011184692383,
                34.87228775024414
              ],
              [
                37.24550247192383,
                34.93662643432617
              ],
              [
                37.154666900634766,
                34.80794906616211
              ],
              [
                36.61471176147461,
                34.80794906616211
              ],
              [
                36.45381546020508,
                34.743614196777344
              ],
              [
                36.44062423706055,
                34.614952087402344
              ],
              [
                36.29301834106445,
                34.679283142089844
              ],
              [
                36.26045608520508,
                34.3576545715332
              ],
              [
                35.8250846862793,
                33.84315490722656
              ],
              [
                35.71133041381836,
                33.45735549926758
              ],
              [
                35.32768630981445,
                33.45735549926758
              ],
              [
                35.34577560424805,
                33.65024948120117
              ],
              [
                35.49934768676758,
                33.65024948120117
              ],
              [
                35.4470100402832,
                33.90746307373047
              ],
              [
                35.68381118774414,
                33.971771240234375
              ],
              [
                35.64447784423828,
                34.3576545715332
              ],
              [
                35.79212951660156,
                34.2933349609375
              ],
              [
                36.048770904541016,
                34.55062484741211
              ],
              [
                36.0682373046875,
                34.743614196777344
              ],
              [
                35.92698669433594,
                34.87228775024414
              ],
              [
                35.959747314453125,
                35.194007873535156
              ],
              [
                35.88248825073242,
                35.194007873535156
              ],
              [
                35.99294662475586,
                35.51579284667969
              ],
              [
                35.84488296508789,
                35.58015823364258
              ],
              [
                35.990074157714844,
                36.2239875793457
              ],
              [
                35.84174346923828,
                36.28839111328125
              ],
              [
                36.26490020751953,
                36.61045455932617
              ],
              [
                36.28622817993164,
                36.80373764038086
              ],
              [
                36.144901275634766,
                36.932613372802734
              ],
              [
                35.833587646484375,
                36.932613372802734
              ],
              [
                35.487709045410156,
                36.61045455932617
              ],
              [
                35.11265563964844,
                36.73930740356445
              ],
              [
                34.95038986206055,
                36.67487716674805
              ],
              [
                34.892860412597656,
                36.8681755065918
              ],
              [
                34.581634521484375,
                36.8681755065918
              ],
              [
                34.2507209777832,
                36.67487716674805
              ],
              [
                33.97906494140625,
                36.28839111328125
              ],
              [
                33.2744140625,
                36.2239875793457
              ],
              [
                32.713401794433594,
                36.03080368041992
              ],
              [
                32.48670196533203,
                36.09519577026367
              ],
              [
                32.58802795410156,
                36.3527946472168
              ],
              [
                32.9884033203125,
                36.48161697387695
              ],
              [
                32.773643493652344,
                36.67487716674805
              ],
              [
                32.792083740234375,
                36.8681755065918
              ],
              [
                33.09705352783203,
                36.80373764038086
              ],
              [
                33.27793884277344,
                37.06150817871094
              ],
              [
                34.388301849365234,
                37.254878997802734
              ],
              [
                34.40864944458008,
                37.44829177856445
              ],
              [
                34.96168518066406,
                37.51277160644531
              ],
              [
                34.989871978759766,
                37.7707405090332
              ],
              [
                35.22423553466797,
                37.7707405090332
              ],
              [
                35.3167839050293,
                37.89975357055664
              ],
              [
                35.55128479003906,
                37.89975357055664
              ],
              [
                35.9907112121582,
                37.641746520996094
              ],
              [
                36.317935943603516,
                37.7707405090332
              ],
              [
                36.36622619628906,
                37.51277160644531
              ],
              [
                37.0684928894043,
                37.51277160644531
              ],
              [
                37.123741149902344,
                37.3193473815918
              ],
              [
                37.20170211791992,
                37.3193473815918
              ],
              [
                37.3729248046875,
                37.44829177856445
              ]
            ]
          ]
        ]
      }
    }
  ]
}