{
  "type": "FeatureCollection",
  "name": "territory-600",
  "features": [
    {
      "type": "Feature",
      "properties": {
        "Name": "Adal Sultanate",
        "FromYear": 1534,
        "ToYear": 1539,
        "Area": 488419.9127445872,
        "Type": "POLITY",
        "Wikipedia": "Adal Sultanate",
        "Wikidata": "Q2365048",
        "SeshatID": "so_adal_sultanate",
        "Components": "",
        "MemberOf": ""
      },
      "geometry": {
        "type": "Polygon",
        "coordinates": [
          [
            [
              40.81897735595703,
              14.81466007232666
            ],
            [
              41.32428741455078,
              14.621796607971191
            ],
            [
              41.5267333984375,
              14.236069679260254
            ],
            [
              41.6706428527832,
              14.171781539916992
            ],
            [
              41.664764404296875,
              14.043206214904785
            ],
            [
              41.882076263427734,
              13.97891902923584
            ],
            [
              42.16111755371094,
              13.657480239868164
            ],
            [
              42.30788040161133,
              13.657480239868164
            ],
            [
              42.43741226196289,
              13.271754264831543
            ],
            [
              42.5841064453125,
              13.271754264831543
            ],
            [
              42.86052703857422,
              12.886029243469238
            ],
            [
              43.15378952026367,
              12.886029243469238
            ],
            [
              43.2159309387207,
              12.628878593444824
            ],
            [
              43.359745025634766,
              12.564591407775879
            ],
            [
              43.49530792236328,
              12.307440757751465
            ],
            [
              43.48179626464844,
              11.986002922058105
            ],
            [
              42.81216049194336,
              11.728853225708008
            ],
            [
              42.73379135131836,
              11.6002779006958
            ],
            [
              43.24630355834961,
              11.6002779006958
            ],
            [
              43.67005920410156,
              11.214552879333496
            ],
            [
              43.73307418823242,
              10.957403182983398
            ],
            [
              44.083831787109375,
              10.571678161621094
            ],
            [
              44.371421813964844,
              10.443102836608887
            ],
            [
              45.105323791503906,
              10.507390975952148
            ],
            [
              45.0196418762207,
              10.185953140258789
            ],
            [
              44.72223663330078,
              10.057377815246582
            ],
            [
              44.49321365356445,
              9.800228118896484
            ],
            [
              43.75052261352539,
              9.478790283203125
            ],
            [
              43.6705207824707,
              9.285927772521973
            ],
            [
              43.52438735961914,
              9.285927772521973
            ],
            [
              43.44676971435547,
              9.157352447509766
            ],
            [
              42.63207244873047,
              8.835914611816406
            ],
            [
              42.55467224121094,
              8.707340240478516
            ],
            [
              42.40860366821289,
              8.707340240478516
            ],
            [
              42.40428924560547,
              8.578764915466309
            ],
            [
              42.260379791259766,
              8.643052101135254
            ],
            [
              42.249717712402344,
              8.321614265441895
            ],
            [
              42.0974006652832,
              8.128751754760742
            ],
            [
              42.080936431884766,
              7.614450931549072
            ],
            [
              42.293785095214844,
              7.421587944030762
            ],
            [
              42.285762786865234,
              7.164437294006348
            ],
            [
              42.135887145996094,
              7.035862445831299
            ],
            [
              42.051231384277344,
              6.650136470794678
            ],
            [
              41.75948715209961,
              6.650136470794678
            ],
            [
              41.6827278137207,
              6.521561145782471
            ],
            [
              41.749961853027344,
              6.328698635101318
            ],
            [
              41.52743911743164,
              6.200123310089111
            ],
            [
              41.10877227783203,
              6.842999458312988
            ],
            [
              41.02823257446289,
              6.585848808288574
            ],
            [
              40.807552337646484,
              6.521561145782471
            ],
            [
              40.80195999145508,
              6.328698635101318
            ],
            [
              41.159149169921875,
              6.071547985076904
            ],
            [
              41.15547180175781,
              5.942972660064697
            ],
            [
              41.30128479003906,
              5.942972660064697
            ],
            [
              41.29216766357422,
              5.62153434753418
            ],
            [
              41.14457321166992,
              5.557246685028076
            ],
            [
              41.00419235229492,
              5.750109672546387
            ],
            [
              40.714393615722656,
              5.81439733505249
            ],
            [
              40.26631546020508,
              5.428671360015869
            ],
            [
              39.828975677490234,
              5.428671360015869
            ],
            [
              39.76134490966797,
              5.62153434753418
            ],
            [
              39.613800048828125,
              5.557246685028076
            ],
            [
              39.25632858276367,
              5.81439733505249
            ],
            [
              39.190494537353516,
              6.071547985076904
            ],
            [
              39.046443939208984,
              6.135835647583008
            ],
            [
              39.05540084838867,
              6.457273483276367
            ],
            [
              38.55208969116211,
              6.714424133300781
            ],
            [
              38.701602935791016,
              6.842999458312988
            ],
            [
              38.6378288269043,
              7.164437294006348
            ],
            [
              38.490074157714844,
              7.100150108337402
            ],
            [
              38.42079544067383,
              7.228724956512451
            ],
            [
              38.27487564086914,
              7.228724956512451
            ],
            [
              38.12347412109375,
              7.035862445831299
            ],
            [
              37.977569580078125,
              7.035862445831299
            ],
            [
              37.90824508666992,
              7.164437294006348
            ],
            [
              37.54344940185547,
              7.164437294006348
            ],
            [
              37.47410583496094,
              7.293012619018555
            ],
            [
              37.184051513671875,
              7.357300281524658
            ],
            [
              37.27350997924805,
              7.935888767242432
            ],
            [
              37.20237350463867,
              8.000176429748535
            ],
            [
              37.49436569213867,
              8.000176429748535
            ],
            [
              37.50189208984375,
              8.25732707977295
            ],
            [
              37.28474807739258,
              8.321614265441895
            ],
            [
              37.36346435546875,
              8.514476776123047
            ],
            [
              37.084774017333984,
              8.964489936828613
            ],
            [
              37.16758728027344,
              9.285927772521973
            ],
            [
              37.46984100341797,
              9.607365608215332
            ],
            [
              37.41302490234375,
              10.121665954589844
            ],
            [
              37.41508483886719,
              10.185953140258789
            ],
            [
              37.85172653198242,
              10.121665954589844
            ],
            [
              38.14840316772461,
              10.250240325927734
            ],
            [
              38.29890823364258,
              10.378815650939941
            ],
            [
              38.23219680786133,
              10.571678161621094
            ],
            [
              39.37055587768555,
              11.728853225708008
            ],
            [
              39.3189582824707,
              12.307440757751465
            ],
            [
              39.409629821777344,
              12.757453918457031
            ],
            [
              38.84336853027344,
              13.271754264831543
            ],
            [
              38.87495422363281,
              14.043206214904785
            ],
            [
              38.94837188720703,
              14.043206214904785
            ],
            [
              38.97041702270508,
              14.55750846862793
            ],
            [
              39.13738250732422,
              15.007523536682129
            ],
            [
              39.140296936035156,
              15.07181167602539
            ],
            [
              39.22861099243164,
              15.393251419067383
            ],
            [
              39.53190612792969,
              15.586114883422852
            ],
            [
              39.605472564697266,
              15.586114883422852
            ],
            [
              39.73439025878906,
              15.200387001037598
            ],
            [
              39.807918548583984,
              15.200387001037598
            ],
            [
              39.82310485839844,
              15.52182674407959
            ],
            [
              39.97023010253906,
              15.52182674407959
            ],
            [
              40.310516357421875,
              14.943235397338867
            ],
            [
              40.68106460571289,
              15.007523536682129
            ],
            [
              40.821998596191406,
              14.878947257995605
            ],
            [
              40.81897735595703,
              14.81466007232666
            ]
          ]
        ]
      }
    }
  ]
}