{
  "type": "FeatureCollection",
  "name": "territory-601",
  "features": [
    {
      "type": "Feature",
      "properties": {
        "Name": "Makuria Kingdom",
        "FromYear": 1507,
        "ToYear": 1515,
        "Area": 240897.9628403182,
        "Type": "POLITY",
        "Wikipedia": "Makuria",
        "Wikidata": "Q829356",
        "SeshatID": "",
        "Components": "",
        "MemberOf": ""
      },
      "geometry": {
        "type": "Polygon",
        "coordinates": [
          [
            [
              33.84043502807617,
              22.143402099609375
            ],
            [
              33.83782196044922,
              22.079116821289062
            ],
            [
              33.76346206665039,
              22.079116821289062
            ],
            [
              33.835208892822266,
              22.014829635620117
            ],
            [
              33.74533462524414,
              21.629112243652344
            ],
            [
              33.81963348388672,
              21.629112243652344
            ],
            [
              34.25754165649414,
              19.6362361907959
            ],
            [
              34.468746185302734,
              19.379087448120117
            ],
            [
              34.597408294677734,
              18.929079055786133
            ],
            [
              34.87919235229492,
              18.607641220092773
            ],
            [
              34.93901062011719,
              18.286205291748047
            ],
            [
              35.157798767089844,
              18.2219181060791
            ],
            [
              35.29697036743164,
              18.029054641723633
            ],
            [
              35.29411697387695,
              17.964767456054688
            ],
            [
              34.92491912841797,
              17.964767456054688
            ],
            [
              34.24666213989258,
              17.643327713012695
            ],
            [
              33.426910400390625,
              17.450464248657227
            ],
            [
              31.503803253173828,
              17.321889877319336
            ],
            [
              31.50624656677246,
              17.38617706298828
            ],
            [
              31.294641494750977,
              17.643327713012695
            ],
            [
              31.028276443481445,
              18.414779663085938
            ],
            [
              30.762121200561523,
              21.307680130004883
            ],
            [
              30.687862396240234,
              21.307680130004883
            ],
            [
              30.63583755493164,
              21.950544357299805
            ],
            [
              30.561492919921875,
              21.950544357299805
            ],
            [
              30.72144317626953,
              22.271976470947266
            ],
            [
              30.742036819458008,
              22.85055923461914
            ],
            [
              30.534862518310547,
              23.30057144165039
            ],
            [
              30.537214279174805,
              23.36486053466797
            ],
            [
              31.670488357543945,
              23.75058937072754
            ],
            [
              32.040863037109375,
              23.68630027770996
            ],
            [
              33.38899612426758,
              23.814878463745117
            ],
            [
              33.6817741394043,
              23.68630027770996
            ],
            [
              33.67897033691406,
              23.622013092041016
            ],
            [
              33.8225212097168,
              23.493436813354492
            ],
            [
              33.80870819091797,
              23.171995162963867
            ],
            [
              33.88322067260742,
              23.171995162963867
            ],
            [
              33.84043502807617,
              22.143402099609375
            ]
          ]
        ]
      }
    }
  ]
}