{
  "type": "FeatureCollection",
  "name": "territory-606",
  "features": [
    {
      "type": "Feature",
      "properties": {
        "Name": "Kingdom of Mrauk U",
        "FromYear": 1534,
        "ToYear": 1546,
        "Area": 102176.78477823199,
        "Type": "POLITY",
        "Wikipedia": "Kingdom of Mrauk U",
        "Wikidata": "Q10791211",
        "SeshatID": "",
        "Components": "",
        "MemberOf": ""
      },
      "geometry": {
        "type": "Polygon",
        "coordinates": [
          [
            [
              95.03907775878906,
              18.029054641723633
            ],
            [
              95.05830383300781,
              17.643327713012695
            ],
            [
              94.57398223876953,
              16.807586669921875
            ],
            [
              94.42657470703125,
              16.807586669921875
            ],
            [
              94.43528747558594,
              16.87187385559082
            ],
            [
              94.60650634765625,
              17.57904052734375
            ],
            [
              94.53271484375,
              17.57904052734375
            ],
            [
              94.52215576171875,
              18.029054641723633
            ],
            [
              94.36445617675781,
              18.479066848754883
            ],
            [
              94.2258071899414,
              18.543354034423828
            ],
            [
              94.12384796142578,
              18.864791870117188
            ],
            [
              93.82804870605469,
              18.864791870117188
            ],
            [
              93.80060577392578,
              18.67193031311035
            ],
            [
              93.51400756835938,
              18.736217498779297
            ],
            [
              93.54138946533203,
              18.929079055786133
            ],
            [
              93.76325988769531,
              18.929079055786133
            ],
            [
              93.51317596435547,
              19.25051498413086
            ],
            [
              93.53150939941406,
              19.379087448120117
            ],
            [
              93.67953491210938,
              19.379087448120117
            ],
            [
              93.79956817626953,
              19.700523376464844
            ],
            [
              93.57740783691406,
              19.700523376464844
            ],
            [
              93.6049575805664,
              19.893383026123047
            ],
            [
              93.38272094726562,
              19.893383026123047
            ],
            [
              93.40103912353516,
              20.021955490112305
            ],
            [
              93.02145385742188,
              19.95766830444336
            ],
            [
              93.05791473388672,
              20.214815139770508
            ],
            [
              92.82646942138672,
              20.150527954101562
            ],
            [
              92.85374450683594,
              20.343387603759766
            ],
            [
              92.63134002685547,
              20.343387603759766
            ],
            [
              92.37098693847656,
              20.60053253173828
            ],
            [
              92.38911437988281,
              20.72910499572754
            ],
            [
              92.1195297241211,
              20.921964645385742
            ],
            [
              92.00740814208984,
              21.179107666015625
            ],
            [
              92.05309295654297,
              21.500539779663086
            ],
            [
              91.83023834228516,
              21.500539779663086
            ],
            [
              91.89482116699219,
              21.950544357299805
            ],
            [
              91.76476287841797,
              22.079116821289062
            ],
            [
              91.73738861083984,
              22.400548934936523
            ],
            [
              91.37480926513672,
              22.46483612060547
            ],
            [
              91.52603149414062,
              22.97913360595703
            ],
            [
              91.97293853759766,
              22.97913360595703
            ],
            [
              92.57503509521484,
              22.529123306274414
            ],
            [
              92.65708923339844,
              22.079116821289062
            ],
            [
              93.01941680908203,
              22.014829635620117
            ],
            [
              93.18712615966797,
              22.143402099609375
            ],
            [
              93.17465209960938,
              23.043420791625977
            ],
            [
              93.3437271118164,
              23.171995162963867
            ],
            [
              93.41824340820312,
              23.171995162963867
            ],
            [
              94.0685806274414,
              23.043420791625977
            ],
            [
              94.32634735107422,
              22.786272048950195
            ],
            [
              94.32719421386719,
              20.793392181396484
            ],
            [
              94.8270034790039,
              19.6362361907959
            ],
            [
              94.96490478515625,
              18.543354034423828
            ],
            [
              95.15888977050781,
              18.350492477416992
            ],
            [
              95.03907775878906,
              18.029054641723633
            ]
          ]
        ]
      }
    }
  ]
}