{
  "type": "FeatureCollection",
  "name": "territory-611",
  "features": [
    {
      "type": "Feature",
      "properties": {
        "Name": "(Personal union of Polish-Lithuania Kingdom with Kingdom of Hungary)",
        "FromYear": 1440,
        "ToYear": 1449,
        "Area": 1370498.9324318776,
        "Type": "RELATION",
        "Wikipedia": "Union of Hungary and Poland",
        "Wikidata": "Q9366696",
        "SeshatID": "pl_jagiellonian_dyn;hu_later_dyn",
        "Components": "(Polish-Lithuania Kingdom);Grand Duchy of Lithuania;Kingdom of Hungary;(Kingdom of Poland);Kingdom of Poland",
        "MemberOf": ""
      },
      "geometry": {
        "type": "MultiPolygon",
        "coordinates": [
          [
            [
              [
                17.590667724609375,
                42.82133865356445
              ],
              [
                17.588058471679688,
                42.75628662109375
              ],
              [
                17.50791358947754,
                42.75628662109375
              ],
              [
                17.510494232177734,
                42.82133865356445
              ],
              [
                17.590667724609375,
                42.82133865356445
              ]
            ]
          ],
          [
            [
              [
                16.791240692138672,
                42.88639831542969
              ],
              [
                16.795894622802734,
                43.016544342041016
              ],
              [
                17.119401931762695,
                43.08163070678711
              ],
              [
                17.199695587158203,
                43.08163070678711
              ],
              [
                17.192262649536133,
                42.88639831542969
              ],
              [
                16.791240692138672,
                42.88639831542969
              ]
            ]
          ],
          [
            [
              [
                17.119401931762695,
                43.08163070678711
              ],
              [
                16.717933654785156,
                43.08163070678711
              ],
              [
                16.722553253173828,
                43.211830139160156
              ],
              [
                16.802907943725586,
                43.211830139160156
              ],
              [
                17.12432289123535,
                43.211830139160156
              ],
              [
                17.119401931762695,
                43.08163070678711
              ]
            ]
          ],
          [
            [
              [
                16.734172821044922,
                43.53750228881836
              ],
              [
                16.81231689453125,
                43.472347259521484
              ],
              [
                16.80995750427246,
                43.407203674316406
              ],
              [
                16.727190017700195,
                43.342071533203125
              ],
              [
                16.734172821044922,
                43.53750228881836
              ]
            ]
          ],
          [
            [
              [
                14.502378463745117,
                44.5159797668457
              ],
              [
                14.260871887207031,
                44.58129119873047
              ],
              [
                14.269240379333496,
                44.973392486572266
              ],
              [
                14.350428581237793,
                44.973392486572266
              ],
              [
                14.51131820678711,
                44.908016204833984
              ],
              [
                14.502378463745117,
                44.5159797668457
              ]
            ]
          ],
          [
            [
              [
                18.378620147705078,
                49.44889450073242
              ],
              [
                18.88353729248047,
                49.51522445678711
              ],
              [
                18.887298583984375,
                49.58156967163086
              ],
              [
                19.23756217956543,
                49.84712600708008
              ],
              [
                19.165773391723633,
                50.04647445678711
              ],
              [
                19.081897735595703,
                50.04647445678711
              ],
              [
                19.085887908935547,
                50.11296081542969
              ],
              [
                19.089900970458984,
                50.17946243286133
              ],
              [
                19.17385482788086,
                50.17946243286133
              ],
              [
                19.18613052368164,
                50.37908172607422
              ],
              [
                19.022031784057617,
                50.445655822753906
              ],
              [
                19.030193328857422,
                50.578861236572266
              ],
              [
                18.70132827758789,
                50.71213912963867
              ],
              [
                18.709320068359375,
                50.84549331665039
              ],
              [
                18.049345016479492,
                51.112430572509766
              ],
              [
                17.972288131713867,
                51.24601745605469
              ],
              [
                17.549257278442383,
                51.24601745605469
              ],
              [
                17.31973648071289,
                51.71418380737305
              ],
              [
                16.980127334594727,
                51.71418380737305
              ],
              [
                16.803813934326172,
                51.580322265625
              ],
              [
                16.55561637878418,
                51.71418380737305
              ],
              [
                16.131103515625,
                51.71418380737305
              ],
              [
                16.136985778808594,
                51.84812545776367
              ],
              [
                15.80826187133789,
                52.11625671386719
              ],
              [
                15.813953399658203,
                52.250450134277344
              ],
              [
                15.646231651306152,
                52.31757736206055
              ],
              [
                15.48926830291748,
                52.653533935546875
              ],
              [
                15.574783325195312,
                52.653533935546875
              ],
              [
                16.097135543823242,
                52.85536575317383
              ],
              [
                16.02382469177246,
                53.124786376953125
              ],
              [
                16.109657287597656,
                53.124786376953125
              ],
              [
                16.119178771972656,
                53.32708740234375
              ],
              [
                16.294410705566406,
                53.39456558227539
              ],
              [
                16.301027297973633,
                53.52959060668945
              ],
              [
                16.476667404174805,
                53.597137451171875
              ],
              [
                16.400707244873047,
                53.799922943115234
              ],
              [
                16.65959930419922,
                53.799922943115234
              ],
              [
                16.821292877197266,
                53.597137451171875
              ],
              [
                17.079761505126953,
                53.597137451171875
              ],
              [
                17.326608657836914,
                53.39456558227539
              ],
              [
                17.506561279296875,
                53.52959060668945
              ],
              [
                18.44928741455078,
                53.462066650390625
              ],
              [
                18.517410278320312,
                53.192195892333984
              ],
              [
                18.689167022705078,
                53.192195892333984
              ],
              [
                18.928207397460938,
                52.92268753051758
              ],
              [
                19.361536026000977,
                52.99003219604492
              ],
              [
                19.724811553955078,
                53.25962829589844
              ],
              [
                20.395845413208008,
                53.057395935058594
              ],
              [
                20.66997718811035,
                53.25962829589844
              ],
              [
                20.927749633789062,
                53.25962829589844
              ],
              [
                21.28936767578125,
                53.462066650390625
              ],
              [
                22.42144775390625,
                53.597137451171875
              ],
              [
                22.548198699951172,
                54.00291442871094
              ],
              [
                22.461759567260742,
                54.00291442871094
              ],
              [
                22.482206344604492,
                54.20612335205078
              ],
              [
                22.66232681274414,
                54.27390670776367
              ],
              [
                22.69742774963379,
                54.613189697265625
              ],
              [
                22.704511642456055,
                54.681121826171875
              ],
              [
                22.812959671020508,
                54.88506317138672
              ],
              [
                22.573020935058594,
                55.089229583740234
              ],
              [
                22.398584365844727,
                55.089229583740234
              ],
              [
                22.412668228149414,
                55.225467681884766
              ],
              [
                21.640066146850586,
                55.36180877685547
              ],
              [
                21.235198974609375,
                55.70311737060547
              ],
              [
                21.248220443725586,
                55.83982467651367
              ],
              [
                20.991283416748047,
                55.90821838378906
              ],
              [
                20.9976863861084,
                55.97663879394531
              ],
              [
                20.909809112548828,
                55.97663879394531
              ],
              [
                20.916179656982422,
                56.04508590698242
              ],
              [
                21.18651008605957,
                56.11355972290039
              ],
              [
                21.382530212402344,
                56.319149017333984
              ],
              [
                21.74201202392578,
                56.387733459472656
              ],
              [
                23.41761016845703,
                56.387733459472656
              ],
              [
                24.1064510345459,
                56.25059127807617
              ],
              [
                24.82863998413086,
                56.387733459472656
              ],
              [
                25.066509246826172,
                56.182064056396484
              ],
              [
                25.761505126953125,
                56.11355972290039
              ],
              [
                25.8309326171875,
                55.97663879394531
              ],
              [
                26.495513916015625,
                55.70311737060547
              ],
              [
                26.865774154663086,
                55.83982467651367
              ],
              [
                27.470035552978516,
                55.77145767211914
              ],
              [
                27.971586227416992,
                56.182064056396484
              ],
              [
                28.14765167236328,
                56.182064056396484
              ],
              [
                28.19062614440918,
                56.45634460449219
              ],
              [
                27.880273818969727,
                56.731075286865234
              ],
              [
                27.901763916015625,
                56.86860656738281
              ],
              [
                28.267009735107422,
                56.937416076660156
              ],
              [
                28.377832412719727,
                57.07511901855469
              ],
              [
                29.58440589904785,
                56.86860656738281
              ],
              [
                29.979244232177734,
                56.59365463256836
              ],
              [
                29.955463409423828,
                56.45634460449219
              ],
              [
                30.108091354370117,
                56.319149017333984
              ],
              [
                30.372501373291016,
                56.319149017333984
              ],
              [
                30.83788299560547,
                56.45634460449219
              ],
              [
                31.128190994262695,
                57.07511901855469
              ],
              [
                31.660518646240234,
                57.07511901855469
              ],
              [
                32.13100051879883,
                57.21294021606445
              ],
              [
                32.452354431152344,
                57.488929748535156
              ],
              [
                32.63044738769531,
                57.488929748535156
              ],
              [
                32.864906311035156,
                57.7653923034668
              ],
              [
                33.13270950317383,
                57.7653923034668
              ],
              [
                33.3571891784668,
                57.55800247192383
              ],
              [
                33.701107025146484,
                57.07511901855469
              ],
              [
                34.79452896118164,
                56.799827575683594
              ],
              [
                34.95655059814453,
                56.731075286865234
              ],
              [
                35.000125885009766,
                56.524986267089844
              ],
              [
                35.49955368041992,
                56.387733459472656
              ],
              [
                35.52572250366211,
                55.70311737060547
              ],
              [
                35.68617630004883,
                55.63479995727539
              ],
              [
                35.787078857421875,
                55.29362487792969
              ],
              [
                35.961814880371094,
                55.29362487792969
              ],
              [
                35.93217086791992,
                55.15733337402344
              ],
              [
                36.019439697265625,
                55.15733337402344
              ],
              [
                36.032833099365234,
                54.817054748535156
              ],
              [
                35.714012145996094,
                54.545284271240234
              ],
              [
                35.931175231933594,
                54.341712951660156
              ],
              [
                35.88824462890625,
                54.138362884521484
              ],
              [
                36.06131362915039,
                54.138362884521484
              ],
              [
                36.01848602294922,
                53.93522644042969
              ],
              [
                36.10487747192383,
                53.93522644042969
              ],
              [
                35.765281677246094,
                53.124786376953125
              ],
              [
                36.324440002441406,
                52.92268753051758
              ],
              [
                36.426849365234375,
                52.586299896240234
              ],
              [
                36.74110794067383,
                52.4518928527832
              ],
              [
                37.013519287109375,
                52.11625671386719
              ],
              [
                37.42543029785156,
                52.0491943359375
              ],
              [
                37.482810974121094,
                51.91512680053711
              ],
              [
                37.964942932128906,
                51.78114318847656
              ],
              [
                37.93708801269531,
                51.64724349975586
              ],
              [
                38.14987564086914,
                51.44654083251953
              ],
              [
                38.09486770629883,
                51.17921447753906
              ],
              [
                37.898712158203125,
                51.04566955566406
              ],
              [
                37.83774185180664,
                50.312522888183594
              ],
              [
                37.75370788574219,
                50.312522888183594
              ],
              [
                37.543670654296875,
                49.64793395996094
              ],
              [
                37.627315521240234,
                49.64793395996094
              ],
              [
                37.59037399291992,
                49.44889450073242
              ],
              [
                37.67390441894531,
                49.44889450073242
              ],
              [
                37.70854187011719,
                49.18375015258789
              ],
              [
                37.86311340332031,
                49.11750411987305
              ],
              [
                37.83888244628906,
                48.98506164550781
              ],
              [
                36.9367561340332,
                48.5881233215332
              ],
              [
                36.687618255615234,
                48.5881233215332
              ],
              [
                36.62726974487305,
                48.72037124633789
              ],
              [
                36.306053161621094,
                48.786521911621094
              ],
              [
                36.328697204589844,
                48.91886520385742
              ],
              [
                36.079010009765625,
                48.91886520385742
              ],
              [
                36.09028244018555,
                48.98506164550781
              ],
              [
                36.007015228271484,
                48.98506164550781
              ],
              [
                35.94626998901367,
                49.11750411987305
              ],
              [
                35.77958679199219,
                49.11750411987305
              ],
              [
                35.60177230834961,
                49.051273345947266
              ],
              [
                35.57963180541992,
                48.91886520385742
              ],
              [
                35.32994079589844,
                48.91886520385742
              ],
              [
                34.39474868774414,
                49.316287994384766
              ],
              [
                34.06093215942383,
                49.316287994384766
              ],
              [
                33.362693786621094,
                49.11750411987305
              ],
              [
                33.34247970581055,
                48.98506164550781
              ],
              [
                33.00941467285156,
                48.98506164550781
              ],
              [
                32.48087692260742,
                48.786521911621094
              ],
              [
                32.28615951538086,
                48.5881233215332
              ],
              [
                31.852519989013672,
                48.455936431884766
              ],
              [
                31.56758689880371,
                48.191749572753906
              ],
              [
                31.218721389770508,
                48.059749603271484
              ],
              [
                30.548202514648438,
                47.993770599365234
              ],
              [
                29.795589447021484,
                47.92780685424805
              ],
              [
                29.69684410095215,
                47.79592514038086
              ],
              [
                29.53160858154297,
                47.79592514038086
              ],
              [
                29.507915496826172,
                47.598209381103516
              ],
              [
                29.139524459838867,
                47.26897048950195
              ],
              [
                28.915130615234375,
                47.46647262573242
              ],
              [
                29.028188705444336,
                47.730003356933594
              ],
              [
                28.87833023071289,
                47.86185836791992
              ],
              [
                28.555265426635742,
                47.92780685424805
              ],
              [
                28.570432662963867,
                48.059749603271484
              ],
              [
                28.4200382232666,
                48.191749572753906
              ],
              [
                27.93785285949707,
                48.323814392089844
              ],
              [
                27.854949951171875,
                48.323814392089844
              ],
              [
                27.537879943847656,
                48.455936431884766
              ],
              [
                27.39371109008789,
                48.654239654541016
              ],
              [
                26.472915649414062,
                48.5881233215332
              ],
              [
                25.981304168701172,
                48.654239654541016
              ],
              [
                25.342382431030273,
                48.91886520385742
              ],
              [
                25.246307373046875,
                48.786521911621094
              ],
              [
                25.559406280517578,
                48.5881233215332
              ],
              [
                25.54009246826172,
                48.38986587524414
              ],
              [
                25.01179313659668,
                48.059749603271484
              ],
              [
                24.987621307373047,
                47.79592514038086
              ],
              [
                24.90500259399414,
                47.79592514038086
              ],
              [
                24.8990421295166,
                47.730003356933594
              ],
              [
                25.016605377197266,
                47.20316696166992
              ],
              [
                25.668907165527344,
                47.13737487792969
              ],
              [
                25.72661018371582,
                46.87434005737305
              ],
              [
                25.966814041137695,
                46.808616638183594
              ],
              [
                25.942142486572266,
                46.54585266113281
              ],
              [
                26.477930068969727,
                46.1520881652832
              ],
              [
                26.44038200378418,
                45.75876998901367
              ],
              [
                26.10191535949707,
                45.62776184082031
              ],
              [
                25.93889808654785,
                45.62776184082031
              ],
              [
                25.84545135498047,
                45.496795654296875
              ],
              [
                25.438228607177734,
                45.496795654296875
              ],
              [
                25.34526824951172,
                45.36587905883789
              ],
              [
                25.042299270629883,
                45.62776184082031
              ],
              [
                23.483562469482422,
                45.496795654296875
              ],
              [
                23.47352409362793,
                45.36587905883789
              ],
              [
                23.138248443603516,
                45.23500442504883
              ],
              [
                22.650352478027344,
                45.23500442504883
              ],
              [
                22.531999588012695,
                44.71194839477539
              ],
              [
                22.113351821899414,
                44.5159797668457
              ],
              [
                22.032384872436523,
                44.5159797668457
              ],
              [
                21.951416015625,
                44.5159797668457
              ],
              [
                21.955795288085938,
                44.58129119873047
              ],
              [
                21.87479591369629,
                44.58129119873047
              ],
              [
                21.879146575927734,
                44.64661407470703
              ],
              [
                21.79811668395996,
                44.64661407470703
              ],
              [
                21.717084884643555,
                44.64661407470703
              ],
              [
                21.40547752380371,
                44.842647552490234
              ],
              [
                21.080976486206055,
                44.842647552490234
              ],
              [
                20.829694747924805,
                44.71194839477539
              ],
              [
                20.350849151611328,
                44.842647552490234
              ],
              [
                19.856950759887695,
                44.71194839477539
              ],
              [
                19.624204635620117,
                44.908016204833984
              ],
              [
                19.296220779418945,
                44.842647552490234
              ],
              [
                19.22174644470215,
                44.973392486572266
              ],
              [
                18.890594482421875,
                44.842647552490234
              ],
              [
                18.57839012145996,
                45.10417556762695
              ],
              [
                16.544801712036133,
                45.03877639770508
              ],
              [
                16.294586181640625,
                44.842647552490234
              ],
              [
                16.285852432250977,
                44.58129119873047
              ],
              [
                16.52429962158203,
                44.45067596435547
              ],
              [
                16.51975440979004,
                44.32010269165039
              ],
              [
                16.27495574951172,
                44.25482940673828
              ],
              [
                16.268434524536133,
                44.05907440185547
              ],
              [
                16.429935455322266,
                44.05907440185547
              ],
              [
                16.741186141967773,
                43.73301696777344
              ],
              [
                16.738845825195312,
                43.6678352355957
              ],
              [
                16.734172821044922,
                43.53750228881836
              ],
              [
                16.253297805786133,
                43.6026611328125
              ],
              [
                16.168521881103516,
                43.472347259521484
              ],
              [
                15.927099227905273,
                43.472347259521484
              ],
              [
                16.01169204711914,
                43.6026611328125
              ],
              [
                15.856636047363281,
                43.79821014404297
              ],
              [
                15.695383071899414,
                43.79821014404297
              ],
              [
                15.618592262268066,
                43.92862319946289
              ],
              [
                15.374701499938965,
                43.86341094970703
              ],
              [
                15.459075927734375,
                43.99384307861328
              ],
              [
                15.218687057495117,
                44.05907440185547
              ],
              [
                15.146636962890625,
                44.38538360595703
              ],
              [
                14.908865928649902,
                44.58129119873047
              ],
              [
                14.91874885559082,
                44.973392486572266
              ],
              [
                14.515777587890625,
                45.10417556762695
              ],
              [
                14.603090286254883,
                45.36587905883789
              ],
              [
                14.521710395812988,
                45.36587905883789
              ],
              [
                14.440329551696777,
                45.36587905883789
              ],
              [
                14.524674415588379,
                45.496795654296875
              ],
              [
                15.339118957519531,
                45.496795654296875
              ],
              [
                15.264768600463867,
                45.75876998901367
              ],
              [
                15.678460121154785,
                45.95537567138672
              ],
              [
                15.604452133178711,
                46.21768569946289
              ],
              [
                16.01764488220215,
                46.348915100097656
              ],
              [
                15.864084243774414,
                46.677207946777344
              ],
              [
                16.123157501220703,
                47.07159423828125
              ],
              [
                16.138551712036133,
                47.53233337402344
              ],
              [
                16.303508758544922,
                47.53233337402344
              ],
              [
                16.3150634765625,
                47.86185836791992
              ],
              [
                16.48518943786621,
                47.993770599365234
              ],
              [
                16.984167098999023,
                48.059749603271484
              ],
              [
                16.911911010742188,
                48.323814392089844
              ],
              [
                16.829010009765625,
                48.323814392089844
              ],
              [
                16.92527961730957,
                48.654239654541016
              ],
              [
                16.927988052368164,
                48.72037124633789
              ],
              [
                17.938142776489258,
                48.98506164550781
              ],
              [
                18.378620147705078,
                49.44889450073242
              ]
            ]
          ]
        ]
      }
    }
  ]
}