{
  "type": "FeatureCollection",
  "name": "territory-620",
  "features": [
    {
      "type": "Feature",
      "properties": {
        "Name": "Sultanate of Sulu",
        "FromYear": 1748,
        "ToYear": 1751,
        "Area": 68256.8549828692,
        "Type": "POLITY",
        "Wikipedia": "Sultanate of Sulu",
        "Wikidata": "Q422065",
        "SeshatID": "",
        "Components": "",
        "MemberOf": ""
      },
      "geometry": {
        "type": "MultiPolygon",
        "coordinates": [
          [
            [
              [
                117.20191955566406,
                3.564330101013184
              ],
              [
                117.63225555419922,
                3.435754776000977
              ],
              [
                117.6224594116211,
                3.242892026901245
              ],
              [
                117.32794952392578,
                3.178604364395142
              ],
              [
                117.5432357788086,
                3.114316701889038
              ],
              [
                117.60051727294922,
                2.7928786277771
              ],
              [
                117.88274383544922,
                2.600015640258789
              ],
              [
                117.65264129638672,
                2.342865228652954
              ],
              [
                117.50702667236328,
                2.342865228652954
              ],
              [
                117.0877914428711,
                2.728590965270996
              ],
              [
                116.89421081542969,
                3.242892026901245
              ],
              [
                116.60612487792969,
                3.30717945098877
              ],
              [
                116.47358703613281,
                3.564330101013184
              ],
              [
                116.5774917602539,
                4.142918586730957
              ],
              [
                116.72677612304688,
                4.207206249237061
              ],
              [
                116.66118621826172,
                4.335781574249268
              ],
              [
                117.17484283447266,
                4.400069236755371
              ],
              [
                117.45528411865234,
                4.207206249237061
              ],
              [
                117.44454193115234,
                4.01434326171875
              ],
              [
                117.60098266601562,
                4.207206249237061
              ],
              [
                117.89238739013672,
                4.207206249237061
              ],
              [
                117.88160705566406,
                4.01434326171875
              ],
              [
                117.58670043945312,
                3.950055837631226
              ],
              [
                117.79478454589844,
                3.757192850112915
              ],
              [
                117.78795623779297,
                3.628617763519287
              ],
              [
                117.64228820800781,
                3.628617763519287
              ],
              [
                117.56945037841797,
                3.628617763519287
              ],
              [
                117.20191955566406,
                3.564330101013184
              ]
            ]
          ],
          [
            [
              [
                120.13642883300781,
                5.171521186828613
              ],
              [
                119.69098663330078,
                5.042945861816406
              ],
              [
                119.69914245605469,
                5.171521186828613
              ],
              [
                119.92191314697266,
                5.235808849334717
              ],
              [
                119.92606353759766,
                5.300096035003662
              ],
              [
                120.14891052246094,
                5.364383697509766
              ],
              [
                120.13642883300781,
                5.171521186828613
              ]
            ]
          ],
          [
            [
              [
                118.36087799072266,
                5.878684997558594
              ],
              [
                118.562255859375,
                5.62153434753418
              ],
              [
                119.13690185546875,
                5.492959022521973
              ],
              [
                119.2742691040039,
                5.364383697509766
              ],
              [
                119.26185607910156,
                5.171521186828613
              ],
              [
                119.03108978271484,
                4.978658199310303
              ],
              [
                118.15660095214844,
                4.978658199310303
              ],
              [
                118.14480590820312,
                4.785795211791992
              ],
              [
                118.4323959350586,
                4.721507549285889
              ],
              [
                118.56663513183594,
                4.528644561767578
              ],
              [
                118.47885131835938,
                4.271493911743164
              ],
              [
                117.67747497558594,
                4.271493911743164
              ],
              [
                117.53912353515625,
                4.400069236755371
              ],
              [
                116.96277618408203,
                5.685822010040283
              ],
              [
                116.82124328613281,
                5.750109672546387
              ],
              [
                116.76567077636719,
                6.007260322570801
              ],
              [
                116.55133819580078,
                6.071547985076904
              ],
              [
                116.47842407226562,
                6.071547985076904
              ],
              [
                116.49178314208984,
                6.264410972595215
              ],
              [
                116.27752685546875,
                6.328698635101318
              ],
              [
                116.28205871582031,
                6.392985820770264
              ],
              [
                116.69381713867188,
                7.035862445831299
              ],
              [
                116.8397216796875,
                7.035862445831299
              ],
              [
                116.82048797607422,
                6.778711795806885
              ],
              [
                117.05857849121094,
                7.035862445831299
              ],
              [
                117.2044906616211,
                7.035862445831299
              ],
              [
                117.25814056396484,
                6.778711795806885
              ],
              [
                117.74519348144531,
                6.457273483276367
              ],
              [
                117.63619232177734,
                5.942972660064697
              ],
              [
                117.70909881591797,
                5.942972660064697
              ],
              [
                118.00959777832031,
                6.071547985076904
              ],
              [
                118.06488800048828,
                5.81439733505249
              ],
              [
                118.36087799072266,
                5.878684997558594
              ]
            ]
          ],
          [
            [
              [
                120.85321044921875,
                6.071547985076904
              ],
              [
                121.35903930664062,
                6.007260322570801
              ],
              [
                121.34554290771484,
                5.81439733505249
              ],
              [
                120.83966827392578,
                5.878684997558594
              ],
              [
                120.84415435791016,
                5.942972660064697
              ],
              [
                120.85321044921875,
                6.071547985076904
              ]
            ]
          ],
          [
            [
              [
                121.85347747802734,
                6.778711795806885
              ],
              [
                122.28618621826172,
                6.714424133300781
              ],
              [
                122.19383239746094,
                6.457273483276367
              ],
              [
                122.04320526123047,
                6.392985820770264
              ],
              [
                121.97027587890625,
                6.392985820770264
              ],
              [
                121.75626373291016,
                6.457273483276367
              ],
              [
                121.85347747802734,
                6.778711795806885
              ]
            ]
          ],
          [
            [
              [
                117.21431732177734,
                7.164437294006348
              ],
              [
                116.99051666259766,
                7.100150108337402
              ],
              [
                117.00537872314453,
                7.293012619018555
              ],
              [
                117.01039123535156,
                7.357300281524658
              ],
              [
                117.22929382324219,
                7.357300281524658
              ],
              [
                117.21431732177734,
                7.164437294006348
              ]
            ]
          ]
        ]
      }
    }
  ]
}