{
  "type": "FeatureCollection",
  "name": "territory-624",
  "features": [
    {
      "type": "Feature",
      "properties": {
        "Name": "Moghulistan",
        "FromYear": 1482,
        "ToYear": 1491,
        "Area": 1383469.8285511688,
        "Type": "POLITY",
        "Wikipedia": "Moghulistan",
        "Wikidata": "Q1191125",
        "SeshatID": "",
        "Components": "",
        "MemberOf": ""
      },
      "geometry": {
        "type": "Polygon",
        "coordinates": [
          [
            [
              81.27923583984375,
              45.23500442504883
            ],
            [
              81.60041809082031,
              44.842647552490234
            ],
            [
              81.89716339111328,
              44.77729415893555
            ],
            [
              82.2724380493164,
              44.5159797668457
            ],
            [
              83.18795013427734,
              44.38538360595703
            ],
            [
              83.15997314453125,
              44.32010269165039
            ],
            [
              83.72608947753906,
              44.32010269165039
            ],
            [
              83.69795227050781,
              44.25482940673828
            ],
            [
              84.02132415771484,
              44.25482940673828
            ],
            [
              83.99311065673828,
              44.18956756591797
            ],
            [
              85.2810287475586,
              43.99384307861328
            ],
            [
              85.25251007080078,
              43.92862319946289
            ],
            [
              86.69863891601562,
              43.73301696777344
            ],
            [
              86.66976928710938,
              43.6678352355957
            ],
            [
              87.07260131835938,
              43.6678352355957
            ],
            [
              87.04364776611328,
              43.6026611328125
            ],
            [
              87.4977798461914,
              43.53750228881836
            ],
            [
              87.4687728881836,
              43.472347259521484
            ],
            [
              89.15055847167969,
              43.276947021484375
            ],
            [
              89.12114715576172,
              43.211830139160156
            ],
            [
              90.02604675292969,
              43.08163070678711
            ],
            [
              89.99647521972656,
              43.016544342041016
            ],
            [
              90.57918548583984,
              42.88639831542969
            ],
            [
              90.35997772216797,
              42.041324615478516
            ],
            [
              90.4622802734375,
              41.911441802978516
            ],
            [
              90.37686920166016,
              41.71668243408203
            ],
            [
              90.45655059814453,
              41.71668243408203
            ],
            [
              90.49466705322266,
              41.06801223754883
            ],
            [
              90.70207214355469,
              40.80876541137695
            ],
            [
              90.64751434326172,
              40.6791877746582
            ],
            [
              91.01432037353516,
              40.42012023925781
            ],
            [
              91.8304672241211,
              40.29063034057617
            ],
            [
              92.69474029541016,
              39.70827102661133
            ],
            [
              92.5900650024414,
              39.25570297241211
            ],
            [
              92.48558044433594,
              39.19107437133789
            ],
            [
              90.94873809814453,
              38.67427444458008
            ],
            [
              90.875244140625,
              38.48057174682617
            ],
            [
              91.03744506835938,
              38.28691864013672
            ],
            [
              90.94136810302734,
              38.028785705566406
            ],
            [
              91.28466033935547,
              37.89975357055664
            ],
            [
              91.44788360595703,
              37.706241607666016
            ],
            [
              91.40076446533203,
              37.5772590637207
            ],
            [
              91.53338623046875,
              37.51277160644531
            ],
            [
              91.46338653564453,
              37.3193473815918
            ],
            [
              91.00459289550781,
              37.12596130371094
            ],
            [
              90.93627166748047,
              36.932613372802734
            ],
            [
              91.35779571533203,
              36.80373764038086
            ],
            [
              91.31263732910156,
              36.67487716674805
            ],
            [
              91.39037322998047,
              36.67487716674805
            ],
            [
              91.24541473388672,
              36.48161697387695
            ],
            [
              90.25768280029297,
              36.5460319519043
            ],
            [
              89.82537078857422,
              36.417205810546875
            ],
            [
              89.71379852294922,
              36.5460319519043
            ],
            [
              88.66944122314453,
              36.67487716674805
            ],
            [
              87.24166870117188,
              36.3527946472168
            ],
            [
              86.79684448242188,
              36.417205810546875
            ],
            [
              86.5221176147461,
              36.28839111328125
            ],
            [
              86.24337005615234,
              35.902034759521484
            ],
            [
              85.89291381835938,
              35.77327346801758
            ],
            [
              85.70098114013672,
              35.902034759521484
            ],
            [
              85.00362396240234,
              35.902034759521484
            ],
            [
              84.63399505615234,
              35.708900451660156
            ],
            [
              83.87940216064453,
              35.77327346801758
            ],
            [
              83.27902221679688,
              35.58015823364258
            ],
            [
              82.81473541259766,
              35.58015823364258
            ],
            [
              82.73713684082031,
              35.837650299072266
            ],
            [
              82.34982299804688,
              35.837650299072266
            ],
            [
              82.0219497680664,
              35.51579284667969
            ],
            [
              81.67485809326172,
              35.38706970214844
            ],
            [
              81.48043060302734,
              35.51579284667969
            ],
            [
              80.22421264648438,
              35.45143127441406
            ],
            [
              80.1468734741211,
              35.45143127441406
            ],
            [
              79.73794555664062,
              35.644527435302734
            ],
            [
              79.44332122802734,
              35.9664192199707
            ],
            [
              78.64988708496094,
              35.902034759521484
            ],
            [
              78.47664642333984,
              35.837650299072266
            ],
            [
              78.32667541503906,
              35.58015823364258
            ],
            [
              78.09453582763672,
              35.58015823364258
            ],
            [
              77.98138427734375,
              35.45143127441406
            ],
            [
              76.91620635986328,
              35.51579284667969
            ],
            [
              76.52235412597656,
              35.77327346801758
            ],
            [
              76.55780792236328,
              35.902034759521484
            ],
            [
              76.1527328491211,
              35.837650299072266
            ],
            [
              75.91345977783203,
              36.09519577026367
            ],
            [
              75.90174102783203,
              36.61045455932617
            ],
            [
              75.47156524658203,
              36.73930740356445
            ],
            [
              75.23312377929688,
              36.9970588684082
            ],
            [
              73.79618072509766,
              36.8681755065918
            ],
            [
              73.69396209716797,
              37.06150817871094
            ],
            [
              73.78411865234375,
              37.38381576538086
            ],
            [
              73.64630889892578,
              37.44829177856445
            ],
            [
              73.70115661621094,
              37.641746520996094
            ],
            [
              73.62308502197266,
              37.641746520996094
            ],
            [
              73.74868774414062,
              38.60969924926758
            ],
            [
              73.67025756835938,
              38.60969924926758
            ],
            [
              73.80683135986328,
              38.80344009399414
            ],
            [
              73.72833251953125,
              38.80344009399414
            ],
            [
              73.78703308105469,
              38.997230529785156
            ],
            [
              73.64955139160156,
              39.06184005737305
            ],
            [
              73.6890869140625,
              39.19107437133789
            ],
            [
              73.61043548583984,
              39.19107437133789
            ],
            [
              73.67021179199219,
              39.38497543334961
            ],
            [
              73.6902847290039,
              39.449623107910156
            ],
            [
              73.92901611328125,
              39.70827102661133
            ],
            [
              73.85016632080078,
              39.70827102661133
            ],
            [
              73.95331573486328,
              40.031734466552734
            ],
            [
              73.81617736816406,
              40.0964469909668
            ],
            [
              73.85803985595703,
              40.225894927978516
            ],
            [
              73.62603759765625,
              40.4848747253418
            ],
            [
              73.46772003173828,
              40.4848747253418
            ],
            [
              73.37303161621094,
              40.6791877746582
            ],
            [
              73.21454620361328,
              40.6791877746582
            ],
            [
              73.17793273925781,
              40.80876541137695
            ],
            [
              72.94004821777344,
              40.80876541137695
            ],
            [
              72.98280334472656,
              40.93837356567383
            ],
            [
              72.84553527832031,
              41.00318908691406
            ],
            [
              72.76615905761719,
              41.00318908691406
            ],
            [
              72.10060119628906,
              41.39224624633789
            ],
            [
              71.72435760498047,
              41.45711898803711
            ],
            [
              71.76748657226562,
              41.586883544921875
            ],
            [
              71.39087677001953,
              41.65177917480469
            ],
            [
              71.5935287475586,
              41.781593322753906
            ],
            [
              73.09535217285156,
              41.97637939453125
            ],
            [
              73.66506958007812,
              42.236209869384766
            ],
            [
              73.9048080444336,
              42.236209869384766
            ],
            [
              73.95082092285156,
              42.36617660522461
            ],
            [
              74.27069854736328,
              42.36617660522461
            ],
            [
              74.39722442626953,
              42.496177673339844
            ],
            [
              75.29251098632812,
              42.75628662109375
            ],
            [
              76.33248138427734,
              43.6026611328125
            ],
            [
              76.61389923095703,
              44.12431716918945
            ],
            [
              76.5029296875,
              44.25482940673828
            ],
            [
              76.55371856689453,
              44.38538360595703
            ],
            [
              76.47280883789062,
              44.38538360595703
            ],
            [
              76.52371978759766,
              44.5159797668457
            ],
            [
              76.44275665283203,
              44.5159797668457
            ],
            [
              76.49378204345703,
              44.64661407470703
            ],
            [
              76.41275024414062,
              44.64661407470703
            ],
            [
              76.43405151367188,
              44.908016204833984
            ],
            [
              76.10071563720703,
              45.300437927246094
            ],
            [
              76.15226745605469,
              45.431331634521484
            ],
            [
              75.70704650878906,
              45.95537567138672
            ],
            [
              75.543701171875,
              45.95537567138672
            ],
            [
              75.23493957519531,
              46.414546966552734
            ],
            [
              75.31684112548828,
              46.414546966552734
            ],
            [
              75.53316497802734,
              46.54585266113281
            ],
            [
              75.50687408447266,
              46.480194091796875
            ],
            [
              77.39138793945312,
              46.480194091796875
            ],
            [
              77.36439514160156,
              46.414546966552734
            ],
            [
              77.82868194580078,
              46.348915100097656
            ],
            [
              77.8016128540039,
              46.283294677734375
            ],
            [
              78.97484588623047,
              46.348915100097656
            ],
            [
              79.00244140625,
              46.414546966552734
            ],
            [
              79.46605682373047,
              46.348915100097656
            ],
            [
              79.4383316040039,
              46.283294677734375
            ],
            [
              79.8736801147461,
              46.1520881652832
            ],
            [
              79.89995574951172,
              46.02093505859375
            ],
            [
              80.7944564819336,
              45.62776184082031
            ],
            [
              80.82044982910156,
              45.496795654296875
            ],
            [
              80.98333740234375,
              45.496795654296875
            ],
            [
              81.00927734375,
              45.36587905883789
            ],
            [
              81.17204284667969,
              45.36587905883789
            ],
            [
              81.27923583984375,
              45.23500442504883
            ]
          ]
        ]
      }
    }
  ]
}