{
  "type": "FeatureCollection",
  "name": "territory-63",
  "features": [
    {
      "type": "Feature",
      "properties": {
        "Name": "Nanda Empire",
        "FromYear": -333,
        "ToYear": -327,
        "Area": 1558416.8163069047,
        "Type": "POLITY",
        "Wikipedia": "Nanda Empire",
        "Wikidata": "Q949268",
        "SeshatID": "in_nanda_dyn",
        "Components": "",
        "MemberOf": ""
      },
      "geometry": {
        "type": "Polygon",
        "coordinates": [
          [
            [
              78.34239959716797,
              30.115081787109375
            ],
            [
              78.32855987548828,
              30.050809860229492
            ],
            [
              78.95004272460938,
              29.40805435180664
            ],
            [
              79.9913101196289,
              28.958093643188477
            ],
            [
              80.30361938476562,
              28.636676788330078
            ],
            [
              80.68107604980469,
              28.636676788330078
            ],
            [
              80.95700073242188,
              28.508106231689453
            ],
            [
              81.19453430175781,
              28.186676025390625
            ],
            [
              81.88497924804688,
              27.865236282348633
            ],
            [
              82.18628692626953,
              27.865236282348633
            ],
            [
              82.52518463134766,
              27.6723690032959
            ],
            [
              83.06480407714844,
              27.736658096313477
            ],
            [
              83.85501861572266,
              27.54378890991211
            ],
            [
              84.60762786865234,
              27.54378890991211
            ],
            [
              84.74542236328125,
              27.4794979095459
            ],
            [
              84.72016143798828,
              27.35091781616211
            ],
            [
              86.09862518310547,
              27.093751907348633
            ],
            [
              86.19914245605469,
              26.836584091186523
            ],
            [
              86.42449951171875,
              26.836584091186523
            ],
            [
              86.80171966552734,
              26.450830459594727
            ],
            [
              87.11405181884766,
              26.515121459960938
            ],
            [
              87.30289459228516,
              26.32224464416504
            ],
            [
              88.39196014404297,
              26.129364013671875
            ],
            [
              89.94574737548828,
              25.615020751953125
            ],
            [
              90.10733032226562,
              25.67931365966797
            ],
            [
              90.23359680175781,
              25.55072784423828
            ],
            [
              90.80921173095703,
              25.422143936157227
            ],
            [
              90.9990005493164,
              25.229267120361328
            ],
            [
              91.22349548339844,
              25.229267120361328
            ],
            [
              91.12574768066406,
              25.100683212280273
            ],
            [
              91.26399230957031,
              25.03639030456543
            ],
            [
              91.33560180664062,
              24.586353302001953
            ],
            [
              91.41033172607422,
              24.586353302001953
            ],
            [
              91.28173828125,
              24.264904022216797
            ],
            [
              91.43108367919922,
              24.264904022216797
            ],
            [
              91.23249816894531,
              23.493436813354492
            ],
            [
              91.30706024169922,
              23.493436813354492
            ],
            [
              91.27713012695312,
              23.30057144165039
            ],
            [
              91.49080657958984,
              23.236284255981445
            ],
            [
              91.67500305175781,
              22.97913360595703
            ],
            [
              91.52603149414062,
              22.97913360595703
            ],
            [
              91.49696350097656,
              22.786272048950195
            ],
            [
              91.24492645263672,
              22.59341049194336
            ],
            [
              90.93775177001953,
              22.529123306274414
            ],
            [
              90.86321258544922,
              22.014829635620117
            ],
            [
              90.6309814453125,
              21.950544357299805
            ],
            [
              90.64935302734375,
              22.079116821289062
            ],
            [
              90.42626953125,
              22.079116821289062
            ],
            [
              90.23202514648438,
              21.7576847076416
            ],
            [
              89.89663696289062,
              22.014829635620117
            ],
            [
              89.86945343017578,
              21.821969985961914
            ],
            [
              89.71179962158203,
              21.7576847076416
            ],
            [
              89.11725616455078,
              21.7576847076416
            ],
            [
              89.09945678710938,
              21.629112243652344
            ],
            [
              88.72795104980469,
              21.629112243652344
            ],
            [
              88.71597290039062,
              22.079116821289062
            ],
            [
              88.64161682128906,
              22.079116821289062
            ],
            [
              88.51387023925781,
              21.693397521972656
            ],
            [
              88.3652572631836,
              21.693397521972656
            ],
            [
              88.34766387939453,
              21.5648250579834
            ],
            [
              88.133544921875,
              21.629112243652344
            ],
            [
              88.17765045166016,
              21.950544357299805
            ],
            [
              88.10330963134766,
              21.950544357299805
            ],
            [
              87.76203918457031,
              21.629112243652344
            ],
            [
              87.06745910644531,
              21.43625259399414
            ],
            [
              86.88469696044922,
              21.179107666015625
            ],
            [
              86.95893859863281,
              21.179107666015625
            ],
            [
              87.03089904785156,
              20.60053253173828
            ],
            [
              86.7915267944336,
              20.471960067749023
            ],
            [
              86.84036254882812,
              20.279102325439453
            ],
            [
              86.51026153564453,
              20.021955490112305
            ],
            [
              86.36206817626953,
              20.021955490112305
            ],
            [
              86.15650177001953,
              20.150527954101562
            ],
            [
              86.19831085205078,
              20.471960067749023
            ],
            [
              86.02600860595703,
              20.857677459716797
            ],
            [
              85.88597869873047,
              20.921964645385742
            ],
            [
              85.90274047851562,
              21.050535202026367
            ],
            [
              85.36753845214844,
              21.500539779663086
            ],
            [
              83.92334747314453,
              21.821969985961914
            ],
            [
              81.6517105102539,
              22.079116821289062
            ],
            [
              81.00682830810547,
              22.271976470947266
            ],
            [
              74.9750747680664,
              22.85055923461914
            ],
            [
              74.99047088623047,
              22.97913360595703
            ],
            [
              74.76702117919922,
              22.97913360595703
            ],
            [
              74.35094451904297,
              23.236284255981445
            ],
            [
              74.05286407470703,
              23.236284255981445
            ],
            [
              74.00166320800781,
              23.429147720336914
            ],
            [
              73.7936782836914,
              23.557723999023438
            ],
            [
              71.90129852294922,
              23.943456649780273
            ],
            [
              69.76001739501953,
              24.136323928833008
            ],
            [
              69.55142974853516,
              24.264904022216797
            ],
            [
              68.73001098632812,
              24.264904022216797
            ],
            [
              68.521240234375,
              24.393482208251953
            ],
            [
              67.31864166259766,
              24.329193115234375
            ],
            [
              67.14765930175781,
              24.779226303100586
            ],
            [
              66.63204956054688,
              24.843517303466797
            ],
            [
              66.67909240722656,
              25.229267120361328
            ],
            [
              66.48676300048828,
              25.48643684387207
            ],
            [
              66.270263671875,
              25.55072784423828
            ],
            [
              66.17919921875,
              25.422143936157227
            ],
            [
              65.87177276611328,
              25.357851028442383
            ],
            [
              66.29222869873047,
              26.836584091186523
            ],
            [
              66.57298278808594,
              27.222335815429688
            ],
            [
              67.41238403320312,
              27.800947189331055
            ],
            [
              68.18574523925781,
              27.92952537536621
            ],
            [
              69.34652709960938,
              28.572391510009766
            ],
            [
              69.6484375,
              28.572391510009766
            ],
            [
              69.82136535644531,
              28.700960159301758
            ],
            [
              71.47594451904297,
              29.08665657043457
            ],
            [
              72.30359649658203,
              29.472333908081055
            ],
            [
              72.6942138671875,
              29.536611557006836
            ],
            [
              73.21073913574219,
              29.857990264892578
            ],
            [
              73.43804931640625,
              29.857990264892578
            ],
            [
              74.13499450683594,
              30.307893753051758
            ],
            [
              76.09429931640625,
              30.950578689575195
            ],
            [
              76.79293823242188,
              31.014846801757812
            ],
            [
              76.90231323242188,
              30.822044372558594
            ],
            [
              77.20634460449219,
              30.822044372558594
            ],
            [
              77.57745361328125,
              30.436433792114258
            ],
            [
              77.80519104003906,
              30.436433792114258
            ],
            [
              78.34239959716797,
              30.115081787109375
            ]
          ]
        ]
      }
    }
  ]
}