{
  "type": "FeatureCollection",
  "name": "territory-633",
  "features": [
    {
      "type": "Feature",
      "properties": {
        "Name": "(Personal union of Crown of Aragon with Crown of Castile)",
        "FromYear": 1512,
        "ToYear": 1515,
        "Area": 761070.5345666978,
        "Type": "RELATION",
        "Wikipedia": "Catholic Monarchs of Spain",
        "Wikidata": "Q186851",
        "SeshatID": "es_aragon_crown;es_castile_crown",
        "Components": "Crown of Aragon;Crown of Castile",
        "MemberOf": ""
      },
      "geometry": {
        "type": "MultiPolygon",
        "coordinates": [
          [
            [
              [
                -77.70619201660156,
                8.193038940429688
              ],
              [
                -77.87236785888672,
                8.578764915466309
              ],
              [
                -78.32835388183594,
                8.900202751159668
              ],
              [
                -78.41627502441406,
                9.157352447509766
              ],
              [
                -77.98551940917969,
                9.285927772521973
              ],
              [
                -77.5141830444336,
                8.707340240478516
              ],
              [
                -77.21856689453125,
                8.643052101135254
              ],
              [
                -77.1319580078125,
                8.385902404785156
              ],
              [
                -76.8301010131836,
                8.193038940429688
              ],
              [
                -76.82059478759766,
                8.000176429748535
              ],
              [
                -77.03648376464844,
                7.935888767242432
              ],
              [
                -77.03340148925781,
                7.871601104736328
              ],
              [
                -77.25237274169922,
                7.871601104736328
              ],
              [
                -77.25858306884766,
                8.000176429748535
              ],
              [
                -77.70619201660156,
                8.193038940429688
              ]
            ]
          ],
          [
            [
              [
                -77.2748031616211,
                17.707616806030273
              ],
              [
                -77.36641693115234,
                17.836191177368164
              ],
              [
                -77.73553466796875,
                17.836191177368164
              ],
              [
                -78.07617950439453,
                18.157629013061523
              ],
              [
                -78.29776763916016,
                18.157629013061523
              ],
              [
                -78.3900146484375,
                18.286205291748047
              ],
              [
                -78.05752563476562,
                18.543354034423828
              ],
              [
                -77.01364135742188,
                18.479066848754883
              ],
              [
                -76.22962188720703,
                18.157629013061523
              ],
              [
                -76.12023162841797,
                17.90047836303711
              ],
              [
                -76.48053741455078,
                17.836191177368164
              ],
              [
                -76.55435943603516,
                17.836191177368164
              ],
              [
                -76.8585433959961,
                17.90047836303711
              ],
              [
                -77.07112121582031,
                17.836191177368164
              ],
              [
                -77.05337524414062,
                17.707616806030273
              ],
              [
                -77.2748031616211,
                17.707616806030273
              ]
            ]
          ],
          [
            [
              [
                -65.55097198486328,
                18.414779663085938
              ],
              [
                -65.51956176757812,
                18.157629013061523
              ],
              [
                -65.71776580810547,
                17.964767456054688
              ],
              [
                -66.15299987792969,
                17.90047836303711
              ],
              [
                -66.2268295288086,
                17.90047836303711
              ],
              [
                -67.1207046508789,
                17.964767456054688
              ],
              [
                -67.25861358642578,
                18.479066848754883
              ],
              [
                -66.15807342529297,
                18.543354034423828
              ],
              [
                -65.55097198486328,
                18.414779663085938
              ]
            ]
          ],
          [
            [
              [
                -69.6596450805664,
                19.314802169799805
              ],
              [
                -69.07612609863281,
                19.379087448120117
              ],
              [
                -69.12458801269531,
                19.186227798461914
              ],
              [
                -69.48600769042969,
                19.12194061279297
              ],
              [
                -68.5814208984375,
                18.993366241455078
              ],
              [
                -68.56468963623047,
                18.864791870117188
              ],
              [
                -68.24402618408203,
                18.67193031311035
              ],
              [
                -68.28504180908203,
                18.414779663085938
              ],
              [
                -68.43283081054688,
                18.414779663085938
              ],
              [
                -68.55606079101562,
                18.2219181060791
              ],
              [
                -69.09786987304688,
                18.414779663085938
              ],
              [
                -69.83680725097656,
                18.414779663085938
              ],
              [
                -69.95960235595703,
                18.2219181060791
              ],
              [
                -70.5505599975586,
                18.2219181060791
              ],
              [
                -70.56732940673828,
                18.350492477416992
              ],
              [
                -70.71510314941406,
                18.350492477416992
              ],
              [
                -70.99378204345703,
                18.2219181060791
              ],
              [
                -71.27989196777344,
                17.57904052734375
              ],
              [
                -71.59156799316406,
                17.707616806030273
              ],
              [
                -71.7071304321289,
                18.029054641723633
              ],
              [
                -72.10183715820312,
                18.2219181060791
              ],
              [
                -73.65311431884766,
                18.2219181060791
              ],
              [
                -73.70099639892578,
                18.029054641723633
              ],
              [
                -73.92253875732422,
                18.029054641723633
              ],
              [
                -74.17896270751953,
                18.286205291748047
              ],
              [
                -74.40059661865234,
                18.286205291748047
              ],
              [
                -74.4448471069336,
                18.607641220092773
              ],
              [
                -74.24089813232422,
                18.736217498779297
              ],
              [
                -73.1707534790039,
                18.479066848754883
              ],
              [
                -72.30123901367188,
                18.607641220092773
              ],
              [
                -72.71465301513672,
                18.929079055786133
              ],
              [
                -72.79470825195312,
                19.507661819458008
              ],
              [
                -73.40503692626953,
                19.6362361907959
              ],
              [
                -73.43228912353516,
                19.8290958404541
              ],
              [
                -73.22825622558594,
                19.95766830444336
              ],
              [
                -72.63556671142578,
                19.95766830444336
              ],
              [
                -72.39530944824219,
                19.8290958404541
              ],
              [
                -71.71976470947266,
                19.764808654785156
              ],
              [
                -71.67244720458984,
                19.95766830444336
              ],
              [
                -70.78340911865234,
                19.95766830444336
              ],
              [
                -70.77458190917969,
                19.893383026123047
              ],
              [
                -70.22978973388672,
                19.700523376464844
              ],
              [
                -69.8595199584961,
                19.700523376464844
              ],
              [
                -69.6596450805664,
                19.314802169799805
              ]
            ]
          ],
          [
            [
              [
                -72.67955017089844,
                18.67193031311035
              ],
              [
                -72.82740020751953,
                18.67193031311035
              ],
              [
                -72.90132904052734,
                18.67193031311035
              ],
              [
                -73.29744720458984,
                18.864791870117188
              ],
              [
                -73.31520080566406,
                18.993366241455078
              ],
              [
                -72.78861236572266,
                18.929079055786133
              ],
              [
                -72.67955017089844,
                18.67193031311035
              ]
            ]
          ],
          [
            [
              [
                -75.25780487060547,
                20.664819717407227
              ],
              [
                -75.35100555419922,
                20.793392181396484
              ],
              [
                -74.74800872802734,
                20.72910499572754
              ],
              [
                -74.32099914550781,
                20.343387603759766
              ],
              [
                -74.09859466552734,
                20.343387603759766
              ],
              [
                -74.1357192993164,
                20.08624267578125
              ],
              [
                -74.93224334716797,
                19.95766830444336
              ],
              [
                -74.92295837402344,
                19.893383026123047
              ],
              [
                -75.35810852050781,
                19.8290958404541
              ],
              [
                -75.31201171875,
                20.021955490112305
              ],
              [
                -75.60968017578125,
                20.53624725341797
              ],
              [
                -75.25780487060547,
                20.664819717407227
              ]
            ]
          ],
          [
            [
              [
                -18.057466506958008,
                27.6723690032959
              ],
              [
                -17.992435455322266,
                27.800947189331055
              ],
              [
                -17.997596740722656,
                27.865236282348633
              ],
              [
                -17.846942901611328,
                27.865236282348633
              ],
              [
                -17.90181541442871,
                27.608078002929688
              ],
              [
                -18.057466506958008,
                27.6723690032959
              ]
            ]
          ],
          [
            [
              [
                -15.304783821105957,
                28.12238883972168
              ],
              [
                -15.356483459472656,
                27.800947189331055
              ],
              [
                -15.431796073913574,
                27.800947189331055
              ],
              [
                -15.728307723999023,
                27.736658096313477
              ],
              [
                -15.82758617401123,
                28.058101654052734
              ],
              [
                -15.761932373046875,
                28.186676025390625
              ],
              [
                -15.304783821105957,
                28.12238883972168
              ]
            ]
          ],
          [
            [
              [
                -17.17910385131836,
                27.993812561035156
              ],
              [
                -17.254457473754883,
                27.993812561035156
              ],
              [
                -17.345203399658203,
                28.186676025390625
              ],
              [
                -17.124155044555664,
                28.25096321105957
              ],
              [
                -17.033451080322266,
                28.058101654052734
              ],
              [
                -17.17910385131836,
                27.993812561035156
              ]
            ]
          ],
          [
            [
              [
                -16.355152130126953,
                28.058101654052734
              ],
              [
                -16.64666748046875,
                27.92952537536621
              ],
              [
                -16.908185958862305,
                28.379535675048828
              ],
              [
                -16.390287399291992,
                28.508106231689453
              ],
              [
                -16.39539337158203,
                28.572391510009766
              ],
              [
                -16.09348487854004,
                28.572391510009766
              ],
              [
                -16.083406448364258,
                28.44382095336914
              ],
              [
                -16.365081787109375,
                28.186676025390625
              ],
              [
                -16.355152130126953,
                28.058101654052734
              ]
            ]
          ],
          [
            [
              [
                -14.117085456848145,
                28.379535675048828
              ],
              [
                -14.065006256103516,
                28.700960159301758
              ],
              [
                -13.767658233642578,
                28.765243530273438
              ],
              [
                -13.762985229492188,
                28.700960159301758
              ],
              [
                -13.80622386932373,
                28.25096321105957
              ],
              [
                -14.3202543258667,
                28.058101654052734
              ],
              [
                -14.26330280303955,
                28.315250396728516
              ],
              [
                -14.117085456848145,
                28.379535675048828
              ]
            ]
          ],
          [
            [
              [
                -17.9858341217041,
                28.636676788330078
              ],
              [
                -18.002243041992188,
                28.829526901245117
              ],
              [
                -17.856664657592773,
                28.893810272216797
              ],
              [
                -17.781116485595703,
                28.893810272216797
              ],
              [
                -17.705568313598633,
                28.893810272216797
              ],
              [
                -17.673158645629883,
                28.508106231689453
              ],
              [
                -17.899547576904297,
                28.508106231689453
              ],
              [
                -17.9858341217041,
                28.636676788330078
              ]
            ]
          ],
          [
            [
              [
                -13.847886085510254,
                28.829526901245117
              ],
              [
                -13.857359886169434,
                28.958093643188477
              ],
              [
                -13.862126350402832,
                29.022375106811523
              ],
              [
                -13.649682998657227,
                29.21521759033203
              ],
              [
                -13.422821044921875,
                29.21521759033203
              ],
              [
                -13.474872589111328,
                28.893810272216797
              ],
              [
                -13.847886085510254,
                28.829526901245117
              ]
            ]
          ],
          [
            [
              [
                13.607403755187988,
                32.878753662109375
              ],
              [
                13.605419158935547,
                32.685909271240234
              ],
              [
                13.298805236816406,
                32.62162780761719
              ],
              [
                13.22516918182373,
                32.94303894042969
              ],
              [
                13.301749229431152,
                32.94303894042969
              ],
              [
                13.301156997680664,
                32.878753662109375
              ],
              [
                13.377718925476074,
                32.878753662109375
              ],
              [
                13.454280853271484,
                32.878753662109375
              ],
              [
                13.453653335571289,
                32.81447219848633
              ],
              [
                13.530197143554688,
                32.81447219848633
              ],
              [
                13.530842781066895,
                32.878753662109375
              ],
              [
                13.607403755187988,
                32.878753662109375
              ]
            ]
          ],
          [
            [
              [
                -2.830641508102417,
                35.32271194458008
              ],
              [
                -2.8270103931427,
                35.258358001708984
              ],
              [
                -2.981565713882446,
                35.258358001708984
              ],
              [
                -2.992615222930908,
                35.45143127441406
              ],
              [
                -2.837937116622925,
                35.45143127441406
              ],
              [
                -2.830641508102417,
                35.32271194458008
              ]
            ]
          ],
          [
            [
              [
                -0.907609820365906,
                35.51579284667969
              ],
              [
                -0.913937389850616,
                35.644527435302734
              ],
              [
                -0.917115688323975,
                35.708900451660156
              ],
              [
                -0.83969384431839,
                35.708900451660156
              ],
              [
                -0.76227205991745,
                35.708900451660156
              ],
              [
                -0.684850215911865,
                35.708900451660156
              ],
              [
                -0.607428431510925,
                35.708900451660156
              ],
              [
                -0.530006587505341,
                35.708900451660156
              ],
              [
                -0.446486860513687,
                35.58015823364258
              ],
              [
                -0.672443270683289,
                35.45143127441406
              ],
              [
                -0.907609820365906,
                35.51579284667969
              ]
            ]
          ],
          [
            [
              [
                14.33681869506836,
                35.837650299072266
              ],
              [
                14.339592933654785,
                36.03080368041992
              ],
              [
                14.417119026184082,
                36.03080368041992
              ],
              [
                14.571182250976562,
                35.9664192199707
              ],
              [
                14.568227767944336,
                35.77327346801758
              ],
              [
                14.33681869506836,
                35.837650299072266
              ]
            ]
          ],
          [
            [
              [
                1.998149991035461,
                36.417205810546875
              ],
              [
                1.912976264953613,
                36.61045455932617
              ],
              [
                1.990695595741272,
                36.61045455932617
              ],
              [
                1.993187785148621,
                36.5460319519043
              ],
              [
                2.454642057418823,
                36.67487716674805
              ],
              [
                2.53238320350647,
                36.67487716674805
              ],
              [
                2.386422395706177,
                36.417205810546875
              ],
              [
                1.998149991035461,
                36.417205810546875
              ]
            ]
          ],
          [
            [
              [
                4.86630916595459,
                36.61045455932617
              ],
              [
                4.55364990234375,
                36.67487716674805
              ],
              [
                4.551862239837646,
                36.73930740356445
              ],
              [
                4.394500255584717,
                36.80373764038086
              ],
              [
                4.390811920166016,
                36.932613372802734
              ],
              [
                5.016777992248535,
                36.80373764038086
              ],
              [
                5.018439292907715,
                36.73930740356445
              ],
              [
                4.86630916595459,
                36.61045455932617
              ]
            ]
          ],
          [
            [
              [
                1.430543661117554,
                38.80344009399414
              ],
              [
                1.273545265197754,
                38.80344009399414
              ],
              [
                1.183109045028687,
                39.06184005737305
              ],
              [
                1.258725643157959,
                39.1264533996582
              ],
              [
                1.337347388267517,
                39.1264533996582
              ],
              [
                1.651834011077881,
                39.1264533996582
              ],
              [
                1.657540321350098,
                38.997230529785156
              ],
              [
                1.430543661117554,
                38.80344009399414
              ]
            ]
          ],
          [
            [
              [
                3.295835733413696,
                39.320335388183594
              ],
              [
                2.82365870475769,
                39.320335388183594
              ],
              [
                2.658556938171387,
                39.51427459716797
              ],
              [
                2.346148252487183,
                39.449623107910156
              ],
              [
                2.338095426559448,
                39.64360046386719
              ],
              [
                2.877186298370361,
                39.9670295715332
              ],
              [
                2.956136703491211,
                39.9670295715332
              ],
              [
                3.19298791885376,
                39.9670295715332
              ],
              [
                3.197866439819336,
                39.8376350402832
              ],
              [
                3.515789270401001,
                39.77294921875
              ],
              [
                3.295835733413696,
                39.320335388183594
              ]
            ]
          ],
          [
            [
              [
                16.732860565185547,
                41.19768524169922
              ],
              [
                17.436086654663086,
                40.873565673828125
              ],
              [
                17.510658264160156,
                40.74397277832031
              ],
              [
                17.981229782104492,
                40.614410400390625
              ],
              [
                18.364234924316406,
                40.29063034057617
              ],
              [
                18.435537338256836,
                40.0964469909668
              ],
              [
                18.356534957885742,
                40.0964469909668
              ],
              [
                18.34894371032715,
                39.90232849121094
              ],
              [
                18.11216926574707,
                39.90232849121094
              ],
              [
                17.813072204589844,
                40.355369567871094
              ],
              [
                17.41753578186035,
                40.355369567871094
              ],
              [
                17.345230102539062,
                40.54964065551758
              ],
              [
                17.02848243713379,
                40.54964065551758
              ],
              [
                16.867990493774414,
                40.4848747253418
              ],
              [
                16.945016860961914,
                40.42012023925781
              ],
              [
                16.861696243286133,
                40.29063034057617
              ],
              [
                16.624452590942383,
                40.29063034057617
              ],
              [
                16.697484970092773,
                40.0964469909668
              ],
              [
                16.45665168762207,
                39.9670295715332
              ],
              [
                16.44725799560547,
                39.64360046386719
              ],
              [
                16.916194915771484,
                39.51427459716797
              ],
              [
                17.069679260253906,
                39.38497543334961
              ],
              [
                17.138301849365234,
                39.06184005737305
              ],
              [
                16.502395629882812,
                38.80344009399414
              ],
              [
                16.491945266723633,
                38.416015625
              ],
              [
                15.932764053344727,
                37.96426773071289
              ],
              [
                15.698192596435547,
                37.96426773071289
              ],
              [
                15.62426471710205,
                38.157840728759766
              ],
              [
                15.389483451843262,
                38.157840728759766
              ],
              [
                15.066489219665527,
                37.641746520996094
              ],
              [
                15.059245109558105,
                37.254878997802734
              ],
              [
                15.213889122009277,
                37.1904182434082
              ],
              [
                15.049844741821289,
                36.73930740356445
              ],
              [
                14.661029815673828,
                36.73930740356445
              ],
              [
                14.27791690826416,
                37.12596130371094
              ],
              [
                13.578389167785645,
                37.254878997802734
              ],
              [
                13.192005157470703,
                37.5772590637207
              ],
              [
                12.490468978881836,
                37.706241607666016
              ],
              [
                12.49189567565918,
                37.89975357055664
              ],
              [
                12.649824142456055,
                38.09331130981445
              ],
              [
                13.040358543395996,
                38.028785705566406
              ],
              [
                13.119925498962402,
                38.157840728759766
              ],
              [
                13.354706764221191,
                38.157840728759766
              ],
              [
                13.665236473083496,
                37.96426773071289
              ],
              [
                14.604636192321777,
                38.028785705566406
              ],
              [
                14.763398170471191,
                38.157840728759766
              ],
              [
                15.862062454223633,
                38.28691864013672
              ],
              [
                15.949724197387695,
                38.67427444458008
              ],
              [
                16.265209197998047,
                38.738853454589844
              ],
              [
                15.898874282836914,
                39.77294921875
              ],
              [
                15.665508270263672,
                39.90232849121094
              ],
              [
                15.747773170471191,
                40.031734466552734
              ],
              [
                15.431868553161621,
                40.031734466552734
              ],
              [
                15.199469566345215,
                40.225894927978516
              ],
              [
                15.041359901428223,
                40.225894927978516
              ],
              [
                14.893351554870605,
                40.6791877746582
              ],
              [
                14.417906761169434,
                40.6791877746582
              ],
              [
                14.421854972839355,
                40.873565673828125
              ],
              [
                14.104567527770996,
                40.873565673828125
              ],
              [
                13.950616836547852,
                41.132843017578125
              ],
              [
                13.791753768920898,
                41.132843017578125
              ],
              [
                13.792884826660156,
                41.19768524169922
              ],
              [
                14.03740406036377,
                41.521995544433594
              ],
              [
                13.96146297454834,
                41.71668243408203
              ],
              [
                13.804443359375,
                41.84651184082031
              ],
              [
                13.40574836730957,
                41.84651184082031
              ],
              [
                13.328027725219727,
                41.97637939453125
              ],
              [
                13.00974178314209,
                42.041324615478516
              ],
              [
                12.856051445007324,
                42.496177673339844
              ],
              [
                13.098980903625488,
                42.691246032714844
              ],
              [
                13.339327812194824,
                42.691246032714844
              ],
              [
                13.583069801330566,
                42.88639831542969
              ],
              [
                13.90514087677002,
                42.95146560668945
              ],
              [
                13.98537540435791,
                42.95146560668945
              ],
              [
                13.901384353637695,
                42.75628662109375
              ],
              [
                14.370945930480957,
                42.236209869384766
              ],
              [
                14.530768394470215,
                42.236209869384766
              ],
              [
                14.607714653015137,
                42.10627746582031
              ],
              [
                14.768959999084473,
                42.17123794555664
              ],
              [
                14.765887260437012,
                42.041324615478516
              ],
              [
                14.9239501953125,
                41.97637939453125
              ],
              [
                15.165011405944824,
                42.041324615478516
              ],
              [
                15.241438865661621,
                41.911441802978516
              ],
              [
                15.640276908874512,
                41.911441802978516
              ],
              [
                15.720044136047363,
                41.911441802978516
              ],
              [
                16.11888313293457,
                41.911441802978516
              ],
              [
                16.114879608154297,
                41.781593322753906
              ],
              [
                15.87384033203125,
                41.71668243408203
              ],
              [
                15.943941116333008,
                41.39224624633789
              ],
              [
                16.732860565185547,
                41.19768524169922
              ]
            ]
          ],
          [
            [
              [
                -1.6829913854599,
                43.276947021484375
              ],
              [
                -1.522224068641663,
                43.276947021484375
              ],
              [
                -1.441840410232544,
                43.276947021484375
              ],
              [
                -1.428432941436768,
                43.08163070678711
              ],
              [
                -1.026964664459229,
                43.08163070678711
              ],
              [
                -0.938149929046631,
                42.95146560668945
              ],
              [
                -0.36845201253891,
                42.82133865356445
              ],
              [
                -0.288277387619019,
                42.82133865356445
              ],
              [
                0.040142297744751,
                42.691246032714844
              ],
              [
                0.196577131748199,
                42.75628662109375
              ],
              [
                0.520835757255554,
                42.691246032714844
              ],
              [
                0.673818349838257,
                42.82133865356445
              ],
              [
                0.994516909122467,
                42.82133865356445
              ],
              [
                1.074691534042358,
                42.82133865356445
              ],
              [
                1.485537886619568,
                42.62621307373047
              ],
              [
                1.488844156265259,
                42.56119155883789
              ],
              [
                1.575427651405334,
                42.43117141723633
              ],
              [
                1.80907130241394,
                42.56119155883789
              ],
              [
                2.517835140228271,
                42.82133865356445
              ],
              [
                2.749729871749878,
                43.016544342041016
              ],
              [
                2.990521192550659,
                43.016544342041016
              ],
              [
                2.993316411972046,
                42.95146560668945
              ],
              [
                3.009923458099365,
                42.56119155883789
              ],
              [
                3.178062200546265,
                42.36617660522461
              ],
              [
                3.116764783859253,
                41.911441802978516
              ],
              [
                2.572504997253418,
                41.586883544921875
              ],
              [
                2.333626985549927,
                41.586883544921875
              ],
              [
                2.106574535369873,
                41.32738494873047
              ],
              [
                1.238392949104309,
                41.19768524169922
              ],
              [
                0.695793092250824,
                40.93837356567383
              ],
              [
                0.709256291389465,
                40.6791877746582
              ],
              [
                0.474957317113876,
                40.614410400390625
              ],
              [
                0.247769102454185,
                40.42012023925781
              ],
              [
                0.182543575763702,
                40.16116714477539
              ],
              [
                -0.201878547668457,
                39.9670295715332
              ],
              [
                -0.345421016216278,
                39.70827102661133
              ],
              [
                -0.313707679510117,
                39.1264533996582
              ],
              [
                0.099359586834908,
                38.738853454589844
              ],
              [
                -0.357796877622604,
                38.48057174682617
              ],
              [
                -0.436175793409348,
                38.48057174682617
              ],
              [
                -0.432753294706345,
                38.416015625
              ],
              [
                -0.660861134529114,
                38.28691864013672
              ],
              [
                -0.803495347499847,
                38.028785705566406
              ],
              [
                -0.704753637313843,
                37.641746520996094
              ],
              [
                -1.708719491958618,
                37.44829177856445
              ],
              [
                -1.623468399047852,
                37.3193473815918
              ],
              [
                -1.857354998588562,
                37.3193473815918
              ],
              [
                -2.061630010604858,
                36.80373764038086
              ],
              [
                -2.532132625579834,
                36.8681755065918
              ],
              [
                -2.680080890655518,
                36.73930740356445
              ],
              [
                -4.468626022338867,
                36.73930740356445
              ],
              [
                -4.688807487487793,
                36.5460319519043
              ],
              [
                -5.22819709777832,
                36.48161697387695
              ],
              [
                -5.287947177886963,
                36.2239875793457
              ],
              [
                -5.51620626449585,
                36.15959167480469
              ],
              [
                -5.584750652313232,
                36.03080368041992
              ],
              [
                -5.831079006195068,
                36.2239875793457
              ],
              [
                -6.063849925994873,
                36.2239875793457
              ],
              [
                -6.432291984558105,
                36.9970588684082
              ],
              [
                -6.587993621826172,
                36.9970588684082
              ],
              [
                -6.84182596206665,
                37.254878997802734
              ],
              [
                -7.309464931488037,
                37.254878997802734
              ],
              [
                -7.387404441833496,
                37.254878997802734
              ],
              [
                -7.502705097198486,
                37.706241607666016
              ],
              [
                -7.27909517288208,
                37.835243225097656
              ],
              [
                -7.14418888092041,
                38.09331130981445
              ],
              [
                -6.987714290618896,
                38.09331130981445
              ],
              [
                -6.998411178588867,
                38.22237777709961
              ],
              [
                -7.244168281555176,
                38.351463317871094
              ],
              [
                -7.271727085113525,
                38.67427444458008
              ],
              [
                -7.120340347290039,
                38.738853454589844
              ],
              [
                -6.985427379608154,
                38.997230529785156
              ],
              [
                -7.255166053771973,
                39.38497543334961
              ],
              [
                -7.418391227722168,
                39.449623107910156
              ],
              [
                -7.435848712921143,
                39.64360046386719
              ],
              [
                -6.895466804504395,
                39.77294921875
              ],
              [
                -6.839452266693115,
                40.031734466552734
              ],
              [
                -7.00321626663208,
                40.0964469909668
              ],
              [
                -7.014894485473633,
                40.225894927978516
              ],
              [
                -6.868430137634277,
                40.355369567871094
              ],
              [
                -6.927728176116943,
                41.00318908691406
              ],
              [
                -6.254164218902588,
                41.45711898803711
              ],
              [
                -6.271912097930908,
                41.65177917480469
              ],
              [
                -6.351566314697266,
                41.65177917480469
              ],
              [
                -6.700808048248291,
                41.97637939453125
              ],
              [
                -8.11717414855957,
                41.781593322753906
              ],
              [
                -8.216935157775879,
                41.97637939453125
              ],
              [
                -8.137139320373535,
                41.97637939453125
              ],
              [
                -8.150541305541992,
                42.10627746582031
              ],
              [
                -8.469955444335938,
                42.10627746582031
              ],
              [
                -8.928141593933105,
                41.911441802978516
              ],
              [
                -8.935100555419922,
                41.97637939453125
              ],
              [
                -8.956093788146973,
                42.17123794555664
              ],
              [
                -8.65738296508789,
                42.36617660522461
              ],
              [
                -9.078654289245605,
                42.56119155883789
              ],
              [
                -9.30460262298584,
                43.146724700927734
              ],
              [
                -8.851689338684082,
                43.407203674316406
              ],
              [
                -8.369025230407715,
                43.407203674316406
              ],
              [
                -8.39044189453125,
                43.6026611328125
              ],
              [
                -8.243616104125977,
                43.73301696777344
              ],
              [
                -7.276463031768799,
                43.73301696777344
              ],
              [
                -7.343485832214355,
                43.6026611328125
              ],
              [
                -7.175715446472168,
                43.53750228881836
              ],
              [
                -5.726631164550781,
                43.53750228881836
              ],
              [
                -5.646126270294189,
                43.53750228881836
              ],
              [
                -4.990375518798828,
                43.407203674316406
              ],
              [
                -3.467212915420532,
                43.472347259521484
              ],
              [
                -3.295851230621338,
                43.342071533203125
              ],
              [
                -1.772614240646362,
                43.407203674316406
              ],
              [
                -1.6829913854599,
                43.276947021484375
              ]
            ]
          ],
          [
            [
              [
                3.741101741790771,
                40.0964469909668
              ],
              [
                3.820104122161865,
                40.0964469909668
              ],
              [
                4.215116024017334,
                40.0964469909668
              ],
              [
                4.302449703216553,
                39.8376350402832
              ],
              [
                3.826826572418213,
                39.90232849121094
              ],
              [
                3.741101741790771,
                40.0964469909668
              ]
            ]
          ],
          [
            [
              [
                9.665326118469238,
                40.29063034057617
              ],
              [
                9.74737548828125,
                39.64360046386719
              ],
              [
                9.668553352355957,
                39.64360046386719
              ],
              [
                9.592622756958008,
                39.1264533996582
              ],
              [
                9.120378494262695,
                39.19107437133789
              ],
              [
                8.96590518951416,
                38.8680305480957
              ],
              [
                8.730334281921387,
                38.8680305480957
              ],
              [
                8.336196899414062,
                38.997230529785156
              ],
              [
                8.411824226379395,
                39.25570297241211
              ],
              [
                8.333152770996094,
                39.25570297241211
              ],
              [
                8.330102920532227,
                39.51427459716797
              ],
              [
                8.40887451171875,
                39.51427459716797
              ],
              [
                8.48337459564209,
                39.90232849121094
              ],
              [
                8.324762344360352,
                39.9670295715332
              ],
              [
                8.400031089782715,
                40.29063034057617
              ],
              [
                8.32094955444336,
                40.29063034057617
              ],
              [
                8.318660736083984,
                40.4848747253418
              ],
              [
                8.159523010253906,
                40.54964065551758
              ],
              [
                8.154606819152832,
                40.93837356567383
              ],
              [
                8.552037239074707,
                40.873565673828125
              ],
              [
                9.024832725524902,
                41.26253128051758
              ],
              [
                9.10431957244873,
                41.26253128051758
              ],
              [
                9.50210952758789,
                41.19768524169922
              ],
              [
                9.821690559387207,
                40.74397277832031
              ],
              [
                9.823226928710938,
                40.355369567871094
              ],
              [
                9.665326118469238,
                40.29063034057617
              ]
            ]
          ]
        ]
      }
    }
  ]
}