{
  "type": "FeatureCollection",
  "name": "territory-636",
  "features": [
    {
      "type": "Feature",
      "properties": {
        "Name": "Berar Sultanate",
        "FromYear": 1492,
        "ToYear": 1518,
        "Area": 80056.19047311235,
        "Type": "POLITY",
        "Wikipedia": "Berar Sultanate",
        "Wikidata": "Q818666",
        "SeshatID": "",
        "Components": "",
        "MemberOf": ""
      },
      "geometry": {
        "type": "Polygon",
        "coordinates": [
          [
            [
              78.79071807861328,
              20.53624725341797
            ],
            [
              78.78316497802734,
              20.471960067749023
            ],
            [
              78.84976196289062,
              20.40767478942871
            ],
            [
              78.7378921508789,
              20.08624267578125
            ],
            [
              79.54537963867188,
              20.021955490112305
            ],
            [
              79.51481628417969,
              19.764808654785156
            ],
            [
              79.79570770263672,
              19.6362361907959
            ],
            [
              80.31402587890625,
              19.6362361907959
            ],
            [
              80.47761535644531,
              19.764808654785156
            ],
            [
              80.69203186035156,
              19.700523376464844
            ],
            [
              80.36927032470703,
              18.864791870117188
            ],
            [
              80.36156463623047,
              18.800504684448242
            ],
            [
              79.99952697753906,
              18.864791870117188
            ],
            [
              79.80831146240234,
              19.12194061279297
            ],
            [
              79.30567932128906,
              19.25051498413086
            ],
            [
              79.24691009521484,
              19.379087448120117
            ],
            [
              77.677734375,
              19.25051498413086
            ],
            [
              77.24854278564453,
              19.379087448120117
            ],
            [
              77.08575439453125,
              19.25051498413086
            ],
            [
              76.86376190185547,
              19.25051498413086
            ],
            [
              76.70779418945312,
              19.8290958404541
            ],
            [
              76.36660766601562,
              20.08624267578125
            ],
            [
              76.38117980957031,
              20.214815139770508
            ],
            [
              76.18060302734375,
              20.40767478942871
            ],
            [
              76.03231048583984,
              20.40767478942871
            ],
            [
              75.6976547241211,
              20.72910499572754
            ],
            [
              75.70487976074219,
              20.793392181396484
            ],
            [
              75.95652770996094,
              21.050535202026367
            ],
            [
              76.50554656982422,
              21.307680130004883
            ],
            [
              76.69121551513672,
              21.629112243652344
            ],
            [
              77.74663543701172,
              21.7576847076416
            ],
            [
              78.18487548828125,
              21.693397521972656
            ],
            [
              78.52577209472656,
              21.43625259399414
            ],
            [
              78.70286560058594,
              21.050535202026367
            ],
            [
              78.68013763427734,
              20.857677459716797
            ],
            [
              78.8800048828125,
              20.664819717407227
            ],
            [
              78.79071807861328,
              20.53624725341797
            ]
          ]
        ]
      }
    }
  ]
}