{
  "type": "FeatureCollection",
  "name": "territory-638",
  "features": [
    {
      "type": "Feature",
      "properties": {
        "Name": "(Personal union of Kingdom of Bohemia with Kingdom of Hungary)",
        "FromYear": 1502,
        "ToYear": 1515,
        "Area": 466184.39517853095,
        "Type": "RELATION",
        "Wikipedia": "Vladislaus II of Hungary",
        "Wikidata": "Q155599",
        "SeshatID": "cz_bohemian_k_2;hu_later_dyn",
        "Components": "Kingdom of Bohemia;Kingdom of Hungary;(Kingdom of Bohemia)",
        "MemberOf": ""
      },
      "geometry": {
        "type": "MultiPolygon",
        "coordinates": [
          [
            [
              [
                20.703824996948242,
                49.2500114440918
              ],
              [
                20.71288299560547,
                49.38258361816406
              ],
              [
                21.79827117919922,
                49.38258361816406
              ],
              [
                22.5230712890625,
                49.051273345947266
              ],
              [
                22.77837371826172,
                49.11750411987305
              ],
              [
                22.928722381591797,
                48.91886520385742
              ],
              [
                23.666343688964844,
                48.786521911621094
              ],
              [
                24.052976608276367,
                48.455936431884766
              ],
              [
                24.378963470458984,
                48.38986587524414
              ],
              [
                24.367206573486328,
                48.257774353027344
              ],
              [
                24.686708450317383,
                48.1257438659668
              ],
              [
                24.586227416992188,
                47.92780685424805
              ],
              [
                24.90500259399414,
                47.79592514038086
              ],
              [
                24.881271362304688,
                47.53233337402344
              ],
              [
                25.03432846069336,
                47.4006233215332
              ],
              [
                25.016605377197266,
                47.20316696166992
              ],
              [
                25.668907165527344,
                47.13737487792969
              ],
              [
                25.72661018371582,
                46.87434005737305
              ],
              [
                25.966814041137695,
                46.808616638183594
              ],
              [
                25.942142486572266,
                46.54585266113281
              ],
              [
                26.477930068969727,
                46.1520881652832
              ],
              [
                26.44038200378418,
                45.75876998901367
              ],
              [
                26.10191535949707,
                45.62776184082031
              ],
              [
                25.93889808654785,
                45.62776184082031
              ],
              [
                25.84545135498047,
                45.496795654296875
              ],
              [
                25.438228607177734,
                45.496795654296875
              ],
              [
                25.34526824951172,
                45.36587905883789
              ],
              [
                25.042299270629883,
                45.62776184082031
              ],
              [
                23.483562469482422,
                45.496795654296875
              ],
              [
                23.47352409362793,
                45.36587905883789
              ],
              [
                23.138248443603516,
                45.23500442504883
              ],
              [
                22.650352478027344,
                45.23500442504883
              ],
              [
                22.531999588012695,
                44.71194839477539
              ],
              [
                22.275287628173828,
                44.5159797668457
              ],
              [
                21.951416015625,
                44.5159797668457
              ],
              [
                21.879146575927734,
                44.64661407470703
              ],
              [
                21.40547752380371,
                44.842647552490234
              ],
              [
                21.080976486206055,
                44.842647552490234
              ],
              [
                20.829694747924805,
                44.71194839477539
              ],
              [
                20.2659912109375,
                44.77729415893555
              ],
              [
                19.92363166809082,
                44.45067596435547
              ],
              [
                19.0333309173584,
                44.45067596435547
              ],
              [
                18.72208023071289,
                44.71194839477539
              ],
              [
                17.765867233276367,
                45.10417556762695
              ],
              [
                16.544801712036133,
                45.03877639770508
              ],
              [
                16.294586181640625,
                44.842647552490234
              ],
              [
                16.285852432250977,
                44.58129119873047
              ],
              [
                16.52429962158203,
                44.45067596435547
              ],
              [
                16.51975440979004,
                44.32010269165039
              ],
              [
                16.27495574951172,
                44.25482940673828
              ],
              [
                16.26409912109375,
                43.92862319946289
              ],
              [
                15.70318603515625,
                44.05907440185547
              ],
              [
                15.547369003295898,
                44.25482940673828
              ],
              [
                15.146636962890625,
                44.38538360595703
              ],
              [
                15.148378372192383,
                44.45067596435547
              ],
              [
                14.908865928649902,
                44.58129119873047
              ],
              [
                14.91874885559082,
                44.973392486572266
              ],
              [
                14.75637149810791,
                44.973392486572266
              ],
              [
                14.759533882141113,
                45.10417556762695
              ],
              [
                14.59854507446289,
                45.169586181640625
              ],
              [
                14.603090286254883,
                45.36587905883789
              ],
              [
                14.358949661254883,
                45.36587905883789
              ],
              [
                14.277569770812988,
                45.36587905883789
              ],
              [
                14.44612979888916,
                45.62776184082031
              ],
              [
                15.339118957519531,
                45.496795654296875
              ],
              [
                15.264768600463867,
                45.75876998901367
              ],
              [
                15.678460121154785,
                45.95537567138672
              ],
              [
                15.604452133178711,
                46.21768569946289
              ],
              [
                16.01764488220215,
                46.348915100097656
              ],
              [
                15.864084243774414,
                46.677207946777344
              ],
              [
                16.032390594482422,
                46.808616638183594
              ],
              [
                16.138551712036133,
                47.53233337402344
              ],
              [
                16.303508758544922,
                47.53233337402344
              ],
              [
                16.3150634765625,
                47.86185836791992
              ],
              [
                16.48518943786621,
                47.993770599365234
              ],
              [
                16.984167098999023,
                48.059749603271484
              ],
              [
                16.911911010742188,
                48.323814392089844
              ],
              [
                16.829010009765625,
                48.323814392089844
              ],
              [
                16.92527961730957,
                48.654239654541016
              ],
              [
                16.84486961364746,
                48.72037124633789
              ],
              [
                16.179914474487305,
                48.72037124633789
              ],
              [
                15.68774127960205,
                48.91886520385742
              ],
              [
                14.940543174743652,
                48.98506164550781
              ],
              [
                14.850005149841309,
                48.72037124633789
              ],
              [
                14.597285270690918,
                48.5881233215332
              ],
              [
                14.100465774536133,
                48.654239654541016
              ],
              [
                13.606999397277832,
                48.91886520385742
              ],
              [
                13.52376937866211,
                48.91886520385742
              ],
              [
                13.525009155273438,
                48.98506164550781
              ],
              [
                13.441741943359375,
                48.98506164550781
              ],
              [
                13.358475685119629,
                48.98506164550781
              ],
              [
                13.02955150604248,
                49.2500114440918
              ],
              [
                12.532414436340332,
                49.51522445678711
              ],
              [
                12.534139633178711,
                49.64793395996094
              ],
              [
                12.36764907836914,
                49.71431350708008
              ],
              [
                12.370920181274414,
                49.98000717163086
              ],
              [
                12.12159538269043,
                50.17946243286133
              ],
              [
                12.12234115600586,
                50.2459831237793
              ],
              [
                12.290331840515137,
                50.2459831237793
              ],
              [
                12.376081466674805,
                50.37908172607422
              ],
              [
                12.796454429626465,
                50.37908172607422
              ],
              [
                13.052336692810059,
                50.578861236572266
              ],
              [
                14.153997421264648,
                50.84549331665039
              ],
              [
                14.155805587768555,
                50.912200927734375
              ],
              [
                14.326505661010742,
                50.97892379760742
              ],
              [
                14.334224700927734,
                51.24601745605469
              ],
              [
                14.336182594299316,
                51.31283950805664
              ],
              [
                14.251534461975098,
                51.31283950805664
              ],
              [
                14.253460884094238,
                51.37968063354492
              ],
              [
                14.25539779663086,
                51.44654083251953
              ],
              [
                14.257346153259277,
                51.51342010498047
              ],
              [
                14.259305000305176,
                51.580322265625
              ],
              [
                14.263254165649414,
                51.71418380737305
              ],
              [
                14.097269058227539,
                51.84812545776367
              ],
              [
                13.757316589355469,
                51.84812545776367
              ],
              [
                13.590681076049805,
                51.98215103149414
              ],
              [
                13.505606651306152,
                51.98215103149414
              ],
              [
                13.507246971130371,
                52.0491943359375
              ],
              [
                13.422128677368164,
                52.0491943359375
              ],
              [
                13.425350189208984,
                52.18334197998047
              ],
              [
                13.940366744995117,
                52.31757736206055
              ],
              [
                14.360513687133789,
                52.11625671386719
              ],
              [
                14.615998268127441,
                52.11625671386719
              ],
              [
                14.779444694519043,
                51.91512680053711
              ],
              [
                14.869136810302734,
                52.0491943359375
              ],
              [
                15.039372444152832,
                52.0491943359375
              ],
              [
                15.131959915161133,
                52.250450134277344
              ],
              [
                15.470279693603516,
                52.18334197998047
              ],
              [
                15.646231651306152,
                52.31757736206055
              ],
              [
                15.813953399658203,
                52.250450134277344
              ],
              [
                15.80826187133789,
                52.11625671386719
              ],
              [
                16.136985778808594,
                51.84812545776367
              ],
              [
                16.131103515625,
                51.71418380737305
              ],
              [
                16.55561637878418,
                51.71418380737305
              ],
              [
                16.718996047973633,
                51.580322265625
              ],
              [
                16.980127334594727,
                51.71418380737305
              ],
              [
                17.31973648071289,
                51.71418380737305
              ],
              [
                17.549257278442383,
                51.24601745605469
              ],
              [
                17.972288131713867,
                51.24601745605469
              ],
              [
                18.049345016479492,
                51.112430572509766
              ],
              [
                18.709320068359375,
                50.84549331665039
              ],
              [
                18.70132827758789,
                50.71213912963867
              ],
              [
                19.030193328857422,
                50.578861236572266
              ],
              [
                19.022031784057617,
                50.445655822753906
              ],
              [
                19.18613052368164,
                50.37908172607422
              ],
              [
                19.17385482788086,
                50.17946243286133
              ],
              [
                19.089900970458984,
                50.17946243286133
              ],
              [
                19.085887908935547,
                50.11296081542969
              ],
              [
                19.081897735595703,
                50.04647445678711
              ],
              [
                19.165773391723633,
                50.04647445678711
              ],
              [
                19.23756217956543,
                49.84712600708008
              ],
              [
                18.88353729248047,
                49.51522445678711
              ],
              [
                19.13038444519043,
                49.44889450073242
              ],
              [
                19.472537994384766,
                49.58156967163086
              ],
              [
                19.865541458129883,
                49.18375015258789
              ],
              [
                20.21193504333496,
                49.38258361816406
              ],
              [
                20.545900344848633,
                49.38258361816406
              ],
              [
                20.453577041625977,
                49.2500114440918
              ],
              [
                20.5369930267334,
                49.2500114440918
              ],
              [
                20.703824996948242,
                49.2500114440918
              ]
            ],
            [
              [
                20.370161056518555,
                49.2500114440918
              ],
              [
                20.286745071411133,
                49.2500114440918
              ],
              [
                20.282434463500977,
                49.18375015258789
              ],
              [
                20.278141021728516,
                49.11750411987305
              ],
              [
                20.361482620239258,
                49.11750411987305
              ],
              [
                20.365812301635742,
                49.18375015258789
              ],
              [
                20.44919204711914,
                49.18375015258789
              ],
              [
                20.453577041625977,
                49.2500114440918
              ],
              [
                20.370161056518555,
                49.2500114440918
              ]
            ],
            [
              [
                13.93470573425293,
                52.11625671386719
              ],
              [
                13.93283748626709,
                52.0491943359375
              ],
              [
                14.269256591796875,
                51.91512680053711
              ],
              [
                14.190190315246582,
                52.11625671386719
              ],
              [
                13.93470573425293,
                52.11625671386719
              ]
            ]
          ],
          [
            [
              [
                13.668937683105469,
                51.71418380737305
              ],
              [
                13.667257308959961,
                51.64724349975586
              ],
              [
                13.5823974609375,
                51.64724349975586
              ],
              [
                13.244426727294922,
                51.71418380737305
              ],
              [
                13.247386932373047,
                51.84812545776367
              ],
              [
                13.502351760864258,
                51.84812545776367
              ],
              [
                13.587339401245117,
                51.84812545776367
              ],
              [
                13.58568286895752,
                51.78114318847656
              ],
              [
                13.670628547668457,
                51.78114318847656
              ],
              [
                13.668937683105469,
                51.71418380737305
              ]
            ]
          ]
        ]
      }
    }
  ]
}