{
  "type": "FeatureCollection",
  "name": "territory-64",
  "features": [
    {
      "type": "Feature",
      "properties": {
        "Name": "Ptolemaic Kingdom",
        "FromYear": -326,
        "ToYear": -324,
        "Area": 4829629.287661061,
        "Type": "POLITY",
        "Wikipedia": "Ptolemaic Kingdom",
        "Wikidata": "Q2320005",
        "SeshatID": "",
        "Components": "",
        "MemberOf": ""
      },
      "geometry": {
        "type": "Polygon",
        "coordinates": [
          [
            [
              34.37271499633789,
              41.19768524169922
            ],
            [
              34.36444854736328,
              41.132843017578125
            ],
            [
              34.268611907958984,
              41.00318908691406
            ],
            [
              34.34798812866211,
              41.00318908691406
            ],
            [
              34.37850570678711,
              40.614410400390625
            ],
            [
              34.52077102661133,
              40.4848747253418
            ],
            [
              34.84558868408203,
              40.54964065551758
            ],
            [
              34.862022399902344,
              40.6791877746582
            ],
            [
              35.116458892822266,
              40.80876541137695
            ],
            [
              35.141754150390625,
              41.00318908691406
            ],
            [
              35.62666320800781,
              41.06801223754883
            ],
            [
              35.76808547973633,
              40.93837356567383
            ],
            [
              35.68011474609375,
              40.873565673828125
            ],
            [
              35.73366928100586,
              40.6791877746582
            ],
            [
              36.04199981689453,
              40.614410400390625
            ],
            [
              36.245094299316406,
              40.355369567871094
            ],
            [
              36.69369125366211,
              40.16116714477539
            ],
            [
              38.01010513305664,
              39.9670295715332
            ],
            [
              38.492950439453125,
              40.031734466552734
            ],
            [
              38.71147537231445,
              39.90232849121094
            ],
            [
              38.790401458740234,
              39.90232849121094
            ],
            [
              38.92983627319336,
              39.77294921875
            ],
            [
              38.74488830566406,
              39.57893371582031
            ],
            [
              38.963172912597656,
              39.449623107910156
            ],
            [
              38.813560485839844,
              38.93262481689453
            ],
            [
              39.110172271728516,
              38.80344009399414
            ],
            [
              39.24962615966797,
              38.67427444458008
            ],
            [
              39.232208251953125,
              38.54513168334961
            ],
            [
              39.389015197753906,
              38.54513168334961
            ],
            [
              39.44998550415039,
              38.416015625
            ],
            [
              40.45067596435547,
              38.28691864013672
            ],
            [
              40.598331451416016,
              38.22237777709961
            ],
            [
              40.57164001464844,
              38.028785705566406
            ],
            [
              41.66663360595703,
              38.028785705566406
            ],
            [
              41.96101379394531,
              37.89975357055664
            ],
            [
              42.50818634033203,
              37.89975357055664
            ],
            [
              43.94475173950195,
              37.5772590637207
            ],
            [
              44.41306686401367,
              37.5772590637207
            ],
            [
              44.63739776611328,
              37.51277160644531
            ],
            [
              44.773807525634766,
              37.38381576538086
            ],
            [
              44.80312728881836,
              37.06150817871094
            ],
            [
              45.09519577026367,
              36.932613372802734
            ],
            [
              45.426109313964844,
              37.06150817871094
            ],
            [
              45.44583511352539,
              37.1904182434082
            ],
            [
              45.290000915527344,
              37.1904182434082
            ],
            [
              45.25165939331055,
              37.44829177856445
            ],
            [
              45.17365264892578,
              37.44829177856445
            ],
            [
              45.22376251220703,
              37.7707405090332
            ],
            [
              45.634883880615234,
              37.89975357055664
            ],
            [
              45.85390853881836,
              38.28691864013672
            ],
            [
              46.12089157104492,
              38.48057174682617
            ],
            [
              47.25161361694336,
              38.67427444458008
            ],
            [
              48.32598876953125,
              38.09331130981445
            ],
            [
              48.795413970947266,
              38.09331130981445
            ],
            [
              48.87364959716797,
              38.09331130981445
            ],
            [
              48.82852554321289,
              37.835243225097656
            ],
            [
              49.08510208129883,
              37.51277160644531
            ],
            [
              49.998783111572266,
              37.38381576538086
            ],
            [
              50.320892333984375,
              36.9970588684082
            ],
            [
              50.56571960449219,
              37.06150817871094
            ],
            [
              50.632293701171875,
              36.9970588684082
            ],
            [
              50.53199768066406,
              36.8681755065918
            ],
            [
              50.82074737548828,
              36.73930740356445
            ],
            [
              51.6419677734375,
              36.5460319519043
            ],
            [
              52.18585205078125,
              36.5460319519043
            ],
            [
              53.08772277832031,
              36.80373764038086
            ],
            [
              54.033294677734375,
              36.8681755065918
            ],
            [
              54.09466552734375,
              37.1904182434082
            ],
            [
              53.97600173950195,
              37.38381576538086
            ],
            [
              54.7032585144043,
              37.51277160644531
            ],
            [
              54.845638275146484,
              37.835243225097656
            ],
            [
              55.289100646972656,
              38.09331130981445
            ],
            [
              56.22794723510742,
              38.09331130981445
            ],
            [
              56.67421340942383,
              38.351463317871094
            ],
            [
              57.550010681152344,
              38.416015625
            ],
            [
              58.62698745727539,
              38.67427444458008
            ],
            [
              60.25617599487305,
              39.25570297241211
            ],
            [
              60.61840057373047,
              39.449623107910156
            ],
            [
              60.650386810302734,
              39.57893371582031
            ],
            [
              60.9494514465332,
              39.51427459716797
            ],
            [
              62.50175094604492,
              40.031734466552734
            ],
            [
              62.879478454589844,
              39.9670295715332
            ],
            [
              63.46686935424805,
              40.0964469909668
            ],
            [
              64.888916015625,
              40.0964469909668
            ],
            [
              64.93218994140625,
              39.9670295715332
            ],
            [
              65.2301254272461,
              39.90232849121094
            ],
            [
              65.56378936767578,
              39.9670295715332
            ],
            [
              66.2199478149414,
              39.77294921875
            ],
            [
              68.53006744384766,
              39.57893371582031
            ],
            [
              68.6238784790039,
              39.90232849121094
            ],
            [
              68.99703216552734,
              40.0964469909668
            ],
            [
              69.03570556640625,
              40.225894927978516
            ],
            [
              69.27286529541016,
              40.225894927978516
            ],
            [
              69.272216796875,
              40.4848747253418
            ],
            [
              69.19305419921875,
              40.4848747253418
            ],
            [
              69.27246856689453,
              40.74397277832031
            ],
            [
              69.60967254638672,
              40.80876541137695
            ],
            [
              69.80719757080078,
              40.6791877746582
            ],
            [
              70.56432342529297,
              41.06801223754883
            ],
            [
              70.68167877197266,
              40.93837356567383
            ],
            [
              70.6405029296875,
              40.80876541137695
            ],
            [
              70.77855682373047,
              40.74397277832031
            ],
            [
              70.73768615722656,
              40.614410400390625
            ],
            [
              69.84595489501953,
              40.29063034057617
            ],
            [
              69.8856430053711,
              40.16116714477539
            ],
            [
              69.33419799804688,
              39.90232849121094
            ],
            [
              69.27700805664062,
              39.70827102661133
            ],
            [
              69.41573333740234,
              39.64360046386719
            ],
            [
              69.2804946899414,
              39.449623107910156
            ],
            [
              69.35923767089844,
              39.449623107910156
            ],
            [
              69.36353302001953,
              39.19107437133789
            ],
            [
              69.52082824707031,
              39.19107437133789
            ],
            [
              69.40531158447266,
              39.06184005737305
            ],
            [
              69.56787872314453,
              38.80344009399414
            ],
            [
              70.09906005859375,
              38.738853454589844
            ],
            [
              70.29791259765625,
              38.60969924926758
            ],
            [
              70.62996673583984,
              38.67427444458008
            ],
            [
              70.59333038330078,
              38.54513168334961
            ],
            [
              71.20214080810547,
              38.48057174682617
            ],
            [
              71.3639907836914,
              38.22237777709961
            ],
            [
              71.77897644042969,
              38.028785705566406
            ],
            [
              71.94124603271484,
              37.7707405090332
            ],
            [
              72.09748840332031,
              37.7707405090332
            ],
            [
              72.1396484375,
              37.641746520996094
            ],
            [
              72.55420684814453,
              37.44829177856445
            ],
            [
              73.16024017333984,
              37.38381576538086
            ],
            [
              73.74256134033203,
              37.51277160644531
            ],
            [
              73.7659683227539,
              37.3193473815918
            ],
            [
              74.1923599243164,
              37.44829177856445
            ],
            [
              74.73841094970703,
              37.44829177856445
            ],
            [
              75.01336669921875,
              37.3193473815918
            ],
            [
              74.8438720703125,
              36.9970588684082
            ],
            [
              74.81366729736328,
              36.61045455932617
            ],
            [
              74.89138793945312,
              36.61045455932617
            ],
            [
              74.88037872314453,
              36.28839111328125
            ],
            [
              74.95799255371094,
              36.28839111328125
            ],
            [
              75.09387969970703,
              35.644527435302734
            ],
            [
              75.17127990722656,
              35.644527435302734
            ],
            [
              75.18009948730469,
              35.38706970214844
            ],
            [
              75.38744354248047,
              35.00096893310547
            ],
            [
              75.36424255371094,
              34.614952087402344
            ],
            [
              75.51839447021484,
              34.614952087402344
            ],
            [
              75.39168548583984,
              34.42197799682617
            ],
            [
              75.46869659423828,
              34.42197799682617
            ],
            [
              75.4437255859375,
              33.71455001831055
            ],
            [
              75.5205307006836,
              33.71455001831055
            ],
            [
              75.31642150878906,
              32.557350158691406
            ],
            [
              75.04192352294922,
              32.36451721191406
            ],
            [
              74.8914794921875,
              32.043148040771484
            ],
            [
              74.63334655761719,
              31.91460609436035
            ],
            [
              74.60111999511719,
              31.079113006591797
            ],
            [
              74.83638763427734,
              30.757776260375977
            ],
            [
              74.71968078613281,
              30.564971923828125
            ],
            [
              74.70621490478516,
              30.500701904296875
            ],
            [
              72.53063201904297,
              29.472333908081055
            ],
            [
              72.30359649658203,
              29.472333908081055
            ],
            [
              71.0749282836914,
              28.958093643188477
            ],
            [
              69.34652709960938,
              28.572391510009766
            ],
            [
              68.86157989501953,
              28.379535675048828
            ],
            [
              68.84043884277344,
              28.25096321105957
            ],
            [
              68.68962860107422,
              28.25096321105957
            ],
            [
              68.50763702392578,
              28.058101654052734
            ],
            [
              67.5630111694336,
              27.800947189331055
            ],
            [
              67.18404388427734,
              27.2866268157959
            ],
            [
              67.12776947021484,
              26.900876998901367
            ],
            [
              66.93203735351562,
              26.57941436767578
            ],
            [
              66.82772827148438,
              25.807899475097656
            ],
            [
              66.62029266357422,
              25.357851028442383
            ],
            [
              66.54544067382812,
              25.357851028442383
            ],
            [
              66.48676300048828,
              25.48643684387207
            ],
            [
              66.270263671875,
              25.55072784423828
            ],
            [
              66.02147674560547,
              25.357851028442383
            ],
            [
              64.8160629272461,
              25.29355812072754
            ],
            [
              64.80064392089844,
              25.164974212646484
            ],
            [
              64.2845230102539,
              25.229267120361328
            ],
            [
              64.22502136230469,
              25.357851028442383
            ],
            [
              63.62620544433594,
              25.357851028442383
            ],
            [
              63.536216735839844,
              25.229267120361328
            ],
            [
              62.563419342041016,
              25.229267120361328
            ],
            [
              62.47393035888672,
              25.100683212280273
            ],
            [
              62.18195724487305,
              25.164974212646484
            ],
            [
              62.01787185668945,
              25.03639030456543
            ],
            [
              61.71868133544922,
              25.03639030456543
            ],
            [
              61.65822219848633,
              25.164974212646484
            ],
            [
              61.12736892700195,
              25.100683212280273
            ],
            [
              60.91714859008789,
              25.229267120361328
            ],
            [
              60.617828369140625,
              25.229267120361328
            ],
            [
              60.63211441040039,
              25.357851028442383
            ],
            [
              59.060218811035156,
              25.357851028442383
            ],
            [
              58.78172302246094,
              25.55072784423828
            ],
            [
              57.957984924316406,
              25.55072784423828
            ],
            [
              57.7402229309082,
              25.615020751953125
            ],
            [
              57.67921447753906,
              25.743606567382812
            ],
            [
              57.37953567504883,
              25.743606567382812
            ],
            [
              57.11480712890625,
              26.06507110595703
            ],
            [
              57.05242156982422,
              26.836584091186523
            ],
            [
              56.714656829833984,
              27.158044815063477
            ],
            [
              56.188377380371094,
              27.158044815063477
            ],
            [
              56.098140716552734,
              27.029460906982422
            ],
            [
              56.32361602783203,
              27.029460906982422
            ],
            [
              56.30864334106445,
              26.900876998901367
            ],
            [
              56.06119155883789,
              26.70800018310547
            ],
            [
              55.60341262817383,
              26.643707275390625
            ],
            [
              55.439002990722656,
              26.515121459960938
            ],
            [
              55.28888702392578,
              26.515121459960938
            ],
            [
              55.31023025512695,
              26.70800018310547
            ],
            [
              55.542747497558594,
              26.772293090820312
            ],
            [
              55.242313385009766,
              26.772293090820312
            ],
            [
              54.83156204223633,
              26.450830459594727
            ],
            [
              54.463233947753906,
              26.515121459960938
            ],
            [
              54.25889205932617,
              26.70800018310547
            ],
            [
              53.65812301635742,
              26.70800018310547
            ],
            [
              53.46059036254883,
              26.96516990661621
            ],
            [
              52.736968994140625,
              27.222335815429688
            ],
            [
              52.478694915771484,
              27.608078002929688
            ],
            [
              52.04855728149414,
              27.800947189331055
            ],
            [
              51.5966796875,
              27.800947189331055
            ],
            [
              51.31684494018555,
              27.993812561035156
            ],
            [
              51.331298828125,
              28.12238883972168
            ],
            [
              51.06624984741211,
              28.44382095336914
            ],
            [
              51.028076171875,
              28.765243530273438
            ],
            [
              50.80903244018555,
              28.829526901245117
            ],
            [
              50.9150390625,
              29.08665657043457
            ],
            [
              50.620323181152344,
              29.150936126708984
            ],
            [
              50.65126037597656,
              29.40805435180664
            ],
            [
              50.23628234863281,
              29.729440689086914
            ],
            [
              50.0648078918457,
              30.179353713989258
            ],
            [
              49.585899353027344,
              29.986536026000977
            ],
            [
              48.942848205566406,
              30.307893753051758
            ],
            [
              48.987266540527344,
              30.050809860229492
            ],
            [
              48.36544418334961,
              29.922264099121094
            ],
            [
              48.40353012084961,
              29.600887298583984
            ],
            [
              48.09330749511719,
              29.536611557006836
            ],
            [
              47.646427154541016,
              29.600887298583984
            ],
            [
              47.28971481323242,
              29.79371452331543
            ],
            [
              46.97944259643555,
              29.729440689086914
            ],
            [
              46.99397659301758,
              29.857990264892578
            ],
            [
              46.84971618652344,
              29.922264099121094
            ],
            [
              46.61511993408203,
              29.857990264892578
            ],
            [
              46.590572357177734,
              30.307893753051758
            ],
            [
              45.77046203613281,
              30.436433792114258
            ],
            [
              44.95460891723633,
              31.271915435791016
            ],
            [
              44.5814208984375,
              31.336183547973633
            ],
            [
              44.459014892578125,
              31.593257904052734
            ],
            [
              43.152584075927734,
              32.81447219848633
            ],
            [
              42.708534240722656,
              32.94303894042969
            ],
            [
              42.578269958496094,
              33.13589859008789
            ],
            [
              42.064544677734375,
              33.32876968383789
            ],
            [
              42.003082275390625,
              33.45735549926758
            ],
            [
              41.48860549926758,
              33.65024948120117
            ],
            [
              41.426979064941406,
              33.77885055541992
            ],
            [
              41.27333068847656,
              33.77885055541992
            ],
            [
              41.211639404296875,
              33.90746307373047
            ],
            [
              40.91171646118164,
              33.971771240234375
            ],
            [
              40.70359802246094,
              34.164703369140625
            ],
            [
              40.31147003173828,
              34.10039138793945
            ],
            [
              40.403316497802734,
              34.22901916503906
            ],
            [
              40.25685501098633,
              34.2933349609375
            ],
            [
              39.12379455566406,
              34.48630142211914
            ],
            [
              37.990238189697266,
              33.971771240234375
            ],
            [
              37.73945236206055,
              33.77885055541992
            ],
            [
              37.72612380981445,
              33.65024948120117
            ],
            [
              37.57255172729492,
              33.65024948120117
            ],
            [
              37.0732307434082,
              33.26447677612305
            ],
            [
              37.054195404052734,
              33.07160949707031
            ],
            [
              36.90095901489258,
              33.07160949707031
            ],
            [
              36.716766357421875,
              32.75019073486328
            ],
            [
              36.750667572021484,
              32.30024337768555
            ],
            [
              36.5155143737793,
              32.23596954345703
            ],
            [
              36.66231155395508,
              32.171695709228516
            ],
            [
              36.38663864135742,
              31.65752601623535
            ],
            [
              36.423099517822266,
              31.20764923095703
            ],
            [
              35.662025451660156,
              31.20764923095703
            ],
            [
              35.49904251098633,
              31.079113006591797
            ],
            [
              35.35223388671875,
              31.143381118774414
            ],
            [
              34.62143325805664,
              30.564971923828125
            ],
            [
              34.61144256591797,
              30.436433792114258
            ],
            [
              34.38864517211914,
              30.500701904296875
            ],
            [
              34.30289840698242,
              30.372163772583008
            ],
            [
              33.837974548339844,
              30.243623733520508
            ],
            [
              32.918514251708984,
              30.115081787109375
            ],
            [
              32.90950393676758,
              29.986536026000977
            ],
            [
              32.75790023803711,
              29.986536026000977
            ],
            [
              32.67325973510742,
              29.857990264892578
            ],
            [
              32.52609634399414,
              29.922264099121094
            ],
            [
              32.44160079956055,
              29.79371452331543
            ],
            [
              32.68916320800781,
              28.958093643188477
            ],
            [
              32.83612823486328,
              28.893810272216797
            ],
            [
              33.10531997680664,
              28.379535675048828
            ],
            [
              33.60887145996094,
              27.993812561035156
            ],
            [
              33.585105895996094,
              27.608078002929688
            ],
            [
              33.7991943359375,
              27.41520881652832
            ],
            [
              33.92659378051758,
              27.029460906982422
            ],
            [
              34.07311248779297,
              26.96516990661621
            ],
            [
              34.05074691772461,
              26.57941436767578
            ],
            [
              34.197208404541016,
              26.515121459960938
            ],
            [
              34.461280822753906,
              25.8721923828125
            ],
            [
              34.60763931274414,
              25.807899475097656
            ],
            [
              35.145530700683594,
              24.650644302368164
            ],
            [
              35.860408782958984,
              24.00774574279785
            ],
            [
              35.85411834716797,
              23.879167556762695
            ],
            [
              35.558753967285156,
              23.943456649780273
            ],
            [
              35.55257034301758,
              23.814878463745117
            ],
            [
              35.10795974731445,
              23.879167556762695
            ],
            [
              33.75636291503906,
              23.68630027770996
            ],
            [
              33.6817741394043,
              23.68630027770996
            ],
            [
              33.38899612426758,
              23.814878463745117
            ],
            [
              32.040863037109375,
              23.68630027770996
            ],
            [
              31.670488357543945,
              23.75058937072754
            ],
            [
              30.537214279174805,
              23.36486053466797
            ],
            [
              30.462675094604492,
              23.36486053466797
            ],
            [
              30.39519500732422,
              23.557723999023438
            ],
            [
              30.10396385192871,
              23.75058937072754
            ],
            [
              30.10871124267578,
              23.879167556762695
            ],
            [
              29.95948028564453,
              23.879167556762695
            ],
            [
              29.672801971435547,
              24.200613021850586
            ],
            [
              28.568815231323242,
              24.650644302368164
            ],
            [
              28.288646697998047,
              25.164974212646484
            ],
            [
              28.24367904663086,
              25.936485290527344
            ],
            [
              28.34531593322754,
              26.57941436767578
            ],
            [
              28.270244598388672,
              26.57941436767578
            ],
            [
              28.15372657775879,
              27.35091781616211
            ],
            [
              27.93669891357422,
              27.54378890991211
            ],
            [
              27.710918426513672,
              27.54378890991211
            ],
            [
              27.791961669921875,
              27.6723690032959
            ],
            [
              27.429920196533203,
              27.993812561035156
            ],
            [
              27.27633285522461,
              27.92952537536621
            ],
            [
              27.28502082824707,
              28.12238883972168
            ],
            [
              27.06757926940918,
              28.315250396728516
            ],
            [
              26.251968383789062,
              28.636676788330078
            ],
            [
              26.182157516479492,
              28.765243530273438
            ],
            [
              25.882884979248047,
              28.829526901245117
            ],
            [
              25.516281127929688,
              29.08665657043457
            ],
            [
              25.376264572143555,
              29.34377670288086
            ],
            [
              25.477962493896484,
              29.922264099121094
            ],
            [
              26.31792640686035,
              31.528987884521484
            ],
            [
              27.148780822753906,
              31.40045166015625
            ],
            [
              27.514896392822266,
              31.143381118774414
            ],
            [
              28.496395111083984,
              31.014846801757812
            ],
            [
              28.865032196044922,
              30.822044372558594
            ],
            [
              29.3970890045166,
              30.822044372558594
            ],
            [
              29.485143661499023,
              31.014846801757812
            ],
            [
              29.633193969726562,
              30.950578689575195
            ],
            [
              29.86956024169922,
              31.079113006591797
            ],
            [
              29.8017635345459,
              31.20764923095703
            ],
            [
              29.882049560546875,
              31.271915435791016
            ],
            [
              30.33879280090332,
              31.271915435791016
            ],
            [
              30.271244049072266,
              31.40045166015625
            ],
            [
              30.351730346679688,
              31.464719772338867
            ],
            [
              30.80877685546875,
              31.464719772338867
            ],
            [
              30.965608596801758,
              31.528987884521484
            ],
            [
              30.974620819091797,
              31.65752601623535
            ],
            [
              31.203296661376953,
              31.65752601623535
            ],
            [
              31.117990493774414,
              31.528987884521484
            ],
            [
              31.265825271606445,
              31.464719772338867
            ],
            [
              31.875221252441406,
              31.464719772338867
            ],
            [
              31.780553817749023,
              31.20764923095703
            ],
            [
              31.93739891052246,
              31.271915435791016
            ],
            [
              31.999635696411133,
              31.079113006591797
            ],
            [
              32.303932189941406,
              31.079113006591797
            ],
            [
              32.23719787597656,
              31.20764923095703
            ],
            [
              32.38941192626953,
              31.20764923095703
            ],
            [
              32.53215408325195,
              31.079113006591797
            ],
            [
              32.76515197753906,
              31.143381118774414
            ],
            [
              32.8316764831543,
              31.014846801757812
            ],
            [
              33.74934005737305,
              31.079113006591797
            ],
            [
              34.2972412109375,
              31.271915435791016
            ],
            [
              34.30759811401367,
              31.40045166015625
            ],
            [
              34.63344955444336,
              31.65752601623535
            ],
            [
              34.57329559326172,
              31.8503360748291
            ],
            [
              34.81304168701172,
              31.978878021240234
            ],
            [
              34.76983642578125,
              32.36451721191406
            ],
            [
              35.021759033203125,
              32.62162780761719
            ],
            [
              35.05632781982422,
              33.00732421875
            ],
            [
              35.21538543701172,
              33.07160949707031
            ],
            [
              35.39840316772461,
              33.393062591552734
            ],
            [
              35.34577560424805,
              33.65024948120117
            ],
            [
              35.49934768676758,
              33.65024948120117
            ],
            [
              35.4470100402832,
              33.90746307373047
            ],
            [
              35.68381118774414,
              33.971771240234375
            ],
            [
              35.64447784423828,
              34.3576545715332
            ],
            [
              35.79212951660156,
              34.2933349609375
            ],
            [
              36.048770904541016,
              34.55062484741211
            ],
            [
              36.0682373046875,
              34.743614196777344
            ],
            [
              35.92698669433594,
              34.87228775024414
            ],
            [
              35.959747314453125,
              35.194007873535156
            ],
            [
              35.88248825073242,
              35.194007873535156
            ],
            [
              35.99294662475586,
              35.51579284667969
            ],
            [
              35.84488296508789,
              35.58015823364258
            ],
            [
              35.990074157714844,
              36.2239875793457
            ],
            [
              35.84174346923828,
              36.28839111328125
            ],
            [
              36.26490020751953,
              36.61045455932617
            ],
            [
              36.28622817993164,
              36.80373764038086
            ],
            [
              36.144901275634766,
              36.932613372802734
            ],
            [
              35.833587646484375,
              36.932613372802734
            ],
            [
              35.487709045410156,
              36.61045455932617
            ],
            [
              35.332271575927734,
              36.61045455932617
            ],
            [
              35.11265563964844,
              36.73930740356445
            ],
            [
              34.95038986206055,
              36.67487716674805
            ],
            [
              34.892860412597656,
              36.8681755065918
            ],
            [
              34.581634521484375,
              36.8681755065918
            ],
            [
              34.2507209777832,
              36.67487716674805
            ],
            [
              33.97906494140625,
              36.28839111328125
            ],
            [
              33.2744140625,
              36.2239875793457
            ],
            [
              32.713401794433594,
              36.03080368041992
            ],
            [
              32.558349609375,
              36.03080368041992
            ],
            [
              32.498512268066406,
              36.2239875793457
            ],
            [
              32.06806182861328,
              36.61045455932617
            ],
            [
              31.08603858947754,
              36.932613372802734
            ],
            [
              30.619068145751953,
              36.932613372802734
            ],
            [
              30.49193572998047,
              36.3527946472168
            ],
            [
              30.02613639831543,
              36.3527946472168
            ],
            [
              29.938032150268555,
              36.2239875793457
            ],
            [
              29.239721298217773,
              36.2239875793457
            ],
            [
              29.124916076660156,
              36.73930740356445
            ],
            [
              28.736103057861328,
              36.73930740356445
            ],
            [
              28.590524673461914,
              36.8681755065918
            ],
            [
              28.357105255126953,
              36.8681755065918
            ],
            [
              28.186922073364258,
              36.67487716674805
            ],
            [
              28.03143882751465,
              36.67487716674805
            ],
            [
              28.138330459594727,
              37.06150817871094
            ],
            [
              28.065349578857422,
              37.12596130371094
            ],
            [
              27.597978591918945,
              37.12596130371094
            ],
            [
              27.53919219970703,
              37.38381576538086
            ],
            [
              27.22254180908203,
              37.3193473815918
            ],
            [
              27.309988021850586,
              37.44829177856445
            ],
            [
              27.16343116760254,
              37.5772590637207
            ],
            [
              27.2558650970459,
              37.7707405090332
            ],
            [
              27.177743911743164,
              37.7707405090332
            ],
            [
              27.27528190612793,
              38.028785705566406
            ],
            [
              26.888994216918945,
              38.09331130981445
            ],
            [
              26.820327758789062,
              38.22237777709961
            ],
            [
              26.42890739440918,
              38.22237777709961
            ],
            [
              26.38368797302246,
              38.67427444458008
            ],
            [
              26.535762786865234,
              38.60969924926758
            ],
            [
              26.594974517822266,
              38.351463317871094
            ],
            [
              27.06496238708496,
              38.351463317871094
            ],
            [
              27.079774856567383,
              38.54513168334961
            ],
            [
              26.849470138549805,
              38.60969924926758
            ],
            [
              26.95786476135254,
              38.997230529785156
            ],
            [
              26.879291534423828,
              38.997230529785156
            ],
            [
              26.894468307495117,
              39.19107437133789
            ],
            [
              26.742225646972656,
              39.25570297241211
            ],
            [
              26.84657859802246,
              39.57893371582031
            ],
            [
              26.132457733154297,
              39.51427459716797
            ],
            [
              26.16754913330078,
              39.9670295715332
            ],
            [
              26.593992233276367,
              40.355369567871094
            ],
            [
              27.46982192993164,
              40.42012023925781
            ],
            [
              27.537628173828125,
              40.29063034057617
            ],
            [
              27.695789337158203,
              40.29063034057617
            ],
            [
              27.792133331298828,
              40.4848747253418
            ],
            [
              27.950454711914062,
              40.4848747253418
            ],
            [
              27.938817977905273,
              40.355369567871094
            ],
            [
              29.046321868896484,
              40.355369567871094
            ],
            [
              28.900379180908203,
              40.4848747253418
            ],
            [
              28.91274642944336,
              40.614410400390625
            ],
            [
              29.40081214904785,
              40.74397277832031
            ],
            [
              29.480079650878906,
              40.74397277832031
            ],
            [
              30.807043075561523,
              40.54964065551758
            ],
            [
              30.88623046875,
              40.54964065551758
            ],
            [
              31.196033477783203,
              40.4848747253418
            ],
            [
              31.714021682739258,
              40.873565673828125
            ],
            [
              32.11802673339844,
              40.93837356567383
            ],
            [
              32.14037322998047,
              41.132843017578125
            ],
            [
              32.30678939819336,
              41.19768524169922
            ],
            [
              32.32196807861328,
              41.32738494873047
            ],
            [
              32.113746643066406,
              41.586883544921875
            ],
            [
              32.1933708190918,
              41.586883544921875
            ],
            [
              32.694705963134766,
              41.781593322753906
            ],
            [
              32.630775451660156,
              41.911441802978516
            ],
            [
              32.862091064453125,
              41.84651184082031
            ],
            [
              33.27706527709961,
              41.97637939453125
            ],
            [
              34.4740104675293,
              41.97637939453125
            ],
            [
              34.35169982910156,
              41.65177917480469
            ],
            [
              34.67888259887695,
              41.71668243408203
            ],
            [
              34.53998565673828,
              41.26253128051758
            ],
            [
              34.37271499633789,
              41.19768524169922
            ]
          ]
        ]
      }
    }
  ]
}