{
  "type": "FeatureCollection",
  "name": "territory-641",
  "features": [
    {
      "type": "Feature",
      "properties": {
        "Name": "Shaybanids",
        "FromYear": 1507,
        "ToYear": 1511,
        "Area": 1747804.211885108,
        "Type": "POLITY",
        "Wikipedia": "Shaybanids",
        "Wikidata": "Q856361",
        "SeshatID": "uz_shaybanid_k",
        "Components": "",
        "MemberOf": ""
      },
      "geometry": {
        "type": "Polygon",
        "coordinates": [
          [
            [
              73.61153411865234,
              39.449623107910156
            ],
            [
              73.29655456542969,
              39.449623107910156
            ],
            [
              73.0993423461914,
              39.320335388183594
            ],
            [
              72.48939514160156,
              39.38497543334961
            ],
            [
              71.61256408691406,
              38.54513168334961
            ],
            [
              71.26215362548828,
              38.416015625
            ],
            [
              70.71366119384766,
              38.416015625
            ],
            [
              70.4245834350586,
              38.22237777709961
            ],
            [
              70.38887786865234,
              38.09331130981445
            ],
            [
              70.2146987915039,
              38.028785705566406
            ],
            [
              70.16192626953125,
              37.835243225097656
            ],
            [
              70.28324127197266,
              37.706241607666016
            ],
            [
              70.1877670288086,
              37.641746520996094
            ],
            [
              70.17044830322266,
              37.5772590637207
            ],
            [
              69.5460205078125,
              37.5772590637207
            ],
            [
              69.3497543334961,
              37.12596130371094
            ],
            [
              69.1160659790039,
              37.12596130371094
            ],
            [
              69.0102767944336,
              37.3193473815918
            ],
            [
              68.50938415527344,
              37.1904182434082
            ],
            [
              68.47648620605469,
              37.06150817871094
            ],
            [
              68.71009826660156,
              37.06150817871094
            ],
            [
              68.67727661132812,
              36.932613372802734
            ],
            [
              68.87802124023438,
              36.80373764038086
            ],
            [
              68.62396240234375,
              36.09519577026367
            ],
            [
              68.54641723632812,
              36.09519577026367
            ],
            [
              68.42280578613281,
              36.2239875793457
            ],
            [
              67.3832015991211,
              36.09519577026367
            ],
            [
              66.96399688720703,
              36.28839111328125
            ],
            [
              66.32786560058594,
              36.2239875793457
            ],
            [
              65.31906127929688,
              33.77885055541992
            ],
            [
              65.18848419189453,
              33.52165222167969
            ],
            [
              64.93172454833984,
              33.393062591552734
            ],
            [
              64.95581817626953,
              33.13589859008789
            ],
            [
              64.76362609863281,
              32.94303894042969
            ],
            [
              64.71231842041016,
              32.685909271240234
            ],
            [
              63.61105728149414,
              31.7217960357666
            ],
            [
              63.58736038208008,
              31.593257904052734
            ],
            [
              63.24750518798828,
              31.40045166015625
            ],
            [
              63.11393356323242,
              31.079113006591797
            ],
            [
              62.7983512878418,
              31.014846801757812
            ],
            [
              62.36270523071289,
              30.69350814819336
            ],
            [
              61.65737533569336,
              30.564971923828125
            ],
            [
              60.10446548461914,
              30.822044372558594
            ],
            [
              58.37672805786133,
              30.950578689575195
            ],
            [
              58.30068588256836,
              30.950578689575195
            ],
            [
              58.04793930053711,
              31.271915435791016
            ],
            [
              57.89165115356445,
              32.171695709228516
            ],
            [
              57.54278564453125,
              32.81447219848633
            ],
            [
              57.5875358581543,
              33.07160949707031
            ],
            [
              57.20674514770508,
              33.52165222167969
            ],
            [
              57.22960662841797,
              33.65024948120117
            ],
            [
              57.08747863769531,
              33.71455001831055
            ],
            [
              57.12201690673828,
              33.90746307373047
            ],
            [
              56.88410568237305,
              34.2933349609375
            ],
            [
              56.854068756103516,
              34.55062484741211
            ],
            [
              56.58115768432617,
              34.743614196777344
            ],
            [
              56.604862213134766,
              34.87228775024414
            ],
            [
              55.87438201904297,
              35.51579284667969
            ],
            [
              55.14817810058594,
              35.77327346801758
            ],
            [
              54.118202209472656,
              35.644527435302734
            ],
            [
              52.879783630371094,
              35.644527435302734
            ],
            [
              52.59257125854492,
              35.77327346801758
            ],
            [
              52.73810577392578,
              36.15959167480469
            ],
            [
              52.98234176635742,
              36.2239875793457
            ],
            [
              53.18416976928711,
              36.48161697387695
            ],
            [
              53.16550827026367,
              36.80373764038086
            ],
            [
              53.24329376220703,
              36.80373764038086
            ],
            [
              54.033294677734375,
              36.8681755065918
            ],
            [
              54.09466552734375,
              37.1904182434082
            ],
            [
              53.91046905517578,
              37.44829177856445
            ],
            [
              53.90790557861328,
              37.835243225097656
            ],
            [
              53.82976150512695,
              37.835243225097656
            ],
            [
              53.98678207397461,
              38.997230529785156
            ],
            [
              53.5175895690918,
              39.38497543334961
            ],
            [
              53.13750457763672,
              39.449623107910156
            ],
            [
              53.54492950439453,
              39.51427459716797
            ],
            [
              53.498451232910156,
              40.031734466552734
            ],
            [
              52.78766632080078,
              40.031734466552734
            ],
            [
              52.71352767944336,
              40.42012023925781
            ],
            [
              52.792659759521484,
              40.42012023925781
            ],
            [
              52.89295959472656,
              40.873565673828125
            ],
            [
              52.97228240966797,
              40.873565673828125
            ],
            [
              52.943321228027344,
              40.74397277832031
            ],
            [
              53.33966064453125,
              40.74397277832031
            ],
            [
              53.448211669921875,
              40.873565673828125
            ],
            [
              53.40435791015625,
              40.6791877746582
            ],
            [
              53.80056381225586,
              40.6791877746582
            ],
            [
              54.370140075683594,
              40.74397277832031
            ],
            [
              54.40007400512695,
              40.873565673828125
            ],
            [
              54.66834259033203,
              41.00318908691406
            ],
            [
              54.683570861816406,
              41.06801223754883
            ],
            [
              55.85898971557617,
              41.00318908691406
            ],
            [
              56.43045425415039,
              41.06801223754883
            ],
            [
              57.20991134643555,
              41.32738494873047
            ],
            [
              57.401771545410156,
              41.45711898803711
            ],
            [
              57.45140075683594,
              41.65177917480469
            ],
            [
              57.278961181640625,
              41.911441802978516
            ],
            [
              57.28327178955078,
              42.236209869384766
            ],
            [
              57.20336151123047,
              42.236209869384766
            ],
            [
              57.3291130065918,
              43.016544342041016
            ],
            [
              58.337066650390625,
              43.472347259521484
            ],
            [
              58.41754150390625,
              43.472347259521484
            ],
            [
              58.63294982910156,
              43.6678352355957
            ],
            [
              59.1235237121582,
              43.407203674316406
            ],
            [
              60.10750198364258,
              43.472347259521484
            ],
            [
              60.38652801513672,
              43.6026611328125
            ],
            [
              60.600128173828125,
              44.05907440185547
            ],
            [
              60.78084945678711,
              44.12431716918945
            ],
            [
              60.896934509277344,
              44.5159797668457
            ],
            [
              61.38047409057617,
              44.77729415893555
            ],
            [
              61.42001724243164,
              44.908016204833984
            ],
            [
              61.582332611083984,
              44.908016204833984
            ],
            [
              61.72218704223633,
              45.36587905883789
            ],
            [
              61.33523941040039,
              45.431331634521484
            ],
            [
              61.33386993408203,
              45.693260192871094
            ],
            [
              61.25232696533203,
              45.693260192871094
            ],
            [
              61.332855224609375,
              45.95537567138672
            ],
            [
              61.251182556152344,
              45.95537567138672
            ],
            [
              61.66065979003906,
              46.74290466308594
            ],
            [
              61.68148422241211,
              46.808616638183594
            ],
            [
              63.031532287597656,
              46.414546966552734
            ],
            [
              64.87874603271484,
              45.56227111816406
            ],
            [
              64.9173812866211,
              45.431331634521484
            ],
            [
              65.3627700805664,
              45.300437927246094
            ],
            [
              65.401123046875,
              45.169586181640625
            ],
            [
              66.1054916381836,
              44.842647552490234
            ],
            [
              66.26234436035156,
              44.58129119873047
            ],
            [
              66.42434692382812,
              44.58129119873047
            ],
            [
              66.66166687011719,
              44.32010269165039
            ],
            [
              66.67784881591797,
              44.12431716918945
            ],
            [
              70.13925170898438,
              44.32010269165039
            ],
            [
              70.42800903320312,
              44.45067596435547
            ],
            [
              71.35236358642578,
              44.32010269165039
            ],
            [
              70.29608154296875,
              43.146724700927734
            ],
            [
              70.2072982788086,
              42.88639831542969
            ],
            [
              70.32351684570312,
              42.75628662109375
            ],
            [
              70.1123046875,
              42.36617660522461
            ],
            [
              70.19226837158203,
              42.36617660522461
            ],
            [
              70.1857681274414,
              42.10627746582031
            ],
            [
              70.36084747314453,
              41.911441802978516
            ],
            [
              70.86105346679688,
              41.97637939453125
            ],
            [
              71.18782043457031,
              42.236209869384766
            ],
            [
              71.94255065917969,
              42.10627746582031
            ],
            [
              72.30657958984375,
              42.236209869384766
            ],
            [
              72.74108123779297,
              42.10627746582031
            ],
            [
              73.37991333007812,
              42.10627746582031
            ],
            [
              73.60877227783203,
              41.84651184082031
            ],
            [
              73.63404083251953,
              41.45711898803711
            ],
            [
              73.71360778808594,
              41.45711898803711
            ],
            [
              73.66934967041016,
              41.32738494873047
            ],
            [
              73.81987762451172,
              41.06801223754883
            ],
            [
              73.73299407958984,
              40.80876541137695
            ],
            [
              73.84847259521484,
              40.6791877746582
            ],
            [
              73.80000305175781,
              40.29063034057617
            ],
            [
              73.95331573486328,
              40.031734466552734
            ],
            [
              73.88824462890625,
              39.57893371582031
            ],
            [
              73.6902847290039,
              39.449623107910156
            ],
            [
              73.61153411865234,
              39.449623107910156
            ]
          ]
        ]
      }
    }
  ]
}