{
  "type": "FeatureCollection",
  "name": "territory-642",
  "features": [
    {
      "type": "Feature",
      "properties": {
        "Name": "(Portuguese Empire)",
        "FromYear": 1820,
        "ToYear": 1821,
        "Area": 8210484.791178251,
        "Type": "POLITY",
        "Wikipedia": "Portuguese Empire",
        "Wikidata": "Q200464",
        "SeshatID": "pt_portuguese_emp_2",
        "Components": "Portuguese Colonies;Portuguese Empire;Kingdom of Portugal",
        "MemberOf": ""
      },
      "geometry": {
        "type": "MultiPolygon",
        "coordinates": [
          [
            [
              [
                -59.847354888916016,
                2.27857780456543
              ],
              [
                -59.774009704589844,
                1.828564524650574
              ],
              [
                -59.701210021972656,
                1.828564524650574
              ],
              [
                -59.70126724243164,
                1.699989318847656
              ],
              [
                -59.337852478027344,
                1.378551483154297
              ],
              [
                -58.90174102783203,
                1.185688734054565
              ],
              [
                -58.46406936645508,
                1.507126569747925
              ],
              [
                -57.59016799926758,
                1.76427698135376
              ],
              [
                -57.444496154785156,
                1.957139730453491
              ],
              [
                -56.71652603149414,
                1.892852187156677
              ],
              [
                -56.134193420410156,
                1.828564524650574
              ],
              [
                -55.988525390625,
                1.957139730453491
              ],
              [
                -56.20698165893555,
                2.150002479553223
              ],
              [
                -56.207244873046875,
                2.342865228652954
              ],
              [
                -56.061912536621094,
                2.471440553665161
              ],
              [
                -55.5521125793457,
                2.407152891159058
              ],
              [
                -55.333988189697266,
                2.535728216171265
              ],
              [
                -54.96994400024414,
                2.535728216171265
              ],
              [
                -54.60551834106445,
                2.342865228652954
              ],
              [
                -54.31412124633789,
                2.085714817047119
              ],
              [
                -54.02300262451172,
                2.27857780456543
              ],
              [
                -53.513370513916016,
                2.27857780456543
              ],
              [
                -53.29490280151367,
                2.150002479553223
              ],
              [
                -52.858131408691406,
                2.27857780456543
              ],
              [
                -52.49507141113281,
                2.7928786277771
              ],
              [
                -52.35175323486328,
                3.30717945098877
              ],
              [
                -51.989261627197266,
                3.564330101013184
              ],
              [
                -51.70283889770508,
                4.142918586730957
              ],
              [
                -51.62998962402344,
                4.142918586730957
              ],
              [
                -51.559879302978516,
                4.400069236755371
              ],
              [
                -51.26639175415039,
                4.207206249237061
              ],
              [
                -51.03965377807617,
                3.050029039382935
              ],
              [
                -50.74691390991211,
                2.471440553665161
              ],
              [
                -50.67414855957031,
                2.021427392959595
              ],
              [
                -50.60123062133789,
                2.150002479553223
              ],
              [
                -50.45562744140625,
                2.150002479553223
              ],
              [
                -50.383155822753906,
                1.892852187156677
              ],
              [
                -50.52888107299805,
                1.828564524650574
              ],
              [
                -50.092105865478516,
                1.828564524650574
              ],
              [
                -49.94685363769531,
                1.699989318847656
              ],
              [
                -50.021812438964844,
                1.185688734054565
              ],
              [
                -49.94939041137695,
                1.121401190757751
              ],
              [
                -50.24130630493164,
                0.992826044559479
              ],
              [
                -50.3886604309082,
                0.735675871372223
              ],
              [
                -50.09803771972656,
                0.671388268470764
              ],
              [
                -50.09965515136719,
                0.478525668382645
              ],
              [
                -50.24637985229492,
                0.349950581789017
              ],
              [
                -49.809722900390625,
                0.349950581789017
              ],
              [
                -49.73820877075195,
                0.221375524997711
              ],
              [
                -49.812320709228516,
                0.092800483107567
              ],
              [
                -49.593997955322266,
                0.092800483107567
              ],
              [
                -49.50709533691406,
                -0.100062072277069
              ],
              [
                -48.48878860473633,
                -0.228637129068375
              ],
              [
                -48.56475830078125,
                -0.807224988937378
              ],
              [
                -48.93449020385742,
                -1.514388203620911
              ],
              [
                -48.64332580566406,
                -1.514388203620911
              ],
              [
                -48.64154052734375,
                -1.321525454521179
              ],
              [
                -48.42155456542969,
                -1.128662824630737
              ],
              [
                -48.41963195800781,
                -0.871512532234192
              ],
              [
                -48.27321243286133,
                -0.742937445640564
              ],
              [
                -47.545406341552734,
                -0.742937445640564
              ],
              [
                -47.544273376464844,
                -0.550074815750122
              ],
              [
                -47.39871597290039,
                -0.550074815750122
              ],
              [
                -47.253517150878906,
                -0.614362359046936
              ],
              [
                -47.25428771972656,
                -0.742937445640564
              ],
              [
                -46.67244338989258,
                -0.807224988937378
              ],
              [
                -46.60096740722656,
                -1.00008761882782
              ],
              [
                -45.51164627075195,
                -1.321525454521179
              ],
              [
                -45.44170379638672,
                -1.642963409423828
              ],
              [
                -45.294368743896484,
                -1.450100660324097
              ],
              [
                -44.930416107177734,
                -1.450100660324097
              ],
              [
                -44.85996627807617,
                -1.707250952720642
              ],
              [
                -44.57004928588867,
                -1.83582615852356
              ],
              [
                -44.64629364013672,
                -2.157264232635498
              ],
              [
                -44.428619384765625,
                -2.221551656723022
              ],
              [
                -44.43092346191406,
                -2.414414644241333
              ],
              [
                -44.13969802856445,
                -2.414414644241333
              ],
              [
                -44.06849670410156,
                -2.542989730834961
              ],
              [
                -43.55647277832031,
                -2.350126981735229
              ],
              [
                -43.19244384765625,
                -2.350126981735229
              ],
              [
                -42.32434844970703,
                -2.800140142440796
              ],
              [
                -41.886619567871094,
                -2.735852479934692
              ],
              [
                -41.59790802001953,
                -2.928715467453003
              ],
              [
                -41.37945556640625,
                -2.928715467453003
              ],
              [
                -40.940860748291016,
                -2.800140142440796
              ],
              [
                -40.139896392822266,
                -2.800140142440796
              ],
              [
                -39.63266372680664,
                -2.993003129959106
              ],
              [
                -38.91259765625,
                -3.57159161567688
              ],
              [
                -38.550392150878906,
                -3.700166940689087
              ],
              [
                -37.69152069091797,
                -4.600193977355957
              ],
              [
                -37.32960510253906,
                -4.728769302368164
              ],
              [
                -37.259193420410156,
                -4.857344150543213
              ],
              [
                -36.68125915527344,
                -5.114494800567627
              ],
              [
                -35.80546188354492,
                -5.050207138061523
              ],
              [
                -35.373260498046875,
                -5.307357788085938
              ],
              [
                -35.16539764404297,
                -5.821659088134766
              ],
              [
                -35.17565155029297,
                -6.271672248840332
              ],
              [
                -35.03133010864258,
                -6.335959911346436
              ],
              [
                -34.90660858154297,
                -7.171699047088623
              ],
              [
                -34.83365249633789,
                -7.171699047088623
              ],
              [
                -34.93431091308594,
                -8.13601303100586
              ],
              [
                -35.00731658935547,
                -8.13601303100586
              ],
              [
                -35.021507263183594,
                -8.586026191711426
              ],
              [
                -35.17177963256836,
                -8.714601516723633
              ],
              [
                -35.413063049316406,
                -9.357477188110352
              ],
              [
                -35.712371826171875,
                -9.550339698791504
              ],
              [
                -36.256534576416016,
                -10.386076927185059
              ],
              [
                -36.779212951660156,
                -10.643227577209473
              ],
              [
                -37.23780822753906,
                -11.093239784240723
              ],
              [
                -37.24653244018555,
                -11.286102294921875
              ],
              [
                -37.47205352783203,
                -11.414677619934082
              ],
              [
                -37.48417282104492,
                -11.67182731628418
              ],
              [
                -37.63681411743164,
                -11.800402641296387
              ],
              [
                -37.729148864746094,
                -12.186127662658691
              ],
              [
                -38.129207611083984,
                -12.82900333404541
              ],
              [
                -38.35973358154297,
                -13.021865844726562
              ],
              [
                -38.87663269042969,
                -13.086153030395508
              ],
              [
                -39.0343017578125,
                -13.279016494750977
              ],
              [
                -39.01095962524414,
                -14.114755630493164
              ],
              [
                -39.13848876953125,
                -14.9504976272583
              ],
              [
                -38.95318603515625,
                -15.464800834655762
              ],
              [
                -39.023136138916016,
                -16.429121017456055
              ],
              [
                -39.288490295410156,
                -17.00771141052246
              ],
              [
                -39.276084899902344,
                -17.779165267944336
              ],
              [
                -39.59242248535156,
                -18.03631591796875
              ],
              [
                -39.76686096191406,
                -18.35775375366211
              ],
              [
                -39.79722213745117,
                -19.57921028137207
              ],
              [
                -40.195648193359375,
                -19.900644302368164
              ],
              [
                -40.40681076049805,
                -20.6077938079834
              ],
              [
                -40.8811149597168,
                -20.92922592163086
              ],
              [
                -40.90477752685547,
                -21.186368942260742
              ],
              [
                -41.07121276855469,
                -21.379228591918945
              ],
              [
                -41.039329528808594,
                -21.82923126220703
              ],
              [
                -41.1445198059082,
                -22.150665283203125
              ],
              [
                -41.91362380981445,
                -22.40781021118164
              ],
              [
                -41.92646026611328,
                -22.53638458251953
              ],
              [
                -42.0817756652832,
                -22.600671768188477
              ],
              [
                -42.0268669128418,
                -22.793533325195312
              ],
              [
                -42.12110137939453,
                -22.98639488220215
              ],
              [
                -43.23838424682617,
                -22.98639488220215
              ],
              [
                -43.400978088378906,
                -23.11496925354004
              ],
              [
                -43.847999572753906,
                -23.11496925354004
              ],
              [
                -43.834266662597656,
                -22.98639488220215
              ],
              [
                -44.73505783081055,
                -23.050682067871094
              ],
              [
                -44.69575119018555,
                -23.372121810913086
              ],
              [
                -44.91937255859375,
                -23.372121810913086
              ],
              [
                -45.47757339477539,
                -23.69356346130371
              ],
              [
                -45.33575439453125,
                -23.757850646972656
              ],
              [
                -45.36552810668945,
                -24.01500701904297
              ],
              [
                -45.58943557739258,
                -24.01500701904297
              ],
              [
                -45.574424743652344,
                -23.886428833007812
              ],
              [
                -46.08921813964844,
                -23.822139739990234
              ],
              [
                -46.34345626831055,
                -24.079296112060547
              ],
              [
                -46.88153839111328,
                -24.207876205444336
              ],
              [
                -47.228031158447266,
                -24.593616485595703
              ],
              [
                -47.61802673339844,
                -24.722196578979492
              ],
              [
                -48.033668518066406,
                -25.04365348815918
              ],
              [
                -47.97591781616211,
                -25.172237396240234
              ],
              [
                -48.23513412475586,
                -25.429405212402344
              ],
              [
                -48.52579116821289,
                -25.365114212036133
              ],
              [
                -48.543434143066406,
                -25.493698120117188
              ],
              [
                -48.69318389892578,
                -25.493698120117188
              ],
              [
                -48.47743606567383,
                -25.55799102783203
              ],
              [
                -48.718658447265625,
                -26.20092010498047
              ],
              [
                -48.578025817871094,
                -26.265213012695312
              ],
              [
                -48.59689712524414,
                -26.393798828125
              ],
              [
                -48.756500244140625,
                -26.458091735839844
              ],
              [
                -48.79506301879883,
                -26.715261459350586
              ],
              [
                -48.66437530517578,
                -26.843847274780273
              ],
              [
                -48.70392990112305,
                -27.101015090942383
              ],
              [
                -48.563560485839844,
                -27.165306091308594
              ],
              [
                -48.679161071777344,
                -27.422470092773438
              ],
              [
                -48.453453063964844,
                -27.422470092773438
              ],
              [
                -48.494441986083984,
                -27.679630279541016
              ],
              [
                -48.645015716552734,
                -27.679630279541016
              ],
              [
                -48.88115692138672,
                -28.643938064575195
              ],
              [
                -49.73890686035156,
                -29.22247886657715
              ],
              [
                -49.873390197753906,
                -29.54387092590332
              ],
              [
                -50.04872512817383,
                -29.67242431640625
              ],
              [
                -50.34825134277344,
                -30.443693161010742
              ],
              [
                -50.883785247802734,
                -31.214908599853516
              ],
              [
                -51.449039459228516,
                -31.729055404663086
              ],
              [
                -52.081111907958984,
                -32.178955078125
              ],
              [
                -52.23384475708008,
                -32.178955078125
              ],
              [
                -52.44411087036133,
                -32.43605422973633
              ],
              [
                -52.6678466796875,
                -33.07887268066406
              ],
              [
                -53.080726623535156,
                -33.52891540527344
              ],
              [
                -53.526676177978516,
                -33.78611755371094
              ],
              [
                -53.714263916015625,
                -34.23628616333008
              ],
              [
                -54.02592849731445,
                -34.557891845703125
              ],
              [
                -54.8189811706543,
                -34.94389343261719
              ],
              [
                -56.03681564331055,
                -34.879554748535156
              ],
              [
                -56.379703521728516,
                -35.008235931396484
              ],
              [
                -56.559810638427734,
                -34.815216064453125
              ],
              [
                -57.08256912231445,
                -34.75088119506836
              ],
              [
                -57.125370025634766,
                -34.62221908569336
              ],
              [
                -57.3994026184082,
                -34.49356460571289
              ],
              [
                -58.09275436401367,
                -34.49356460571289
              ],
              [
                -58.39171600341797,
                -34.17197036743164
              ],
              [
                -58.468658447265625,
                -34.17197036743164
              ],
              [
                -58.63106918334961,
                -33.91472625732422
              ],
              [
                -58.43064880371094,
                -33.143157958984375
              ],
              [
                -58.26103591918945,
                -33.07887268066406
              ],
              [
                -58.21233367919922,
                -32.88601303100586
              ],
              [
                -58.33317565917969,
                -32.757450103759766
              ],
              [
                -58.22179412841797,
                -32.30750274658203
              ],
              [
                -58.32753372192383,
                -32.114681243896484
              ],
              [
                -58.05191421508789,
                -31.60051727294922
              ],
              [
                -58.12812423706055,
                -31.60051727294922
              ],
              [
                -57.939598083496094,
                -30.443693161010742
              ],
              [
                -57.3455696105957,
                -29.800975799560547
              ],
              [
                -57.002220153808594,
                -29.6081485748291
              ],
              [
                -56.56907272338867,
                -28.96535301208496
              ],
              [
                -56.04057693481445,
                -28.579652786254883
              ],
              [
                -55.816566467285156,
                -28.193937301635742
              ],
              [
                -54.78451919555664,
                -27.48676109313965
              ],
              [
                -53.89078140258789,
                -27.101015090942383
              ],
              [
                -53.77442932128906,
                -26.393798828125
              ],
              [
                -53.84946823120117,
                -26.393798828125
              ],
              [
                -53.80859375,
                -26.136627197265625
              ],
              [
                -53.883583068847656,
                -26.136627197265625
              ],
              [
                -53.96368408203125,
                -25.68657684326172
              ],
              [
                -54.71277618408203,
                -25.68657684326172
              ],
              [
                -54.48558807373047,
                -24.65790557861328
              ],
              [
                -54.41085433959961,
                -24.65790557861328
              ],
              [
                -54.41398239135742,
                -24.143585205078125
              ],
              [
                -54.097965240478516,
                -24.01500701904297
              ],
              [
                -53.87253952026367,
                -23.43640899658203
              ],
              [
                -53.63242721557617,
                -23.307832717895508
              ],
              [
                -53.51738357543945,
                -22.98639488220215
              ],
              [
                -52.627967834472656,
                -22.40781021118164
              ],
              [
                -52.51563262939453,
                -22.08637809753418
              ],
              [
                -52.589996337890625,
                -22.08637809753418
              ],
              [
                -52.626949310302734,
                -21.76494598388672
              ],
              [
                -52.90934753417969,
                -21.63637351989746
              ],
              [
                -53.652366638183594,
                -21.63637351989746
              ],
              [
                -54.49256896972656,
                -21.82923126220703
              ],
              [
                -54.54398727416992,
                -21.63637351989746
              ],
              [
                -54.82596206665039,
                -21.507801055908203
              ],
              [
                -56.014522552490234,
                -21.507801055908203
              ],
              [
                -56.370445251464844,
                -21.379228591918945
              ],
              [
                -56.534515380859375,
                -21.507801055908203
              ],
              [
                -56.75736999511719,
                -21.507801055908203
              ],
              [
                -56.9567985534668,
                -21.31494140625
              ],
              [
                -57.56660842895508,
                -21.443513870239258
              ],
              [
                -57.55087661743164,
                -21.31494140625
              ],
              [
                -57.91429901123047,
                -21.250656127929688
              ],
              [
                -57.941612243652344,
                -20.864938735961914
              ],
              [
                -58.19184875488281,
                -20.47922134399414
              ],
              [
                -58.14572525024414,
                -20.093503952026367
              ],
              [
                -57.90816879272461,
                -19.96493148803711
              ],
              [
                -57.6104850769043,
                -19.322063446044922
              ],
              [
                -57.269954681396484,
                -18.93634033203125
              ],
              [
                -57.10865783691406,
                -18.164892196655273
              ],
              [
                -57.18252182006836,
                -18.164892196655273
              ],
              [
                -57.13974380493164,
                -17.779165267944336
              ],
              [
                -57.312042236328125,
                -17.329151153564453
              ],
              [
                -57.32417297363281,
                -16.750560760498047
              ],
              [
                -57.46482849121094,
                -16.68627166748047
              ],
              [
                -57.69337844848633,
                -16.043392181396484
              ],
              [
                -58.18925094604492,
                -15.850528717041016
              ],
              [
                -58.66606903076172,
                -15.464800834655762
              ],
              [
                -59.23561096191406,
                -15.271936416625977
              ],
              [
                -59.364051818847656,
                -15.079072952270508
              ],
              [
                -59.86632537841797,
                -14.9504976272583
              ],
              [
                -60.29215621948242,
                -13.986180305480957
              ],
              [
                -60.58013916015625,
                -13.921893119812012
              ],
              [
                -60.777984619140625,
                -13.664741516113281
              ],
              [
                -61.133853912353516,
                -13.536166191101074
              ],
              [
                -61.79974365234375,
                -13.600454330444336
              ],
              [
                -62.082130432128906,
                -13.471879005432129
              ],
              [
                -62.07114791870117,
                -13.343303680419922
              ],
              [
                -62.274932861328125,
                -13.15044116973877
              ],
              [
                -62.99217224121094,
                -12.9575777053833
              ],
              [
                -63.191017150878906,
                -12.700428009033203
              ],
              [
                -63.55752182006836,
                -12.700428009033203
              ],
              [
                -63.68851852416992,
                -12.50756549835205
              ],
              [
                -64.13343048095703,
                -12.571852684020996
              ],
              [
                -64.48946380615234,
                -12.443277359008789
              ],
              [
                -64.82524108886719,
                -12.057552337646484
              ],
              [
                -65.11322784423828,
                -11.993265151977539
              ],
              [
                -65.10330200195312,
                -11.864689826965332
              ],
              [
                -65.2448501586914,
                -11.800402641296387
              ],
              [
                -65.4355697631836,
                -11.414677619934082
              ],
              [
                -65.50990295410156,
                -10.386076927185059
              ],
              [
                -65.33857727050781,
                -10.000351905822754
              ],
              [
                -65.47261810302734,
                -9.807489395141602
              ],
              [
                -65.45286560058594,
                -9.486052513122559
              ],
              [
                -65.22977447509766,
                -9.421764373779297
              ],
              [
                -65.16443634033203,
                -9.550339698791504
              ],
              [
                -65.01827239990234,
                -9.550339698791504
              ],
              [
                -64.69584655761719,
                -9.036039352416992
              ],
              [
                -64.03118133544922,
                -8.907464027404785
              ],
              [
                -63.79116439819336,
                -8.52173900604248
              ],
              [
                -63.77122497558594,
                -8.13601303100586
              ],
              [
                -63.54261779785156,
                -7.943150520324707
              ],
              [
                -63.72829055786133,
                -7.235986709594727
              ],
              [
                -73.79702758789062,
                -7.235986709594727
              ],
              [
                -73.78093719482422,
                -6.914548873901367
              ],
              [
                -73.25202941894531,
                -6.528822898864746
              ],
              [
                -73.22110748291016,
                -5.821659088134766
              ],
              [
                -72.98947143554688,
                -5.500220775604248
              ],
              [
                -72.97960662841797,
                -5.243070125579834
              ],
              [
                -72.75386047363281,
                -5.050207138061523
              ],
              [
                -72.60810089111328,
                -5.050207138061523
              ],
              [
                -72.00748443603516,
                -4.535906314849854
              ],
              [
                -71.34967803955078,
                -4.47161865234375
              ],
              [
                -70.90455627441406,
                -4.214468002319336
              ],
              [
                -70.39459991455078,
                -4.214468002319336
              ],
              [
                -70.17994689941406,
                -4.343043327331543
              ],
              [
                -69.95185852050781,
                -4.021605014801025
              ],
              [
                -69.73149108886719,
                -3.957317352294922
              ],
              [
                -69.79900360107422,
                -3.76445460319519
              ],
              [
                -69.57539367675781,
                -3.57159161567688
              ],
              [
                -68.77098083496094,
                -3.443016529083252
              ],
              [
                -68.55091094970703,
                -3.378728866577148
              ],
              [
                -68.619140625,
                -3.185865879058838
              ],
              [
                -68.0294189453125,
                -2.864427804946899
              ],
              [
                -66.64590454101562,
                -2.864427804946899
              ],
              [
                -65.91385650634766,
                -2.671565055847168
              ],
              [
                -65.97840118408203,
                -2.221551656723022
              ],
              [
                -66.33617401123047,
                -1.83582615852356
              ],
              [
                -66.46559143066406,
                -0.421499729156494
              ],
              [
                -66.173095703125,
                -0.228637129068375
              ],
              [
                -66.11157989501953,
                0.349950581789017
              ],
              [
                -65.96603393554688,
                0.349950581789017
              ],
              [
                -65.96514892578125,
                0.478525668382645
              ],
              [
                -65.67288970947266,
                0.671388268470764
              ],
              [
                -65.38111877441406,
                0.799963414669037
              ],
              [
                -65.38055419921875,
                0.928538501262665
              ],
              [
                -65.08857727050781,
                1.185688734054565
              ],
              [
                -64.65145874023438,
                1.378551483154297
              ],
              [
                -64.36029815673828,
                1.378551483154297
              ],
              [
                -64.21453094482422,
                1.76427698135376
              ],
              [
                -63.414772033691406,
                2.27857780456543
              ],
              [
                -63.48806381225586,
                2.407152891159058
              ],
              [
                -64.07080841064453,
                2.471440553665161
              ],
              [
                -64.29878997802734,
                3.628617763519287
              ],
              [
                -64.66622924804688,
                3.885768175125122
              ],
              [
                -64.81758880615234,
                4.271493911743164
              ],
              [
                -64.6698989868164,
                4.142918586730957
              ],
              [
                -64.23280334472656,
                4.142918586730957
              ],
              [
                -64.08435821533203,
                3.950055837631226
              ],
              [
                -63.355079650878906,
                3.885768175125122
              ],
              [
                -63.1334342956543,
                3.628617763519287
              ],
              [
                -62.91421890258789,
                3.564330101013184
              ],
              [
                -62.769996643066406,
                3.692905426025391
              ],
              [
                -62.70207595825195,
                4.078630924224854
              ],
              [
                -62.04645538330078,
                4.078630924224854
              ],
              [
                -61.90256118774414,
                4.207206249237061
              ],
              [
                -61.68400955200195,
                4.207206249237061
              ],
              [
                -61.39645004272461,
                4.464356899261475
              ],
              [
                -60.88848876953125,
                4.592932224273682
              ],
              [
                -60.67426681518555,
                4.850082874298096
              ],
              [
                -60.67313766479492,
                4.785795211791992
              ],
              [
                -60.666893005371094,
                4.400069236755371
              ],
              [
                -60.73974609375,
                4.400069236755371
              ],
              [
                -60.658451080322266,
                3.757192850112915
              ],
              [
                -60.80206298828125,
                3.564330101013184
              ],
              [
                -60.869564056396484,
                2.921453714370728
              ],
              [
                -60.65033721923828,
                2.7928786277771
              ],
              [
                -60.57752227783203,
                2.7928786277771
              ],
              [
                -60.06856918334961,
                2.921453714370728
              ],
              [
                -60.06660461425781,
                2.535728216171265
              ],
              [
                -59.847354888916016,
                2.27857780456543
              ]
            ]
          ],
          [
            [
              [
                -24.36359405517578,
                14.750371932983398
              ],
              [
                -24.450305938720703,
                15.07181167602539
              ],
              [
                -24.229759216308594,
                15.07181167602539
              ],
              [
                -24.290111541748047,
                14.750371932983398
              ],
              [
                -24.36359405517578,
                14.750371932983398
              ]
            ]
          ],
          [
            [
              [
                -23.413368225097656,
                14.878947257995605
              ],
              [
                -23.78343391418457,
                14.943235397338867
              ],
              [
                -23.786041259765625,
                15.007523536682129
              ],
              [
                -23.725826263427734,
                15.328963279724121
              ],
              [
                -23.578744888305664,
                15.328963279724121
              ],
              [
                -23.4237060546875,
                15.136098861694336
              ],
              [
                -23.413368225097656,
                14.878947257995605
              ]
            ]
          ],
          [
            [
              [
                -22.985170364379883,
                15.200387001037598
              ],
              [
                -23.127033233642578,
                15.07181167602539
              ],
              [
                -23.20054817199707,
                15.07181167602539
              ],
              [
                -23.28192138671875,
                15.26467514038086
              ],
              [
                -23.063955307006836,
                15.328963279724121
              ],
              [
                -22.985170364379883,
                15.200387001037598
              ]
            ]
          ],
          [
            [
              [
                -22.584453582763672,
                16.16470718383789
              ],
              [
                -22.581636428833008,
                16.100418090820312
              ],
              [
                -22.649662017822266,
                15.971842765808105
              ],
              [
                -22.94409942626953,
                15.971842765808105
              ],
              [
                -22.881837844848633,
                16.228994369506836
              ],
              [
                -22.584453582763672,
                16.16470718383789
              ]
            ]
          ],
          [
            [
              [
                -24.372970581054688,
                16.614723205566406
              ],
              [
                -24.37609100341797,
                16.67901039123535
              ],
              [
                -24.08133888244629,
                16.67901039123535
              ],
              [
                -24.075172424316406,
                16.550434112548828
              ],
              [
                -24.366777420043945,
                16.486146926879883
              ],
              [
                -24.372970581054688,
                16.614723205566406
              ]
            ]
          ],
          [
            [
              [
                -22.982027053833008,
                16.807586669921875
              ],
              [
                -22.837635040283203,
                16.87187385559082
              ],
              [
                -22.83462142944336,
                16.807586669921875
              ],
              [
                -22.82863998413086,
                16.67901039123535
              ],
              [
                -22.976016998291016,
                16.67901039123535
              ],
              [
                -22.982027053833008,
                16.807586669921875
              ]
            ]
          ],
          [
            [
              [
                -25.05219268798828,
                16.9361629486084
              ],
              [
                -25.27007293701172,
                16.87187385559082
              ],
              [
                -25.35367202758789,
                17.06473731994629
              ],
              [
                -25.286596298217773,
                17.193313598632812
              ],
              [
                -24.99492835998535,
                17.257600784301758
              ],
              [
                -24.908010482788086,
                17.000450134277344
              ],
              [
                -24.981735229492188,
                17.000450134277344
              ],
              [
                -24.831039428710938,
                16.9361629486084
              ],
              [
                -24.821401596069336,
                16.743297576904297
              ],
              [
                -24.968791961669922,
                16.743297576904297
              ],
              [
                -25.05219268798828,
                16.9361629486084
              ]
            ]
          ],
          [
            [
              [
                -17.170469284057617,
                32.878753662109375
              ],
              [
                -17.09390640258789,
                32.878753662109375
              ],
              [
                -17.017345428466797,
                32.878753662109375
              ],
              [
                -16.78765869140625,
                32.878753662109375
              ],
              [
                -16.691484451293945,
                32.685909271240234
              ],
              [
                -17.067434310913086,
                32.62162780761719
              ],
              [
                -17.170469284057617,
                32.878753662109375
              ]
            ]
          ],
          [
            [
              [
                -25.10663414001465,
                37.89975357055664
              ],
              [
                -25.085397720336914,
                37.7707405090332
              ],
              [
                -25.16351890563965,
                37.7707405090332
              ],
              [
                -25.699617385864258,
                37.706241607666016
              ],
              [
                -25.86661148071289,
                37.7707405090332
              ],
              [
                -25.89920997619629,
                37.96426773071289
              ],
              [
                -25.10663414001465,
                37.89975357055664
              ]
            ]
          ],
          [
            [
              [
                -28.84571075439453,
                38.67427444458008
              ],
              [
                -28.27260398864746,
                38.54513168334961
              ],
              [
                -28.19420051574707,
                38.54513168334961
              ],
              [
                -28.080307006835938,
                38.351463317871094
              ],
              [
                -28.393632888793945,
                38.351463317871094
              ],
              [
                -28.80933952331543,
                38.48057174682617
              ],
              [
                -28.84571075439453,
                38.67427444458008
              ]
            ]
          ],
          [
            [
              [
                -27.88058853149414,
                38.54513168334961
              ],
              [
                -28.037395477294922,
                38.54513168334961
              ],
              [
                -28.151639938354492,
                38.738853454589844
              ],
              [
                -27.892425537109375,
                38.60969924926758
              ],
              [
                -27.88058853149414,
                38.54513168334961
              ]
            ]
          ],
          [
            [
              [
                -27.02972984313965,
                38.60969924926758
              ],
              [
                -27.108158111572266,
                38.60969924926758
              ],
              [
                -27.18658447265625,
                38.60969924926758
              ],
              [
                -27.355144500732422,
                38.67427444458008
              ],
              [
                -27.3904972076416,
                38.8680305480957
              ],
              [
                -27.07640266418457,
                38.8680305480957
              ],
              [
                -27.02972984313965,
                38.60969924926758
              ]
            ]
          ],
          [
            [
              [
                32.61231231689453,
                -25.30082130432129
              ],
              [
                32.61540985107422,
                -25.365114212036133
              ],
              [
                32.54055404663086,
                -25.365114212036133
              ],
              [
                32.53746795654297,
                -25.30082130432129
              ],
              [
                32.61231231689453,
                -25.30082130432129
              ]
            ]
          ],
          [
            [
              [
                39.509883880615234,
                -16.68627166748047
              ],
              [
                39.217994689941406,
                -16.750560760498047
              ],
              [
                38.937522888183594,
                -17.07200050354004
              ],
              [
                38.13489532470703,
                -17.264863967895508
              ],
              [
                37.777320861816406,
                -17.522014617919922
              ],
              [
                37.41116714477539,
                -17.586301803588867
              ],
              [
                37.12981414794922,
                -17.90774154663086
              ],
              [
                36.83723449707031,
                -17.972028732299805
              ],
              [
                36.8482666015625,
                -18.22917938232422
              ],
              [
                36.34749221801758,
                -18.614904403686523
              ],
              [
                36.28173828125,
                -18.80776596069336
              ],
              [
                35.77215576171875,
                -19.000627517700195
              ],
              [
                34.92058181762695,
                -19.900644302368164
              ],
              [
                34.69834518432617,
                -19.900644302368164
              ],
              [
                34.64946365356445,
                -20.543508529663086
              ],
              [
                34.87448501586914,
                -20.6077938079834
              ],
              [
                35.03561019897461,
                -20.92922592163086
              ],
              [
                34.97163009643555,
                -21.186368942260742
              ],
              [
                35.217830657958984,
                -21.76494598388672
              ],
              [
                35.2418098449707,
                -22.343524932861328
              ],
              [
                35.396060943603516,
                -22.472097396850586
              ],
              [
                35.409889221191406,
                -22.793533325195312
              ],
              [
                35.48434829711914,
                -22.793533325195312
              ],
              [
                35.435550689697266,
                -23.372121810913086
              ],
              [
                35.229515075683594,
                -23.757850646972656
              ],
              [
                35.45935821533203,
                -23.886428833007812
              ],
              [
                35.46856689453125,
                -24.079296112060547
              ],
              [
                35.18551254272461,
                -24.400745391845703
              ],
              [
                35.19186019897461,
                -24.529325485229492
              ],
              [
                34.83102798461914,
                -24.786487579345703
              ],
              [
                33.50403594970703,
                -25.172237396240234
              ],
              [
                32.92436981201172,
                -25.55799102783203
              ],
              [
                32.77459716796875,
                -25.55799102783203
              ],
              [
                32.49761199951172,
                -26.008041381835938
              ],
              [
                32.6576042175293,
                -26.20092010498047
              ],
              [
                32.357601165771484,
                -26.20092010498047
              ],
              [
                32.201011657714844,
                -26.07233428955078
              ],
              [
                32.191287994384766,
                -25.87945556640625
              ],
              [
                32.48139190673828,
                -25.68657684326172
              ],
              [
                32.61540985107422,
                -25.365114212036133
              ],
              [
                33.49152374267578,
                -24.915069580078125
              ],
              [
                34.08345413208008,
                -24.786487579345703
              ],
              [
                34.077247619628906,
                -24.65790557861328
              ],
              [
                34.30458068847656,
                -24.722196578979492
              ],
              [
                34.74356460571289,
                -24.529325485229492
              ],
              [
                35.02989196777344,
                -24.272165298461914
              ],
              [
                34.93407440185547,
                -23.822139739990234
              ],
              [
                35.134517669677734,
                -23.307832717895508
              ],
              [
                35.101112365722656,
                -22.53638458251953
              ],
              [
                34.85403060913086,
                -21.957805633544922
              ],
              [
                34.8307991027832,
                -21.379228591918945
              ],
              [
                34.66960525512695,
                -21.057798385620117
              ],
              [
                34.73876953125,
                -20.92922592163086
              ],
              [
                34.43196105957031,
                -20.672080993652344
              ],
              [
                34.41203308105469,
                -20.15778923034668
              ],
              [
                34.258846282958984,
                -20.029216766357422
              ],
              [
                34.31292724609375,
                -19.514923095703125
              ],
              [
                34.60650634765625,
                -19.45063591003418
              ],
              [
                34.83370590209961,
                -19.57921028137207
              ],
              [
                34.90259552001953,
                -19.45063591003418
              ],
              [
                35.05064010620117,
                -19.45063591003418
              ],
              [
                35.76414489746094,
                -18.80776596069336
              ],
              [
                35.75880813598633,
                -18.67919158935547
              ],
              [
                35.90934371948242,
                -18.743478775024414
              ],
              [
                36.550048828125,
                -18.164892196655273
              ],
              [
                36.68136978149414,
                -17.779165267944336
              ],
              [
                37.11874771118164,
                -17.650590896606445
              ],
              [
                37.25531005859375,
                -17.3934383392334
              ],
              [
                37.47662353515625,
                -17.3934383392334
              ],
              [
                37.54484939575195,
                -17.264863967895508
              ],
              [
                37.766117095947266,
                -17.264863967895508
              ],
              [
                37.83429718017578,
                -17.136287689208984
              ],
              [
                38.415740966796875,
                -16.943424224853516
              ],
              [
                38.41012954711914,
                -16.814847946166992
              ],
              [
                38.56035232543945,
                -16.879135131835938
              ],
              [
                38.84951400756836,
                -16.750560760498047
              ],
              [
                38.9884033203125,
                -16.557695388793945
              ],
              [
                39.28025817871094,
                -16.493408203125
              ],
              [
                39.49272918701172,
                -16.30054473876953
              ],
              [
                39.487098693847656,
                -16.171968460083008
              ],
              [
                39.9148063659668,
                -15.850528717041016
              ],
              [
                39.909263610839844,
                -15.721952438354492
              ],
              [
                40.19529724121094,
                -15.529088973999023
              ],
              [
                40.187129974365234,
                -15.336224555969238
              ],
              [
                40.33150863647461,
                -15.271936416625977
              ],
              [
                40.323486328125,
                -15.079072952270508
              ],
              [
                40.171207427978516,
                -14.9504976272583
              ],
              [
                40.23694610595703,
                -14.757633209228516
              ],
              [
                40.74872970581055,
                -14.69334602355957
              ],
              [
                40.68838882446289,
                -15.014784812927246
              ],
              [
                40.54671096801758,
                -15.14336109161377
              ],
              [
                40.49232482910156,
                -15.593376159667969
              ],
              [
                40.20638656616211,
                -15.786240577697754
              ],
              [
                40.212013244628906,
                -15.914815902709961
              ],
              [
                39.999671936035156,
                -16.10767936706543
              ],
              [
                40.00251770019531,
                -16.171968460083008
              ],
              [
                39.78731155395508,
                -16.30054473876953
              ],
              [
                39.72226333618164,
                -16.493408203125
              ],
              [
                39.574928283691406,
                -16.493408203125
              ],
              [
                39.509883880615234,
                -16.68627166748047
              ]
            ]
          ],
          [
            [
              [
                13.992116928100586,
                -12.12183952331543
              ],
              [
                13.846521377563477,
                -12.378990173339844
              ],
              [
                13.627131462097168,
                -12.50756549835205
              ],
              [
                13.554931640625,
                -12.82900333404541
              ],
              [
                12.822331428527832,
                -13.021865844726562
              ],
              [
                12.894619941711426,
                -12.636139869689941
              ],
              [
                13.333992004394531,
                -12.50756549835205
              ],
              [
                13.697819709777832,
                -11.736114501953125
              ],
              [
                13.695167541503906,
                -10.90037727355957
              ],
              [
                13.47437572479248,
                -10.45036506652832
              ],
              [
                13.254453659057617,
                -10.257502555847168
              ],
              [
                13.253776550292969,
                -10.000351905822754
              ],
              [
                13.033821105957031,
                -9.743202209472656
              ],
              [
                13.032878875732422,
                -9.357477188110352
              ],
              [
                12.88643741607666,
                -9.228901863098145
              ],
              [
                12.885685920715332,
                -8.907464027404785
              ],
              [
                13.250408172607422,
                -8.714601516723633
              ],
              [
                13.249732971191406,
                -8.457450866699219
              ],
              [
                13.468976020812988,
                -8.52173900604248
              ],
              [
                13.615582466125488,
                -8.714601516723633
              ],
              [
                13.398759841918945,
                -9.550339698791504
              ],
              [
                13.61970043182373,
                -10.128927230834961
              ],
              [
                13.766329765319824,
                -10.257502555847168
              ],
              [
                13.766528129577637,
                -10.321789741516113
              ],
              [
                14.061224937438965,
                -10.964664459228516
              ],
              [
                14.137176513671875,
                -11.736114501953125
              ],
              [
                13.991183280944824,
                -11.864689826965332
              ],
              [
                13.992116928100586,
                -12.12183952331543
              ]
            ]
          ],
          [
            [
              [
                124.25831604003906,
                -9.486052513122559
              ],
              [
                123.96600341796875,
                -9.486052513122559
              ],
              [
                123.80821228027344,
                -9.357477188110352
              ],
              [
                123.88128662109375,
                -9.357477188110352
              ],
              [
                123.94285583496094,
                -9.228901863098145
              ],
              [
                124.3024673461914,
                -9.1646146774292
              ],
              [
                124.37552642822266,
                -9.1646146774292
              ],
              [
                124.25831604003906,
                -9.486052513122559
              ]
            ]
          ],
          [
            [
              [
                125.03881072998047,
                -9.228901863098145
              ],
              [
                125.02169036865234,
                -9.036039352416992
              ],
              [
                124.80252838134766,
                -9.036039352416992
              ],
              [
                124.7182846069336,
                -8.907464027404785
              ],
              [
                124.71273803710938,
                -8.84317684173584
              ],
              [
                125.19677734375,
                -8.52173900604248
              ],
              [
                126.50582885742188,
                -8.457450866699219
              ],
              [
                126.64117431640625,
                -8.328875541687012
              ],
              [
                127.23064422607422,
                -8.393163681030273
              ],
              [
                127.17391204833984,
                -8.586026191711426
              ],
              [
                126.89839172363281,
                -8.778888702392578
              ],
              [
                126.67927551269531,
                -8.778888702392578
              ],
              [
                126.61746215820312,
                -8.907464027404785
              ],
              [
                125.83672332763672,
                -9.1646146774292
              ],
              [
                125.76366424560547,
                -9.1646146774292
              ],
              [
                125.2637939453125,
                -9.29318904876709
              ],
              [
                124.99504089355469,
                -9.550339698791504
              ],
              [
                124.92195892333984,
                -9.550339698791504
              ],
              [
                124.82539367675781,
                -9.29318904876709
              ],
              [
                125.03881072998047,
                -9.228901863098145
              ]
            ]
          ],
          [
            [
              [
                122.28630828857422,
                -8.650314331054688
              ],
              [
                122.27579498291016,
                -8.52173900604248
              ],
              [
                122.47933959960938,
                -8.328875541687012
              ],
              [
                122.6253662109375,
                -8.328875541687012
              ],
              [
                122.60514831542969,
                -8.071725845336914
              ],
              [
                122.82415008544922,
                -8.071725845336914
              ],
              [
                122.82916259765625,
                -8.13601303100586
              ],
              [
                122.92778015136719,
                -8.457450866699219
              ],
              [
                122.7087173461914,
                -8.457450866699219
              ],
              [
                122.65679168701172,
                -8.714601516723633
              ],
              [
                122.28630828857422,
                -8.650314331054688
              ]
            ]
          ],
          [
            [
              [
                6.382774829864502,
                0.028512962162495
              ],
              [
                6.299571514129639,
                0.285663068294525
              ],
              [
                6.300692081451416,
                0.349950581789017
              ],
              [
                6.665691375732422,
                0.414238125085831
              ],
              [
                6.661185741424561,
                0.15708801150322
              ],
              [
                6.382774829864502,
                0.028512962162495
              ]
            ]
          ],
          [
            [
              [
                7.342116832733154,
                1.699989318847656
              ],
              [
                7.339029312133789,
                1.507126569747925
              ],
              [
                7.193447589874268,
                1.507126569747925
              ],
              [
                7.269322872161865,
                1.699989318847656
              ],
              [
                7.342116832733154,
                1.699989318847656
              ]
            ]
          ],
          [
            [
              [
                -16.36302947998047,
                12.178865432739258
              ],
              [
                -16.582807540893555,
                12.178865432739258
              ],
              [
                -16.806697845458984,
                12.37172794342041
              ],
              [
                -16.812381744384766,
                12.628878593444824
              ],
              [
                -16.592496871948242,
                12.628878593444824
              ],
              [
                -16.596864700317383,
                12.821741104125977
              ],
              [
                -16.082260131835938,
                12.757453918457031
              ],
              [
                -16.002023696899414,
                12.436016082763672
              ],
              [
                -16.147228240966797,
                12.37172794342041
              ],
              [
                -15.927406311035156,
                12.37172794342041
              ],
              [
                -15.92347240447998,
                12.178865432739258
              ],
              [
                -16.069992065429688,
                12.178865432739258
              ],
              [
                -16.067419052124023,
                12.050291061401367
              ],
              [
                -15.627921104431152,
                12.050291061401367
              ],
              [
                -15.551015853881836,
                11.857428550720215
              ],
              [
                -15.623055458068848,
                11.793140411376953
              ],
              [
                -15.621872901916504,
                11.728853225708008
              ],
              [
                -16.06122589111328,
                11.728853225708008
              ],
              [
                -16.13689613342285,
                11.857428550720215
              ],
              [
                -16.282127380371094,
                11.793140411376953
              ],
              [
                -16.36302947998047,
                12.178865432739258
              ]
            ]
          ],
          [
            [
              [
                73.79009246826172,
                15.328963279724121
              ],
              [
                73.79620361328125,
                15.393251419067383
              ],
              [
                73.8023452758789,
                15.457538604736328
              ],
              [
                74.31723022460938,
                15.457538604736328
              ],
              [
                74.57460021972656,
                15.07181167602539
              ],
              [
                74.55064392089844,
                14.81466007232666
              ],
              [
                74.3125991821289,
                14.621796607971191
              ],
              [
                74.23912811279297,
                14.621796607971191
              ],
              [
                73.9189682006836,
                15.136098861694336
              ],
              [
                73.92501068115234,
                15.200387001037598
              ],
              [
                73.93107604980469,
                15.26467514038086
              ],
              [
                73.8575439453125,
                15.26467514038086
              ],
              [
                73.86363220214844,
                15.328963279724121
              ],
              [
                73.79009246826172,
                15.328963279724121
              ]
            ]
          ],
          [
            [
              [
                73.1801986694336,
                20.08624267578125
              ],
              [
                72.9578857421875,
                20.08624267578125
              ],
              [
                72.89759063720703,
                20.214815139770508
              ],
              [
                73.1871337890625,
                20.150527954101562
              ],
              [
                73.1801986694336,
                20.08624267578125
              ]
            ]
          ],
          [
            [
              [
                113.48994445800781,
                22.143402099609375
              ],
              [
                113.41557312011719,
                22.143402099609375
              ],
              [
                113.4513931274414,
                22.33626365661621
              ],
              [
                113.68661499023438,
                22.400548934936523
              ],
              [
                113.67457580566406,
                22.33626365661621
              ],
              [
                113.6625747680664,
                22.271976470947266
              ],
              [
                113.6506118774414,
                22.20768928527832
              ],
              [
                113.63867950439453,
                22.143402099609375
              ],
              [
                113.56431579589844,
                22.143402099609375
              ],
              [
                113.48994445800781,
                22.143402099609375
              ]
            ]
          ],
          [
            [
              [
                -8.70113754272461,
                37.12596130371094
              ],
              [
                -9.00136661529541,
                36.9970588684082
              ],
              [
                -8.896896362304688,
                37.5772590637207
              ],
              [
                -8.818843841552734,
                37.5772590637207
              ],
              [
                -8.822718620300293,
                38.48057174682617
              ],
              [
                -9.20852279663086,
                38.416015625
              ],
              [
                -9.23299789428711,
                38.67427444458008
              ],
              [
                -9.38370418548584,
                38.60969924926758
              ],
              [
                -9.553065299987793,
                38.738853454589844
              ],
              [
                -9.571974754333496,
                38.93262481689453
              ],
              [
                -9.42748737335205,
                39.06184005737305
              ],
              [
                -9.387048721313477,
                39.449623107910156
              ],
              [
                -9.157164573669434,
                39.51427459716797
              ],
              [
                -9.103915214538574,
                39.77294921875
              ],
              [
                -9.025042533874512,
                39.77294921875
              ],
              [
                -8.925222396850586,
                40.355369567871094
              ],
              [
                -8.846114158630371,
                40.355369567871094
              ],
              [
                -8.872282981872559,
                40.614410400390625
              ],
              [
                -8.72695255279541,
                40.74397277832031
              ],
              [
                -8.921201705932617,
                41.84651184082031
              ],
              [
                -8.928141593933105,
                41.911441802978516
              ],
              [
                -8.469955444335938,
                42.10627746582031
              ],
              [
                -8.150541305541992,
                42.10627746582031
              ],
              [
                -8.137139320373535,
                41.97637939453125
              ],
              [
                -8.216935157775879,
                41.97637939453125
              ],
              [
                -8.11717414855957,
                41.781593322753906
              ],
              [
                -6.700808048248291,
                41.97637939453125
              ],
              [
                -6.516909122467041,
                41.71668243408203
              ],
              [
                -6.271912097930908,
                41.65177917480469
              ],
              [
                -6.254164218902588,
                41.45711898803711
              ],
              [
                -6.927728176116943,
                41.00318908691406
              ],
              [
                -6.868430137634277,
                40.355369567871094
              ],
              [
                -7.014894485473633,
                40.225894927978516
              ],
              [
                -7.00321626663208,
                40.0964469909668
              ],
              [
                -6.839452266693115,
                40.031734466552734
              ],
              [
                -6.895466804504395,
                39.77294921875
              ],
              [
                -7.435848712921143,
                39.64360046386719
              ],
              [
                -7.418391227722168,
                39.449623107910156
              ],
              [
                -7.255166053771973,
                39.38497543334961
              ],
              [
                -6.985427379608154,
                38.997230529785156
              ],
              [
                -7.120340347290039,
                38.738853454589844
              ],
              [
                -7.271727085113525,
                38.67427444458008
              ],
              [
                -7.244168281555176,
                38.351463317871094
              ],
              [
                -6.998411178588867,
                38.22237777709961
              ],
              [
                -6.987714290618896,
                38.09331130981445
              ],
              [
                -7.14418888092041,
                38.09331130981445
              ],
              [
                -7.27909517288208,
                37.835243225097656
              ],
              [
                -7.502705097198486,
                37.706241607666016
              ],
              [
                -7.387404441833496,
                37.254878997802734
              ],
              [
                -7.465344429016113,
                37.254878997802734
              ],
              [
                -7.454815864562988,
                37.12596130371094
              ],
              [
                -7.677903652191162,
                36.9970588684082
              ],
              [
                -8.067157745361328,
                36.9970588684082
              ],
              [
                -8.311661720275879,
                37.12596130371094
              ],
              [
                -8.70113754272461,
                37.12596130371094
              ]
            ]
          ]
        ]
      }
    }
  ]
}