{
  "type": "FeatureCollection",
  "name": "territory-645",
  "features": [
    {
      "type": "Feature",
      "properties": {
        "Name": "Portuguese Ceylon",
        "FromYear": 1595,
        "ToYear": 1599,
        "Area": 61280.399568876135,
        "Type": "POLITY",
        "Wikipedia": "Portuguese Ceylon",
        "Wikidata": "Q1709007",
        "SeshatID": "",
        "Components": "",
        "MemberOf": "(Portuguese Empire)"
      },
      "geometry": {
        "type": "Polygon",
        "coordinates": [
          [
            [
              81.25503540039062,
              8.578764915466309
            ],
            [
              81.39713287353516,
              8.514476776123047
            ],
            [
              81.44681549072266,
              8.128751754760742
            ],
            [
              81.65440368652344,
              7.935888767242432
            ],
            [
              81.77438354492188,
              7.485875606536865
            ],
            [
              81.91669464111328,
              7.421587944030762
            ],
            [
              81.87792205810547,
              6.714424133300781
            ],
            [
              81.33750915527344,
              6.135835647583008
            ],
            [
              80.9665298461914,
              6.007260322570801
            ],
            [
              80.89362335205078,
              6.007260322570801
            ],
            [
              80.82710266113281,
              6.135835647583008
            ],
            [
              80.31990051269531,
              6.200123310089111
            ],
            [
              80.32636260986328,
              6.328698635101318
            ],
            [
              80.18376922607422,
              6.392985820770264
            ],
            [
              80.18704223632812,
              6.457273483276367
            ],
            [
              80.05110168457031,
              6.650136470794678
            ],
            [
              80.07495880126953,
              8.385902404785156
            ],
            [
              80.0096664428711,
              8.514476776123047
            ],
            [
              79.79059600830078,
              8.514476776123047
            ],
            [
              79.79447937011719,
              8.578764915466309
            ],
            [
              79.89527893066406,
              9.028778076171875
            ],
            [
              80.04952239990234,
              9.157352447509766
            ],
            [
              79.99295806884766,
              9.41450309753418
            ],
            [
              80.0786361694336,
              9.607365608215332
            ],
            [
              79.86360931396484,
              9.671652793884277
            ],
            [
              79.87643432617188,
              9.86451530456543
            ],
            [
              80.45260620117188,
              9.735940933227539
            ],
            [
              80.52141571044922,
              9.671652793884277
            ],
            [
              80.4398193359375,
              9.543078422546387
            ],
            [
              80.72791290283203,
              9.478790283203125
            ],
            [
              80.7195053100586,
              9.350214958190918
            ],
            [
              80.86146545410156,
              9.285927772521973
            ],
            [
              80.8531723022461,
              9.157352447509766
            ],
            [
              80.99517059326172,
              9.09306526184082
            ],
            [
              80.98698425292969,
              8.964489936828613
            ],
            [
              81.2590103149414,
              8.643052101135254
            ],
            [
              81.25503540039062,
              8.578764915466309
            ]
          ]
        ]
      }
    }
  ]
}