{
  "type": "FeatureCollection",
  "name": "territory-651",
  "features": [
    {
      "type": "Feature",
      "properties": {
        "Name": "Khanate of Bukhara",
        "FromYear": 1526,
        "ToYear": 1528,
        "Area": 767162.4110277132,
        "Type": "POLITY",
        "Wikipedia": "Khanate of Bukhara",
        "Wikidata": "Q577668",
        "SeshatID": "",
        "Components": "",
        "MemberOf": ""
      },
      "geometry": {
        "type": "Polygon",
        "coordinates": [
          [
            [
              73.6902847290039,
              39.449623107910156
            ],
            [
              73.61153411865234,
              39.449623107910156
            ],
            [
              73.29655456542969,
              39.449623107910156
            ],
            [
              73.0993423461914,
              39.320335388183594
            ],
            [
              72.48939514160156,
              39.38497543334961
            ],
            [
              71.61256408691406,
              38.54513168334961
            ],
            [
              71.26215362548828,
              38.416015625
            ],
            [
              70.71366119384766,
              38.416015625
            ],
            [
              70.4245834350586,
              38.22237777709961
            ],
            [
              70.38887786865234,
              38.09331130981445
            ],
            [
              70.2146987915039,
              38.028785705566406
            ],
            [
              70.16192626953125,
              37.835243225097656
            ],
            [
              70.28324127197266,
              37.706241607666016
            ],
            [
              70.1877670288086,
              37.641746520996094
            ],
            [
              70.17044830322266,
              37.5772590637207
            ],
            [
              69.5460205078125,
              37.5772590637207
            ],
            [
              69.3497543334961,
              37.12596130371094
            ],
            [
              69.1160659790039,
              37.12596130371094
            ],
            [
              69.0102767944336,
              37.3193473815918
            ],
            [
              68.50938415527344,
              37.1904182434082
            ],
            [
              68.47648620605469,
              37.06150817871094
            ],
            [
              68.71009826660156,
              37.06150817871094
            ],
            [
              68.67727661132812,
              36.932613372802734
            ],
            [
              68.87802124023438,
              36.80373764038086
            ],
            [
              68.62396240234375,
              36.09519577026367
            ],
            [
              68.42280578613281,
              36.2239875793457
            ],
            [
              67.3832015991211,
              36.09519577026367
            ],
            [
              66.96399688720703,
              36.28839111328125
            ],
            [
              66.32786560058594,
              36.2239875793457
            ],
            [
              65.695068359375,
              34.80794906616211
            ],
            [
              64.36990356445312,
              34.743614196777344
            ],
            [
              63.54449462890625,
              34.48630142211914
            ],
            [
              61.42580795288086,
              34.2933349609375
            ],
            [
              61.143497467041016,
              34.42197799682617
            ],
            [
              61.028018951416016,
              34.614952087402344
            ],
            [
              61.343589782714844,
              35.77327346801758
            ],
            [
              61.21587371826172,
              35.902034759521484
            ],
            [
              61.270694732666016,
              36.15959167480469
            ],
            [
              61.19312286376953,
              36.15959167480469
            ],
            [
              61.135074615478516,
              36.61045455932617
            ],
            [
              60.43560028076172,
              36.61045455932617
            ],
            [
              59.92444610595703,
              37.12596130371094
            ],
            [
              59.40696334838867,
              37.254878997802734
            ],
            [
              59.16501998901367,
              37.5772590637207
            ],
            [
              58.39836883544922,
              37.641746520996094
            ],
            [
              57.907169342041016,
              37.89975357055664
            ],
            [
              57.51633071899414,
              37.89975357055664
            ],
            [
              57.19456481933594,
              38.22237777709961
            ],
            [
              56.88142776489258,
              38.22237777709961
            ],
            [
              56.738677978515625,
              38.28691864013672
            ],
            [
              56.76646041870117,
              38.416015625
            ],
            [
              56.38853073120117,
              38.48057174682617
            ],
            [
              56.40242385864258,
              38.54513168334961
            ],
            [
              56.3800048828125,
              38.80344009399414
            ],
            [
              56.08003234863281,
              38.8680305480957
            ],
            [
              56.287353515625,
              39.449623107910156
            ],
            [
              56.474159240722656,
              39.57893371582031
            ],
            [
              56.51854705810547,
              39.77294921875
            ],
            [
              56.360801696777344,
              39.77294921875
            ],
            [
              56.39057540893555,
              39.90232849121094
            ],
            [
              56.890953063964844,
              40.6791877746582
            ],
            [
              57.0336799621582,
              40.614410400390625
            ],
            [
              57.81306457519531,
              41.19768524169922
            ],
            [
              57.82952117919922,
              41.26253128051758
            ],
            [
              60.003623962402344,
              41.06801223754883
            ],
            [
              60.12825393676758,
              40.93837356567383
            ],
            [
              61.51229476928711,
              41.06801223754883
            ],
            [
              62.73295974731445,
              41.45711898803711
            ],
            [
              63.22390365600586,
              41.781593322753906
            ],
            [
              63.73413848876953,
              42.43117141723633
            ],
            [
              68.28358459472656,
              40.355369567871094
            ],
            [
              68.71808624267578,
              40.4848747253418
            ],
            [
              69.3732681274414,
              41.06801223754883
            ],
            [
              70.54735565185547,
              41.26253128051758
            ],
            [
              70.7483901977539,
              41.39224624633789
            ],
            [
              70.81197357177734,
              41.586883544921875
            ],
            [
              72.30657958984375,
              42.236209869384766
            ],
            [
              72.74108123779297,
              42.10627746582031
            ],
            [
              73.37991333007812,
              42.10627746582031
            ],
            [
              73.60877227783203,
              41.84651184082031
            ],
            [
              73.63404083251953,
              41.45711898803711
            ],
            [
              73.71360778808594,
              41.45711898803711
            ],
            [
              73.66934967041016,
              41.32738494873047
            ],
            [
              73.81987762451172,
              41.06801223754883
            ],
            [
              73.73299407958984,
              40.80876541137695
            ],
            [
              73.84847259521484,
              40.6791877746582
            ],
            [
              73.81617736816406,
              40.0964469909668
            ],
            [
              73.95331573486328,
              40.031734466552734
            ],
            [
              73.88824462890625,
              39.57893371582031
            ],
            [
              73.6902847290039,
              39.449623107910156
            ]
          ]
        ]
      }
    }
  ]
}