{
  "type": "FeatureCollection",
  "name": "territory-663",
  "features": [
    {
      "type": "Feature",
      "properties": {
        "Name": "Hussain Shahi Dynasty",
        "FromYear": 1534,
        "ToYear": 1539,
        "Area": 260980.2882451668,
        "Type": "POLITY",
        "Wikipedia": "Hussain Shahi dynasty",
        "Wikidata": "Q5949588",
        "SeshatID": "",
        "Components": "",
        "MemberOf": ""
      },
      "geometry": {
        "type": "Polygon",
        "coordinates": [
          [
            [
              87.23990631103516,
              26.386537551879883
            ],
            [
              88.22762298583984,
              26.450830459594727
            ],
            [
              88.35322570800781,
              26.32224464416504
            ],
            [
              88.87838745117188,
              26.32224464416504
            ],
            [
              89.15399169921875,
              26.19365882873535
            ],
            [
              89.60398864746094,
              26.19365882873535
            ],
            [
              90.01731872558594,
              26.000778198242188
            ],
            [
              90.39214324951172,
              26.000778198242188
            ],
            [
              90.36003112792969,
              25.422143936157227
            ],
            [
              90.51600646972656,
              25.03639030456543
            ],
            [
              90.47157287597656,
              24.779226303100586
            ],
            [
              90.54632568359375,
              24.779226303100586
            ],
            [
              90.6117935180664,
              23.814878463745117
            ],
            [
              90.6864013671875,
              23.814878463745117
            ],
            [
              90.64187622070312,
              23.043420791625977
            ],
            [
              90.5385513305664,
              22.85055923461914
            ],
            [
              90.68748474121094,
              22.85055923461914
            ],
            [
              90.79834747314453,
              22.59341049194336
            ],
            [
              90.93775177001953,
              22.529123306274414
            ],
            [
              90.86321258544922,
              22.014829635620117
            ],
            [
              90.6309814453125,
              21.950544357299805
            ],
            [
              90.64935302734375,
              22.079116821289062
            ],
            [
              90.42626953125,
              22.079116821289062
            ],
            [
              90.23202514648438,
              21.7576847076416
            ],
            [
              89.89663696289062,
              22.014829635620117
            ],
            [
              89.86945343017578,
              21.821969985961914
            ],
            [
              89.71179962158203,
              21.7576847076416
            ],
            [
              89.11725616455078,
              21.7576847076416
            ],
            [
              89.09945678710938,
              21.629112243652344
            ],
            [
              88.72795104980469,
              21.629112243652344
            ],
            [
              88.71597290039062,
              22.079116821289062
            ],
            [
              88.64161682128906,
              22.079116821289062
            ],
            [
              88.51387023925781,
              21.693397521972656
            ],
            [
              88.3652572631836,
              21.693397521972656
            ],
            [
              88.34766387939453,
              21.5648250579834
            ],
            [
              88.133544921875,
              21.629112243652344
            ],
            [
              88.17765045166016,
              21.950544357299805
            ],
            [
              87.76203918457031,
              21.629112243652344
            ],
            [
              87.3818588256836,
              21.5648250579834
            ],
            [
              87.25931549072266,
              21.7576847076416
            ],
            [
              86.9707260131836,
              21.821969985961914
            ],
            [
              86.9881591796875,
              21.950544357299805
            ],
            [
              86.83946990966797,
              21.950544357299805
            ],
            [
              86.81784057617188,
              22.33626365661621
            ],
            [
              86.54686737060547,
              22.529123306274414
            ],
            [
              86.59183502197266,
              22.85055923461914
            ],
            [
              86.2939682006836,
              22.85055923461914
            ],
            [
              86.09776306152344,
              23.043420791625977
            ],
            [
              85.80889129638672,
              23.107707977294922
            ],
            [
              85.9671401977539,
              23.68630027770996
            ],
            [
              86.32353210449219,
              24.07203483581543
            ],
            [
              86.28852844238281,
              24.329193115234375
            ],
            [
              84.39234924316406,
              24.136323928833008
            ],
            [
              84.17799377441406,
              24.200613021850586
            ],
            [
              84.77750396728516,
              25.164974212646484
            ],
            [
              84.78807067871094,
              25.229267120361328
            ],
            [
              84.96089935302734,
              25.807899475097656
            ],
            [
              84.89714813232422,
              25.8721923828125
            ],
            [
              84.90839385986328,
              25.936485290527344
            ],
            [
              84.9972152709961,
              26.836584091186523
            ],
            [
              85.2734603881836,
              26.70800018310547
            ],
            [
              85.73619079589844,
              26.772293090820312
            ],
            [
              85.78701782226562,
              26.643707275390625
            ],
            [
              86.3125991821289,
              26.643707275390625
            ],
            [
              86.65162658691406,
              26.450830459594727
            ],
            [
              87.25200653076172,
              26.450830459594727
            ],
            [
              87.23990631103516,
              26.386537551879883
            ]
          ]
        ]
      }
    }
  ]
}