{
  "type": "FeatureCollection",
  "name": "territory-667",
  "features": [
    {
      "type": "Feature",
      "properties": {
        "Name": "Sultanate of Harar",
        "FromYear": 1547,
        "ToYear": 1563,
        "Area": 87300.13472864819,
        "Type": "POLITY",
        "Wikipedia": "Adal Sultanate",
        "Wikidata": "Q2365048",
        "SeshatID": "",
        "Components": "",
        "MemberOf": ""
      },
      "geometry": {
        "type": "Polygon",
        "coordinates": [
          [
            [
              42.8070068359375,
              11.6002779006958
            ],
            [
              43.24630355834961,
              11.6002779006958
            ],
            [
              43.67005920410156,
              11.214552879333496
            ],
            [
              43.73307418823242,
              10.957403182983398
            ],
            [
              44.083831787109375,
              10.571678161621094
            ],
            [
              44.371421813964844,
              10.443102836608887
            ],
            [
              45.105323791503906,
              10.507390975952148
            ],
            [
              45.10027313232422,
              10.378815650939941
            ],
            [
              45.0196418762207,
              10.185953140258789
            ],
            [
              44.72223663330078,
              10.057377815246582
            ],
            [
              44.49321365356445,
              9.800228118896484
            ],
            [
              44.049888610839844,
              9.671652793884277
            ],
            [
              43.89667892456055,
              9.478790283203125
            ],
            [
              43.67512893676758,
              9.41450309753418
            ],
            [
              43.6705207824707,
              9.285927772521973
            ],
            [
              42.63207244873047,
              8.835914611816406
            ],
            [
              42.55467224121094,
              8.707340240478516
            ],
            [
              42.40860366821289,
              8.707340240478516
            ],
            [
              42.40428924560547,
              8.578764915466309
            ],
            [
              42.33340835571289,
              8.643052101135254
            ],
            [
              42.260379791259766,
              8.643052101135254
            ],
            [
              41.989990234375,
              9.285927772521973
            ],
            [
              41.706565856933594,
              9.543078422546387
            ],
            [
              41.784122467041016,
              9.671652793884277
            ],
            [
              41.75745391845703,
              10.957403182983398
            ],
            [
              41.830623626708984,
              10.957403182983398
            ],
            [
              41.94109344482422,
              11.92171573638916
            ],
            [
              42.165985107421875,
              12.050291061401367
            ],
            [
              42.4015998840332,
              12.436016082763672
            ],
            [
              42.26580810546875,
              12.69316577911377
            ],
            [
              42.71112060546875,
              12.821741104125977
            ],
            [
              42.79000473022461,
              12.950316429138184
            ],
            [
              42.86332321166992,
              12.950316429138184
            ],
            [
              43.15378952026367,
              12.886029243469238
            ],
            [
              43.2159309387207,
              12.628878593444824
            ],
            [
              43.49530792236328,
              12.307440757751465
            ],
            [
              43.48179626464844,
              11.986002922058105
            ],
            [
              42.81216049194336,
              11.728853225708008
            ],
            [
              42.73379135131836,
              11.6002779006958
            ],
            [
              42.8070068359375,
              11.6002779006958
            ]
          ]
        ]
      }
    }
  ]
}