{
  "type": "FeatureCollection",
  "name": "territory-669",
  "features": [
    {
      "type": "Feature",
      "properties": {
        "Name": "Saadi Sultanate",
        "FromYear": 1595,
        "ToYear": 1599,
        "Area": 841431.83122114,
        "Type": "POLITY",
        "Wikipedia": "Saadi Sultanate",
        "Wikidata": "Q1136188",
        "SeshatID": "ma_saadi_sultanate",
        "Components": "",
        "MemberOf": ""
      },
      "geometry": {
        "type": "Polygon",
        "coordinates": [
          [
            [
              -2.661749362945557,
              35.065311431884766
            ],
            [
              -2.198449373245239,
              35.065311431884766
            ],
            [
              -2.121232748031616,
              35.065311431884766
            ],
            [
              -2.114432096481323,
              34.93662643432617
            ],
            [
              -1.715473294258118,
              34.679283142089844
            ],
            [
              -1.578816890716553,
              33.45735549926758
            ],
            [
              -1.575780987739563,
              33.393062591552734
            ],
            [
              -2.17681884765625,
              33.13589859008789
            ],
            [
              -3.203212976455688,
              32.23596954345703
            ],
            [
              -3.19352912902832,
              32.043148040771484
            ],
            [
              -3.422517538070679,
              32.043148040771484
            ],
            [
              -3.416012048721313,
              31.91460609436035
            ],
            [
              -3.638331174850464,
              31.78606605529785
            ],
            [
              -3.555586099624634,
              31.65752601623535
            ],
            [
              -3.780986070632935,
              31.593257904052734
            ],
            [
              -3.767992734909058,
              31.336183547973633
            ],
            [
              -3.923539161682129,
              31.40045166015625
            ],
            [
              -4.214911460876465,
              31.143381118774414
            ],
            [
              -4.208353042602539,
              31.014846801757812
            ],
            [
              -4.648018360137939,
              30.69350814819336
            ],
            [
              -4.565487384796143,
              30.564971923828125
            ],
            [
              -4.717374801635742,
              30.564971923828125
            ],
            [
              -4.925354480743408,
              30.179353713989258
            ],
            [
              -4.912367820739746,
              29.922264099121094
            ],
            [
              -4.836581230163574,
              29.922264099121094
            ],
            [
              -4.735654830932617,
              29.40805435180664
            ],
            [
              -4.499565124511719,
              29.21521759033203
            ],
            [
              -4.493561744689941,
              29.08665657043457
            ],
            [
              -3.866203784942627,
              28.572391510009766
            ],
            [
              -3.71524977684021,
              28.572391510009766
            ],
            [
              -3.16343092918396,
              27.993812561035156
            ],
            [
              -2.985476493835449,
              27.2866268157959
            ],
            [
              -2.832669973373413,
              27.222335815429688
            ],
            [
              -2.89366626739502,
              26.836584091186523
            ],
            [
              -2.729738235473633,
              26.450830459594727
            ],
            [
              -2.699196100234985,
              25.55072784423828
            ],
            [
              -2.735510587692261,
              24.329193115234375
            ],
            [
              -2.810195207595825,
              24.329193115234375
            ],
            [
              -2.716598510742188,
              23.68630027770996
            ],
            [
              -2.865772008895874,
              23.68630027770996
            ],
            [
              -2.854753255844116,
              23.30057144165039
            ],
            [
              -2.929283618927002,
              23.30057144165039
            ],
            [
              -3.024067640304565,
              21.24339485168457
            ],
            [
              -2.78928279876709,
              20.72910499572754
            ],
            [
              -2.703629970550537,
              20.214815139770508
            ],
            [
              -2.551265954971313,
              20.021955490112305
            ],
            [
              -2.545869112014771,
              19.764808654785156
            ],
            [
              -1.554680824279785,
              18.157629013061523
            ],
            [
              -0.811334788799286,
              17.836191177368164
            ],
            [
              -0.590770184993744,
              17.90047836303711
            ],
            [
              -0.588965058326721,
              17.77190399169922
            ],
            [
              -0.292840778827667,
              17.707616806030273
            ],
            [
              0.376774460077286,
              17.257600784301758
            ],
            [
              0.602207124233246,
              16.87187385559082
            ],
            [
              0.608596384525299,
              16.228994369506836
            ],
            [
              0.536167562007904,
              16.100418090820312
            ],
            [
              0.095062263309956,
              16.036130905151367
            ],
            [
              -0.275056332349777,
              16.228994369506836
            ],
            [
              -0.49526235461235,
              16.16470718383789
            ],
            [
              -0.496684014797211,
              16.293283462524414
            ],
            [
              -0.940090119838715,
              16.421857833862305
            ],
            [
              -2.265955209732056,
              16.421857833862305
            ],
            [
              -3.292258501052856,
              16.100418090820312
            ],
            [
              -3.655490875244141,
              15.77897834777832
            ],
            [
              -3.802668333053589,
              15.77897834777832
            ],
            [
              -3.7271728515625,
              15.650403022766113
            ],
            [
              -4.087510585784912,
              15.136098861694336
            ],
            [
              -4.155725479125977,
              14.750371932983398
            ],
            [
              -4.371913433074951,
              14.428933143615723
            ],
            [
              -4.36867094039917,
              14.171781539916992
            ],
            [
              -4.512385368347168,
              13.914630889892578
            ],
            [
              -4.436010360717773,
              13.657480239868164
            ],
            [
              -4.582772731781006,
              13.657480239868164
            ],
            [
              -4.872622966766357,
              13.336042404174805
            ],
            [
              -5.53672981262207,
              13.657480239868164
            ],
            [
              -5.696913719177246,
              14.621796607971191
            ],
            [
              -5.623443126678467,
              14.621796607971191
            ],
            [
              -5.560036182403564,
              15.26467514038086
            ],
            [
              -5.415071964263916,
              15.393251419067383
            ],
            [
              -5.491871356964111,
              15.586114883422852
            ],
            [
              -5.343654632568359,
              15.52182674407959
            ],
            [
              -5.421620845794678,
              15.77897834777832
            ],
            [
              -5.273341655731201,
              15.714691162109375
            ],
            [
              -5.20647144317627,
              16.100418090820312
            ],
            [
              -5.061508655548096,
              16.228994369506836
            ],
            [
              -4.78108024597168,
              17.000450134277344
            ],
            [
              -4.795141220092773,
              17.707616806030273
            ],
            [
              -4.652833938598633,
              17.964767456054688
            ],
            [
              -4.666690349578857,
              18.607641220092773
            ],
            [
              -4.526010513305664,
              18.929079055786133
            ],
            [
              -4.476150035858154,
              19.95766830444336
            ],
            [
              -4.402063846588135,
              19.95766830444336
            ],
            [
              -4.413168907165527,
              20.40767478942871
            ],
            [
              -4.339025974273682,
              20.40767478942871
            ],
            [
              -4.305574417114258,
              21.950544357299805
            ],
            [
              -4.379918098449707,
              21.950544357299805
            ],
            [
              -4.482519626617432,
              22.914846420288086
            ],
            [
              -4.556994915008545,
              22.914846420288086
            ],
            [
              -4.568952560424805,
              23.30057144165039
            ],
            [
              -4.643482685089111,
              23.30057144165039
            ],
            [
              -4.822263240814209,
              24.200613021850586
            ],
            [
              -4.896927833557129,
              24.200613021850586
            ],
            [
              -4.908100128173828,
              24.522062301635742
            ],
            [
              -5.062117576599121,
              24.650644302368164
            ],
            [
              -5.148575305938721,
              24.97209930419922
            ],
            [
              -5.37293815612793,
              24.97209930419922
            ],
            [
              -5.3053879737854,
              25.164974212646484
            ],
            [
              -5.617186546325684,
              25.48643684387207
            ],
            [
              -5.54993724822998,
              25.67931365966797
            ],
            [
              -5.624845027923584,
              25.67931365966797
            ],
            [
              -5.635227680206299,
              25.936485290527344
            ],
            [
              -6.557494163513184,
              28.058101654052734
            ],
            [
              -7.115111351013184,
              28.636676788330078
            ],
            [
              -7.420540809631348,
              28.700960159301758
            ],
            [
              -7.561113834381104,
              28.508106231689453
            ],
            [
              -8.006837844848633,
              28.379535675048828
            ],
            [
              -8.660667419433594,
              27.92952537536621
            ],
            [
              -8.814911842346191,
              27.993812561035156
            ],
            [
              -9.184427261352539,
              27.865236282348633
            ],
            [
              -10.468818664550781,
              27.92952537536621
            ],
            [
              -11.619404792785645,
              28.25096321105957
            ],
            [
              -10.977602005004883,
              28.829526901245117
            ],
            [
              -10.465293884277344,
              29.08665657043457
            ],
            [
              -10.33069133758545,
              29.34377670288086
            ],
            [
              -10.040523529052734,
              29.536611557006836
            ],
            [
              -10.048895835876465,
              29.665164947509766
            ],
            [
              -9.83006763458252,
              29.79371452331543
            ],
            [
              -9.627961158752441,
              30.179353713989258
            ],
            [
              -9.649378776550293,
              30.500701904296875
            ],
            [
              -9.881543159484863,
              30.564971923828125
            ],
            [
              -9.801460266113281,
              31.593257904052734
            ],
            [
              -9.376213073730469,
              32.043148040771484
            ],
            [
              -9.332544326782227,
              32.493072509765625
            ],
            [
              -9.126718521118164,
              32.81447219848633
            ],
            [
              -9.050174713134766,
              32.81447219848633
            ],
            [
              -8.730104446411133,
              32.62162780761719
            ],
            [
              -8.442415237426758,
              32.878753662109375
            ],
            [
              -8.447019577026367,
              32.94303894042969
            ],
            [
              -8.614194869995117,
              33.13589859008789
            ],
            [
              -8.551655769348145,
              33.32876968383789
            ],
            [
              -7.129902839660645,
              33.84315490722656
            ],
            [
              -7.062007427215576,
              33.971771240234375
            ],
            [
              -6.90380334854126,
              33.90746307373047
            ],
            [
              -6.613898754119873,
              34.164703369140625
            ],
            [
              -6.699729919433594,
              34.2933349609375
            ],
            [
              -6.473203659057617,
              34.3576545715332
            ],
            [
              -6.482059955596924,
              34.48630142211914
            ],
            [
              -6.264156818389893,
              34.679283142089844
            ],
            [
              -6.20477819442749,
              34.93662643432617
            ],
            [
              -6.290933609008789,
              35.065311431884766
            ],
            [
              -6.132044315338135,
              35.00096893310547
            ],
            [
              -6.14545202255249,
              35.194007873535156
            ],
            [
              -5.999861240386963,
              35.32271194458008
            ],
            [
              -6.004343032836914,
              35.38706970214844
            ],
            [
              -5.845264911651611,
              35.32271194458008
            ],
            [
              -5.708348751068115,
              35.58015823364258
            ],
            [
              -5.244066715240479,
              35.58015823364258
            ],
            [
              -5.239750862121582,
              35.51579284667969
            ],
            [
              -4.754821300506592,
              35.194007873535156
            ],
            [
              -2.8270103931427,
              35.258358001708984
            ],
            [
              -2.819781064987183,
              35.12965774536133
            ],
            [
              -2.665307283401489,
              35.12965774536133
            ],
            [
              -2.661749362945557,
              35.065311431884766
            ]
          ]
        ]
      }
    }
  ]
}