{
  "type": "FeatureCollection",
  "name": "territory-671",
  "features": [
    {
      "type": "Feature",
      "properties": {
        "Name": "Small Horde",
        "FromYear": 1564,
        "ToYear": 1571,
        "Area": 521534.4026056043,
        "Type": "POLITY",
        "Wikipedia": "Nogai Horde",
        "Wikidata": "Q631210",
        "SeshatID": "",
        "Components": "",
        "MemberOf": ""
      },
      "geometry": {
        "type": "MultiPolygon",
        "coordinates": [
          [
            [
              [
                42.25389862060547,
                46.54585266113281
              ],
              [
                42.2284049987793,
                46.414546966552734
              ],
              [
                42.4741096496582,
                46.414546966552734
              ],
              [
                42.34128952026367,
                46.1520881652832
              ],
              [
                42.492103576660156,
                46.08650588989258
              ],
              [
                42.303382873535156,
                45.95537567138672
              ],
              [
                42.215782165527344,
                45.496795654296875
              ],
              [
                41.910011291503906,
                45.169586181640625
              ],
              [
                41.073368072509766,
                45.03877639770508
              ],
              [
                40.968475341796875,
                44.908016204833984
              ],
              [
                39.948974609375,
                44.64661407470703
              ],
              [
                38.987606048583984,
                44.71194839477539
              ],
              [
                38.53376770019531,
                44.908016204833984
              ],
              [
                37.8033561706543,
                44.908016204833984
              ],
              [
                36.778892517089844,
                45.10417556762695
              ],
              [
                36.74873733520508,
                45.431331634521484
              ],
              [
                36.911563873291016,
                45.431331634521484
              ],
              [
                36.972293853759766,
                45.300437927246094
              ],
              [
                37.704429626464844,
                45.300437927246094
              ],
              [
                37.747013092041016,
                45.56227111816406
              ],
              [
                37.59468460083008,
                45.62776184082031
              ],
              [
                37.7577018737793,
                45.62776184082031
              ],
              [
                37.89311981201172,
                45.95537567138672
              ],
              [
                38.334564208984375,
                46.1520881652832
              ],
              [
                38.36785888671875,
                46.348915100097656
              ],
              [
                37.89856719970703,
                46.480194091796875
              ],
              [
                37.83858108520508,
                46.61152267456055
              ],
              [
                38.494598388671875,
                46.61152267456055
              ],
              [
                38.62202453613281,
                46.87434005737305
              ],
              [
                39.13813400268555,
                47.005828857421875
              ],
              [
                39.2203369140625,
                47.005828857421875
              ],
              [
                39.47877502441406,
                47.07159423828125
              ],
              [
                39.52638626098633,
                47.33478927612305
              ],
              [
                39.385501861572266,
                47.46647262573242
              ],
              [
                40.597259521484375,
                47.33478927612305
              ],
              [
                40.73711013793945,
                47.20316696166992
              ],
              [
                41.28801345825195,
                47.07159423828125
              ],
              [
                41.27544021606445,
                47.005828857421875
              ],
              [
                41.52205276489258,
                47.005828857421875
              ],
              [
                41.8126335144043,
                46.808616638183594
              ],
              [
                41.894737243652344,
                46.808616638183594
              ],
              [
                42.25389862060547,
                46.54585266113281
              ]
            ]
          ],
          [
            [
              [
                56.553375244140625,
                51.98215103149414
              ],
              [
                56.54458999633789,
                51.71418380737305
              ],
              [
                56.62948989868164,
                51.71418380737305
              ],
              [
                56.55982208251953,
                51.51342010498047
              ],
              [
                56.236942291259766,
                51.31283950805664
              ],
              [
                55.9954833984375,
                50.84549331665039
              ],
              [
                56.306705474853516,
                50.51224899291992
              ],
              [
                56.26069259643555,
                50.11296081542969
              ],
              [
                55.50654983520508,
                49.58156967163086
              ],
              [
                55.238059997558594,
                49.2500114440918
              ],
              [
                55.49142074584961,
                48.98506164550781
              ],
              [
                55.451690673828125,
                48.852684020996094
              ],
              [
                55.53488540649414,
                48.852684020996094
              ],
              [
                55.495357513427734,
                48.72037124633789
              ],
              [
                55.57847595214844,
                48.72037124633789
              ],
              [
                55.53914260864258,
                48.5881233215332
              ],
              [
                55.622188568115234,
                48.5881233215332
              ],
              [
                55.73467254638672,
                48.1257438659668
              ],
              [
                55.06055450439453,
                47.79592514038086
              ],
              [
                55.04006576538086,
                47.13737487792969
              ],
              [
                54.01707458496094,
                47.005828857421875
              ],
              [
                53.27227020263672,
                46.677207946777344
              ],
              [
                53.19023513793945,
                46.677207946777344
              ],
              [
                53.242305755615234,
                46.87434005737305
              ],
              [
                53.112831115722656,
                47.005828857421875
              ],
              [
                51.862857818603516,
                46.94007873535156
              ],
              [
                51.81448745727539,
                47.07159423828125
              ],
              [
                51.58463668823242,
                47.13737487792969
              ],
              [
                50.84418869018555,
                47.13737487792969
              ],
              [
                50.383792877197266,
                46.94007873535156
              ],
              [
                50.3016242980957,
                46.94007873535156
              ],
              [
                50.037723541259766,
                47.20316696166992
              ],
              [
                50.07037353515625,
                47.33478927612305
              ],
              [
                49.92194747924805,
                47.4006233215332
              ],
              [
                49.95473098754883,
                47.53233337402344
              ],
              [
                49.261009216308594,
                47.730003356933594
              ],
              [
                49.12833023071289,
                47.86185836791992
              ],
              [
                48.88037109375,
                47.86185836791992
              ],
              [
                48.44874954223633,
                48.1257438659668
              ],
              [
                47.71947479248047,
                48.191749572753906
              ],
              [
                47.51860427856445,
                48.38986587524414
              ],
              [
                46.72050857543945,
                48.52202224731445
              ],
              [
                46.08228302001953,
                48.98506164550781
              ],
              [
                46.14091110229492,
                49.91355895996094
              ],
              [
                46.646209716796875,
                50.578861236572266
              ],
              [
                46.814598083496094,
                50.578861236572266
              ],
              [
                47.30891036987305,
                51.78114318847656
              ],
              [
                47.07268142700195,
                51.84812545776367
              ],
              [
                47.12889099121094,
                52.0491943359375
              ],
              [
                47.37533187866211,
                52.31757736206055
              ],
              [
                48.58374786376953,
                52.653533935546875
              ],
              [
                49.007408142089844,
                52.92268753051758
              ],
              [
                49.069305419921875,
                53.124786376953125
              ],
              [
                49.58207321166992,
                53.664710998535156
              ],
              [
                50.31732940673828,
                54.07062530517578
              ],
              [
                51.03181457519531,
                54.138362884521484
              ],
              [
                51.620052337646484,
                54.341712951660156
              ],
              [
                51.97365951538086,
                54.613189697265625
              ],
              [
                52.779518127441406,
                54.681121826171875
              ],
              [
                53.0548210144043,
                54.47740173339844
              ],
              [
                52.9984245300293,
                54.07062530517578
              ],
              [
                53.1713981628418,
                54.07062530517578
              ],
              [
                53.3595085144043,
                53.86756134033203
              ],
              [
                53.31230163574219,
                53.732303619384766
              ],
              [
                53.48480224609375,
                53.732303619384766
              ],
              [
                53.52384948730469,
                53.597137451171875
              ],
              [
                53.954627990722656,
                53.597137451171875
              ],
              [
                53.99331283569336,
                53.462066650390625
              ],
              [
                54.33756637573242,
                53.462066650390625
              ],
              [
                54.35227584838867,
                53.25962829589844
              ],
              [
                54.53895568847656,
                53.057395935058594
              ],
              [
                54.71052932739258,
                53.057395935058594
              ],
              [
                54.663326263427734,
                52.92268753051758
              ],
              [
                55.059471130371094,
                52.586299896240234
              ],
              [
                55.619815826416016,
                52.720787048339844
              ],
              [
                56.1331787109375,
                52.720787048339844
              ],
              [
                56.109107971191406,
                52.653533935546875
              ],
              [
                56.427005767822266,
                52.586299896240234
              ],
              [
                56.44031524658203,
                52.38472366333008
              ],
              [
                56.624488830566406,
                52.18334197998047
              ],
              [
                56.553375244140625,
                51.98215103149414
              ]
            ]
          ]
        ]
      }
    }
  ]
}