{
  "type": "FeatureCollection",
  "name": "territory-673",
  "features": [
    {
      "type": "Feature",
      "properties": {
        "Name": "House of Savoy",
        "FromYear": 1713,
        "ToYear": 1717,
        "Area": 67257.11983943445,
        "Type": "POLITY",
        "Wikipedia": "House of Savoy",
        "Wikidata": "Q200229",
        "SeshatID": "",
        "Components": "",
        "MemberOf": ""
      },
      "geometry": {
        "type": "MultiPolygon",
        "coordinates": [
          [
            [
              [
                15.064054489135742,
                37.51277160644531
              ],
              [
                15.059245109558105,
                37.254878997802734
              ],
              [
                15.213889122009277,
                37.1904182434082
              ],
              [
                15.210210800170898,
                36.9970588684082
              ],
              [
                15.049844741821289,
                36.73930740356445
              ],
              [
                14.661029815673828,
                36.73930740356445
              ],
              [
                14.27791690826416,
                37.12596130371094
              ],
              [
                13.578389167785645,
                37.254878997802734
              ],
              [
                13.192005157470703,
                37.5772590637207
              ],
              [
                12.490468978881836,
                37.706241607666016
              ],
              [
                12.49189567565918,
                37.89975357055664
              ],
              [
                12.649824142456055,
                38.09331130981445
              ],
              [
                13.040358543395996,
                38.028785705566406
              ],
              [
                13.119925498962402,
                38.157840728759766
              ],
              [
                13.354706764221191,
                38.157840728759766
              ],
              [
                13.665236473083496,
                37.96426773071289
              ],
              [
                14.05618953704834,
                37.96426773071289
              ],
              [
                15.6271390914917,
                38.28691864013672
              ],
              [
                15.62426471710205,
                38.157840728759766
              ],
              [
                15.389483451843262,
                38.157840728759766
              ],
              [
                15.065269470214844,
                37.5772590637207
              ],
              [
                15.064054489135742,
                37.51277160644531
              ]
            ]
          ],
          [
            [
              [
                8.11364459991455,
                43.99384307861328
              ],
              [
                8.032925605773926,
                43.99384307861328
              ],
              [
                8.030961036682129,
                44.12431716918945
              ],
              [
                7.707837581634521,
                44.12431716918945
              ],
              [
                7.550928592681885,
                43.86341094970703
              ],
              [
                7.470271110534668,
                43.86341094970703
              ],
              [
                7.388396263122559,
                43.92862319946289
              ],
              [
                6.993107318878174,
                43.53750228881836
              ],
              [
                6.91260290145874,
                43.53750228881836
              ],
              [
                6.829278945922852,
                43.6678352355957
              ],
              [
                6.668147563934326,
                43.6678352355957
              ],
              [
                6.74289083480835,
                43.92862319946289
              ],
              [
                6.416947841644287,
                44.05907440185547
              ],
              [
                6.413734436035156,
                44.18956756591797
              ],
              [
                6.814867973327637,
                44.32010269165039
              ],
              [
                6.565949440002441,
                44.58129119873047
              ],
              [
                6.640680313110352,
                44.842647552490234
              ],
              [
                6.228048801422119,
                45.10417556762695
              ],
              [
                5.901144027709961,
                45.169586181640625
              ],
              [
                5.812080860137939,
                45.431331634521484
              ],
              [
                5.48224401473999,
                45.56227111816406
              ],
              [
                5.634932518005371,
                45.889827728271484
              ],
              [
                6.033519744873047,
                46.21768569946289
              ],
              [
                6.273390769958496,
                46.414546966552734
              ],
              [
                6.682901382446289,
                46.414546966552734
              ],
              [
                6.849938869476318,
                46.283294677734375
              ],
              [
                6.856344699859619,
                46.02093505859375
              ],
              [
                7.104432582855225,
                45.889827728271484
              ],
              [
                7.919662952423096,
                45.95537567138672
              ],
              [
                8.165738105773926,
                45.889827728271484
              ],
              [
                8.252450942993164,
                45.56227111816406
              ],
              [
                8.742118835449219,
                45.496795654296875
              ],
              [
                8.90648078918457,
                45.36587905883789
              ],
              [
                8.909372329711914,
                45.10417556762695
              ],
              [
                8.746868133544922,
                45.10417556762695
              ],
              [
                8.832504272460938,
                44.71194839477539
              ],
              [
                8.509929656982422,
                44.58129119873047
              ],
              [
                8.35147476196289,
                44.32010269165039
              ],
              [
                8.352349281311035,
                44.25482940673828
              ],
              [
                8.191595077514648,
                44.18956756591797
              ],
              [
                8.11364459991455,
                43.99384307861328
              ]
            ]
          ]
        ]
      }
    }
  ]
}