{
  "type": "FeatureCollection",
  "name": "territory-674",
  "features": [
    {
      "type": "Feature",
      "properties": {
        "Name": "Kingdom of Mysore",
        "FromYear": 1673,
        "ToYear": 1690,
        "Area": 91042.1852317594,
        "Type": "POLITY",
        "Wikipedia": "Kingdom of Mysore",
        "Wikidata": "Q266923",
        "SeshatID": "in_mysore_k",
        "Components": "",
        "MemberOf": ""
      },
      "geometry": {
        "type": "Polygon",
        "coordinates": [
          [
            [
              74.68556724958148,
              13.66228581355942
            ],
            [
              75.21516262334619,
              13.50381798277189
            ],
            [
              75.75905996273787,
              13.64435430294531
            ],
            [
              77.15938099445641,
              14.67360441550403
            ],
            [
              77.59575740883209,
              14.60080710222843
            ],
            [
              78.16753527194898,
              13.92093990872594
            ],
            [
              78.32388724952293,
              13.08610633223643
            ],
            [
              77.53677775243595,
              12.35500973574329
            ],
            [
              77.87068665789565,
              11.55803292316381
            ],
            [
              77.31968469210695,
              10.47024892499509
            ],
            [
              76.92406525184043,
              10.42929274548886
            ],
            [
              76.26852696221678,
              11.71293691919006
            ],
            [
              76.31346561947214,
              11.93818235344679
            ],
            [
              76.09760920015125,
              12.20434206367396
            ],
            [
              76.02335119296293,
              12.65482218421879
            ],
            [
              75.00790247675545,
              12.51354953774607
            ],
            [
              74.68556724958148,
              13.66228581355942
            ]
          ]
        ]
      }
    }
  ]
}