{
  "type": "FeatureCollection",
  "name": "territory-685",
  "features": [
    {
      "type": "Feature",
      "properties": {
        "Name": "Nalyvaiko Uprising",
        "FromYear": 1595,
        "ToYear": 1599,
        "Area": 283338.04364625446,
        "Type": "POLITY",
        "Wikipedia": "Nalyvaiko Uprising",
        "Wikidata": "Q2560470",
        "SeshatID": "",
        "Components": "",
        "MemberOf": ""
      },
      "geometry": {
        "type": "MultiPolygon",
        "coordinates": [
          [
            [
              [
                31.733245849609375,
                48.191749572753906
              ],
              [
                31.650415420532227,
                48.191749572753906
              ],
              [
                31.65941047668457,
                48.257774353027344
              ],
              [
                31.74227523803711,
                48.257774353027344
              ],
              [
                31.733245849609375,
                48.191749572753906
              ]
            ]
          ],
          [
            [
              [
                30.48407554626465,
                51.17921447753906
              ],
              [
                30.568639755249023,
                51.17921447753906
              ],
              [
                30.538990020751953,
                50.97892379760742
              ],
              [
                30.68813133239746,
                50.84549331665039
              ],
              [
                31.109920501708984,
                50.84549331665039
              ],
              [
                31.214509963989258,
                50.97892379760742
              ],
              [
                31.752540588378906,
                51.17921447753906
              ],
              [
                32.259925842285156,
                51.17921447753906
              ],
              [
                32.322940826416016,
                51.04566955566406
              ],
              [
                32.807952880859375,
                50.912200927734375
              ],
              [
                33.09078598022461,
                50.578861236572266
              ],
              [
                33.405643463134766,
                50.445655822753906
              ],
              [
                34.16267776489258,
                50.445655822753906
              ],
              [
                34.24679183959961,
                50.445655822753906
              ],
              [
                34.465030670166016,
                50.2459831237793
              ],
              [
                34.35860824584961,
                50.11296081542969
              ],
              [
                34.44252395629883,
                50.11296081542969
              ],
              [
                34.398067474365234,
                49.84712600708008
              ],
              [
                34.0821418762207,
                49.44889450073242
              ],
              [
                34.144386291503906,
                49.316287994384766
              ],
              [
                33.95650863647461,
                49.18375015258789
              ],
              [
                33.71672439575195,
                49.2500114440918
              ],
              [
                33.61271667480469,
                49.11750411987305
              ],
              [
                33.362693786621094,
                49.11750411987305
              ],
              [
                33.42574691772461,
                48.98506164550781
              ],
              [
                33.00941467285156,
                48.98506164550781
              ],
              [
                32.48087692260742,
                48.786521911621094
              ],
              [
                32.28615951538086,
                48.5881233215332
              ],
              [
                31.852519989013672,
                48.455936431884766
              ],
              [
                31.56758689880371,
                48.191749572753906
              ],
              [
                31.218721389770508,
                48.059749603271484
              ],
              [
                30.887685775756836,
                48.059749603271484
              ],
              [
                30.622472763061523,
                47.92780685424805
              ],
              [
                29.795589447021484,
                47.92780685424805
              ],
              [
                29.69684410095215,
                47.79592514038086
              ],
              [
                29.53160858154297,
                47.79592514038086
              ],
              [
                29.507915496826172,
                47.598209381103516
              ],
              [
                29.335107803344727,
                47.53233337402344
              ],
              [
                29.39427375793457,
                47.33478927612305
              ],
              [
                29.229524612426758,
                47.33478927612305
              ],
              [
                29.221864700317383,
                47.26897048950195
              ],
              [
                28.982398986816406,
                47.33478927612305
              ],
              [
                28.93032455444336,
                47.598209381103516
              ],
              [
                29.028188705444336,
                47.730003356933594
              ],
              [
                28.87833023071289,
                47.86185836791992
              ],
              [
                28.555265426635742,
                47.92780685424805
              ],
              [
                28.570432662963867,
                48.059749603271484
              ],
              [
                28.4200382232666,
                48.191749572753906
              ],
              [
                27.537879943847656,
                48.455936431884766
              ],
              [
                27.39371109008789,
                48.654239654541016
              ],
              [
                26.472915649414062,
                48.5881233215332
              ],
              [
                25.981304168701172,
                48.654239654541016
              ],
              [
                25.342382431030273,
                48.91886520385742
              ],
              [
                25.272096633911133,
                49.051273345947266
              ],
              [
                24.951629638671875,
                49.18375015258789
              ],
              [
                25.023672103881836,
                49.91355895996094
              ],
              [
                25.11423110961914,
                49.98000717163086
              ],
              [
                24.960010528564453,
                50.11296081542969
              ],
              [
                25.09224510192871,
                50.578861236572266
              ],
              [
                25.0080509185791,
                50.578861236572266
              ],
              [
                25.02908706665039,
                50.77880859375
              ],
              [
                25.289230346679688,
                50.84549331665039
              ],
              [
                25.310991287231445,
                51.04566955566406
              ],
              [
                25.502233505249023,
                51.24601745605469
              ],
              [
                26.10225486755371,
                51.31283950805664
              ],
              [
                26.472946166992188,
                51.580322265625
              ],
              [
                26.242511749267578,
                51.78114318847656
              ],
              [
                25.732839584350586,
                51.78114318847656
              ],
              [
                25.679134368896484,
                52.0491943359375
              ],
              [
                26.12911605834961,
                52.250450134277344
              ],
              [
                26.725860595703125,
                52.250450134277344
              ],
              [
                27.01525115966797,
                53.799922943115234
              ],
              [
                27.10154914855957,
                53.799922943115234
              ],
              [
                27.138845443725586,
                54.07062530517578
              ],
              [
                27.349964141845703,
                54.341712951660156
              ],
              [
                30.21036720275879,
                54.341712951660156
              ],
              [
                30.263490676879883,
                54.138362884521484
              ],
              [
                30.350025177001953,
                54.138362884521484
              ],
              [
                30.250776290893555,
                53.52959060668945
              ],
              [
                30.336885452270508,
                53.52959060668945
              ],
              [
                30.2834415435791,
                52.653533935546875
              ],
              [
                30.60421371459961,
                52.51908493041992
              ],
              [
                30.583072662353516,
                52.38472366333008
              ],
              [
                30.732576370239258,
                52.250450134277344
              ],
              [
                30.690683364868164,
                51.98215103149414
              ],
              [
                30.48407554626465,
                51.17921447753906
              ]
            ]
          ]
        ]
      }
    }
  ]
}