{
  "type": "FeatureCollection",
  "name": "territory-687",
  "features": [
    {
      "type": "Feature",
      "properties": {
        "Name": "Lan Na",
        "FromYear": 1741,
        "ToYear": 1756,
        "Area": 52798.18838534848,
        "Type": "POLITY",
        "Wikipedia": "Lan Na",
        "Wikidata": "Q1059707",
        "SeshatID": "",
        "Components": "",
        "MemberOf": ""
      },
      "geometry": {
        "type": "Polygon",
        "coordinates": [
          [
            [
              100.57723999023438,
              18.993366241455078
            ],
            [
              100.56733703613281,
              18.929079055786133
            ],
            [
              100.18769836425781,
              18.864791870117188
            ],
            [
              99.75928497314453,
              18.479066848754883
            ],
            [
              99.61148071289062,
              18.479066848754883
            ],
            [
              99.58235931396484,
              18.286205291748047
            ],
            [
              98.6411361694336,
              18.414779663085938
            ],
            [
              98.28834533691406,
              18.029054641723633
            ],
            [
              97.83582305908203,
              17.964767456054688
            ],
            [
              97.59712982177734,
              18.350492477416992
            ],
            [
              97.44935607910156,
              18.350492477416992
            ],
            [
              97.46833038330078,
              18.479066848754883
            ],
            [
              97.77346801757812,
              18.543354034423828
            ],
            [
              97.87608337402344,
              18.736217498779297
            ],
            [
              97.81172943115234,
              18.800504684448242
            ],
            [
              97.93692779541016,
              19.6362361907959
            ],
            [
              98.1043701171875,
              19.764808654785156
            ],
            [
              98.91905212402344,
              19.764808654785156
            ],
            [
              99.10631561279297,
              20.021955490112305
            ],
            [
              99.41250610351562,
              20.08624267578125
            ],
            [
              99.83231353759766,
              20.40767478942871
            ],
            [
              100.1288833618164,
              20.40767478942871
            ],
            [
              100.5439224243164,
              20.214815139770508
            ],
            [
              100.59814453125,
              20.08624267578125
            ],
            [
              100.46441650390625,
              19.700523376464844
            ],
            [
              100.65670776367188,
              19.507661819458008
            ],
            [
              100.62686157226562,
              19.314802169799805
            ],
            [
              100.75497436523438,
              19.186227798461914
            ],
            [
              100.57723999023438,
              18.993366241455078
            ]
          ]
        ]
      }
    }
  ]
}