{
  "type": "FeatureCollection",
  "name": "territory-689",
  "features": [
    {
      "type": "Feature",
      "properties": {
        "Name": "Oyo Empire",
        "FromYear": 1769,
        "ToYear": 1819,
        "Area": 87977.8171523094,
        "Type": "POLITY",
        "Wikipedia": "Oyo Empire",
        "Wikidata": "Q849623",
        "SeshatID": "ni_oyo_emp_2",
        "Components": "",
        "MemberOf": ""
      },
      "geometry": {
        "type": "MultiPolygon",
        "coordinates": [
          [
            [
              [
                4.864231586456299,
                8.000176429748535
              ],
              [
                4.936776638031006,
                7.935888767242432
              ],
              [
                4.717342853546143,
                7.871601104736328
              ],
              [
                4.56859016418457,
                7.485875606536865
              ],
              [
                3.983884334564209,
                7.357300281524658
              ],
              [
                3.982463121414185,
                7.164437294006348
              ],
              [
                3.835581541061401,
                7.035862445831299
              ],
              [
                3.906009912490845,
                6.714424133300781
              ],
              [
                3.832026481628418,
                6.585848808288574
              ],
              [
                3.539771318435669,
                6.521561145782471
              ],
              [
                3.538713693618774,
                6.392985820770264
              ],
              [
                1.422457218170166,
                6.200123310089111
              ],
              [
                1.129834055900574,
                6.071547985076904
              ],
              [
                0.908639550209045,
                5.750109672546387
              ],
              [
                0.762837588787079,
                5.750109672546387
              ],
              [
                0.689936578273773,
                5.750109672546387
              ],
              [
                0.618974268436432,
                6.007260322570801
              ],
              [
                0.400242239236832,
                6.007260322570801
              ],
              [
                0.11036030203104,
                6.264410972595215
              ],
              [
                0.185339763760567,
                6.585848808288574
              ],
              [
                0.112406022846699,
                6.585848808288574
              ],
              [
                0.114633217453957,
                6.971574783325195
              ],
              [
                0.26190310716629,
                7.228724956512451
              ],
              [
                0.334864675998688,
                7.228724956512451
              ],
              [
                0.407143622636795,
                7.100150108337402
              ],
              [
                0.626364350318909,
                7.164437294006348
              ],
              [
                0.771556913852692,
                7.035862445831299
              ],
              [
                1.208885431289673,
                6.971574783325195
              ],
              [
                1.574827075004578,
                7.164437294006348
              ],
              [
                1.575588822364807,
                7.293012619018555
              ],
              [
                1.721134185791016,
                7.228724956512451
              ],
              [
                1.795603156089783,
                7.485875606536865
              ],
              [
                2.528293609619141,
                8.000176429748535
              ],
              [
                2.675647258758545,
                8.25732707977295
              ],
              [
                2.677502155303955,
                8.643052101135254
              ],
              [
                2.969005346298218,
                8.514476776123047
              ],
              [
                3.700604677200317,
                8.771627426147461
              ],
              [
                4.869213581085205,
                8.771627426147461
              ],
              [
                5.013686656951904,
                8.514476776123047
              ],
              [
                5.23317813873291,
                8.578764915466309
              ],
              [
                5.158020973205566,
                8.25732707977295
              ],
              [
                4.864675998687744,
                8.06446361541748
              ],
              [
                4.864231586456299,
                8.000176429748535
              ]
            ]
          ],
          [
            [
              [
                4.788946628570557,
                7.678738594055176
              ],
              [
                4.715964317321777,
                7.678738594055176
              ],
              [
                4.716429233551025,
                7.743025779724121
              ],
              [
                4.789414882659912,
                7.743025779724121
              ],
              [
                4.788946628570557,
                7.678738594055176
              ]
            ]
          ]
        ]
      }
    }
  ]
}