{
  "type": "FeatureCollection",
  "name": "territory-7",
  "features": [
    {
      "type": "Feature",
      "properties": {
        "Name": "Lower Egypt",
        "FromYear": -2200,
        "ToYear": -2101,
        "Area": 74524.33486391467,
        "Type": "POLITY",
        "Wikipedia": "Old Kingdom of Egypt",
        "Wikidata": "Q463871",
        "SeshatID": "eg_old_k_2",
        "Components": "",
        "MemberOf": ""
      },
      "geometry": {
        "type": "Polygon",
        "coordinates": [
          [
            [
              31.100712813184785,
              31.601398909376332
            ],
            [
              31.103098511956162,
              31.601133686728325
            ],
            [
              31.55694512751292,
              31.44221803626223
            ],
            [
              31.87170017735304,
              31.534918030038103
            ],
            [
              31.9214823111845,
              31.529882183453562
            ],
            [
              32.20249114810904,
              31.290936083305773
            ],
            [
              32.0172182301798,
              31.380554051378187
            ],
            [
              31.909654105433173,
              31.527564250767764
            ],
            [
              31.777463277057542,
              31.27739109480343
            ],
            [
              32.02791823277353,
              31.21569106828189
            ],
            [
              32.07804519887338,
              31.082500110810475
            ],
            [
              32.27979123936085,
              31.124300158646317
            ],
            [
              32.25392524080482,
              31.281758246154396
            ],
            [
              32.68537449575814,
              31.04491985873768
            ],
            [
              32.84801885076164,
              30.16182550154576
            ],
            [
              32.47763617301253,
              29.936800058803303
            ],
            [
              32.36083619652769,
              29.683054033179992
            ],
            [
              32.53772168661623,
              29.407499535929993
            ],
            [
              31.87211118809071,
              29.267181378985402
            ],
            [
              31.37019594180969,
              29.305804680081025
            ],
            [
              30.959756467295282,
              28.277765629933572
            ],
            [
              30.96251842166782,
              27.51712302868853
            ],
            [
              31.0632674121748,
              27.35868578615267
            ],
            [
              31.041689454744546,
              27.328513482045334
            ],
            [
              30.898212829269006,
              27.182629753023303
            ],
            [
              30.889289381939683,
              27.162958969387745
            ],
            [
              30.74802596902192,
              27.232689084040377
            ],
            [
              30.61267898868721,
              27.56072508914798
            ],
            [
              30.448412711608604,
              28.71085510726299
            ],
            [
              30.052122451793366,
              28.77325026984942
            ],
            [
              29.94601875462713,
              28.915036982428212
            ],
            [
              30.02923075937185,
              29.18600714528452
            ],
            [
              30.38526836739363,
              29.422147580137334
            ],
            [
              30.37513545877673,
              29.720170380093034
            ],
            [
              30.115655180987133,
              30.06689028785865
            ],
            [
              29.502583909813826,
              30.502766742745933
            ],
            [
              29.497160077412527,
              30.94561350529802
            ],
            [
              30.064445171497525,
              31.32027307975135
            ],
            [
              30.289718207709452,
              31.23735409662011
            ],
            [
              30.35544506854661,
              31.50284501322864
            ],
            [
              30.95610918281863,
              31.575691127543095
            ],
            [
              30.54416328369458,
              31.393191110728825
            ],
            [
              30.90250020747968,
              31.420273208275432
            ],
            [
              31.126454099179075,
              31.496664196680797
            ],
            [
              30.97784513487638,
              31.583536085866363
            ],
            [
              31.100712813184785,
              31.601398909376332
            ]
          ]
        ]
      }
    }
  ]
}