{
  "type": "FeatureCollection",
  "name": "territory-701",
  "features": [
    {
      "type": "Feature",
      "properties": {
        "Name": "Kingdom of Bhutan",
        "FromYear": 1947,
        "ToYear": 1947,
        "Area": 71861.38312128153,
        "Type": "POLITY",
        "Wikipedia": "Bhutan",
        "Wikidata": "Q917",
        "SeshatID": "",
        "Components": "",
        "MemberOf": ""
      },
      "geometry": {
        "type": "Polygon",
        "coordinates": [
          [
            [
              95.66010284423828,
              28.765243530273438
            ],
            [
              95.58457946777344,
              28.765243530273438
            ],
            [
              94.76673126220703,
              28.508106231689453
            ],
            [
              94.38845825195312,
              28.186676025390625
            ],
            [
              93.0367660522461,
              27.54378890991211
            ],
            [
              92.105712890625,
              27.41520881652832
            ],
            [
              92.07186126708984,
              26.900876998901367
            ],
            [
              91.8199462890625,
              26.772293090820312
            ],
            [
              90.69332885742188,
              26.772293090820312
            ],
            [
              90.56920623779297,
              26.900876998901367
            ],
            [
              90.34380340576172,
              26.900876998901367
            ],
            [
              90.0044937133789,
              26.70800018310547
            ],
            [
              89.70410919189453,
              26.70800018310547
            ],
            [
              89.50444030761719,
              26.836584091186523
            ],
            [
              89.12883758544922,
              26.836584091186523
            ],
            [
              88.80475616455078,
              27.093751907348633
            ],
            [
              88.94587707519531,
              27.41520881652832
            ],
            [
              89.54905700683594,
              28.12238883972168
            ],
            [
              89.8935317993164,
              28.315250396728516
            ],
            [
              90.27063751220703,
              28.315250396728516
            ],
            [
              90.43932342529297,
              28.058101654052734
            ],
            [
              91.56981658935547,
              28.058101654052734
            ],
            [
              91.75271606445312,
              27.865236282348633
            ],
            [
              91.66815948486328,
              27.4794979095459
            ],
            [
              92.03047943115234,
              27.41520881652832
            ],
            [
              92.22298431396484,
              27.608078002929688
            ],
            [
              92.62785339355469,
              27.736658096313477
            ],
            [
              92.72978973388672,
              28.186676025390625
            ],
            [
              93.15170288085938,
              28.379535675048828
            ],
            [
              93.18201446533203,
              28.508106231689453
            ],
            [
              93.45452117919922,
              28.700960159301758
            ],
            [
              93.92314910888672,
              28.765243530273438
            ],
            [
              94.57997131347656,
              29.279497146606445
            ],
            [
              95.43846130371094,
              29.08665657043457
            ],
            [
              95.89904022216797,
              29.40805435180664
            ],
            [
              96.20170593261719,
              29.40805435180664
            ],
            [
              96.31958770751953,
              29.279497146606445
            ],
            [
              96.25357818603516,
              29.022375106811523
            ],
            [
              96.61506652832031,
              28.958093643188477
            ],
            [
              96.64185333251953,
              28.765243530273438
            ],
            [
              96.3673095703125,
              28.572391510009766
            ],
            [
              96.18873596191406,
              28.765243530273438
            ],
            [
              95.66010284423828,
              28.765243530273438
            ]
          ]
        ]
      }
    }
  ]
}