{
  "type": "FeatureCollection",
  "name": "territory-710",
  "features": [
    {
      "type": "Feature",
      "properties": {
        "Name": "Sloboda Ukraine",
        "FromYear": 1670,
        "ToYear": 1751,
        "Area": 98599.11357449867,
        "Type": "POLITY",
        "Wikipedia": "Sloboda Ukraine",
        "Wikidata": "Q598570",
        "SeshatID": "",
        "Components": "",
        "MemberOf": ""
      },
      "geometry": {
        "type": "Polygon",
        "coordinates": [
          [
            [
              40.97005844116211,
              51.17921447753906
            ],
            [
              41.37163162231445,
              50.71213912963867
            ],
            [
              41.33810043334961,
              50.17946243286133
            ],
            [
              41.00102233886719,
              49.78071212768555
            ],
            [
              40.12311935424805,
              49.58156967163086
            ],
            [
              40.04314041137695,
              49.18375015258789
            ],
            [
              39.85026931762695,
              49.051273345947266
            ],
            [
              39.254417419433594,
              48.98506164550781
            ],
            [
              37.35115432739258,
              49.051273345947266
            ],
            [
              37.04151153564453,
              49.18375015258789
            ],
            [
              36.601417541503906,
              49.051273345947266
            ],
            [
              36.54124069213867,
              49.18375015258789
            ],
            [
              36.20772933959961,
              49.18375015258789
            ],
            [
              36.063819885253906,
              49.316287994384766
            ],
            [
              35.81346130371094,
              49.316287994384766
            ],
            [
              35.190391540527344,
              49.58156967163086
            ],
            [
              34.98438262939453,
              49.84712600708008
            ],
            [
              34.85072326660156,
              50.04647445678711
            ],
            [
              34.29703903198242,
              50.2459831237793
            ],
            [
              34.02824401855469,
              50.64549255371094
            ],
            [
              34.252193450927734,
              51.44654083251953
            ],
            [
              34.530555725097656,
              51.580322265625
            ],
            [
              34.86982345581055,
              51.580322265625
            ],
            [
              35.425968170166016,
              51.37968063354492
            ],
            [
              36.433773040771484,
              50.445655822753906
            ],
            [
              37.03524398803711,
              50.51224899291992
            ],
            [
              38.68682098388672,
              51.17921447753906
            ],
            [
              39.66046905517578,
              51.37968063354492
            ],
            [
              40.50736999511719,
              51.37968063354492
            ],
            [
              40.97005844116211,
              51.17921447753906
            ]
          ]
        ]
      }
    }
  ]
}