{
  "type": "FeatureCollection",
  "name": "territory-713",
  "features": [
    {
      "type": "Feature",
      "properties": {
        "Name": "Cambodia",
        "FromYear": 1700,
        "ToYear": 1756,
        "Area": 85545.06814391067,
        "Type": "POLITY",
        "Wikipedia": "Cambodia Middle Period",
        "Wikidata": "Q424",
        "SeshatID": "",
        "Components": "",
        "MemberOf": ""
      },
      "geometry": {
        "type": "Polygon",
        "coordinates": [
          [
            [
              108.80811309814453,
              11.214552879333496
            ],
            [
              107.33641815185547,
              10.378815650939941
            ],
            [
              107.11701965332031,
              10.378815650939941
            ],
            [
              107.21446990966797,
              10.635965347290039
            ],
            [
              107.22063446044922,
              10.7002534866333
            ],
            [
              107.2330551147461,
              10.828827857971191
            ],
            [
              107.0135726928711,
              10.828827857971191
            ],
            [
              107.00117492675781,
              10.7002534866333
            ],
            [
              106.99502563476562,
              10.635965347290039
            ],
            [
              106.90363311767578,
              10.443102836608887
            ],
            [
              106.75736236572266,
              10.443102836608887
            ],
            [
              106.81851196289062,
              10.314528465270996
            ],
            [
              106.66631317138672,
              10.250240325927734
            ],
            [
              106.80664825439453,
              10.185953140258789
            ],
            [
              106.79491424560547,
              10.057377815246582
            ],
            [
              106.64287567138672,
              9.993090629577637
            ],
            [
              106.69871520996094,
              9.800228118896484
            ],
            [
              106.55252075195312,
              9.800228118896484
            ],
            [
              106.60304260253906,
              9.543078422546387
            ],
            [
              106.2320785522461,
              9.478790283203125
            ],
            [
              106.14253997802734,
              9.285927772521973
            ],
            [
              105.62030029296875,
              9.157352447509766
            ],
            [
              105.13510131835938,
              8.578764915466309
            ],
            [
              104.7649154663086,
              8.514476776123047
            ],
            [
              104.7020034790039,
              8.643052101135254
            ],
            [
              104.8582992553711,
              8.771627426147461
            ],
            [
              104.71222686767578,
              8.771627426147461
            ],
            [
              104.7926025390625,
              9.735940933227539
            ],
            [
              104.95568084716797,
              9.928803443908691
            ],
            [
              105.09622192382812,
              9.86451530456543
            ],
            [
              105.16932678222656,
              9.86451530456543
            ],
            [
              105.24242401123047,
              9.86451530456543
            ],
            [
              105.19219970703125,
              10.121665954589844
            ],
            [
              104.96709442138672,
              10.057377815246582
            ],
            [
              104.89398193359375,
              10.057377815246582
            ],
            [
              104.53990173339844,
              10.185953140258789
            ],
            [
              104.41110229492188,
              10.378815650939941
            ],
            [
              104.4169692993164,
              10.443102836608887
            ],
            [
              104.94083404541016,
              10.571678161621094
            ],
            [
              105.11748504638672,
              10.893115997314453
            ],
            [
              105.78219604492188,
              10.957403182983398
            ],
            [
              105.91613006591797,
              10.828827857971191
            ],
            [
              106.1356201171875,
              10.828827857971191
            ],
            [
              106.22122192382812,
              10.957403182983398
            ],
            [
              105.88694763183594,
              11.278841018676758
            ],
            [
              105.84618377685547,
              11.6002779006958
            ],
            [
              106.005859375,
              11.728853225708008
            ],
            [
              106.37198638916016,
              11.728853225708008
            ],
            [
              106.54549407958984,
              11.986002922058105
            ],
            [
              106.76522827148438,
              11.986002922058105
            ],
            [
              107.08599853515625,
              12.24315357208252
            ],
            [
              107.5397720336914,
              12.37172794342041
            ],
            [
              107.64191436767578,
              12.628878593444824
            ],
            [
              107.78850555419922,
              12.628878593444824
            ],
            [
              108.11881256103516,
              12.307440757751465
            ],
            [
              108.10462188720703,
              12.178865432739258
            ],
            [
              108.32440185546875,
              12.178865432739258
            ],
            [
              108.48516082763672,
              12.307440757751465
            ],
            [
              108.70497131347656,
              12.307440757751465
            ],
            [
              108.76396179199219,
              12.178865432739258
            ],
            [
              108.6906967163086,
              12.178865432739258
            ],
            [
              108.68362426757812,
              12.114578247070312
            ],
            [
              108.67658996582031,
              12.050291061401367
            ],
            [
              108.66958618164062,
              11.986002922058105
            ],
            [
              108.62166595458984,
              11.535990715026855
            ],
            [
              108.76138305664062,
              11.47170352935791
            ],
            [
              108.81468200683594,
              11.278841018676758
            ],
            [
              108.80811309814453,
              11.214552879333496
            ]
          ],
          [
            [
              106.70855712890625,
              10.7002534866333
            ],
            [
              106.85486602783203,
              10.7002534866333
            ],
            [
              106.8797607421875,
              10.957403182983398
            ],
            [
              106.45968627929688,
              11.15026569366455
            ],
            [
              106.43448638916016,
              10.893115997314453
            ],
            [
              106.6353988647461,
              10.7002534866333
            ],
            [
              106.70855712890625,
              10.7002534866333
            ]
          ],
          [
            [
              106.2947998046875,
              10.185953140258789
            ],
            [
              106.3797378540039,
              10.314528465270996
            ],
            [
              105.94096374511719,
              10.314528465270996
            ],
            [
              105.92919921875,
              10.185953140258789
            ],
            [
              106.2216796875,
              10.185953140258789
            ],
            [
              106.2947998046875,
              10.185953140258789
            ]
          ],
          [
            [
              106.2042236328125,
              9.993090629577637
            ],
            [
              105.91755676269531,
              10.057377815246582
            ],
            [
              105.83293914794922,
              9.928803443908691
            ],
            [
              106.04084014892578,
              9.800228118896484
            ],
            [
              106.1984634399414,
              9.928803443908691
            ],
            [
              106.2042236328125,
              9.993090629577637
            ]
          ]
        ]
      }
    }
  ]
}