{
  "type": "FeatureCollection",
  "name": "territory-714",
  "features": [
    {
      "type": "Feature",
      "properties": {
        "Name": "Kingdom of Prussia",
        "FromYear": 1806,
        "ToYear": 1806,
        "Area": 345821.0545438144,
        "Type": "POLITY",
        "Wikipedia": "Kingdom of Prussia",
        "Wikidata": "Q27306",
        "SeshatID": "",
        "Components": "",
        "MemberOf": ""
      },
      "geometry": {
        "type": "MultiPolygon",
        "coordinates": [
          [
            [
              [
                10.694001197814941,
                49.71431350708008
              ],
              [
                10.69397258758545,
                49.64793395996094
              ],
              [
                10.192741394042969,
                49.44889450073242
              ],
              [
                10.192316055297852,
                49.58156967163086
              ],
              [
                10.359527587890625,
                49.58156967163086
              ],
              [
                10.442954063415527,
                49.71431350708008
              ],
              [
                10.526637077331543,
                49.71431350708008
              ],
              [
                10.610319137573242,
                49.71431350708008
              ],
              [
                10.694001197814941,
                49.71431350708008
              ]
            ]
          ],
          [
            [
              [
                12.038346290588379,
                50.2459831237793
              ],
              [
                12.12234115600586,
                50.2459831237793
              ],
              [
                12.12159538269043,
                50.17946243286133
              ],
              [
                11.869729042053223,
                50.17946243286133
              ],
              [
                11.784056663513184,
                49.98000717163086
              ],
              [
                11.531670570373535,
                49.84712600708008
              ],
              [
                11.364506721496582,
                49.91355895996094
              ],
              [
                11.449529647827148,
                50.11296081542969
              ],
              [
                11.701277732849121,
                50.11296081542969
              ],
              [
                11.61888599395752,
                50.312522888183594
              ],
              [
                11.61940860748291,
                50.37908172607422
              ],
              [
                11.703483581542969,
                50.37908172607422
              ],
              [
                11.787558555603027,
                50.37908172607422
              ],
              [
                11.788167953491211,
                50.445655822753906
              ],
              [
                11.872282981872559,
                50.445655822753906
              ],
              [
                11.87163257598877,
                50.37908172607422
              ],
              [
                11.955707550048828,
                50.37908172607422
              ],
              [
                11.955025672912598,
                50.312522888183594
              ],
              [
                12.039060592651367,
                50.312522888183594
              ],
              [
                12.038346290588379,
                50.2459831237793
              ]
            ]
          ],
          [
            [
              [
                10.695452690124512,
                50.912200927734375
              ],
              [
                10.695862770080566,
                51.112430572509766
              ],
              [
                10.780385971069336,
                51.112430572509766
              ],
              [
                10.864909172058105,
                51.112430572509766
              ],
              [
                10.864250183105469,
                50.912200927734375
              ],
              [
                10.695452690124512,
                50.912200927734375
              ]
            ]
          ],
          [
            [
              [
                9.427544593811035,
                51.17921447753906
              ],
              [
                9.426129341125488,
                51.37968063354492
              ],
              [
                9.594372749328613,
                51.580322265625
              ],
              [
                9.338921546936035,
                51.71418380737305
              ],
              [
                9.507906913757324,
                51.84812545776367
              ],
              [
                10.10293197631836,
                51.78114318847656
              ],
              [
                10.102721214294434,
                51.91512680053711
              ],
              [
                10.187751770019531,
                51.91512680053711
              ],
              [
                10.527765274047852,
                51.84812545776367
              ],
              [
                10.78203296661377,
                51.64724349975586
              ],
              [
                10.952065467834473,
                51.71418380737305
              ],
              [
                10.951751708984375,
                51.64724349975586
              ],
              [
                10.951443672180176,
                51.580322265625
              ],
              [
                11.036260604858398,
                51.580322265625
              ],
              [
                11.03591537475586,
                51.51342010498047
              ],
              [
                10.696817398071289,
                51.51342010498047
              ],
              [
                10.61178970336914,
                51.37968063354492
              ],
              [
                10.104059219360352,
                51.17921447753906
              ],
              [
                10.019495010375977,
                51.17921447753906
              ],
              [
                10.019312858581543,
                51.24601745605469
              ],
              [
                9.934706687927246,
                51.24601745605469
              ],
              [
                9.934486389160156,
                51.31283950805664
              ],
              [
                9.934269905090332,
                51.37968063354492
              ],
              [
                9.849579811096191,
                51.37968063354492
              ],
              [
                9.76488971710205,
                51.37968063354492
              ],
              [
                9.596673011779785,
                51.17921447753906
              ],
              [
                9.427544593811035,
                51.17921447753906
              ]
            ]
          ],
          [
            [
              [
                14.269256591796875,
                51.91512680053711
              ],
              [
                13.93283748626709,
                52.0491943359375
              ],
              [
                13.93470573425293,
                52.11625671386719
              ],
              [
                14.190190315246582,
                52.11625671386719
              ],
              [
                14.269256591796875,
                51.91512680053711
              ]
            ]
          ],
          [
            [
              [
                22.416019439697266,
                52.653533935546875
              ],
              [
                21.994611740112305,
                52.720787048339844
              ],
              [
                21.29853057861328,
                52.586299896240234
              ],
              [
                21.18465805053711,
                52.250450134277344
              ],
              [
                21.01416015625,
                52.250450134277344
              ],
              [
                21.003124237060547,
                52.11625671386719
              ],
              [
                21.162322998046875,
                51.98215103149414
              ],
              [
                21.20885467529297,
                51.51342010498047
              ],
              [
                20.689903259277344,
                51.37968063354492
              ],
              [
                20.415983200073242,
                51.112430572509766
              ],
              [
                20.073148727416992,
                51.04566955566406
              ],
              [
                20.049747467041016,
                50.71213912963867
              ],
              [
                19.876659393310547,
                50.64549255371094
              ],
              [
                19.854297637939453,
                50.312522888183594
              ],
              [
                19.770261764526367,
                50.312522888183594
              ],
              [
                19.76154327392578,
                50.17946243286133
              ],
              [
                19.925048828125,
                50.11296081542969
              ],
              [
                19.91196060180664,
                49.91355895996094
              ],
              [
                19.409168243408203,
                49.91355895996094
              ],
              [
                18.88353729248047,
                49.51522445678711
              ],
              [
                18.487384796142578,
                49.91355895996094
              ],
              [
                17.904199600219727,
                49.98000717163086
              ],
              [
                17.739870071411133,
                50.04647445678711
              ],
              [
                17.750011444091797,
                50.2459831237793
              ],
              [
                17.49802589416504,
                50.2459831237793
              ],
              [
                17.1715087890625,
                50.445655822753906
              ],
              [
                16.919164657592773,
                50.445655822753906
              ],
              [
                16.823102951049805,
                50.17946243286133
              ],
              [
                16.487279891967773,
                50.17946243286133
              ],
              [
                16.24351692199707,
                50.37908172607422
              ],
              [
                16.338764190673828,
                50.64549255371094
              ],
              [
                15.416954040527344,
                50.77880859375
              ],
              [
                15.173232078552246,
                51.04566955566406
              ],
              [
                15.272184371948242,
                51.44654083251953
              ],
              [
                14.853023529052734,
                51.580322265625
              ],
              [
                14.857569694519043,
                51.71418380737305
              ],
              [
                15.027374267578125,
                51.71418380737305
              ],
              [
                14.954254150390625,
                52.0491943359375
              ],
              [
                14.779444694519043,
                51.91512680053711
              ],
              [
                14.439318656921387,
                51.91512680053711
              ],
              [
                14.36260986328125,
                52.18334197998047
              ],
              [
                13.938469886779785,
                52.250450134277344
              ],
              [
                13.764382362365723,
                52.11625671386719
              ],
              [
                13.423735618591309,
                52.11625671386719
              ],
              [
                12.9087553024292,
                51.91512680053711
              ],
              [
                12.569785118103027,
                51.98215103149414
              ],
              [
                12.657279968261719,
                52.11625671386719
              ],
              [
                12.23147201538086,
                52.11625671386719
              ],
              [
                12.228504180908203,
                51.91512680053711
              ],
              [
                11.885207176208496,
                51.64724349975586
              ],
              [
                11.460908889770508,
                51.64724349975586
              ],
              [
                11.544562339782715,
                51.51342010498047
              ],
              [
                11.96843433380127,
                51.51342010498047
              ],
              [
                12.051520347595215,
                51.37968063354492
              ],
              [
                11.541653633117676,
                51.17921447753906
              ],
              [
                11.288854598999023,
                51.31283950805664
              ],
              [
                11.291190147399902,
                51.64724349975586
              ],
              [
                11.376049995422363,
                51.64724349975586
              ],
              [
                11.377108573913574,
                51.78114318847656
              ],
              [
                10.952065467834473,
                51.71418380737305
              ],
              [
                10.868002891540527,
                51.91512680053711
              ],
              [
                10.527877807617188,
                51.91512680053711
              ],
              [
                10.187544822692871,
                52.18334197998047
              ],
              [
                9.591107368469238,
                52.18334197998047
              ],
              [
                9.676621437072754,
                52.11625671386719
              ],
              [
                9.592172622680664,
                51.98215103149414
              ],
              [
                9.166799545288086,
                51.98215103149414
              ],
              [
                9.169116973876953,
                51.71418380737305
              ],
              [
                9.16970157623291,
                51.64724349975586
              ],
              [
                8.492680549621582,
                51.51342010498047
              ],
              [
                8.407905578613281,
                51.51342010498047
              ],
              [
                8.318073272705078,
                51.84812545776367
              ],
              [
                8.233084678649902,
                51.84812545776367
              ],
              [
                8.23203182220459,
                51.91512680053711
              ],
              [
                8.147000312805176,
                51.91512680053711
              ],
              [
                8.145903587341309,
                51.98215103149414
              ],
              [
                8.060829162597656,
                51.98215103149414
              ],
              [
                8.061968803405762,
                51.91512680053711
              ],
              [
                7.723155498504639,
                51.84812545776367
              ],
              [
                7.89680814743042,
                51.64724349975586
              ],
              [
                7.39061164855957,
                51.51342010498047
              ],
              [
                7.562949180603027,
                51.37968063354492
              ],
              [
                7.565735340118408,
                51.24601745605469
              ],
              [
                7.228870391845703,
                51.17921447753906
              ],
              [
                7.054809093475342,
                51.37968063354492
              ],
              [
                6.885428905487061,
                51.37968063354492
              ],
              [
                6.881964683532715,
                51.51342010498047
              ],
              [
                7.219498157501221,
                51.580322265625
              ],
              [
                7.213226318359375,
                51.84812545776367
              ],
              [
                7.380231857299805,
                51.98215103149414
              ],
              [
                7.377256393432617,
                52.11625671386719
              ],
              [
                7.546177864074707,
                52.18334197998047
              ],
              [
                7.541964530944824,
                52.38472366333008
              ],
              [
                7.202197074890137,
                52.31757736206055
              ],
              [
                7.023238182067871,
                52.653533935546875
              ],
              [
                7.616370677947998,
                52.92268753051758
              ],
              [
                7.78776216506958,
                52.92268753051758
              ],
              [
                7.87716007232666,
                52.720787048339844
              ],
              [
                8.049423217773438,
                52.653533935546875
              ],
              [
                8.131644248962402,
                52.85536575317383
              ],
              [
                8.47332763671875,
                52.92268753051758
              ],
              [
                8.730415344238281,
                52.92268753051758
              ],
              [
                8.728852272033691,
                53.057395935058594
              ],
              [
                8.470573425292969,
                53.124786376953125
              ],
              [
                8.380881309509277,
                53.39456558227539
              ],
              [
                8.466897964477539,
                53.39456558227539
              ],
              [
                8.46413803100586,
                53.597137451171875
              ],
              [
                8.37701416015625,
                53.664710998535156
              ],
              [
                8.376045227050781,
                53.732303619384766
              ],
              [
                8.459527015686035,
                53.93522644042969
              ],
              [
                8.805828094482422,
                53.86756134033203
              ],
              [
                8.892172813415527,
                53.86756134033203
              ],
              [
                9.237549781799316,
                53.86756134033203
              ],
              [
                9.411450386047363,
                53.664710998535156
              ],
              [
                9.842811584472656,
                53.52959060668945
              ],
              [
                10.273246765136719,
                53.39456558227539
              ],
              [
                10.359575271606445,
                53.597137451171875
              ],
              [
                10.273481369018555,
                53.664710998535156
              ],
              [
                10.359683990478516,
                53.664710998535156
              ],
              [
                10.446371078491211,
                53.86756134033203
              ],
              [
                10.705403327941895,
                53.86756134033203
              ],
              [
                10.704795837402344,
                53.732303619384766
              ],
              [
                10.791046142578125,
                53.732303619384766
              ],
              [
                10.79069995880127,
                53.664710998535156
              ],
              [
                10.790016174316406,
                53.52959060668945
              ],
              [
                10.617313385009766,
                53.39456558227539
              ],
              [
                10.960538864135742,
                53.25962829589844
              ],
              [
                11.132387161254883,
                53.25962829589844
              ],
              [
                11.306057929992676,
                53.462066650390625
              ],
              [
                11.563496589660645,
                53.39456558227539
              ],
              [
                11.738075256347656,
                53.597137451171875
              ],
              [
                11.910387992858887,
                53.597137451171875
              ],
              [
                11.909440994262695,
                53.52959060668945
              ],
              [
                12.16561222076416,
                53.39456558227539
              ],
              [
                12.68171215057373,
                53.39456558227539
              ],
              [
                13.196187019348145,
                53.32708740234375
              ],
              [
                13.547355651855469,
                53.597137451171875
              ],
              [
                13.46479606628418,
                53.732303619384766
              ],
              [
                13.378546714782715,
                53.732303619384766
              ],
              [
                13.118182182312012,
                53.664710998535156
              ],
              [
                12.950356483459473,
                53.86756134033203
              ],
              [
                13.036701202392578,
                53.86756134033203
              ],
              [
                13.641111373901367,
                53.86756134033203
              ],
              [
                13.475763320922852,
                54.138362884521484
              ],
              [
                13.477616310119629,
                54.20612335205078
              ],
              [
                14.165812492370605,
                54.07062530517578
              ],
              [
                14.159177780151367,
                53.86756134033203
              ],
              [
                13.98438835144043,
                53.799922943115234
              ],
              [
                14.499796867370605,
                53.732303619384766
              ],
              [
                14.50934886932373,
                54.00291442871094
              ],
              [
                15.036103248596191,
                54.20612335205078
              ],
              [
                15.991765975952148,
                54.27390670776367
              ],
              [
                16.442564010620117,
                54.613189697265625
              ],
              [
                17.501720428466797,
                54.88506317138672
              ],
              [
                18.459484100341797,
                54.88506317138672
              ],
              [
                18.44533348083496,
                54.681121826171875
              ],
              [
                18.686851501464844,
                54.4095458984375
              ],
              [
                19.462186813354492,
                54.341712951660156
              ],
              [
                19.559396743774414,
                54.47740173339844
              ],
              [
                19.819725036621094,
                54.47740173339844
              ],
              [
                19.830615997314453,
                54.613189697265625
              ],
              [
                20.004362106323242,
                54.613189697265625
              ],
              [
                19.83608627319336,
                54.681121826171875
              ],
              [
                19.950855255126953,
                55.021148681640625
              ],
              [
                20.654220581054688,
                55.089229583740234
              ],
              [
                20.72932243347168,
                54.95309066772461
              ],
              [
                20.990678787231445,
                54.95309066772461
              ],
              [
                21.202974319458008,
                55.36180877685547
              ],
              [
                20.96585464477539,
                55.63479995727539
              ],
              [
                20.98489761352539,
                55.83982467651367
              ],
              [
                20.991283416748047,
                55.90821838378906
              ],
              [
                21.248220443725586,
                55.83982467651367
              ],
              [
                21.235198974609375,
                55.70311737060547
              ],
              [
                21.640066146850586,
                55.36180877685547
              ],
              [
                22.412668228149414,
                55.225467681884766
              ],
              [
                22.398584365844727,
                55.089229583740234
              ],
              [
                23.023895263671875,
                55.225467681884766
              ],
              [
                23.35798454284668,
                55.089229583740234
              ],
              [
                23.327884674072266,
                54.817054748535156
              ],
              [
                23.48680877685547,
                54.681121826171875
              ],
              [
                23.464303970336914,
                54.47740173339844
              ],
              [
                23.28339385986328,
                54.4095458984375
              ],
              [
                23.261449813842773,
                54.20612335205078
              ],
              [
                23.41990852355957,
                54.07062530517578
              ],
              [
                23.23971176147461,
                54.00291442871094
              ],
              [
                23.22533416748047,
                53.86756134033203
              ],
              [
                23.39077377319336,
                53.799922943115234
              ],
              [
                23.36916732788086,
                53.597137451171875
              ],
              [
                23.196853637695312,
                53.597137451171875
              ],
              [
                23.175739288330078,
                53.39456558227539
              ],
              [
                23.333627700805664,
                53.25962829589844
              ],
              [
                23.29177474975586,
                52.85536575317383
              ],
              [
                23.113672256469727,
                52.78806686401367
              ],
              [
                22.988040924072266,
                52.38472366333008
              ],
              [
                22.56774139404297,
                52.4518928527832
              ],
              [
                22.416019439697266,
                52.653533935546875
              ]
            ],
            [
              [
                10.870770454406738,
                52.51908493041992
              ],
              [
                10.614492416381836,
                52.51908493041992
              ],
              [
                10.69944953918457,
                52.38472366333008
              ],
              [
                10.18742561340332,
                52.38472366333008
              ],
              [
                10.187501907348633,
                52.250450134277344
              ],
              [
                10.357955932617188,
                52.18334197998047
              ],
              [
                10.613748550415039,
                52.250450134277344
              ],
              [
                10.698997497558594,
                52.250450134277344
              ],
              [
                10.869808197021484,
                52.31757736206055
              ],
              [
                10.870770454406738,
                52.51908493041992
              ]
            ],
            [
              [
                9.164510726928711,
                52.250450134277344
              ],
              [
                9.079874992370605,
                52.18334197998047
              ],
              [
                8.994669914245605,
                52.18334197998047
              ],
              [
                9.165651321411133,
                52.11625671386719
              ],
              [
                9.164510726928711,
                52.250450134277344
              ]
            ],
            [
              [
                8.91228199005127,
                51.91512680053711
              ],
              [
                8.825004577636719,
                52.11625671386719
              ],
              [
                8.48528003692627,
                52.0491943359375
              ],
              [
                8.400161743164062,
                52.0491943359375
              ],
              [
                8.488973617553711,
                51.78114318847656
              ],
              [
                8.91228199005127,
                51.91512680053711
              ]
            ]
          ],
          [
            [
              [
                8.032201766967773,
                53.664710998535156
              ],
              [
                7.947200775146484,
                53.597137451171875
              ],
              [
                7.94840145111084,
                53.52959060668945
              ],
              [
                7.776182174682617,
                53.52959060668945
              ],
              [
                7.780054569244385,
                53.32708740234375
              ],
              [
                7.526416778564453,
                53.124786376953125
              ],
              [
                7.354752063751221,
                53.124786376953125
              ],
              [
                7.351721286773682,
                53.25962829589844
              ],
              [
                7.178262233734131,
                53.32708740234375
              ],
              [
                7.092291831970215,
                53.32708740234375
              ],
              [
                6.918599128723145,
                53.39456558227539
              ],
              [
                6.913325786590576,
                53.597137451171875
              ],
              [
                6.999482154846191,
                53.597137451171875
              ],
              [
                6.99776554107666,
                53.664710998535156
              ],
              [
                7.944795608520508,
                53.732303619384766
              ],
              [
                8.032201766967773,
                53.664710998535156
              ]
            ]
          ]
        ]
      }
    }
  ]
}