{
  "type": "FeatureCollection",
  "name": "territory-715",
  "features": [
    {
      "type": "Feature",
      "properties": {
        "Name": "Pro-Habsburg Spain",
        "FromYear": 1706,
        "ToYear": 1708,
        "Area": 107671.62126959545,
        "Type": "POLITY",
        "Wikipedia": "Habsburg Spain",
        "Wikidata": "Q600093",
        "SeshatID": "",
        "Components": "",
        "MemberOf": ""
      },
      "geometry": {
        "type": "MultiPolygon",
        "coordinates": [
          [
            [
              [
                1.651834011077881,
                39.1264533996582
              ],
              [
                1.657540321350098,
                38.997230529785156
              ],
              [
                1.430543661117554,
                38.80344009399414
              ],
              [
                1.273545265197754,
                38.80344009399414
              ],
              [
                1.183109045028687,
                39.06184005737305
              ],
              [
                1.258725643157959,
                39.1264533996582
              ],
              [
                1.337347388267517,
                39.1264533996582
              ],
              [
                1.651834011077881,
                39.1264533996582
              ]
            ]
          ],
          [
            [
              [
                3.19298791885376,
                39.9670295715332
              ],
              [
                3.197866439819336,
                39.8376350402832
              ],
              [
                3.515789270401001,
                39.77294921875
              ],
              [
                3.295835733413696,
                39.320335388183594
              ],
              [
                2.82365870475769,
                39.320335388183594
              ],
              [
                2.658556938171387,
                39.51427459716797
              ],
              [
                2.346148252487183,
                39.449623107910156
              ],
              [
                2.338095426559448,
                39.64360046386719
              ],
              [
                2.877186298370361,
                39.9670295715332
              ],
              [
                2.956136703491211,
                39.9670295715332
              ],
              [
                3.19298791885376,
                39.9670295715332
              ]
            ]
          ],
          [
            [
              [
                4.215116024017334,
                40.0964469909668
              ],
              [
                4.302449703216553,
                39.8376350402832
              ],
              [
                3.826826572418213,
                39.90232849121094
              ],
              [
                3.741101741790771,
                40.0964469909668
              ],
              [
                3.820104122161865,
                40.0964469909668
              ],
              [
                4.215116024017334,
                40.0964469909668
              ]
            ]
          ],
          [
            [
              [
                -3.857521295547485,
                40.29063034057617
              ],
              [
                -3.47152304649353,
                40.42012023925781
              ],
              [
                -3.136651754379272,
                40.16116714477539
              ],
              [
                -3.114037752151489,
                39.8376350402832
              ],
              [
                -3.745228290557861,
                39.8376350402832
              ],
              [
                -3.917328596115112,
                40.031734466552734
              ],
              [
                -3.857521295547485,
                40.29063034057617
              ]
            ]
          ],
          [
            [
              [
                3.178062200546265,
                42.36617660522461
              ],
              [
                3.116764783859253,
                41.911441802978516
              ],
              [
                2.885612010955811,
                41.71668243408203
              ],
              [
                2.572504997253418,
                41.586883544921875
              ],
              [
                2.171426773071289,
                41.65177917480469
              ],
              [
                2.01811957359314,
                41.521995544433594
              ],
              [
                2.027060508728027,
                41.32738494873047
              ],
              [
                1.238392949104309,
                41.19768524169922
              ],
              [
                0.695793092250824,
                40.93837356567383
              ],
              [
                0.709256291389465,
                40.6791877746582
              ],
              [
                0.474957317113876,
                40.614410400390625
              ],
              [
                0.247769102454185,
                40.42012023925781
              ],
              [
                0.182543575763702,
                40.16116714477539
              ],
              [
                -0.201878547668457,
                39.9670295715332
              ],
              [
                -0.345421016216278,
                39.70827102661133
              ],
              [
                -0.313707679510117,
                39.1264533996582
              ],
              [
                0.099359586834908,
                38.738853454589844
              ],
              [
                -0.660861134529114,
                38.28691864013672
              ],
              [
                -0.803495347499847,
                38.028785705566406
              ],
              [
                -0.793116629123688,
                37.835243225097656
              ],
              [
                -0.714972317218781,
                37.835243225097656
              ],
              [
                -0.711556077003479,
                37.7707405090332
              ],
              [
                -0.949405252933502,
                37.835243225097656
              ],
              [
                -0.977660179138184,
                38.351463317871094
              ],
              [
                -0.899328827857971,
                38.351463317871094
              ],
              [
                -0.771014451980591,
                38.8680305480957
              ],
              [
                -1.092494964599609,
                38.997230529785156
              ],
              [
                -1.114913702011108,
                39.38497543334961
              ],
              [
                -1.354927182197571,
                39.449623107910156
              ],
              [
                -1.370439767837524,
                39.70827102661133
              ],
              [
                -1.145419836044312,
                39.90232849121094
              ],
              [
                -1.15704333782196,
                40.0964469909668
              ],
              [
                -1.726450324058533,
                40.355369567871094
              ],
              [
                -1.513591289520264,
                40.74397277832031
              ],
              [
                -2.098877191543579,
                41.19768524169922
              ],
              [
                -2.116528034210205,
                41.45711898803711
              ],
              [
                -1.8821781873703,
                41.521995544433594
              ],
              [
                -1.979450225830078,
                41.781593322753906
              ],
              [
                -1.820028781890869,
                41.781593322753906
              ],
              [
                -1.828825831413269,
                41.911441802978516
              ],
              [
                -1.429987907409668,
                41.911441802978516
              ],
              [
                -1.460152745246887,
                42.36617660522461
              ],
              [
                -1.005598902702332,
                42.75628662109375
              ],
              [
                -0.938149929046631,
                42.95146560668945
              ],
              [
                0.040142297744751,
                42.691246032714844
              ],
              [
                1.074691534042358,
                42.82133865356445
              ],
              [
                1.485537886619568,
                42.62621307373047
              ],
              [
                1.488844156265259,
                42.56119155883789
              ],
              [
                1.575427651405334,
                42.43117141723633
              ],
              [
                1.80907130241394,
                42.56119155883789
              ],
              [
                2.458339214324951,
                42.36617660522461
              ],
              [
                3.092691898345947,
                42.496177673339844
              ],
              [
                3.095396280288696,
                42.43117141723633
              ],
              [
                3.178062200546265,
                42.36617660522461
              ]
            ]
          ]
        ]
      }
    }
  ]
}