{
  "type": "FeatureCollection",
  "name": "territory-721",
  "features": [
    {
      "type": "Feature",
      "properties": {
        "Name": "Beylik of Tunis",
        "FromYear": 1859,
        "ToYear": 1869,
        "Area": 88078.91185449573,
        "Type": "POLITY",
        "Wikipedia": "Beylik of Tunis",
        "Wikidata": "Q4899891",
        "SeshatID": "",
        "Components": "",
        "MemberOf": ""
      },
      "geometry": {
        "type": "Polygon",
        "coordinates": [
          [
            [
              10.851000785827637,
              35.708900451660156
            ],
            [
              10.851019859313965,
              35.644527435302734
            ],
            [
              11.08318042755127,
              35.58015823364258
            ],
            [
              11.083049774169922,
              35.38706970214844
            ],
            [
              11.005731582641602,
              35.38706970214844
            ],
            [
              11.082771301269531,
              35.00096893310547
            ],
            [
              10.85119342803955,
              34.93662643432617
            ],
            [
              10.851213455200195,
              34.80794906616211
            ],
            [
              10.543014526367188,
              34.55062484741211
            ],
            [
              10.004497528076172,
              34.2933349609375
            ],
            [
              10.081672668457031,
              34.22901916503906
            ],
            [
              10.005777359008789,
              33.90746307373047
            ],
            [
              10.23681354522705,
              33.71455001831055
            ],
            [
              10.544031143188477,
              33.71455001831055
            ],
            [
              10.697741508483887,
              33.52165222167969
            ],
            [
              11.081541061401367,
              33.5859489440918
            ],
            [
              11.157825469970703,
              33.20018768310547
            ],
            [
              11.464286804199219,
              33.13589859008789
            ],
            [
              11.540922164916992,
              33.13589859008789
            ],
            [
              11.539214134216309,
              32.493072509765625
            ],
            [
              11.462759971618652,
              32.493072509765625
            ],
            [
              10.391599655151367,
              33.00732421875
            ],
            [
              10.008606910705566,
              33.00732421875
            ],
            [
              10.08484935760498,
              33.13589859008789
            ],
            [
              9.62503719329834,
              33.13589859008789
            ],
            [
              9.547471046447754,
              33.32876968383789
            ],
            [
              9.623573303222656,
              33.45735549926758
            ],
            [
              9.315913200378418,
              33.5859489440918
            ],
            [
              9.237561225891113,
              33.84315490722656
            ],
            [
              9.083436965942383,
              33.90746307373047
            ],
            [
              9.082552909851074,
              34.03607940673828
            ],
            [
              8.928751945495605,
              34.03607940673828
            ],
            [
              8.927783012390137,
              34.164703369140625
            ],
            [
              8.310981750488281,
              34.2933349609375
            ],
            [
              8.0807523727417,
              34.22901916503906
            ],
            [
              8.001612663269043,
              34.42197799682617
            ],
            [
              7.924595355987549,
              34.42197799682617
            ],
            [
              8.000144958496094,
              34.55062484741211
            ],
            [
              8.154257774353027,
              34.55062484741211
            ],
            [
              8.456167221069336,
              35.194007873535156
            ],
            [
              8.373502731323242,
              35.708900451660156
            ],
            [
              8.296080589294434,
              35.708900451660156
            ],
            [
              8.36652660369873,
              36.3527946472168
            ],
            [
              8.20975399017334,
              36.48161697387695
            ],
            [
              8.362959861755371,
              36.67487716674805
            ],
            [
              8.440701484680176,
              36.67487716674805
            ],
            [
              8.593559265136719,
              36.932613372802734
            ],
            [
              8.903155326843262,
              37.12596130371094
            ],
            [
              9.05947494506836,
              37.06150817871094
            ],
            [
              9.603086471557617,
              37.3193473815918
            ],
            [
              9.993423461914062,
              37.1904182434082
            ],
            [
              10.226980209350586,
              37.254878997802734
            ],
            [
              10.227567672729492,
              37.06150817871094
            ],
            [
              10.305440902709961,
              37.06150817871094
            ],
            [
              10.228352546691895,
              36.80373764038086
            ],
            [
              10.461837768554688,
              36.73930740356445
            ],
            [
              11.006271362304688,
              36.9970588684082
            ],
            [
              11.006199836730957,
              36.80373764038086
            ],
            [
              10.462488174438477,
              36.417205810546875
            ],
            [
              10.540250778198242,
              36.3527946472168
            ],
            [
              10.463515281677246,
              35.902034759521484
            ],
            [
              10.851000785827637,
              35.708900451660156
            ]
          ]
        ]
      }
    }
  ]
}