{
  "type": "FeatureCollection",
  "name": "territory-724",
  "features": [
    {
      "type": "Feature",
      "properties": {
        "Name": "Hotaki Dynasty",
        "FromYear": 1727,
        "ToYear": 1733,
        "Area": 1918356.782841212,
        "Type": "POLITY",
        "Wikipedia": "Hotak dynasty",
        "Wikidata": "Q627449",
        "SeshatID": "",
        "Components": "",
        "MemberOf": ""
      },
      "geometry": {
        "type": "Polygon",
        "coordinates": [
          [
            [
              59.17912292480469,
              37.641746520996094
            ],
            [
              59.48490524291992,
              37.254878997802734
            ],
            [
              60.002342224121094,
              37.12596130371094
            ],
            [
              60.371707916259766,
              36.67487716674805
            ],
            [
              61.22685623168945,
              36.67487716674805
            ],
            [
              61.17086410522461,
              36.417205810546875
            ],
            [
              61.24851989746094,
              36.417205810546875
            ],
            [
              61.316497802734375,
              35.644527435302734
            ],
            [
              61.626102447509766,
              35.644527435302734
            ],
            [
              62.159584045410156,
              35.9664192199707
            ],
            [
              63.06907653808594,
              36.2239875793457
            ],
            [
              64.49519348144531,
              36.3527946472168
            ],
            [
              64.75394439697266,
              37.12596130371094
            ],
            [
              65.61155700683594,
              37.44829177856445
            ],
            [
              65.62744903564453,
              37.51277160644531
            ],
            [
              65.93956756591797,
              37.51277160644531
            ],
            [
              65.90766143798828,
              37.38381576538086
            ],
            [
              66.17185974121094,
              37.1904182434082
            ],
            [
              66.21778869628906,
              36.73930740356445
            ],
            [
              66.3577651977539,
              36.67487716674805
            ],
            [
              66.32786560058594,
              36.2239875793457
            ],
            [
              66.3072738647461,
              35.12965774536133
            ],
            [
              66.38451385498047,
              35.12965774536133
            ],
            [
              66.21251678466797,
              34.3576545715332
            ],
            [
              66.28951263427734,
              34.3576545715332
            ],
            [
              66.15039825439453,
              33.71455001831055
            ],
            [
              66.2271957397461,
              33.71455001831055
            ],
            [
              66.13213348388672,
              33.26447677612305
            ],
            [
              65.75917053222656,
              32.94303894042969
            ],
            [
              65.77044677734375,
              32.62162780761719
            ],
            [
              65.55342102050781,
              32.30024337768555
            ],
            [
              65.62981414794922,
              32.30024337768555
            ],
            [
              65.59336853027344,
              31.7217960357666
            ],
            [
              66.02130889892578,
              30.757776260375977
            ],
            [
              65.99299621582031,
              30.179353713989258
            ],
            [
              66.27361297607422,
              30.050809860229492
            ],
            [
              66.25102233886719,
              29.922264099121094
            ],
            [
              66.48970031738281,
              29.986536026000977
            ],
            [
              66.6944351196289,
              29.857990264892578
            ],
            [
              66.59559631347656,
              28.829526901245117
            ],
            [
              66.67112731933594,
              28.829526901245117
            ],
            [
              66.58834838867188,
              28.315250396728516
            ],
            [
              66.66377258300781,
              28.315250396728516
            ],
            [
              66.38557434082031,
              26.96516990661621
            ],
            [
              66.46072387695312,
              26.96516990661621
            ],
            [
              66.42440795898438,
              26.70800018310547
            ],
            [
              66.54779052734375,
              26.515121459960938
            ],
            [
              66.22828674316406,
              25.807899475097656
            ],
            [
              66.270263671875,
              25.55072784423828
            ],
            [
              66.26213836669922,
              25.48643684387207
            ],
            [
              66.02147674560547,
              25.357851028442383
            ],
            [
              64.8160629272461,
              25.29355812072754
            ],
            [
              64.80064392089844,
              25.164974212646484
            ],
            [
              64.2845230102539,
              25.229267120361328
            ],
            [
              64.22502136230469,
              25.357851028442383
            ],
            [
              63.62620544433594,
              25.357851028442383
            ],
            [
              63.536216735839844,
              25.229267120361328
            ],
            [
              62.563419342041016,
              25.229267120361328
            ],
            [
              62.47393035888672,
              25.100683212280273
            ],
            [
              62.18195724487305,
              25.164974212646484
            ],
            [
              62.01787185668945,
              25.03639030456543
            ],
            [
              61.71868133544922,
              25.03639030456543
            ],
            [
              61.65822219848633,
              25.164974212646484
            ],
            [
              61.12736892700195,
              25.100683212280273
            ],
            [
              60.91714859008789,
              25.229267120361328
            ],
            [
              60.617828369140625,
              25.229267120361328
            ],
            [
              60.63211441040039,
              25.357851028442383
            ],
            [
              59.060218811035156,
              25.357851028442383
            ],
            [
              58.78172302246094,
              25.55072784423828
            ],
            [
              57.957984924316406,
              25.55072784423828
            ],
            [
              57.7402229309082,
              25.615020751953125
            ],
            [
              57.67921447753906,
              25.743606567382812
            ],
            [
              57.37953567504883,
              25.743606567382812
            ],
            [
              57.175662994384766,
              25.936485290527344
            ],
            [
              57.05242156982422,
              26.836584091186523
            ],
            [
              56.714656829833984,
              27.158044815063477
            ],
            [
              56.188377380371094,
              27.158044815063477
            ],
            [
              56.098140716552734,
              27.029460906982422
            ],
            [
              56.32361602783203,
              27.029460906982422
            ],
            [
              56.30864334106445,
              26.900876998901367
            ],
            [
              56.06119155883789,
              26.70800018310547
            ],
            [
              55.60341262817383,
              26.643707275390625
            ],
            [
              55.439002990722656,
              26.515121459960938
            ],
            [
              55.28888702392578,
              26.515121459960938
            ],
            [
              55.31023025512695,
              26.70800018310547
            ],
            [
              55.542747497558594,
              26.772293090820312
            ],
            [
              55.242313385009766,
              26.772293090820312
            ],
            [
              54.83156204223633,
              26.450830459594727
            ],
            [
              54.463233947753906,
              26.515121459960938
            ],
            [
              54.25889205932617,
              26.70800018310547
            ],
            [
              53.65812301635742,
              26.70800018310547
            ],
            [
              53.46059036254883,
              26.96516990661621
            ],
            [
              52.736968994140625,
              27.222335815429688
            ],
            [
              52.478694915771484,
              27.608078002929688
            ],
            [
              52.04855728149414,
              27.800947189331055
            ],
            [
              51.5966796875,
              27.800947189331055
            ],
            [
              51.31684494018555,
              27.993812561035156
            ],
            [
              51.331298828125,
              28.12238883972168
            ],
            [
              51.06624984741211,
              28.44382095336914
            ],
            [
              51.028076171875,
              28.765243530273438
            ],
            [
              50.80903244018555,
              28.829526901245117
            ],
            [
              50.9150390625,
              29.08665657043457
            ],
            [
              50.620323181152344,
              29.150936126708984
            ],
            [
              50.65126037597656,
              29.40805435180664
            ],
            [
              50.23628234863281,
              29.729440689086914
            ],
            [
              50.0648078918457,
              30.179353713989258
            ],
            [
              49.585899353027344,
              29.986536026000977
            ],
            [
              48.942848205566406,
              30.307893753051758
            ],
            [
              48.987266540527344,
              30.050809860229492
            ],
            [
              48.67627716064453,
              29.986536026000977
            ],
            [
              48.6004753112793,
              29.986536026000977
            ],
            [
              48.38842010498047,
              30.115081787109375
            ],
            [
              48.41168975830078,
              30.307893753051758
            ],
            [
              48.27554702758789,
              30.436433792114258
            ],
            [
              48.04780960083008,
              30.436433792114258
            ],
            [
              48.103145599365234,
              30.886310577392578
            ],
            [
              47.738956451416016,
              31.014846801757812
            ],
            [
              47.79570007324219,
              31.464719772338867
            ],
            [
              47.99809265136719,
              31.8503360748291
            ],
            [
              48.269718170166016,
              32.171695709228516
            ],
            [
              48.68667221069336,
              32.428794860839844
            ],
            [
              48.72228240966797,
              32.685909271240234
            ],
            [
              48.37546920776367,
              32.94303894042969
            ],
            [
              48.25834274291992,
              33.20018768310547
            ],
            [
              48.03740692138672,
              33.26447677612305
            ],
            [
              48.52293014526367,
              33.971771240234375
            ],
            [
              48.503074645996094,
              34.3576545715332
            ],
            [
              48.42607498168945,
              34.3576545715332
            ],
            [
              48.474239349365234,
              34.679283142089844
            ],
            [
              48.74477767944336,
              34.93662643432617
            ],
            [
              48.804447174072266,
              35.32271194458008
            ],
            [
              48.99953842163086,
              35.58015823364258
            ],
            [
              48.75112533569336,
              35.9664192199707
            ],
            [
              48.689456939697266,
              36.5460319519043
            ],
            [
              48.611759185791016,
              36.5460319519043
            ],
            [
              48.66463851928711,
              36.8681755065918
            ],
            [
              48.852516174316406,
              37.06150817871094
            ],
            [
              49.008262634277344,
              37.06150817871094
            ],
            [
              49.14228820800781,
              36.932613372802734
            ],
            [
              49.120704650878906,
              36.80373764038086
            ],
            [
              49.47718048095703,
              36.61045455932617
            ],
            [
              49.94349670410156,
              36.61045455932617
            ],
            [
              50.19864273071289,
              36.73930740356445
            ],
            [
              50.654632568359375,
              36.2239875793457
            ],
            [
              50.94307327270508,
              36.09519577026367
            ],
            [
              51.2642936706543,
              36.15959167480469
            ],
            [
              52.0838623046875,
              35.9664192199707
            ],
            [
              53.01393127441406,
              35.9664192199707
            ],
            [
              54.283687591552734,
              36.5460319519043
            ],
            [
              55.69259262084961,
              36.9970588684082
            ],
            [
              55.83466339111328,
              37.3193473815918
            ],
            [
              55.7567024230957,
              37.3193473815918
            ],
            [
              55.78264236450195,
              37.44829177856445
            ],
            [
              55.093143463134766,
              37.89975357055664
            ],
            [
              55.106258392333984,
              37.96426773071289
            ],
            [
              55.53718185424805,
              38.157840728759766
            ],
            [
              56.006744384765625,
              38.157840728759766
            ],
            [
              56.48082733154297,
              38.54513168334961
            ],
            [
              56.78042221069336,
              38.48057174682617
            ],
            [
              56.895294189453125,
              38.28691864013672
            ],
            [
              57.20852279663086,
              38.28691864013672
            ],
            [
              57.45197677612305,
              37.96426773071289
            ],
            [
              57.84292984008789,
              37.96426773071289
            ],
            [
              58.49039077758789,
              37.706241607666016
            ],
            [
              58.56848907470703,
              37.706241607666016
            ],
            [
              59.17912292480469,
              37.641746520996094
            ]
          ]
        ]
      }
    }
  ]
}