{
  "type": "FeatureCollection",
  "name": "territory-734",
  "features": [
    {
      "type": "Feature",
      "properties": {
        "Name": "Nawab of Awadh",
        "FromYear": 1794,
        "ToYear": 1795,
        "Area": 115929.46766594503,
        "Type": "POLITY",
        "Wikipedia": "Nawab of Awadh",
        "Wikidata": "Q2614237",
        "SeshatID": "",
        "Components": "",
        "MemberOf": ""
      },
      "geometry": {
        "type": "Polygon",
        "coordinates": [
          [
            [
              83.29095458984375,
              27.35091781616211
            ],
            [
              83.98041534423828,
              27.41520881652832
            ],
            [
              84.10778045654297,
              26.900876998901367
            ],
            [
              84.38424682617188,
              26.772293090820312
            ],
            [
              84.18131256103516,
              26.06507110595703
            ],
            [
              83.61534118652344,
              26.257951736450195
            ],
            [
              83.2815933227539,
              26.06507110595703
            ],
            [
              83.17349243164062,
              25.8721923828125
            ],
            [
              82.78791809082031,
              25.807899475097656
            ],
            [
              82.45684814453125,
              26.06507110595703
            ],
            [
              82.04936218261719,
              25.8721923828125
            ],
            [
              81.92131042480469,
              25.55072784423828
            ],
            [
              81.65536499023438,
              25.29355812072754
            ],
            [
              81.5364990234375,
              25.48643684387207
            ],
            [
              81.11839294433594,
              25.67931365966797
            ],
            [
              79.96147918701172,
              25.936485290527344
            ],
            [
              80.05760192871094,
              26.06507110595703
            ],
            [
              79.9932861328125,
              26.129364013671875
            ],
            [
              79.56471252441406,
              26.257951736450195
            ],
            [
              79.30787658691406,
              26.515121459960938
            ],
            [
              78.95440673828125,
              26.643707275390625
            ],
            [
              78.96540832519531,
              26.70800018310547
            ],
            [
              78.96882629394531,
              27.158044815063477
            ],
            [
              78.84136199951172,
              27.2866268157959
            ],
            [
              79.06201171875,
              27.6723690032959
            ],
            [
              79.4146728515625,
              27.54378890991211
            ],
            [
              79.28105926513672,
              27.222335815429688
            ],
            [
              79.40846252441406,
              27.093751907348633
            ],
            [
              79.8479995727539,
              27.029460906982422
            ],
            [
              79.90599822998047,
              27.35091781616211
            ],
            [
              79.71571350097656,
              27.54378890991211
            ],
            [
              79.56519317626953,
              27.54378890991211
            ],
            [
              79.38713836669922,
              27.800947189331055
            ],
            [
              79.23651123046875,
              27.800947189331055
            ],
            [
              79.24856567382812,
              27.865236282348633
            ],
            [
              78.8328628540039,
              28.058101654052734
            ],
            [
              78.59272003173828,
              28.379535675048828
            ],
            [
              78.65713500976562,
              29.08665657043457
            ],
            [
              78.77214050292969,
              29.279497146606445
            ],
            [
              78.92341613769531,
              29.279497146606445
            ],
            [
              79.04823303222656,
              29.150936126708984
            ],
            [
              79.02201843261719,
              29.022375106811523
            ],
            [
              79.64996337890625,
              28.765243530273438
            ],
            [
              80.0275650024414,
              28.765243530273438
            ],
            [
              80.18958282470703,
              28.44382095336914
            ],
            [
              80.77989959716797,
              27.993812561035156
            ],
            [
              81.92289733886719,
              27.6723690032959
            ],
            [
              82.6757583618164,
              27.6723690032959
            ],
            [
              83.29095458984375,
              27.35091781616211
            ]
          ]
        ]
      }
    }
  ]
}