{
  "type": "FeatureCollection",
  "name": "territory-739",
  "features": [
    {
      "type": "Feature",
      "properties": {
        "Name": "Emirate of Diriyah",
        "FromYear": 1811,
        "ToYear": 1811,
        "Area": 2281665.638007275,
        "Type": "POLITY",
        "Wikipedia": "Emirate of Diriyah",
        "Wikidata": "Q146871",
        "SeshatID": "",
        "Components": "",
        "MemberOf": ""
      },
      "geometry": {
        "type": "MultiPolygon",
        "coordinates": [
          [
            [
              [
                55.67424774169922,
                21.7576847076416
              ],
              [
                55.59992980957031,
                21.7576847076416
              ],
              [
                55.605018615722656,
                21.821969985961914
              ],
              [
                55.679344177246094,
                21.821969985961914
              ],
              [
                55.67424774169922,
                21.7576847076416
              ]
            ]
          ],
          [
            [
              [
                40.314247131347656,
                32.043148040771484
              ],
              [
                40.897499084472656,
                31.78606605529785
              ],
              [
                41.24468994140625,
                31.464719772338867
              ],
              [
                42.4149284362793,
                31.014846801757812
              ],
              [
                43.106449127197266,
                31.079113006591797
              ],
              [
                43.12054443359375,
                31.20764923095703
              ],
              [
                43.265663146972656,
                31.143381118774414
              ],
              [
                43.584373474121094,
                31.271915435791016
              ],
              [
                43.696929931640625,
                31.593257904052734
              ],
              [
                44.10041809082031,
                31.78606605529785
              ],
              [
                44.10795211791992,
                31.8503360748291
              ],
              [
                44.52769470214844,
                31.528987884521484
              ],
              [
                44.51272201538086,
                31.40045166015625
              ],
              [
                44.73370361328125,
                31.336183547973633
              ],
              [
                44.71879577636719,
                31.20764923095703
              ],
              [
                45.13818359375,
                30.886310577392578
              ],
              [
                45.12348556518555,
                30.757776260375977
              ],
              [
                45.68001174926758,
                30.307893753051758
              ],
              [
                47.25092697143555,
                30.115081787109375
              ],
              [
                47.31184387207031,
                29.986536026000977
              ],
              [
                47.7442512512207,
                29.79371452331543
              ],
              [
                47.48051834106445,
                29.472333908081055
              ],
              [
                47.444862365722656,
                29.150936126708984
              ],
              [
                47.863216400146484,
                28.829526901245117
              ],
              [
                48.3164176940918,
                28.829526901245117
              ],
              [
                48.39195251464844,
                28.829526901245117
              ],
              [
                48.43938446044922,
                28.572391510009766
              ],
              [
                48.583370208740234,
                28.508106231689453
              ],
              [
                48.562652587890625,
                28.315250396728516
              ],
              [
                48.974143981933594,
                27.92952537536621
              ],
              [
                48.87215805053711,
                27.6723690032959
              ],
              [
                49.241947174072266,
                27.608078002929688
              ],
              [
                49.35963439941406,
                27.2866268157959
              ],
              [
                50.13496398925781,
                26.772293090820312
              ],
              [
                50.11603546142578,
                26.57941436767578
              ],
              [
                50.2536735534668,
                26.450830459594727
              ],
              [
                50.22300720214844,
                26.129364013671875
              ],
              [
                50.067020416259766,
                26.06507110595703
              ],
              [
                50.21097183227539,
                26.000778198242188
              ],
              [
                50.325462341308594,
                25.615020751953125
              ],
              [
                50.60764694213867,
                25.422143936157227
              ],
              [
                50.654117584228516,
                25.100683212280273
              ],
              [
                50.72892761230469,
                25.100683212280273
              ],
              [
                50.768985748291016,
                25.55072784423828
              ],
              [
                50.92463302612305,
                25.615020751953125
              ],
              [
                50.95453643798828,
                25.936485290527344
              ],
              [
                51.12286376953125,
                26.129364013671875
              ],
              [
                51.42281723022461,
                26.129364013671875
              ],
              [
                51.697906494140625,
                25.8721923828125
              ],
              [
                51.574989318847656,
                25.357851028442383
              ],
              [
                51.71883010864258,
                25.29355812072754
              ],
              [
                51.69002151489258,
                24.97209930419922
              ],
              [
                51.52363204956055,
                24.779226303100586
              ],
              [
                51.41082000732422,
                24.329193115234375
              ],
              [
                51.85354995727539,
                24.264904022216797
              ],
              [
                51.90695571899414,
                24.00774574279785
              ],
              [
                52.28013229370117,
                24.00774574279785
              ],
              [
                52.60029602050781,
                24.264904022216797
              ],
              [
                53.11201095581055,
                24.136323928833008
              ],
              [
                54.082523345947266,
                24.136323928833008
              ],
              [
                54.099464416503906,
                24.329193115234375
              ],
              [
                54.31781005859375,
                24.264904022216797
              ],
              [
                54.55914306640625,
                24.457773208618164
              ],
              [
                54.74416732788086,
                24.843517303466797
              ],
              [
                55.14265441894531,
                25.100683212280273
              ],
              [
                55.41188049316406,
                25.55072784423828
              ],
              [
                55.9695930480957,
                25.8721923828125
              ],
              [
                56.16815948486328,
                26.32224464416504
              ],
              [
                56.47541046142578,
                26.386537551879883
              ],
              [
                56.543277740478516,
                26.32224464416504
              ],
              [
                56.38539123535156,
                25.55072784423828
              ],
              [
                56.46027374267578,
                25.55072784423828
              ],
              [
                56.42084503173828,
                25.164974212646484
              ],
              [
                56.495662689208984,
                25.164974212646484
              ],
              [
                56.401641845703125,
                24.97209930419922
              ],
              [
                56.54487228393555,
                24.907808303833008
              ],
              [
                56.65699005126953,
                24.522062301635742
              ],
              [
                57.06272888183594,
                24.07203483581543
              ],
              [
                58.29542922973633,
                23.68630027770996
              ],
              [
                58.37001419067383,
                23.68630027770996
              ],
              [
                58.27181625366211,
                23.429147720336914
              ],
              [
                57.021671295166016,
                23.622013092041016
              ],
              [
                56.27023696899414,
                23.557723999023438
              ],
              [
                56.03534698486328,
                23.429147720336914
              ],
              [
                55.96079635620117,
                23.429147720336914
              ],
              [
                55.81169891357422,
                23.429147720336914
              ],
              [
                55.72066116333008,
                23.236284255981445
              ],
              [
                55.630638122558594,
                22.143402099609375
              ],
              [
                55.69984817504883,
                22.079116821289062
              ],
              [
                55.53069305419922,
                21.821969985961914
              ],
              [
                55.56455993652344,
                21.307680130004883
              ],
              [
                55.19804763793945,
                20.40767478942871
              ],
              [
                55.1633415222168,
                19.95766830444336
              ],
              [
                54.936134338378906,
                19.893383026123047
              ],
              [
                54.926231384277344,
                19.764808654785156
              ],
              [
                54.37346649169922,
                19.314802169799805
              ],
              [
                53.392173767089844,
                19.057653427124023
              ],
              [
                49.51924514770508,
                18.67193031311035
              ],
              [
                48.667518615722656,
                18.093341827392578
              ],
              [
                48.51980972290039,
                18.093341827392578
              ],
              [
                48.43324279785156,
                17.90047836303711
              ],
              [
                47.83426284790039,
                17.77190399169922
              ],
              [
                47.82596206665039,
                17.643327713012695
              ],
              [
                47.60868453979492,
                17.707616806030273
              ],
              [
                47.45695877075195,
                17.643327713012695
              ],
              [
                47.444664001464844,
                17.450464248657227
              ],
              [
                47.22739791870117,
                17.514753341674805
              ],
              [
                46.92418670654297,
                17.38617706298828
              ],
              [
                46.91614532470703,
                17.257600784301758
              ],
              [
                46.093082427978516,
                17.06473731994629
              ],
              [
                45.77504348754883,
                16.67901039123535
              ],
              [
                45.7485237121582,
                16.228994369506836
              ],
              [
                45.82215881347656,
                16.228994369506836
              ],
              [
                45.6937141418457,
                15.26467514038086
              ],
              [
                45.76370620727539,
                15.200387001037598
              ],
              [
                45.6096305847168,
                15.07181167602539
              ],
              [
                45.66244888305664,
                14.686083793640137
              ],
              [
                45.418731689453125,
                14.236069679260254
              ],
              [
                45.47917556762695,
                13.97891902923584
              ],
              [
                45.10262680053711,
                13.786055564880371
              ],
              [
                45.0198860168457,
                13.593193054199219
              ],
              [
                44.576576232910156,
                13.528904914855957
              ],
              [
                44.34743881225586,
                13.336042404174805
              ],
              [
                44.34148406982422,
                13.207467079162598
              ],
              [
                43.825172424316406,
                13.143178939819336
              ],
              [
                43.822265625,
                13.07889175415039
              ],
              [
                43.678497314453125,
                13.143178939819336
              ],
              [
                43.6139030456543,
                13.336042404174805
              ],
              [
                43.396766662597656,
                13.40032958984375
              ],
              [
                43.32341003417969,
                13.40032958984375
              ],
              [
                43.25004959106445,
                13.40032958984375
              ],
              [
                43.26481628417969,
                13.721768379211426
              ],
              [
                43.056640625,
                13.97891902923584
              ],
              [
                42.88957214355469,
                15.07181167602539
              ],
              [
                42.74578857421875,
                15.136098861694336
              ],
              [
                42.75735855102539,
                16.743297576904297
              ],
              [
                42.476654052734375,
                17.000450134277344
              ],
              [
                42.48373794555664,
                17.129026412963867
              ],
              [
                42.33625793457031,
                17.129026412963867
              ],
              [
                42.28022766113281,
                17.450464248657227
              ],
              [
                41.57747268676758,
                18.093341827392578
              ],
              [
                41.45082092285156,
                18.479066848754883
              ],
              [
                41.23610305786133,
                18.607641220092773
              ],
              [
                41.25007629394531,
                18.864791870117188
              ],
              [
                41.04209899902344,
                19.12194061279297
              ],
              [
                40.985382080078125,
                19.443374633789062
              ],
              [
                40.84076690673828,
                19.507661819458008
              ],
              [
                40.85103988647461,
                19.700523376464844
              ],
              [
                40.561588287353516,
                19.8290958404541
              ],
              [
                40.14036178588867,
                20.279102325439453
              ],
              [
                39.84385299682617,
                20.279102325439453
              ],
              [
                39.35056686401367,
                20.793392181396484
              ],
              [
                39.14701461791992,
                21.179107666015625
              ],
              [
                39.16929626464844,
                21.629112243652344
              ],
              [
                39.02705764770508,
                21.7576847076416
              ],
              [
                39.14019775390625,
                22.529123306274414
              ],
              [
                38.8588752746582,
                22.85055923461914
              ],
              [
                38.86882400512695,
                23.043420791625977
              ],
              [
                38.60107421875,
                23.622013092041016
              ],
              [
                38.03175354003906,
                24.136323928833008
              ],
              [
                37.444801330566406,
                24.329193115234375
              ],
              [
                37.38759231567383,
                24.650644302368164
              ],
              [
                37.17045593261719,
                24.779226303100586
              ],
              [
                37.1776123046875,
                24.907808303833008
              ],
              [
                37.3307991027832,
                24.97209930419922
              ],
              [
                37.27071762084961,
                25.229267120361328
              ],
              [
                36.772972106933594,
                25.67931365966797
              ],
              [
                36.7172966003418,
                26.000778198242188
              ],
              [
                36.42910385131836,
                26.19365882873535
              ],
              [
                36.16486358642578,
                26.772293090820312
              ],
              [
                35.671688079833984,
                27.2866268157959
              ],
              [
                35.61323928833008,
                27.54378890991211
              ],
              [
                35.46693801879883,
                27.608078002929688
              ],
              [
                35.40869903564453,
                27.865236282348633
              ],
              [
                35.04917907714844,
                28.12238883972168
              ],
              [
                34.59267044067383,
                28.058101654052734
              ],
              [
                34.60541915893555,
                28.25096321105957
              ],
              [
                34.853519439697266,
                28.572391510009766
              ],
              [
                34.90353012084961,
                29.279497146606445
              ],
              [
                34.908206939697266,
                29.34377670288086
              ],
              [
                35.13515853881836,
                29.34377670288086
              ],
              [
                35.220340728759766,
                29.472333908081055
              ],
              [
                35.92133712768555,
                29.729440689086914
              ],
              [
                36.37578201293945,
                29.729440689086914
              ],
              [
                36.93765640258789,
                30.115081787109375
              ],
              [
                37.3133430480957,
                30.950578689575195
              ],
              [
                37.55886459350586,
                31.143381118774414
              ],
              [
                37.83492660522461,
                31.65752601623535
              ],
              [
                37.99348831176758,
                31.7217960357666
              ],
              [
                38.01194763183594,
                31.91460609436035
              ],
              [
                38.26596450805664,
                32.171695709228516
              ],
              [
                38.28504943847656,
                32.36451721191406
              ],
              [
                38.64313507080078,
                32.878753662109375
              ],
              [
                38.893001556396484,
                33.07160949707031
              ],
              [
                38.91337203979492,
                33.26447677612305
              ],
              [
                39.07358932495117,
                33.32876968383789
              ],
              [
                39.06671905517578,
                33.26447677612305
              ],
              [
                39.102508544921875,
                32.878753662109375
              ],
              [
                39.17906951904297,
                32.878753662109375
              ],
              [
                39.13886642456055,
                32.493072509765625
              ],
              [
                38.97280502319336,
                32.36451721191406
              ],
              [
                38.85757827758789,
                31.978878021240234
              ],
              [
                39.18233871459961,
                32.171695709228516
              ],
              [
                39.63389205932617,
                32.107421875
              ],
              [
                39.71023941040039,
                32.107421875
              ],
              [
                40.314247131347656,
                32.043148040771484
              ]
            ]
          ],
          [
            [
              [
                43.196651458740234,
                31.20764923095703
              ],
              [
                43.20375442504883,
                31.271915435791016
              ],
              [
                43.27988052368164,
                31.271915435791016
              ],
              [
                43.27275848388672,
                31.20764923095703
              ],
              [
                43.196651458740234,
                31.20764923095703
              ]
            ]
          ]
        ]
      }
    }
  ]
}