{
  "type": "FeatureCollection",
  "name": "territory-740",
  "features": [
    {
      "type": "Feature",
      "properties": {
        "Name": "Khanates of the Caucasus",
        "FromYear": 1788,
        "ToYear": 1790,
        "Area": 194383.24424552484,
        "Type": "POLITY",
        "Wikipedia": "Khanates of the Caucasus",
        "Wikidata": "Q406684",
        "SeshatID": "az_caucasus_khanates",
        "Components": "",
        "MemberOf": ""
      },
      "geometry": {
        "type": "Polygon",
        "coordinates": [
          [
            [
              46.9326057434082,
              36.73930740356445
            ],
            [
              46.85484313964844,
              36.73930740356445
            ],
            [
              46.38826370239258,
              36.73930740356445
            ],
            [
              45.37849426269531,
              36.2239875793457
            ],
            [
              45.09638595581055,
              36.417205810546875
            ],
            [
              45.056724548339844,
              36.67487716674805
            ],
            [
              44.910770416259766,
              36.73930740356445
            ],
            [
              44.773807525634766,
              37.38381576538086
            ],
            [
              44.627601623535156,
              37.44829177856445
            ],
            [
              44.58888626098633,
              37.706241607666016
            ],
            [
              44.30603790283203,
              37.89975357055664
            ],
            [
              44.45452117919922,
              38.351463317871094
            ],
            [
              44.30800247192383,
              38.416015625
            ],
            [
              44.31191635131836,
              38.93262481689453
            ],
            [
              44.165225982666016,
              38.997230529785156
            ],
            [
              44.128570556640625,
              39.25570297241211
            ],
            [
              44.04990005493164,
              39.25570297241211
            ],
            [
              44.071044921875,
              39.38497543334961
            ],
            [
              44.396663665771484,
              39.449623107910156
            ],
            [
              44.51885986328125,
              39.70827102661133
            ],
            [
              44.766448974609375,
              39.77294921875
            ],
            [
              44.416175842285156,
              40.031734466552734
            ],
            [
              43.86334228515625,
              40.031734466552734
            ],
            [
              43.648197174072266,
              40.16116714477539
            ],
            [
              43.71440124511719,
              41.00318908691406
            ],
            [
              43.87315368652344,
              41.00318908691406
            ],
            [
              43.99747085571289,
              40.80876541137695
            ],
            [
              44.235355377197266,
              40.80876541137695
            ],
            [
              44.29167175292969,
              40.6791877746582
            ],
            [
              44.62021255493164,
              40.74397277832031
            ],
            [
              44.75552749633789,
              40.614410400390625
            ],
            [
              45.60323715209961,
              40.4848747253418
            ],
            [
              45.99195861816406,
              40.873565673828125
            ],
            [
              46.4802131652832,
              40.93837356567383
            ],
            [
              46.78090286254883,
              41.26253128051758
            ],
            [
              47.111610412597656,
              41.32738494873047
            ],
            [
              47.21682357788086,
              41.45711898803711
            ],
            [
              47.29639434814453,
              41.45711898803711
            ],
            [
              47.496280670166016,
              41.26253128051758
            ],
            [
              47.98626708984375,
              41.32738494873047
            ],
            [
              48.1719970703125,
              41.84651184082031
            ],
            [
              48.09225845336914,
              41.84651184082031
            ],
            [
              48.1191520690918,
              41.97637939453125
            ],
            [
              48.278743743896484,
              41.97637939453125
            ],
            [
              49.08600997924805,
              41.26253128051758
            ],
            [
              49.059226989746094,
              41.132843017578125
            ],
            [
              49.270748138427734,
              41.00318908691406
            ],
            [
              49.2441520690918,
              40.873565673828125
            ],
            [
              49.50836181640625,
              40.614410400390625
            ],
            [
              50.04951477050781,
              40.54964065551758
            ],
            [
              50.2603759765625,
              40.42012023925781
            ],
            [
              49.6933479309082,
              40.355369567871094
            ],
            [
              49.50919723510742,
              40.225894927978516
            ],
            [
              49.26664352416992,
              39.38497543334961
            ],
            [
              49.151405334472656,
              39.19107437133789
            ],
            [
              48.91546630859375,
              39.19107437133789
            ],
            [
              48.801002502441406,
              38.997230529785156
            ],
            [
              48.76274490356445,
              38.351463317871094
            ],
            [
              48.8410758972168,
              38.351463317871094
            ],
            [
              48.795413970947266,
              38.09331130981445
            ],
            [
              48.87364959716797,
              38.09331130981445
            ],
            [
              48.82852554321289,
              37.835243225097656
            ],
            [
              48.90666961669922,
              37.835243225097656
            ],
            [
              48.89546203613281,
              37.7707405090332
            ],
            [
              48.5718994140625,
              37.706241607666016
            ],
            [
              48.439090728759766,
              37.38381576538086
            ],
            [
              47.46123123168945,
              37.12596130371094
            ],
            [
              47.196571350097656,
              36.932613372802734
            ],
            [
              47.17608642578125,
              36.80373764038086
            ],
            [
              46.9326057434082,
              36.73930740356445
            ]
          ]
        ]
      }
    }
  ]
}