{
  "type": "FeatureCollection",
  "name": "territory-741",
  "features": [
    {
      "type": "Feature",
      "properties": {
        "Name": "Durrani Empire",
        "FromYear": 1763,
        "ToYear": 1768,
        "Area": 2195447.478913145,
        "Type": "POLITY",
        "Wikipedia": "Durrani Empire",
        "Wikidata": "Q467627",
        "SeshatID": "af_durrani_emp",
        "Components": "",
        "MemberOf": ""
      },
      "geometry": {
        "type": "Polygon",
        "coordinates": [
          [
            [
              75.31097412109375,
              36.9970588684082
            ],
            [
              75.41193389892578,
              36.80373764038086
            ],
            [
              75.7826156616211,
              36.73930740356445
            ],
            [
              76.00286865234375,
              36.417205810546875
            ],
            [
              75.98487854003906,
              36.3527946472168
            ],
            [
              75.99100494384766,
              36.09519577026367
            ],
            [
              76.1703872680664,
              35.902034759521484
            ],
            [
              76.57561492919922,
              35.9664192199707
            ],
            [
              76.59979248046875,
              35.77327346801758
            ],
            [
              77.08859252929688,
              35.58015823364258
            ],
            [
              77.09552764892578,
              35.32271194458008
            ],
            [
              77.4223403930664,
              35.38706970214844
            ],
            [
              77.30987548828125,
              35.258358001708984
            ],
            [
              77.48916625976562,
              35.065311431884766
            ],
            [
              78.036865234375,
              34.80794906616211
            ],
            [
              78.2086181640625,
              34.87228775024414
            ],
            [
              78.2334213256836,
              34.679283142089844
            ],
            [
              78.87483978271484,
              34.48630142211914
            ],
            [
              78.67729187011719,
              34.03607940673828
            ],
            [
              78.84819793701172,
              34.10039138793945
            ],
            [
              78.58609008789062,
              33.393062591552734
            ],
            [
              78.66280364990234,
              33.393062591552734
            ],
            [
              78.56014251708984,
              32.685909271240234
            ],
            [
              78.54415130615234,
              32.62162780761719
            ],
            [
              78.46499633789062,
              32.30024337768555
            ],
            [
              78.54139709472656,
              32.30024337768555
            ],
            [
              78.5552978515625,
              32.043148040771484
            ],
            [
              78.75325775146484,
              31.91460609436035
            ],
            [
              78.81387329101562,
              31.528987884521484
            ],
            [
              78.73768615722656,
              31.528987884521484
            ],
            [
              78.06855773925781,
              31.271915435791016
            ],
            [
              78.12991333007812,
              31.20764923095703
            ],
            [
              77.98085021972656,
              30.886310577392578
            ],
            [
              77.60553741455078,
              30.564971923828125
            ],
            [
              77.58035941549137,
              30.564971923828125
            ],
            [
              77.38402557373047,
              30.243623733520508
            ],
            [
              76.73224639892578,
              29.665164947509766
            ],
            [
              76.2515869140625,
              28.765243530273438
            ],
            [
              75.76618194580078,
              28.186676025390625
            ],
            [
              75.77873229980469,
              26.96516990661621
            ],
            [
              75.25467681884766,
              26.515121459960938
            ],
            [
              75.05401611328125,
              26.19365882873535
            ],
            [
              74.80924987792969,
              26.06507110595703
            ],
            [
              74.7896957397461,
              25.936485290527344
            ],
            [
              74.46109008789062,
              25.743606567382812
            ],
            [
              74.4421615600586,
              25.615020751953125
            ],
            [
              74.03067016601562,
              25.357851028442383
            ],
            [
              73.5380040736271,
              24.779226303100586
            ],
            [
              73.5019302368164,
              24.779226303100586
            ],
            [
              73.40157318115234,
              24.586353302001953
            ],
            [
              73.01121520996094,
              24.457773208618164
            ],
            [
              72.50486755371094,
              24.586353302001953
            ],
            [
              71.29300689697266,
              24.457773208618164
            ],
            [
              70.89556884765625,
              24.264904022216797
            ],
            [
              70.1488265991211,
              24.264904022216797
            ],
            [
              69.9839859008789,
              24.136323928833008
            ],
            [
              68.62521362304688,
              24.00774574279785
            ],
            [
              68.30460357666016,
              23.814878463745117
            ],
            [
              67.63314819335938,
              23.814878463745117
            ],
            [
              67.49114990234375,
              23.879167556762695
            ],
            [
              67.43836975097656,
              24.07203483581543
            ],
            [
              67.28907775878906,
              24.07203483581543
            ],
            [
              67.32612609863281,
              24.393482208251953
            ],
            [
              67.25143432617188,
              24.393482208251953
            ],
            [
              67.2146987915039,
              24.714935302734375
            ],
            [
              66.63204956054688,
              24.843517303466797
            ],
            [
              66.67909240722656,
              25.229267120361328
            ],
            [
              66.34514617919922,
              25.55072784423828
            ],
            [
              66.02147674560547,
              25.357851028442383
            ],
            [
              64.8160629272461,
              25.29355812072754
            ],
            [
              64.80064392089844,
              25.164974212646484
            ],
            [
              64.2845230102539,
              25.229267120361328
            ],
            [
              64.22502136230469,
              25.357851028442383
            ],
            [
              63.62620544433594,
              25.357851028442383
            ],
            [
              63.536216735839844,
              25.229267120361328
            ],
            [
              62.563419342041016,
              25.229267120361328
            ],
            [
              62.47393035888672,
              25.100683212280273
            ],
            [
              62.18195724487305,
              25.164974212646484
            ],
            [
              62.01787185668945,
              25.03639030456543
            ],
            [
              61.651031494140625,
              25.100683212280273
            ],
            [
              61.65822219848633,
              25.164974212646484
            ],
            [
              61.85404586791992,
              26.19365882873535
            ],
            [
              62.42774963378906,
              26.57941436767578
            ],
            [
              63.11177062988281,
              26.643707275390625
            ],
            [
              63.27887725830078,
              26.772293090820312
            ],
            [
              63.33076095581055,
              27.158044815063477
            ],
            [
              62.82195281982422,
              27.2866268157959
            ],
            [
              62.90277099609375,
              27.865236282348633
            ],
            [
              62.82744598388672,
              27.865236282348633
            ],
            [
              62.79844284057617,
              28.186676025390625
            ],
            [
              61.874298095703125,
              28.572391510009766
            ],
            [
              61.48815155029297,
              29.022375106811523
            ],
            [
              61.451602935791016,
              29.279497146606445
            ],
            [
              60.92573928833008,
              29.79371452331543
            ],
            [
              60.95616912841797,
              29.986536026000977
            ],
            [
              61.38716506958008,
              30.307893753051758
            ],
            [
              61.87461853027344,
              30.950578689575195
            ],
            [
              61.91905212402344,
              31.20764923095703
            ],
            [
              61.72434997558594,
              31.40045166015625
            ],
            [
              61.115089416503906,
              31.40045166015625
            ],
            [
              60.84385299682617,
              31.593257904052734
            ],
            [
              60.88142776489258,
              32.23596954345703
            ],
            [
              60.65742874145508,
              32.685909271240234
            ],
            [
              60.692955017089844,
              32.878753662109375
            ],
            [
              60.61639404296875,
              32.878753662109375
            ],
            [
              60.68838119506836,
              33.26447677612305
            ],
            [
              60.890625,
              33.52165222167969
            ],
            [
              60.59587860107422,
              33.5859489440918
            ],
            [
              60.56838607788086,
              33.84315490722656
            ],
            [
              60.49154281616211,
              33.84315490722656
            ],
            [
              60.56644058227539,
              34.22901916503906
            ],
            [
              60.835426330566406,
              34.42197799682617
            ],
            [
              60.2955322265625,
              34.80794906616211
            ],
            [
              59.407772064208984,
              35.00096893310547
            ],
            [
              58.00593948364258,
              34.93662643432617
            ],
            [
              57.953346252441406,
              35.065311431884766
            ],
            [
              57.733978271484375,
              35.12965774536133
            ],
            [
              58.07830810546875,
              35.708900451660156
            ],
            [
              58.5633430480957,
              37.3193473815918
            ],
            [
              58.64130401611328,
              37.3193473815918
            ],
            [
              58.99509811401367,
              38.22237777709961
            ],
            [
              59.75882339477539,
              38.48057174682617
            ],
            [
              61.403953552246094,
              38.80344009399414
            ],
            [
              62.98078918457031,
              39.449623107910156
            ],
            [
              63.41547393798828,
              38.997230529785156
            ],
            [
              63.837432861328125,
              38.80344009399414
            ],
            [
              64.00749206542969,
              38.54513168334961
            ],
            [
              64.36690521240234,
              38.416015625
            ],
            [
              64.66151428222656,
              38.028785705566406
            ],
            [
              65.23883056640625,
              37.835243225097656
            ],
            [
              65.62744903564453,
              37.51277160644531
            ],
            [
              66.51548767089844,
              37.3193473815918
            ],
            [
              66.99945068359375,
              37.38381576538086
            ],
            [
              67.12300109863281,
              37.254878997802734
            ],
            [
              67.74652099609375,
              37.254878997802734
            ],
            [
              67.91515350341797,
              36.9970588684082
            ],
            [
              68.1487045288086,
              36.9970588684082
            ],
            [
              68.7763900756836,
              37.3193473815918
            ],
            [
              69.0102767944336,
              37.3193473815918
            ],
            [
              69.1160659790039,
              37.12596130371094
            ],
            [
              69.3497543334961,
              37.12596130371094
            ],
            [
              69.5460205078125,
              37.5772590637207
            ],
            [
              70.07515716552734,
              37.51277160644531
            ],
            [
              70.26583862304688,
              37.641746520996094
            ],
            [
              70.16192626953125,
              37.835243225097656
            ],
            [
              70.2146987915039,
              38.028785705566406
            ],
            [
              70.71366119384766,
              38.416015625
            ],
            [
              71.18379211425781,
              38.416015625
            ],
            [
              71.3639907836914,
              38.22237777709961
            ],
            [
              71.27379608154297,
              37.89975357055664
            ],
            [
              71.56851959228516,
              37.835243225097656
            ],
            [
              71.41844177246094,
              36.9970588684082
            ],
            [
              71.58341979980469,
              36.73930740356445
            ],
            [
              72.24005126953125,
              36.8681755065918
            ],
            [
              73.33428192138672,
              37.44829177856445
            ],
            [
              73.72431945800781,
              37.44829177856445
            ],
            [
              73.82582092285156,
              37.254878997802734
            ],
            [
              74.09605407714844,
              37.38381576538086
            ],
            [
              74.79792022705078,
              37.38381576538086
            ],
            [
              74.91697692871094,
              37.254878997802734
            ],
            [
              74.58694458007812,
              37.1904182434082
            ],
            [
              74.55056762695312,
              37.06150817871094
            ],
            [
              75.31097412109375,
              36.9970588684082
            ]
          ]
        ]
      }
    }
  ]
}