{
  "type": "FeatureCollection",
  "name": "territory-743",
  "features": [
    {
      "type": "Feature",
      "properties": {
        "Name": "Bahrain",
        "FromYear": 1820,
        "ToYear": 1829,
        "Area": 72710.22994781187,
        "Type": "POLITY",
        "Wikipedia": "Bahrain",
        "Wikidata": "Q398",
        "SeshatID": "",
        "Components": "",
        "MemberOf": ""
      },
      "geometry": {
        "type": "Polygon",
        "coordinates": [
          [
            [
              49.31059265136719,
              27.54378890991211
            ],
            [
              49.35963439941406,
              27.2866268157959
            ],
            [
              50.13496398925781,
              26.772293090820312
            ],
            [
              50.11603546142578,
              26.57941436767578
            ],
            [
              50.2536735534668,
              26.450830459594727
            ],
            [
              50.22300720214844,
              26.129364013671875
            ],
            [
              50.067020416259766,
              26.06507110595703
            ],
            [
              50.21097183227539,
              26.000778198242188
            ],
            [
              50.325462341308594,
              25.615020751953125
            ],
            [
              50.60764694213867,
              25.422143936157227
            ],
            [
              50.71778106689453,
              24.97209930419922
            ],
            [
              50.792572021484375,
              24.97209930419922
            ],
            [
              50.43473434448242,
              24.264904022216797
            ],
            [
              50.36005783081055,
              24.264904022216797
            ],
            [
              49.767757415771484,
              24.329193115234375
            ],
            [
              49.69307327270508,
              24.329193115234375
            ],
            [
              49.48435974121094,
              24.522062301635742
            ],
            [
              49.43046188354492,
              24.779226303100586
            ],
            [
              49.07245635986328,
              24.97209930419922
            ],
            [
              48.18215560913086,
              26.772293090820312
            ],
            [
              48.03797149658203,
              26.836584091186523
            ],
            [
              47.79905700683594,
              27.4794979095459
            ],
            [
              47.592288970947266,
              27.6723690032959
            ],
            [
              47.59867858886719,
              27.736658096313477
            ],
            [
              47.568885803222656,
              28.186676025390625
            ],
            [
              47.69145202636719,
              28.636676788330078
            ],
            [
              47.93874740600586,
              28.829526901245117
            ],
            [
              48.39195251464844,
              28.829526901245117
            ],
            [
              48.43938446044922,
              28.572391510009766
            ],
            [
              48.583370208740234,
              28.508106231689453
            ],
            [
              48.562652587890625,
              28.315250396728516
            ],
            [
              48.974143981933594,
              27.92952537536621
            ],
            [
              48.87215805053711,
              27.6723690032959
            ],
            [
              49.23533248901367,
              27.54378890991211
            ],
            [
              49.31059265136719,
              27.54378890991211
            ]
          ]
        ]
      }
    }
  ]
}