{
  "type": "FeatureCollection",
  "name": "territory-745",
  "features": [
    {
      "type": "Feature",
      "properties": {
        "Name": "Sikh Confederacy",
        "FromYear": 1772,
        "ToYear": 1798,
        "Area": 63121.79782897855,
        "Type": "POLITY",
        "Wikipedia": "Misl",
        "Wikidata": "Q2578028",
        "SeshatID": "",
        "Components": "",
        "MemberOf": ""
      },
      "geometry": {
        "type": "Polygon",
        "coordinates": [
          [
            [
              74.47523498535156,
              32.557350158691406
            ],
            [
              74.55170440673828,
              32.557350158691406
            ],
            [
              75.20977020263672,
              32.428794860839844
            ],
            [
              75.33260345458984,
              32.30024337768555
            ],
            [
              75.72968292236328,
              32.36451721191406
            ],
            [
              75.714599609375,
              32.30024337768555
            ],
            [
              75.50212097167969,
              32.043148040771484
            ],
            [
              75.71626281738281,
              31.978878021240234
            ],
            [
              76.14717102050781,
              31.528987884521484
            ],
            [
              76.11814880371094,
              31.40045166015625
            ],
            [
              76.43733215332031,
              31.464719772338867
            ],
            [
              76.48442077636719,
              31.336183547973633
            ],
            [
              76.40827941894531,
              31.336183547973633
            ],
            [
              76.39382934570312,
              31.271915435791016
            ],
            [
              76.48870849609375,
              31.014846801757812
            ],
            [
              75.57601928710938,
              31.014846801757812
            ],
            [
              75.39004516601562,
              31.20764923095703
            ],
            [
              74.78118896484375,
              31.20764923095703
            ],
            [
              74.22845458984375,
              30.757776260375977
            ],
            [
              74.20147705078125,
              30.629240036010742
            ],
            [
              74.049560546875,
              30.629240036010742
            ],
            [
              73.47366333007812,
              31.143381118774414
            ],
            [
              73.5011215209961,
              31.271915435791016
            ],
            [
              73.18963623046875,
              31.593257904052734
            ],
            [
              72.69790649414062,
              31.78606605529785
            ],
            [
              72.31038665771484,
              32.107421875
            ],
            [
              72.0050048828125,
              32.107421875
            ],
            [
              71.81820678710938,
              32.30024337768555
            ],
            [
              71.87521362304688,
              32.557350158691406
            ],
            [
              71.75099182128906,
              32.685909271240234
            ],
            [
              71.88558197021484,
              32.94303894042969
            ],
            [
              72.1595458984375,
              33.13589859008789
            ],
            [
              72.8492660522461,
              33.13589859008789
            ],
            [
              73.5087890625,
              33.00732421875
            ],
            [
              74.47523498535156,
              32.557350158691406
            ]
          ]
        ]
      }
    }
  ]
}