{
  "type": "FeatureCollection",
  "name": "territory-748",
  "features": [
    {
      "type": "Feature",
      "properties": {
        "Name": "Chiangmai",
        "FromYear": 1853,
        "ToYear": 1879,
        "Area": 65305.70088454235,
        "Type": "POLITY",
        "Wikipedia": "Chiang Mai",
        "Wikidata": "Q52028",
        "SeshatID": "",
        "Components": "",
        "MemberOf": ""
      },
      "geometry": {
        "type": "Polygon",
        "coordinates": [
          [
            [
              101.01860809326172,
              20.40767478942871
            ],
            [
              100.94446563720703,
              20.40767478942871
            ],
            [
              100.70211029052734,
              20.279102325439453
            ],
            [
              100.49423217773438,
              19.893383026123047
            ],
            [
              100.46441650390625,
              19.700523376464844
            ],
            [
              100.65670776367188,
              19.507661819458008
            ],
            [
              100.62686157226562,
              19.314802169799805
            ],
            [
              100.74503326416016,
              19.12194061279297
            ],
            [
              100.58715057373047,
              19.057653427124023
            ],
            [
              100.56733703613281,
              18.929079055786133
            ],
            [
              100.18769836425781,
              18.864791870117188
            ],
            [
              99.75928497314453,
              18.479066848754883
            ],
            [
              99.61148071289062,
              18.479066848754883
            ],
            [
              99.58235931396484,
              18.286205291748047
            ],
            [
              98.6411361694336,
              18.414779663085938
            ],
            [
              98.28834533691406,
              18.029054641723633
            ],
            [
              97.83582305908203,
              17.964767456054688
            ],
            [
              97.59712982177734,
              18.350492477416992
            ],
            [
              97.44935607910156,
              18.350492477416992
            ],
            [
              97.46833038330078,
              18.479066848754883
            ],
            [
              97.77346801757812,
              18.543354034423828
            ],
            [
              97.86650085449219,
              18.67193031311035
            ],
            [
              97.84358215332031,
              19.507661819458008
            ],
            [
              98.1043701171875,
              19.764808654785156
            ],
            [
              98.91905212402344,
              19.764808654785156
            ],
            [
              99.19020080566406,
              20.08624267578125
            ],
            [
              99.41250610351562,
              20.08624267578125
            ],
            [
              99.83231353759766,
              20.40767478942871
            ],
            [
              100.1288833618164,
              20.40767478942871
            ],
            [
              100.24270629882812,
              20.664819717407227
            ],
            [
              100.6435546875,
              20.857677459716797
            ],
            [
              100.69373321533203,
              21.179107666015625
            ],
            [
              101.17981719970703,
              21.43625259399414
            ],
            [
              101.31816864013672,
              21.371967315673828
            ],
            [
              101.3619155883789,
              21.179107666015625
            ],
            [
              101.79718017578125,
              21.114822387695312
            ],
            [
              101.8612289428711,
              21.050535202026367
            ],
            [
              101.75656127929688,
              20.857677459716797
            ],
            [
              101.42952728271484,
              20.664819717407227
            ],
            [
              101.46346282958984,
              20.40767478942871
            ],
            [
              101.01860809326172,
              20.40767478942871
            ]
          ]
        ]
      }
    }
  ]
}