{
  "type": "FeatureCollection",
  "name": "territory-749",
  "features": [
    {
      "type": "Feature",
      "properties": {
        "Name": "Nepal",
        "FromYear": 1814,
        "ToYear": 1814,
        "Area": 227188.11122892436,
        "Type": "POLITY",
        "Wikipedia": "Nepal",
        "Wikidata": "Q837",
        "SeshatID": "",
        "Components": "",
        "MemberOf": ""
      },
      "geometry": {
        "type": "Polygon",
        "coordinates": [
          [
            [
              88.80475616455078,
              27.093751907348633
            ],
            [
              89.05371856689453,
              26.836584091186523
            ],
            [
              88.16495513916016,
              26.900876998901367
            ],
            [
              88.16487884521484,
              26.515121459960938
            ],
            [
              87.99026489257812,
              26.386537551879883
            ],
            [
              87.23990631103516,
              26.386537551879883
            ],
            [
              87.11405181884766,
              26.515121459960938
            ],
            [
              86.65162658691406,
              26.450830459594727
            ],
            [
              86.3125991821289,
              26.643707275390625
            ],
            [
              85.78701782226562,
              26.643707275390625
            ],
            [
              85.73619079589844,
              26.772293090820312
            ],
            [
              85.2734603881836,
              26.70800018310547
            ],
            [
              84.9972152709961,
              26.836584091186523
            ],
            [
              84.88357543945312,
              27.029460906982422
            ],
            [
              84.73326110839844,
              27.029460906982422
            ],
            [
              84.75791931152344,
              27.158044815063477
            ],
            [
              84.43182373046875,
              27.41520881652832
            ],
            [
              83.29095458984375,
              27.35091781616211
            ],
            [
              82.93949127197266,
              27.4794979095459
            ],
            [
              82.6757583618164,
              27.6723690032959
            ],
            [
              81.55880737304688,
              27.736658096313477
            ],
            [
              80.64166259765625,
              28.058101654052734
            ],
            [
              80.12690734863281,
              28.508106231689453
            ],
            [
              80.15263366699219,
              28.636676788330078
            ],
            [
              80.0275650024414,
              28.765243530273438
            ],
            [
              79.64996337890625,
              28.765243530273438
            ],
            [
              79.02201843261719,
              29.022375106811523
            ],
            [
              79.04823303222656,
              29.150936126708984
            ],
            [
              78.91018676757812,
              29.21521759033203
            ],
            [
              78.96344757080078,
              29.472333908081055
            ],
            [
              78.68758392333984,
              29.600887298583984
            ],
            [
              78.63894653320312,
              29.729440689086914
            ],
            [
              78.23332214355469,
              29.600887298583984
            ],
            [
              78.19803619384766,
              29.79371452331543
            ],
            [
              77.95728302001953,
              29.729440689086914
            ],
            [
              77.9357681274414,
              29.986536026000977
            ],
            [
              78.14266967773438,
              30.243623733520508
            ],
            [
              77.79118347167969,
              30.372163772583008
            ],
            [
              77.57745361328125,
              30.436433792114258
            ],
            [
              77.26813507080078,
              30.757776260375977
            ],
            [
              77.28235626220703,
              30.822044372558594
            ],
            [
              77.38700103759766,
              30.950578689575195
            ],
            [
              77.26371002197266,
              31.079113006591797
            ],
            [
              77.29273223876953,
              31.20764923095703
            ],
            [
              77.91631317138672,
              31.271915435791016
            ],
            [
              78.05196380615234,
              31.528987884521484
            ],
            [
              78.3416976928711,
              31.464719772338867
            ],
            [
              78.51044464111328,
              31.20764923095703
            ],
            [
              78.72391510009766,
              31.143381118774414
            ],
            [
              79.1043701171875,
              31.143381118774414
            ],
            [
              79.07320404052734,
              31.336183547973633
            ],
            [
              79.08829498291016,
              31.40045166015625
            ],
            [
              79.4549560546875,
              31.014846801757812
            ],
            [
              79.97239685058594,
              30.950578689575195
            ],
            [
              80.26356506347656,
              30.564971923828125
            ],
            [
              80.8416519165039,
              30.436433792114258
            ],
            [
              81.0723876953125,
              30.115081787109375
            ],
            [
              81.29988098144531,
              30.115081787109375
            ],
            [
              81.58596801757812,
              30.372163772583008
            ],
            [
              82.04134368896484,
              30.372163772583008
            ],
            [
              82.46930694580078,
              29.922264099121094
            ],
            [
              83.305908203125,
              29.600887298583984
            ],
            [
              83.42857360839844,
              29.472333908081055
            ],
            [
              83.44743347167969,
              29.21521759033203
            ],
            [
              83.66020965576172,
              29.150936126708984
            ],
            [
              83.8397216796875,
              29.279497146606445
            ],
            [
              84.14226531982422,
              29.279497146606445
            ],
            [
              84.26506042480469,
              29.150936126708984
            ],
            [
              84.22280883789062,
              28.958093643188477
            ],
            [
              84.4076919555664,
              28.765243530273438
            ],
            [
              84.81932067871094,
              28.572391510009766
            ],
            [
              85.19670867919922,
              28.572391510009766
            ],
            [
              85.15557098388672,
              28.379535675048828
            ],
            [
              85.35469818115234,
              28.25096321105957
            ],
            [
              85.745361328125,
              28.315250396728516
            ],
            [
              85.97926330566406,
              27.993812561035156
            ],
            [
              86.15694427490234,
              28.12238883972168
            ],
            [
              86.28067779541016,
              27.993812561035156
            ],
            [
              86.8970947265625,
              28.058101654052734
            ],
            [
              87.1578140258789,
              27.865236282348633
            ],
            [
              87.59624481201172,
              27.800947189331055
            ],
            [
              88.13705444335938,
              27.865236282348633
            ],
            [
              88.96009826660156,
              28.186676025390625
            ],
            [
              89.33706665039062,
              28.186676025390625
            ],
            [
              89.45955657958984,
              28.058101654052734
            ],
            [
              89.12323760986328,
              27.54378890991211
            ],
            [
              88.85733032226562,
              27.35091781616211
            ],
            [
              88.80475616455078,
              27.093751907348633
            ]
          ]
        ]
      }
    }
  ]
}