{
  "type": "FeatureCollection",
  "name": "territory-759",
  "features": [
    {
      "type": "Feature",
      "properties": {
        "Name": "(Batavian Republic)",
        "FromYear": 1809,
        "ToYear": 1810,
        "Area": 329041.257652268,
        "Type": "POLITY",
        "Wikipedia": "Batavian Republic",
        "Wikidata": "Q188553",
        "SeshatID": "",
        "Components": "Dutch East Indies;Batavian Republic",
        "MemberOf": ""
      },
      "geometry": {
        "type": "MultiPolygon",
        "coordinates": [
          [
            [
              [
                123.5147705078125,
                -10.128927230834961
              ],
              [
                123.41707611083984,
                -9.871777534484863
              ],
              [
                123.73514556884766,
                -9.357477188110352
              ],
              [
                123.80821228027344,
                -9.357477188110352
              ],
              [
                123.96600341796875,
                -9.486052513122559
              ],
              [
                124.25831604003906,
                -9.486052513122559
              ],
              [
                124.37552642822266,
                -9.1646146774292
              ],
              [
                124.3698501586914,
                -9.100326538085938
              ],
              [
                124.51596069335938,
                -9.100326538085938
              ],
              [
                124.64523315429688,
                -8.907464027404785
              ],
              [
                124.7182846069336,
                -8.907464027404785
              ],
              [
                124.80252838134766,
                -9.036039352416992
              ],
              [
                125.02169036865234,
                -9.036039352416992
              ],
              [
                125.03881072998047,
                -9.228901863098145
              ],
              [
                124.82539367675781,
                -9.29318904876709
              ],
              [
                124.92195892333984,
                -9.550339698791504
              ],
              [
                124.92792510986328,
                -9.61462688446045
              ],
              [
                124.59284210205078,
                -9.936064720153809
              ],
              [
                124.60526275634766,
                -10.064640045166016
              ],
              [
                124.45903015136719,
                -10.064640045166016
              ],
              [
                124.39846801757812,
                -10.193214416503906
              ],
              [
                124.10598754882812,
                -10.193214416503906
              ],
              [
                124.1123046875,
                -10.257502555847168
              ],
              [
                123.83252716064453,
                -10.386076927185059
              ],
              [
                123.17432403564453,
                -10.386076927185059
              ],
              [
                123.22229766845703,
                -10.128927230834961
              ],
              [
                123.5147705078125,
                -10.128927230834961
              ]
            ]
          ],
          [
            [
              [
                118.3855972290039,
                -8.264588356018066
              ],
              [
                118.53654479980469,
                -8.328875541687012
              ],
              [
                118.60955810546875,
                -8.328875541687012
              ],
              [
                118.89667510986328,
                -8.264588356018066
              ],
              [
                119.08328247070312,
                -8.778888702392578
              ],
              [
                118.5041732788086,
                -8.84317684173584
              ],
              [
                118.3855972290039,
                -8.264588356018066
              ]
            ]
          ],
          [
            [
              [
                123.51195526123047,
                -8.457450866699219
              ],
              [
                123.52250671386719,
                -8.586026191711426
              ],
              [
                123.16268920898438,
                -8.650314331054688
              ],
              [
                123.14684295654297,
                -8.457450866699219
              ],
              [
                123.00080108642578,
                -8.457450866699219
              ],
              [
                122.93828582763672,
                -8.586026191711426
              ],
              [
                122.79222869873047,
                -8.586026191711426
              ],
              [
                122.78173828125,
                -8.457450866699219
              ],
              [
                122.92778015136719,
                -8.457450866699219
              ],
              [
                122.91230010986328,
                -8.264588356018066
              ],
              [
                123.20948028564453,
                -8.328875541687012
              ],
              [
                123.21465301513672,
                -8.393163681030273
              ],
              [
                123.27735900878906,
                -8.264588356018066
              ],
              [
                123.78330993652344,
                -8.200301170349121
              ],
              [
                123.72578430175781,
                -8.393163681030273
              ],
              [
                123.51195526123047,
                -8.457450866699219
              ]
            ]
          ],
          [
            [
              [
                125.02445220947266,
                -8.200301170349121
              ],
              [
                124.97238159179688,
                -8.457450866699219
              ],
              [
                124.2474594116211,
                -8.52173900604248
              ],
              [
                124.15867614746094,
                -8.328875541687012
              ],
              [
                124.17443084716797,
                -8.52173900604248
              ],
              [
                123.96067810058594,
                -8.586026191711426
              ],
              [
                123.80403900146484,
                -8.457450866699219
              ],
              [
                123.79879760742188,
                -8.393163681030273
              ],
              [
                124.00233459472656,
                -8.200301170349121
              ],
              [
                124.37252807617188,
                -8.264588356018066
              ],
              [
                124.36225891113281,
                -8.13601303100586
              ],
              [
                125.02445220947266,
                -8.200301170349121
              ]
            ]
          ],
          [
            [
              [
                110.33898162841797,
                -6.914548873901367
              ],
              [
                110.53135681152344,
                -6.464535236358643
              ],
              [
                110.89232635498047,
                -6.400247573852539
              ],
              [
                111.05307006835938,
                -6.657398223876953
              ],
              [
                111.48690795898438,
                -6.59311056137085
              ],
              [
                111.64424133300781,
                -6.78597354888916
              ],
              [
                111.93600463867188,
                -6.78597354888916
              ],
              [
                112.16267395019531,
                -6.914548873901367
              ],
              [
                112.5234603881836,
                -6.850261211395264
              ],
              [
                112.53138732910156,
                -6.978836059570312
              ],
              [
                112.74229431152344,
                -6.850261211395264
              ],
              [
                113.90941619873047,
                -6.850261211395264
              ],
              [
                113.99446105957031,
                -7.043123722076416
              ],
              [
                113.84855651855469,
                -7.043123722076416
              ],
              [
                113.78382110595703,
                -7.171699047088623
              ],
              [
                113.28141021728516,
                -7.30027437210083
              ],
              [
                112.69354248046875,
                -7.235986709594727
              ],
              [
                112.71458435058594,
                -7.557425022125244
              ],
              [
                113.09252166748047,
                -7.750287532806396
              ],
              [
                114.255859375,
                -7.685999870300293
              ],
              [
                114.4107437133789,
                -7.8145751953125
              ],
              [
                114.30169677734375,
                -8.328875541687012
              ],
              [
                114.48686981201172,
                -8.84317684173584
              ],
              [
                114.26774597167969,
                -8.84317684173584
              ],
              [
                114.1798095703125,
                -8.650314331054688
              ],
              [
                113.74161529541016,
                -8.650314331054688
              ],
              [
                113.20647430419922,
                -8.328875541687012
              ],
              [
                112.9874267578125,
                -8.328875541687012
              ],
              [
                112.85083770751953,
                -8.457450866699219
              ],
              [
                112.26666259765625,
                -8.457450866699219
              ],
              [
                111.8922119140625,
                -8.328875541687012
              ],
              [
                110.86542510986328,
                -8.264588356018066
              ],
              [
                110.79241180419922,
                -8.264588356018066
              ],
              [
                110.6926498413086,
                -7.878862857818604
              ],
              [
                110.81719207763672,
                -7.557425022125244
              ],
              [
                110.67123413085938,
                -7.557425022125244
              ],
              [
                110.58992004394531,
                -7.428849697113037
              ],
              [
                110.95894622802734,
                -7.493137359619141
              ],
              [
                111.02774810791016,
                -7.428849697113037
              ],
              [
                110.94245910644531,
                -7.235986709594727
              ],
              [
                110.28580474853516,
                -7.235986709594727
              ],
              [
                110.22506713867188,
                -7.428849697113037
              ],
              [
                110.31055450439453,
                -7.621712207794189
              ],
              [
                110.23757934570312,
                -7.621712207794189
              ],
              [
                110.16459655761719,
                -7.621712207794189
              ],
              [
                110.1688232421875,
                -7.685999870300293
              ],
              [
                110.09584045410156,
                -7.685999870300293
              ],
              [
                110.02285766601562,
                -7.685999870300293
              ],
              [
                110.01444244384766,
                -7.557425022125244
              ],
              [
                109.49128723144531,
                -7.364562034606934
              ],
              [
                109.40232849121094,
                -7.10741138458252
              ],
              [
                108.66887664794922,
                -7.043123722076416
              ],
              [
                108.16597747802734,
                -7.171699047088623
              ],
              [
                107.98770904541016,
                -7.8145751953125
              ],
              [
                107.91472625732422,
                -7.8145751953125
              ],
              [
                107.16431427001953,
                -7.493137359619141
              ],
              [
                106.28465270996094,
                -7.428849697113037
              ],
              [
                106.3343734741211,
                -7.043123722076416
              ],
              [
                105.8854751586914,
                -6.850261211395264
              ],
              [
                105.37486267089844,
                -6.850261211395264
              ],
              [
                105.36400604248047,
                -6.657398223876953
              ],
              [
                105.49927520751953,
                -6.464535236358643
              ],
              [
                105.64512634277344,
                -6.464535236358643
              ],
              [
                105.69756317138672,
                -6.078809261322021
              ],
              [
                105.90641784667969,
                -5.885946750640869
              ],
              [
                106.79126739501953,
                -6.078809261322021
              ],
              [
                106.85420227050781,
                -5.885946750640869
              ],
              [
                107.00001525878906,
                -5.885946750640869
              ],
              [
                107.37120056152344,
                -6.014522075653076
              ],
              [
                107.5272445678711,
                -6.207384586334229
              ],
              [
                108.04115295410156,
                -6.271672248840332
              ],
              [
                108.11407470703125,
                -6.271672248840332
              ],
              [
                108.33635711669922,
                -6.335959911346436
              ],
              [
                108.5806655883789,
                -6.78597354888916
              ],
              [
                109.16799926757812,
                -6.850261211395264
              ],
              [
                110.33898162841797,
                -6.914548873901367
              ]
            ]
          ],
          [
            [
              [
                121.82645416259766,
                -5.050207138061523
              ],
              [
                121.89933013916016,
                -5.050207138061523
              ],
              [
                121.98941802978516,
                -5.371645450592041
              ],
              [
                121.7742919921875,
                -5.435933113098145
              ],
              [
                121.68406677246094,
                -5.114494800567627
              ],
              [
                121.82645416259766,
                -5.050207138061523
              ]
            ]
          ],
          [
            [
              [
                119.34864807128906,
                -5.050207138061523
              ],
              [
                119.46907806396484,
                -4.535906314849854
              ],
              [
                119.69694519042969,
                -4.728769302368164
              ],
              [
                119.6535873413086,
                -5.307357788085938
              ],
              [
                120.30955505371094,
                -5.307357788085938
              ],
              [
                120.32357025146484,
                -5.564508438110352
              ],
              [
                119.81687927246094,
                -5.628796100616455
              ],
              [
                119.82048034667969,
                -5.693083763122559
              ],
              [
                119.53250885009766,
                -5.757371425628662
              ],
              [
                119.22663879394531,
                -5.500220775604248
              ],
              [
                119.20619201660156,
                -5.114494800567627
              ],
              [
                119.34864807128906,
                -5.050207138061523
              ]
            ]
          ],
          [
            [
              [
                122.67807006835938,
                -4.600193977355957
              ],
              [
                122.81444549560547,
                -4.407330989837646
              ],
              [
                123.03301239013672,
                -4.407330989837646
              ],
              [
                123.12165069580078,
                -4.728769302368164
              ],
              [
                122.91288757324219,
                -4.921631813049316
              ],
              [
                123.0863037109375,
                -5.435933113098145
              ],
              [
                122.79834747314453,
                -5.500220775604248
              ],
              [
                122.80934143066406,
                -5.693083763122559
              ],
              [
                122.441162109375,
                -5.628796100616455
              ],
              [
                122.43388366699219,
                -5.500220775604248
              ],
              [
                122.4302978515625,
                -5.435933113098145
              ],
              [
                122.13874053955078,
                -5.435933113098145
              ],
              [
                122.1776123046875,
                -4.793056964874268
              ],
              [
                122.45948028564453,
                -4.600193977355957
              ],
              [
                122.67807006835938,
                -4.600193977355957
              ]
            ]
          ],
          [
            [
              [
                104.30130767822266,
                -4.214468002319336
              ],
              [
                104.29882049560547,
                -4.150180339813232
              ],
              [
                104.37166595458984,
                -4.150180339813232
              ],
              [
                104.94951629638672,
                -4.021605014801025
              ],
              [
                105.01514434814453,
                -3.828742265701294
              ],
              [
                105.30180358886719,
                -3.700166940689087
              ],
              [
                105.75579833984375,
                -4.150180339813232
              ],
              [
                105.7583236694336,
                -4.214468002319336
              ],
              [
                105.85237121582031,
                -4.728769302368164
              ],
              [
                105.77951049804688,
                -4.728769302368164
              ],
              [
                105.80241394042969,
                -5.243070125579834
              ],
              [
                105.72953033447266,
                -5.243070125579834
              ],
              [
                105.75737762451172,
                -5.821659088134766
              ],
              [
                105.39286041259766,
                -5.821659088134766
              ],
              [
                105.23445892333984,
                -5.564508438110352
              ],
              [
                105.17095947265625,
                -5.757371425628662
              ],
              [
                104.80644989013672,
                -5.757371425628662
              ],
              [
                104.5055160522461,
                -5.564508438110352
              ],
              [
                104.59733581542969,
                -5.950234413146973
              ],
              [
                104.4515151977539,
                -5.950234413146973
              ],
              [
                104.147216796875,
                -5.693083763122559
              ],
              [
                104.14104461669922,
                -5.564508438110352
              ],
              [
                103.91932678222656,
                -5.500220775604248
              ],
              [
                103.7587890625,
                -5.17878246307373
              ],
              [
                103.23188781738281,
                -4.793056964874268
              ],
              [
                103.08615112304688,
                -4.793056964874268
              ],
              [
                102.18140411376953,
                -4.021605014801025
              ],
              [
                102.02192687988281,
                -3.635879278182983
              ],
              [
                102.6796875,
                -3.700166940689087
              ],
              [
                102.985107421875,
                -4.085892677307129
              ],
              [
                103.58037567138672,
                -4.407330989837646
              ],
              [
                104.08780670166016,
                -4.343043327331543
              ],
              [
                104.08527374267578,
                -4.278755664825439
              ],
              [
                104.15812683105469,
                -4.278755664825439
              ],
              [
                104.2309799194336,
                -4.278755664825439
              ],
              [
                104.22846221923828,
                -4.214468002319336
              ],
              [
                104.30130767822266,
                -4.214468002319336
              ]
            ]
          ],
          [
            [
              [
                124.23921966552734,
                -1.642963409423828
              ],
              [
                124.45760345458984,
                -1.642963409423828
              ],
              [
                124.5303955078125,
                -1.642963409423828
              ],
              [
                125.11457824707031,
                -1.707250952720642
              ],
              [
                125.19305419921875,
                -1.900113701820374
              ],
              [
                124.25059509277344,
                -2.028688907623291
              ],
              [
                124.23921966552734,
                -1.642963409423828
              ]
            ]
          ],
          [
            [
              [
                125.12300109863281,
                1.699989318847656
              ],
              [
                125.1824722290039,
                1.378551483154297
              ],
              [
                125.10968017578125,
                1.378551483154297
              ],
              [
                124.9589614868164,
                1.249976277351379
              ],
              [
                124.60539245605469,
                1.507126569747925
              ],
              [
                124.75902557373047,
                1.699989318847656
              ],
              [
                125.12300109863281,
                1.699989318847656
              ]
            ]
          ],
          [
            [
              [
                93.50677490234375,
                7.228724956512451
              ],
              [
                93.51488494873047,
                7.357300281524658
              ],
              [
                93.7378921508789,
                7.421587944030762
              ],
              [
                93.72565460205078,
                7.228724956512451
              ],
              [
                93.87158203125,
                7.228724956512451
              ],
              [
                93.86353302001953,
                7.100150108337402
              ],
              [
                93.85954284667969,
                7.035862445831299
              ],
              [
                93.920654296875,
                6.842999458312988
              ],
              [
                93.69792938232422,
                6.778711795806885
              ],
              [
                93.65269470214844,
                7.228724956512451
              ],
              [
                93.50677490234375,
                7.228724956512451
              ]
            ]
          ],
          [
            [
              [
                93.47957611083984,
                7.935888767242432
              ],
              [
                93.47529602050781,
                7.871601104736328
              ],
              [
                93.25631713867188,
                7.871601104736328
              ],
              [
                93.26919555664062,
                8.06446361541748
              ],
              [
                93.48820495605469,
                8.06446361541748
              ],
              [
                93.47957611083984,
                7.935888767242432
              ]
            ]
          ],
          [
            [
              [
                79.89376068115234,
                11.15026569366455
              ],
              [
                79.88902282714844,
                11.085978507995605
              ],
              [
                79.88430786132812,
                11.021690368652344
              ],
              [
                79.66477966308594,
                11.021690368652344
              ],
              [
                79.67896270751953,
                11.214552879333496
              ],
              [
                79.89852905273438,
                11.214552879333496
              ],
              [
                79.89376068115234,
                11.15026569366455
              ]
            ]
          ],
          [
            [
              [
                -62.91935729980469,
                18.029054641723633
              ],
              [
                -63.14089584350586,
                18.029054641723633
              ],
              [
                -63.16353225708008,
                18.2219181060791
              ],
              [
                -62.926856994628906,
                18.093341827392578
              ],
              [
                -62.91935729980469,
                18.029054641723633
              ]
            ]
          ],
          [
            [
              [
                88.49099731445312,
                22.59341049194336
              ],
              [
                88.47270965576172,
                22.46483612060547
              ],
              [
                88.32388305664062,
                22.46483612060547
              ],
              [
                88.41656494140625,
                22.59341049194336
              ],
              [
                88.49099731445312,
                22.59341049194336
              ]
            ]
          ],
          [
            [
              [
                6.949739933013916,
                52.18334197998047
              ],
              [
                6.864534378051758,
                52.18334197998047
              ],
              [
                6.612682342529297,
                52.0491943359375
              ],
              [
                6.701467514038086,
                51.91512680053711
              ],
              [
                6.533320903778076,
                51.84812545776367
              ],
              [
                6.021216869354248,
                51.91512680053711
              ],
              [
                6.023392200469971,
                51.84812545776367
              ],
              [
                5.770728588104248,
                51.78114318847656
              ],
              [
                5.864670753479004,
                51.51342010498047
              ],
              [
                5.535188674926758,
                51.24601745605469
              ],
              [
                5.019589424133301,
                51.44654083251953
              ],
              [
                4.341732025146484,
                51.44654083251953
              ],
              [
                4.01227855682373,
                51.24601745605469
              ],
              [
                3.504641532897949,
                51.24601745605469
              ],
              [
                3.409677743911743,
                51.44654083251953
              ],
              [
                3.494410037994385,
                51.44654083251953
              ],
              [
                3.575759172439575,
                51.51342010498047
              ],
              [
                3.40621018409729,
                51.51342010498047
              ],
              [
                3.399252653121948,
                51.64724349975586
              ],
              [
                3.738690614700317,
                51.64724349975586
              ],
              [
                3.647099733352661,
                51.78114318847656
              ],
              [
                3.81699013710022,
                51.78114318847656
              ],
              [
                3.810401916503906,
                51.91512680053711
              ],
              [
                3.980464458465576,
                51.91512680053711
              ],
              [
                3.974021434783936,
                52.0491943359375
              ],
              [
                4.384479522705078,
                52.38472366333008
              ],
              [
                4.534325122833252,
                52.85536575317383
              ],
              [
                4.702715873718262,
                52.92268753051758
              ],
              [
                4.608114719390869,
                53.124786376953125
              ],
              [
                4.691011905670166,
                53.192195892333984
              ],
              [
                4.862768650054932,
                53.192195892333984
              ],
              [
                4.785540580749512,
                52.99003219604492
              ],
              [
                5.056382656097412,
                52.653533935546875
              ],
              [
                5.136557102203369,
                52.78806686401367
              ],
              [
                5.390830039978027,
                52.85536575317383
              ],
              [
                5.385728359222412,
                52.99003219604492
              ],
              [
                5.20894193649292,
                53.124786376953125
              ],
              [
                5.542333602905273,
                53.39456558227539
              ],
              [
                6.226210117340088,
                53.52959060668945
              ],
              [
                6.916844367980957,
                53.462066650390625
              ],
              [
                6.913325786590576,
                53.597137451171875
              ],
              [
                7.082295417785645,
                53.732303619384766
              ],
              [
                7.944795608520508,
                53.732303619384766
              ],
              [
                8.032201766967773,
                53.664710998535156
              ],
              [
                7.947200775146484,
                53.597137451171875
              ],
              [
                7.94840145111084,
                53.52959060668945
              ],
              [
                7.776182174682617,
                53.52959060668945
              ],
              [
                7.695418357849121,
                53.25962829589844
              ],
              [
                7.609494209289551,
                53.25962829589844
              ],
              [
                7.526416778564453,
                53.124786376953125
              ],
              [
                7.354752063751221,
                53.124786376953125
              ],
              [
                7.264232635498047,
                53.32708740234375
              ],
              [
                7.093948841094971,
                53.25962829589844
              ],
              [
                7.179872989654541,
                53.25962829589844
              ],
              [
                7.103838920593262,
                52.85536575317383
              ],
              [
                6.935997009277344,
                52.720787048339844
              ],
              [
                6.68117618560791,
                52.653533935546875
              ],
              [
                6.68488883972168,
                52.51908493041992
              ],
              [
                6.944602489471436,
                52.38472366333008
              ],
              [
                6.949739933013916,
                52.18334197998047
              ]
            ]
          ],
          [
            [
              [
                130.8596954345703,
                -8.13601303100586
              ],
              [
                130.9326934814453,
                -8.13601303100586
              ],
              [
                131.00570678710938,
                -8.13601303100586
              ],
              [
                130.94903564453125,
                -8.328875541687012
              ],
              [
                130.5894775390625,
                -8.393163681030273
              ],
              [
                130.8596954345703,
                -8.13601303100586
              ]
            ]
          ],
          [
            [
              [
                127.87176513671875,
                -8.200301170349121
              ],
              [
                127.8770751953125,
                -8.264588356018066
              ],
              [
                127.65804290771484,
                -8.264588356018066
              ],
              [
                127.64225769042969,
                -8.071725845336914
              ],
              [
                127.78826141357422,
                -8.071725845336914
              ],
              [
                127.87176513671875,
                -8.200301170349121
              ]
            ]
          ],
          [
            [
              [
                129.73841857910156,
                -7.8145751953125
              ],
              [
                129.74359130859375,
                -7.878862857818604
              ],
              [
                129.75930786132812,
                -8.071725845336914
              ],
              [
                129.4620361328125,
                -8.007437705993652
              ],
              [
                129.4413604736328,
                -7.750287532806396
              ],
              [
                129.73841857910156,
                -7.8145751953125
              ]
            ]
          ],
          [
            [
              [
                126.53699493408203,
                -7.943150520324707
              ],
              [
                126.3960952758789,
                -8.007437705993652
              ],
              [
                125.6661148071289,
                -8.007437705993652
              ],
              [
                125.71415710449219,
                -7.685999870300293
              ],
              [
                126.22013854980469,
                -7.621712207794189
              ],
              [
                126.2931137084961,
                -7.621712207794189
              ],
              [
                126.5071792602539,
                -7.557425022125244
              ],
              [
                126.67288970947266,
                -7.8145751953125
              ],
              [
                126.52690887451172,
                -7.8145751953125
              ],
              [
                126.53699493408203,
                -7.943150520324707
              ]
            ]
          ],
          [
            [
              [
                131.2764129638672,
                -7.878862857818604
              ],
              [
                131.21932983398438,
                -8.071725845336914
              ],
              [
                131.00033569335938,
                -8.071725845336914
              ],
              [
                130.9689178466797,
                -7.685999870300293
              ],
              [
                131.16270446777344,
                -7.364562034606934
              ],
              [
                131.15777587890625,
                -7.30027437210083
              ],
              [
                131.36212158203125,
                -7.10741138458252
              ],
              [
                131.58099365234375,
                -7.10741138458252
              ],
              [
                131.5527801513672,
                -7.685999870300293
              ],
              [
                131.2764129638672,
                -7.878862857818604
              ]
            ]
          ],
          [
            [
              [
                131.03173828125,
                -7.557425022125244
              ],
              [
                130.95875549316406,
                -7.557425022125244
              ],
              [
                130.81280517578125,
                -7.557425022125244
              ],
              [
                130.87083435058594,
                -7.364562034606934
              ],
              [
                131.0167694091797,
                -7.364562034606934
              ],
              [
                131.03173828125,
                -7.557425022125244
              ]
            ]
          ],
          [
            [
              [
                128.5215301513672,
                -7.171699047088623
              ],
              [
                128.52627563476562,
                -7.235986709594727
              ],
              [
                128.38035583496094,
                -7.235986709594727
              ],
              [
                128.3709259033203,
                -7.10741138458252
              ],
              [
                128.5851287841797,
                -7.043123722076416
              ],
              [
                128.5215301513672,
                -7.171699047088623
              ]
            ]
          ],
          [
            [
              [
                134.2067108154297,
                -6.078809261322021
              ],
              [
                134.17750549316406,
                -5.628796100616455
              ],
              [
                134.31927490234375,
                -5.564508438110352
              ],
              [
                134.3113250732422,
                -5.435933113098145
              ],
              [
                134.5299835205078,
                -5.435933113098145
              ],
              [
                134.679931640625,
                -6.59311056137085
              ],
              [
                134.38360595703125,
                -6.528822898864746
              ],
              [
                134.333984375,
                -6.850261211395264
              ],
              [
                133.97402954101562,
                -6.914548873901367
              ],
              [
                133.96925354003906,
                -6.850261211395264
              ],
              [
                133.8730926513672,
                -6.528822898864746
              ],
              [
                133.94601440429688,
                -6.528822898864746
              ],
              [
                133.91937255859375,
                -6.143096923828125
              ],
              [
                134.2067108154297,
                -6.078809261322021
              ]
            ]
          ],
          [
            [
              [
                132.81712341308594,
                -6.014522075653076
              ],
              [
                132.67129516601562,
                -6.014522075653076
              ],
              [
                132.66709899902344,
                -5.950234413146973
              ],
              [
                132.5212860107422,
                -5.950234413146973
              ],
              [
                132.50489807128906,
                -5.693083763122559
              ],
              [
                132.94635009765625,
                -5.757371425628662
              ],
              [
                132.81712341308594,
                -6.014522075653076
              ]
            ]
          ],
          [
            [
              [
                133.01116943359375,
                -5.628796100616455
              ],
              [
                132.85743713378906,
                -5.500220775604248
              ],
              [
                133.0721893310547,
                -5.435933113098145
              ],
              [
                133.00717163085938,
                -5.564508438110352
              ],
              [
                133.01116943359375,
                -5.628796100616455
              ]
            ]
          ],
          [
            [
              [
                127.80268096923828,
                -3.57159161567688
              ],
              [
                127.8755111694336,
                -3.57159161567688
              ],
              [
                127.94834899902344,
                -3.57159161567688
              ],
              [
                128.23690795898438,
                -3.507303953170776
              ],
              [
                128.2453155517578,
                -3.700166940689087
              ],
              [
                127.81404876708984,
                -3.828742265701294
              ],
              [
                127.80268096923828,
                -3.57159161567688
              ]
            ]
          ],
          [
            [
              [
                127.05834197998047,
                -3.185865879058838
              ],
              [
                127.21454620361328,
                -3.443016529083252
              ],
              [
                127.15277099609375,
                -3.700166940689087
              ],
              [
                126.65150451660156,
                -3.893029928207397
              ],
              [
                126.43009185791016,
                -3.828742265701294
              ],
              [
                126.35725402832031,
                -3.828742265701294
              ],
              [
                125.90629577636719,
                -3.507303953170776
              ],
              [
                125.890625,
                -3.121578216552734
              ],
              [
                126.83479309082031,
                -3.05729079246521
              ],
              [
                127.05834197998047,
                -3.185865879058838
              ]
            ]
          ],
          [
            [
              [
                129.76084899902344,
                -3.378728866577148
              ],
              [
                128.96246337890625,
                -3.443016529083252
              ],
              [
                128.66574096679688,
                -3.314441204071045
              ],
              [
                128.52822875976562,
                -3.507303953170776
              ],
              [
                128.382568359375,
                -3.507303953170776
              ],
              [
                128.0831298828125,
                -3.314441204071045
              ],
              [
                128.077880859375,
                -3.185865879058838
              ],
              [
                127.9348373413086,
                -3.250153541564941
              ],
              [
                127.8700180053711,
                -3.443016529083252
              ],
              [
                127.72435760498047,
                -3.443016529083252
              ],
              [
                127.71375274658203,
                -3.185865879058838
              ],
              [
                127.7789535522461,
                -2.993003129959106
              ],
              [
                128.28131103515625,
                -2.800140142440796
              ],
              [
                129.664794921875,
                -2.800140142440796
              ],
              [
                129.96353149414062,
                -2.993003129959106
              ],
              [
                130.40045166015625,
                -2.993003129959106
              ],
              [
                130.55125427246094,
                -3.121578216552734
              ],
              [
                130.55923461914062,
                -3.314441204071045
              ],
              [
                130.5619659423828,
                -3.378728866577148
              ],
              [
                130.7860107421875,
                -3.507303953170776
              ],
              [
                130.7306365966797,
                -3.893029928207397
              ],
              [
                129.9148406982422,
                -3.57159161567688
              ],
              [
                129.76084899902344,
                -3.378728866577148
              ]
            ]
          ],
          [
            [
              [
                126.06859588623047,
                -1.964401364326477
              ],
              [
                125.9229965209961,
                -1.964401364326477
              ],
              [
                126.01258087158203,
                -2.478702068328857
              ],
              [
                125.79196166992188,
                -2.414414644241333
              ],
              [
                125.70459747314453,
                -1.964401364326477
              ],
              [
                125.55900573730469,
                -1.964401364326477
              ],
              [
                125.4862060546875,
                -1.964401364326477
              ],
              [
                125.26585388183594,
                -1.900113701820374
              ],
              [
                125.26203155517578,
                -1.771538615226746
              ],
              [
                126.13557434082031,
                -1.771538615226746
              ],
              [
                126.06859588623047,
                -1.964401364326477
              ]
            ]
          ],
          [
            [
              [
                130.06268310546875,
                -1.642963409423828
              ],
              [
                130.2810516357422,
                -1.642963409423828
              ],
              [
                130.35968017578125,
                -1.83582615852356
              ],
              [
                130.28688049316406,
                -1.83582615852356
              ],
              [
                130.22227478027344,
                -2.092976570129395
              ],
              [
                129.85826110839844,
                -2.092976570129395
              ],
              [
                129.63572692871094,
                -1.964401364326477
              ],
              [
                129.70254516601562,
                -1.771538615226746
              ],
              [
                130.06268310546875,
                -1.642963409423828
              ]
            ]
          ],
          [
            [
              [
                127.65157318115234,
                -1.321525454521179
              ],
              [
                127.65330505371094,
                -1.385813117027283
              ],
              [
                128.0207977294922,
                -1.514388203620911
              ],
              [
                128.02825927734375,
                -1.771538615226746
              ],
              [
                127.30030059814453,
                -1.771538615226746
              ],
              [
                127.21831512451172,
                -1.450100660324097
              ],
              [
                127.65157318115234,
                -1.321525454521179
              ]
            ]
          ]
        ]
      }
    }
  ]
}