{
  "type": "FeatureCollection",
  "name": "territory-76",
  "features": [
    {
      "type": "Feature",
      "properties": {
        "Name": "Antigonid Dynasty",
        "FromYear": -291,
        "ToYear": -285,
        "Area": 127922.02677373073,
        "Type": "POLITY",
        "Wikipedia": "Antigonid dynasty",
        "Wikidata": "Q237325",
        "SeshatID": "gr_antigonid_emp",
        "Components": "",
        "MemberOf": ""
      },
      "geometry": {
        "type": "MultiPolygon",
        "coordinates": [
          [
            [
              [
                22.995285034179688,
                36.9970588684082
              ],
              [
                22.991859436035156,
                36.932613372802734
              ],
              [
                22.914030075073242,
                36.932613372802734
              ],
              [
                22.91743278503418,
                36.9970588684082
              ],
              [
                22.995285034179688,
                36.9970588684082
              ]
            ]
          ],
          [
            [
              [
                23.563383102416992,
                38.738853454589844
              ],
              [
                23.484909057617188,
                38.738853454589844
              ],
              [
                23.488826751708984,
                38.80344009399414
              ],
              [
                23.56732749938965,
                38.80344009399414
              ],
              [
                23.563383102416992,
                38.738853454589844
              ]
            ]
          ],
          [
            [
              [
                23.80469512939453,
                41.19768524169922
              ],
              [
                23.963613510131836,
                41.19768524169922
              ],
              [
                24.262470245361328,
                40.93837356567383
              ],
              [
                24.257766723632812,
                40.873565673828125
              ],
              [
                24.010608673095703,
                40.74397277832031
              ],
              [
                23.698017120361328,
                40.80876541137695
              ],
              [
                23.684629440307617,
                40.614410400390625
              ],
              [
                23.83857536315918,
                40.54964065551758
              ],
              [
                23.73737335205078,
                40.225894927978516
              ],
              [
                22.959190368652344,
                40.42012023925781
              ],
              [
                22.89249038696289,
                40.614410400390625
              ],
              [
                22.57158088684082,
                40.54964065551758
              ],
              [
                22.543659210205078,
                40.0964469909668
              ],
              [
                22.701663970947266,
                40.0964469909668
              ],
              [
                22.610868453979492,
                39.90232849121094
              ],
              [
                23.135168075561523,
                39.449623107910156
              ],
              [
                22.816326141357422,
                39.38497543334961
              ],
              [
                22.797286987304688,
                39.06184005737305
              ],
              [
                22.95830535888672,
                39.1264533996582
              ],
              [
                23.492761611938477,
                38.8680305480957
              ],
              [
                23.331829071044922,
                38.80344009399414
              ],
              [
                23.025423049926758,
                38.93262481689453
              ],
              [
                22.935583114624023,
                38.738853454589844
              ],
              [
                23.16720199584961,
                38.67427444458008
              ],
              [
                23.312631607055664,
                38.48057174682617
              ],
              [
                23.626148223876953,
                38.48057174682617
              ],
              [
                23.563383102416992,
                38.738853454589844
              ],
              [
                24.030162811279297,
                38.67427444458008
              ],
              [
                24.178871154785156,
                38.54513168334961
              ],
              [
                24.158668518066406,
                38.22237777709961
              ],
              [
                24.002099990844727,
                38.22237777709961
              ],
              [
                23.9786319732666,
                37.835243225097656
              ],
              [
                23.208162307739258,
                38.028785705566406
              ],
              [
                23.037315368652344,
                37.7707405090332
              ],
              [
                23.108261108398438,
                37.641746520996094
              ],
              [
                23.342487335205078,
                37.641746520996094
              ],
              [
                23.402393341064453,
                37.3193473815918
              ],
              [
                23.168506622314453,
                37.3193473815918
              ],
              [
                23.175601959228516,
                37.44829177856445
              ],
              [
                22.94858741760254,
                37.5772590637207
              ],
              [
                22.71442985534668,
                37.5772590637207
              ],
              [
                22.700735092163086,
                37.3193473815918
              ],
              [
                22.853219985961914,
                37.254878997802734
              ],
              [
                22.91743278503418,
                36.9970588684082
              ],
              [
                22.690587997436523,
                37.12596130371094
              ],
              [
                22.693958282470703,
                37.1904182434082
              ],
              [
                22.154998779296875,
                37.3193473815918
              ],
              [
                21.606184005737305,
                37.254878997802734
              ],
              [
                21.609264373779297,
                37.3193473815918
              ],
              [
                21.696598052978516,
                37.51277160644531
              ],
              [
                21.243581771850586,
                37.835243225097656
              ],
              [
                21.249725341796875,
                37.96426773071289
              ],
              [
                21.415550231933594,
                38.157840728759766
              ],
              [
                21.728593826293945,
                38.157840728759766
              ],
              [
                21.738431930541992,
                38.351463317871094
              ],
              [
                21.19325065612793,
                38.416015625
              ],
              [
                20.973709106445312,
                38.738853454589844
              ],
              [
                20.74135398864746,
                38.80344009399414
              ],
              [
                20.829214096069336,
                38.997230529785156
              ],
              [
                21.14027214050293,
                38.93262481689453
              ],
              [
                21.150007247924805,
                39.1264533996582
              ],
              [
                21.38587188720703,
                39.1264533996582
              ],
              [
                21.471250534057617,
                39.25570297241211
              ],
              [
                21.091083526611328,
                39.51427459716797
              ],
              [
                20.805606842041016,
                40.0964469909668
              ],
              [
                20.492856979370117,
                40.16116714477539
              ],
              [
                20.42690658569336,
                40.42012023925781
              ],
              [
                20.189504623413086,
                40.42012023925781
              ],
              [
                19.733280181884766,
                40.80876541137695
              ],
              [
                19.33381462097168,
                40.74397277832031
              ],
              [
                19.498455047607422,
                40.873565673828125
              ],
              [
                19.437559127807617,
                41.26253128051758
              ],
              [
                19.523332595825195,
                41.39224624633789
              ],
              [
                19.443790435791016,
                41.39224624633789
              ],
              [
                19.529659271240234,
                41.521995544433594
              ],
              [
                19.450061798095703,
                41.521995544433594
              ],
              [
                19.54244041442871,
                41.781593322753906
              ],
              [
                19.389352798461914,
                41.911441802978516
              ],
              [
                19.708423614501953,
                41.911441802978516
              ],
              [
                19.954500198364258,
                42.041324615478516
              ],
              [
                20.107261657714844,
                41.911441802978516
              ],
              [
                20.193973541259766,
                42.041324615478516
              ],
              [
                20.752748489379883,
                42.041324615478516
              ],
              [
                21.003578186035156,
                42.236209869384766
              ],
              [
                21.319311141967773,
                42.17123794555664
              ],
              [
                21.40708351135254,
                42.30118942260742
              ],
              [
                21.806785583496094,
                42.30118942260742
              ],
              [
                21.81500816345215,
                42.43117141723633
              ],
              [
                22.303613662719727,
                42.56119155883789
              ],
              [
                22.39238739013672,
                42.691246032714844
              ],
              [
                22.472503662109375,
                42.691246032714844
              ],
              [
                22.539382934570312,
                42.496177673339844
              ],
              [
                22.370676040649414,
                42.36617660522461
              ],
              [
                22.437664031982422,
                42.17123794555664
              ],
              [
                22.67292022705078,
                42.10627746582031
              ],
              [
                22.819360733032227,
                41.911441802978516
              ],
              [
                23.52797508239746,
                41.781593322753906
              ],
              [
                23.743696212768555,
                41.45711898803711
              ],
              [
                23.739059448242188,
                41.39224624633789
              ],
              [
                23.80469512939453,
                41.19768524169922
              ]
            ]
          ]
        ]
      }
    }
  ]
}