{
  "type": "FeatureCollection",
  "name": "territory-760",
  "features": [
    {
      "type": "Feature",
      "properties": {
        "Name": "(French Directory)",
        "FromYear": 1799,
        "ToYear": 1799,
        "Area": 756050.3055527018,
        "Type": "POLITY",
        "Wikipedia": "French Directory",
        "Wikidata": "Q219817",
        "SeshatID": "fr_bourbon_k_2",
        "Components": "French India;French Directory",
        "MemberOf": ""
      },
      "geometry": {
        "type": "MultiPolygon",
        "coordinates": [
          [
            [
              [
                -53.095787048339844,
                4.850082874298096
              ],
              [
                -53.389183044433594,
                4.978658199310303
              ],
              [
                -53.533958435058594,
                4.914370536804199
              ],
              [
                -53.608802795410156,
                5.042945861816406
              ],
              [
                -54.19499969482422,
                5.235808849334717
              ],
              [
                -54.26788330078125,
                5.235808849334717
              ],
              [
                -54.05379104614258,
                5.492959022521973
              ],
              [
                -54.058719635009766,
                5.750109672546387
              ],
              [
                -53.98582077026367,
                5.750109672546387
              ],
              [
                -52.88752365112305,
                5.492959022521973
              ],
              [
                -52.58853530883789,
                5.042945861816406
              ],
              [
                -52.14759063720703,
                4.785795211791992
              ],
              [
                -52.07472229003906,
                4.785795211791992
              ],
              [
                -51.70709991455078,
                4.528644561767578
              ],
              [
                -51.77384948730469,
                3.950055837631226
              ],
              [
                -52.28562927246094,
                4.142918586730957
              ],
              [
                -53.095787048339844,
                4.850082874298096
              ]
            ]
          ],
          [
            [
              [
                -3.614365339279175,
                5.235808849334717
              ],
              [
                -3.394870042800903,
                5.364383697509766
              ],
              [
                -3.321982860565186,
                5.364383697509766
              ],
              [
                -3.177960634231567,
                5.10723352432251
              ],
              [
                -3.542352914810181,
                5.10723352432251
              ],
              [
                -3.615231275558472,
                5.10723352432251
              ],
              [
                -3.614365339279175,
                5.235808849334717
              ]
            ]
          ],
          [
            [
              [
                -17.16823387145996,
                14.943235397338867
              ],
              [
                -17.094730377197266,
                14.943235397338867
              ],
              [
                -17.1583309173584,
                14.621796607971191
              ],
              [
                -17.454187393188477,
                14.686083793640137
              ],
              [
                -17.386709213256836,
                14.878947257995605
              ],
              [
                -17.16823387145996,
                14.943235397338867
              ]
            ]
          ],
          [
            [
              [
                -16.169858932495117,
                15.907554626464844
              ],
              [
                -16.239168167114258,
                15.77897834777832
              ],
              [
                -16.3863468170166,
                15.77897834777832
              ],
              [
                -16.384206771850586,
                15.714691162109375
              ],
              [
                -16.602807998657227,
                15.650403022766113
              ],
              [
                -16.47311019897461,
                16.16470718383789
              ],
              [
                -16.25000762939453,
                16.100418090820312
              ],
              [
                -16.169858932495117,
                15.907554626464844
              ]
            ]
          ],
          [
            [
              [
                -61.769195556640625,
                16.293283462524414
              ],
              [
                -61.48125457763672,
                16.35757064819336
              ],
              [
                -61.494632720947266,
                16.486146926879883
              ],
              [
                -61.3473014831543,
                16.486146926879883
              ],
              [
                -61.18003463745117,
                16.293283462524414
              ],
              [
                -61.17345428466797,
                16.228994369506836
              ],
              [
                -61.461429595947266,
                16.16470718383789
              ],
              [
                -61.58265686035156,
                15.907554626464844
              ],
              [
                -61.73633575439453,
                15.971842765808105
              ],
              [
                -61.769195556640625,
                16.293283462524414
              ]
            ]
          ],
          [
            [
              [
                -62.94948959350586,
                18.286205291748047
              ],
              [
                -62.926856994628906,
                18.093341827392578
              ],
              [
                -63.08210372924805,
                18.157629013061523
              ],
              [
                -63.02336883544922,
                18.286205291748047
              ],
              [
                -62.94948959350586,
                18.286205291748047
              ]
            ]
          ],
          [
            [
              [
                14.104567527770996,
                40.873565673828125
              ],
              [
                14.34383487701416,
                40.93837356567383
              ],
              [
                14.42318344116211,
                40.93837356567383
              ],
              [
                14.580498695373535,
                40.873565673828125
              ],
              [
                14.419217109680176,
                40.74397277832031
              ],
              [
                14.420533180236816,
                40.80876541137695
              ],
              [
                14.104567527770996,
                40.873565673828125
              ]
            ]
          ],
          [
            [
              [
                14.11072063446045,
                41.19768524169922
              ],
              [
                14.028839111328125,
                41.06801223754883
              ],
              [
                14.02763557434082,
                41.00318908691406
              ],
              [
                13.792884826660156,
                41.19768524169922
              ],
              [
                14.032480239868164,
                41.26253128051758
              ],
              [
                14.11072063446045,
                41.19768524169922
              ]
            ]
          ],
          [
            [
              [
                9.577608108520508,
                41.97637939453125
              ],
              [
                9.497812271118164,
                41.97637939453125
              ],
              [
                9.49889087677002,
                41.781593322753906
              ],
              [
                9.262411117553711,
                41.39224624633789
              ],
              [
                9.1038236618042,
                41.32738494873047
              ],
              [
                8.783942222595215,
                41.521995544433594
              ],
              [
                8.782108306884766,
                41.71668243408203
              ],
              [
                8.622743606567383,
                41.71668243408203
              ],
              [
                8.700496673583984,
                41.911441802978516
              ],
              [
                8.538846015930176,
                42.10627746582031
              ],
              [
                8.534564018249512,
                42.496177673339844
              ],
              [
                8.772740364074707,
                42.691246032714844
              ],
              [
                9.17282485961914,
                42.75628662109375
              ],
              [
                9.251097679138184,
                43.016544342041016
              ],
              [
                9.331360816955566,
                43.016544342041016
              ],
              [
                9.491888999938965,
                43.016544342041016
              ],
              [
                9.49340534210205,
                42.75628662109375
              ],
              [
                9.5735502243042,
                42.75628662109375
              ],
              [
                9.577608108520508,
                41.97637939453125
              ]
            ]
          ],
          [
            [
              [
                11.1757173538208,
                42.56119155883789
              ],
              [
                11.336134910583496,
                42.62621307373047
              ],
              [
                11.335225105285645,
                42.43117141723633
              ],
              [
                11.1754732131958,
                42.496177673339844
              ],
              [
                11.1757173538208,
                42.56119155883789
              ]
            ]
          ],
          [
            [
              [
                10.615615844726562,
                43.08163070678711
              ],
              [
                10.856496810913086,
                43.08163070678711
              ],
              [
                10.936327934265137,
                42.88639831542969
              ],
              [
                10.856123924255371,
                42.88639831542969
              ],
              [
                10.85624885559082,
                42.95146560668945
              ],
              [
                10.776015281677246,
                42.95146560668945
              ],
              [
                10.695780754089355,
                42.95146560668945
              ],
              [
                10.695845603942871,
                43.016544342041016
              ],
              [
                10.615581512451172,
                43.016544342041016
              ],
              [
                10.615615844726562,
                43.08163070678711
              ]
            ]
          ],
          [
            [
              [
                -91.02732849121094,
                43.342071533203125
              ],
              [
                -91.11197662353516,
                43.211830139160156
              ],
              [
                -91.18815612792969,
                43.342071533203125
              ],
              [
                -91.10774230957031,
                43.342071533203125
              ],
              [
                -91.02732849121094,
                43.342071533203125
              ]
            ]
          ],
          [
            [
              [
                10.938676834106445,
                43.92862319946289
              ],
              [
                11.341537475585938,
                43.79821014404297
              ],
              [
                11.340359687805176,
                43.53750228881836
              ],
              [
                11.098639488220215,
                43.472347259521484
              ],
              [
                10.937980651855469,
                43.6026611328125
              ],
              [
                10.615840911865234,
                43.6026611328125
              ],
              [
                10.454879760742188,
                43.407203674316406
              ],
              [
                10.45484447479248,
                43.472347259521484
              ],
              [
                10.374370574951172,
                43.472347259521484
              ],
              [
                10.374303817749023,
                43.53750228881836
              ],
              [
                10.374235153198242,
                43.6026611328125
              ],
              [
                10.374164581298828,
                43.6678352355957
              ],
              [
                10.293599128723145,
                43.6678352355957
              ],
              [
                10.212339401245117,
                43.99384307861328
              ],
              [
                10.05069351196289,
                44.05907440185547
              ],
              [
                10.050481796264648,
                44.12431716918945
              ],
              [
                10.77757453918457,
                44.18956756591797
              ],
              [
                10.938676834106445,
                43.92862319946289
              ]
            ]
          ],
          [
            [
              [
                -56.2186279296875,
                47.005828857421875
              ],
              [
                -56.30083465576172,
                47.005828857421875
              ],
              [
                -56.27314376831055,
                46.94007873535156
              ],
              [
                -56.43748474121094,
                46.94007873535156
              ],
              [
                -56.493072509765625,
                47.07159423828125
              ],
              [
                -56.2741584777832,
                47.13737487792969
              ],
              [
                -56.2186279296875,
                47.005828857421875
              ]
            ]
          ],
          [
            [
              [
                8.2748384475708,
                49.2500114440918
              ],
              [
                8.111507415771484,
                49.051273345947266
              ],
              [
                8.115007400512695,
                48.852684020996094
              ],
              [
                7.867981433868408,
                48.72037124633789
              ],
              [
                7.870530128479004,
                48.5881233215332
              ],
              [
                7.787483692169189,
                48.5881233215332
              ],
              [
                7.788793087005615,
                48.52202224731445
              ],
              [
                7.705782890319824,
                48.52202224731445
              ],
              [
                7.707126617431641,
                48.455936431884766
              ],
              [
                7.708469390869141,
                48.38986587524414
              ],
              [
                7.709810256958008,
                48.323814392089844
              ],
              [
                7.626908302307129,
                48.323814392089844
              ],
              [
                7.552440643310547,
                47.92780685424805
              ],
              [
                7.55383825302124,
                47.86185836791992
              ],
              [
                7.555233955383301,
                47.79592514038086
              ],
              [
                7.556626796722412,
                47.730003356933594
              ],
              [
                7.558016777038574,
                47.664100646972656
              ],
              [
                7.559404373168945,
                47.598209381103516
              ],
              [
                7.39728307723999,
                47.46647262573242
              ],
              [
                6.983439445495605,
                47.53233337402344
              ],
              [
                6.912492275238037,
                47.07159423828125
              ],
              [
                7.080090999603271,
                46.94007873535156
              ],
              [
                6.424554824829102,
                46.87434005737305
              ],
              [
                6.103800296783447,
                46.61152267456055
              ],
              [
                6.033519744873047,
                46.21768569946289
              ],
              [
                6.273390769958496,
                46.414546966552734
              ],
              [
                6.682901382446289,
                46.414546966552734
              ],
              [
                6.849938869476318,
                46.283294677734375
              ],
              [
                6.939604759216309,
                45.95537567138672
              ],
              [
                7.430988311767578,
                45.889827728271484
              ],
              [
                8.000204086303711,
                46.02093505859375
              ],
              [
                8.078590393066406,
                46.21768569946289
              ],
              [
                8.40284538269043,
                46.414546966552734
              ],
              [
                8.488550186157227,
                46.1520881652832
              ],
              [
                8.652090072631836,
                46.1520881652832
              ],
              [
                8.735542297363281,
                46.02093505859375
              ],
              [
                8.653838157653809,
                46.02093505859375
              ],
              [
                8.741311073303223,
                45.56227111816406
              ],
              [
                9.0712251663208,
                45.169586181640625
              ],
              [
                9.233793258666992,
                45.169586181640625
              ],
              [
                9.236688613891602,
                44.842647552490234
              ],
              [
                8.995279312133789,
                44.64661407470703
              ],
              [
                8.590126037597656,
                44.64661407470703
              ],
              [
                8.349712371826172,
                44.45067596435547
              ],
              [
                8.35147476196289,
                44.32010269165039
              ],
              [
                8.352349281311035,
                44.25482940673828
              ],
              [
                8.033902168273926,
                43.92862319946289
              ],
              [
                7.150246143341064,
                43.73301696777344
              ],
              [
                6.993107318878174,
                43.53750228881836
              ],
              [
                6.67255163192749,
                43.472347259521484
              ],
              [
                6.517646789550781,
                43.211830139160156
              ],
              [
                6.278174877166748,
                43.146724700927734
              ],
              [
                5.796233177185059,
                43.146724700927734
              ],
              [
                5.631923198699951,
                43.276947021484375
              ],
              [
                5.390771865844727,
                43.276947021484375
              ],
              [
                5.386905193328857,
                43.407203674316406
              ],
              [
                5.063065528869629,
                43.472347259521484
              ],
              [
                4.177847862243652,
                43.472347259521484
              ],
              [
                4.173032760620117,
                43.6026611328125
              ],
              [
                3.850892543792725,
                43.6026611328125
              ],
              [
                2.984907388687134,
                43.146724700927734
              ],
              [
                3.009923458099365,
                42.56119155883789
              ],
              [
                3.089980125427246,
                42.56119155883789
              ],
              [
                3.092691898345947,
                42.496177673339844
              ],
              [
                2.458339214324951,
                42.36617660522461
              ],
              [
                1.80907130241394,
                42.56119155883789
              ],
              [
                1.72901451587677,
                42.56119155883789
              ],
              [
                1.725796341896057,
                42.62621307373047
              ],
              [
                1.645710229873657,
                42.62621307373047
              ],
              [
                1.565624117851257,
                42.62621307373047
              ],
              [
                1.485537886619568,
                42.62621307373047
              ],
              [
                1.074691534042358,
                42.82133865356445
              ],
              [
                0.040142297744751,
                42.691246032714844
              ],
              [
                -0.208102732896805,
                42.82133865356445
              ],
              [
                -0.528801321983337,
                42.82133865356445
              ],
              [
                -1.026964664459229,
                43.08163070678711
              ],
              [
                -1.428432941436768,
                43.08163070678711
              ],
              [
                -1.441840410232544,
                43.276947021484375
              ],
              [
                -1.687574744224548,
                43.342071533203125
              ],
              [
                -1.692170143127441,
                43.407203674316406
              ],
              [
                -1.459883332252502,
                43.53750228881836
              ],
              [
                -1.402047991752625,
                43.86341094970703
              ],
              [
                -1.321390628814697,
                43.86341094970703
              ],
              [
                -1.348801136016846,
                44.25482940673828
              ],
              [
                -1.267958283424377,
                44.25482940673828
              ],
              [
                -1.286344885826111,
                44.5159797668457
              ],
              [
                -1.205376982688904,
                44.5159797668457
              ],
              [
                -1.251859068870544,
                45.169586181640625
              ],
              [
                -1.170574903488159,
                45.169586181640625
              ],
              [
                -1.189373373985291,
                45.431331634521484
              ],
              [
                -1.031213998794556,
                45.496795654296875
              ],
              [
                -1.045281529426575,
                45.693260192871094
              ],
              [
                -1.213142395019531,
                45.75876998901367
              ],
              [
                -1.141096234321594,
                45.889827728271484
              ],
              [
                -1.222735166549683,
                45.889827728271484
              ],
              [
                -1.251809358596802,
                46.283294677734375
              ],
              [
                -1.666043281555176,
                46.348915100097656
              ],
              [
                -2.014399528503418,
                46.61152267456055
              ],
              [
                -2.024919986724854,
                46.74290466308594
              ],
              [
                -2.194406032562256,
                46.808616638183594
              ],
              [
                -2.139080047607422,
                47.13737487792969
              ],
              [
                -2.232228517532349,
                47.26897048950195
              ],
              [
                -2.561590671539307,
                47.26897048950195
              ],
              [
                -2.578423976898193,
                47.46647262573242
              ],
              [
                -2.825755596160889,
                47.46647262573242
              ],
              [
                -2.837259292602539,
                47.598209381103516
              ],
              [
                -3.155531167984009,
                47.46647262573242
              ],
              [
                -3.344320774078369,
                47.730003356933594
              ],
              [
                -3.757235288619995,
                47.730003356933594
              ],
              [
                -3.934937715530396,
                47.86185836791992
              ],
              [
                -4.424368858337402,
                47.79592514038086
              ],
              [
                -4.692053318023682,
                47.993770599365234
              ],
              [
                -4.705362796783447,
                48.1257438659668
              ],
              [
                -4.546383857727051,
                48.191749572753906
              ],
              [
                -4.642560005187988,
                48.323814392089844
              ],
              [
                -4.891265392303467,
                48.323814392089844
              ],
              [
                -4.911745548248291,
                48.52202224731445
              ],
              [
                -4.599917888641357,
                48.72037124633789
              ],
              [
                -3.85184383392334,
                48.72037124633789
              ],
              [
                -3.455082654953003,
                48.91886520385742
              ],
              [
                -3.122164011001587,
                48.91886520385742
              ],
              [
                -2.759404182434082,
                48.5881233215332
              ],
              [
                -2.521934509277344,
                48.72037124633789
              ],
              [
                -1.602181315422058,
                48.654239654541016
              ],
              [
                -1.718345284461975,
                49.051273345947266
              ],
              [
                -1.635041356086731,
                49.051273345947266
              ],
              [
                -1.651668906211853,
                49.2500114440918
              ],
              [
                -1.913302421569824,
                49.38258361816406
              ],
              [
                -2.031550645828247,
                49.78071212768555
              ],
              [
                -1.361783027648926,
                49.78071212768555
              ],
              [
                -1.250783205032349,
                49.44889450073242
              ],
              [
                0.007001183927059,
                49.38258361816406
              ],
              [
                -0.012448177672923,
                49.64793395996094
              ],
              [
                0.224112883210182,
                49.84712600708008
              ],
              [
                1.052847385406494,
                49.98000717163086
              ],
              [
                1.454967975616455,
                50.2459831237793
              ],
              [
                1.424705147743225,
                50.71213912963867
              ],
              [
                1.656218767166138,
                51.04566955566406
              ],
              [
                2.577829360961914,
                51.17921447753906
              ],
              [
                2.73940634727478,
                51.31283950805664
              ],
              [
                3.324945688247681,
                51.44654083251953
              ],
              [
                3.409677743911743,
                51.44654083251953
              ],
              [
                3.504641532897949,
                51.24601745605469
              ],
              [
                4.01227855682373,
                51.24601745605469
              ],
              [
                4.341732025146484,
                51.44654083251953
              ],
              [
                5.019589424133301,
                51.44654083251953
              ],
              [
                5.535188674926758,
                51.24601745605469
              ],
              [
                5.864670753479004,
                51.51342010498047
              ],
              [
                5.770728588104248,
                51.78114318847656
              ],
              [
                6.023392200469971,
                51.84812545776367
              ],
              [
                6.539055824279785,
                51.64724349975586
              ],
              [
                6.71241569519043,
                51.51342010498047
              ],
              [
                6.716048717498779,
                51.37968063354492
              ],
              [
                6.717862606048584,
                51.31283950805664
              ],
              [
                6.719674110412598,
                51.24601745605469
              ],
              [
                6.804280281066895,
                51.24601745605469
              ],
              [
                6.899223804473877,
                50.84549331665039
              ],
              [
                7.071211338043213,
                50.71213912963867
              ],
              [
                7.166632652282715,
                50.2459831237793
              ],
              [
                7.334622859954834,
                50.2459831237793
              ],
              [
                7.762485027313232,
                49.84712600708008
              ],
              [
                8.181282997131348,
                49.84712600708008
              ],
              [
                8.351943016052246,
                49.64793395996094
              ],
              [
                8.355094909667969,
                49.44889450073242
              ],
              [
                8.271565437316895,
                49.44889450073242
              ],
              [
                8.272655487060547,
                49.38258361816406
              ],
              [
                8.273746490478516,
                49.316287994384766
              ],
              [
                8.2748384475708,
                49.2500114440918
              ]
            ]
          ],
          [
            [
              [
                55.0963249206543,
                -21.250656127929688
              ],
              [
                55.07707595825195,
                -20.993511199951172
              ],
              [
                55.21589660644531,
                -20.864938735961914
              ],
              [
                55.58690643310547,
                -20.864938735961914
              ],
              [
                55.59175109863281,
                -20.92922592163086
              ],
              [
                55.769493103027344,
                -21.31494140625
              ],
              [
                55.63078308105469,
                -21.443513870239258
              ],
              [
                55.40795135498047,
                -21.443513870239258
              ],
              [
                55.0963249206543,
                -21.250656127929688
              ]
            ]
          ],
          [
            [
              [
                57.44566345214844,
                -19.96493148803711
              ],
              [
                57.67298126220703,
                -20.029216766357422
              ],
              [
                57.69823455810547,
                -20.350648880004883
              ],
              [
                57.62409973144531,
                -20.350648880004883
              ],
              [
                57.56508255004883,
                -20.543508529663086
              ],
              [
                57.194278717041016,
                -20.543508529663086
              ],
              [
                57.179283142089844,
                -20.350648880004883
              ],
              [
                57.44566345214844,
                -19.96493148803711
              ]
            ]
          ],
          [
            [
              [
                45.086097717285156,
                -13.021865844726562
              ],
              [
                45.01277160644531,
                -13.021865844726562
              ],
              [
                44.9394416809082,
                -13.021865844726562
              ],
              [
                44.92706298828125,
                -12.700428009033203
              ],
              [
                45.1494255065918,
                -12.764715194702148
              ],
              [
                45.086097717285156,
                -13.021865844726562
              ]
            ]
          ],
          [
            [
              [
                43.7426643371582,
                -12.378990173339844
              ],
              [
                43.74495315551758,
                -12.443277359008789
              ],
              [
                43.5228385925293,
                -12.378990173339844
              ],
              [
                43.518333435058594,
                -12.250414848327637
              ],
              [
                43.738128662109375,
                -12.250414848327637
              ],
              [
                43.7426643371582,
                -12.378990173339844
              ]
            ]
          ],
          [
            [
              [
                44.40447235107422,
                -12.443277359008789
              ],
              [
                44.33119201660156,
                -12.443277359008789
              ],
              [
                44.175437927246094,
                -12.186127662658691
              ],
              [
                44.46847915649414,
                -12.186127662658691
              ],
              [
                44.477752685546875,
                -12.443277359008789
              ],
              [
                44.40447235107422,
                -12.443277359008789
              ]
            ]
          ],
          [
            [
              [
                43.341915130615234,
                -11.35038948059082
              ],
              [
                43.3608283996582,
                -11.928977012634277
              ],
              [
                43.21220397949219,
                -11.864689826965332
              ],
              [
                43.13896560668945,
                -11.864689826965332
              ],
              [
                43.05732345581055,
                -11.607540130615234
              ],
              [
                43.13053894042969,
                -11.607540130615234
              ],
              [
                43.122318267822266,
                -11.35038948059082
              ],
              [
                43.341915130615234,
                -11.35038948059082
              ]
            ]
          ],
          [
            [
              [
                55.430362701416016,
                -4.793056964874268
              ],
              [
                55.20771789550781,
                -4.600193977355957
              ],
              [
                55.426307678222656,
                -4.600193977355957
              ],
              [
                55.42900085449219,
                -4.728769302368164
              ],
              [
                55.430362701416016,
                -4.793056964874268
              ]
            ]
          ],
          [
            [
              [
                32.10192108154297,
                30.372163772583008
              ],
              [
                31.945737838745117,
                30.307893753051758
              ],
              [
                31.56633949279785,
                30.307893753051758
              ],
              [
                31.241863250732422,
                29.986536026000977
              ],
              [
                31.13760757446289,
                29.536611557006836
              ],
              [
                30.978313446044922,
                29.40805435180664
              ],
              [
                30.94742774963379,
                28.893810272216797
              ],
              [
                30.87187957763672,
                28.893810272216797
              ],
              [
                30.842266082763672,
                28.379535675048828
              ],
              [
                30.917699813842773,
                28.379535675048828
              ],
              [
                30.960947036743164,
                27.800947189331055
              ],
              [
                31.036258697509766,
                27.800947189331055
              ],
              [
                30.94369125366211,
                27.4794979095459
              ],
              [
                31.66172218322754,
                26.836584091186523
              ],
              [
                32.55620193481445,
                26.70800018310547
              ],
              [
                32.47084045410156,
                26.515121459960938
              ],
              [
                31.64518928527832,
                26.515121459960938
              ],
              [
                31.1391544342041,
                26.900876998901367
              ],
              [
                31.073915481567383,
                27.093751907348633
              ],
              [
                30.923574447631836,
                27.093751907348633
              ],
              [
                30.930208206176758,
                27.222335815429688
              ],
              [
                30.78313636779785,
                27.2866268157959
              ],
              [
                30.796586990356445,
                27.54378890991211
              ],
              [
                30.574172973632812,
                27.608078002929688
              ],
              [
                30.533411026000977,
                28.25096321105957
              ],
              [
                30.458003997802734,
                28.25096321105957
              ],
              [
                30.483112335205078,
                28.700960159301758
              ],
              [
                30.645235061645508,
                28.893810272216797
              ],
              [
                30.569686889648438,
                28.893810272216797
              ],
              [
                30.53593635559082,
                29.600887298583984
              ],
              [
                30.400129318237305,
                29.857990264892578
              ],
              [
                30.036863327026367,
                30.115081787109375
              ],
              [
                29.769052505493164,
                30.69350814819336
              ],
              [
                29.481111526489258,
                30.950578689575195
              ],
              [
                29.485143661499023,
                31.014846801757812
              ],
              [
                29.78937339782715,
                31.014846801757812
              ],
              [
                29.882049560546875,
                31.271915435791016
              ],
              [
                30.33879280090332,
                31.271915435791016
              ],
              [
                30.271244049072266,
                31.40045166015625
              ],
              [
                30.351730346679688,
                31.464719772338867
              ],
              [
                30.80877685546875,
                31.464719772338867
              ],
              [
                30.965608596801758,
                31.528987884521484
              ],
              [
                30.974620819091797,
                31.65752601623535
              ],
              [
                31.203296661376953,
                31.65752601623535
              ],
              [
                31.117990493774414,
                31.528987884521484
              ],
              [
                31.265825271606445,
                31.464719772338867
              ],
              [
                31.875221252441406,
                31.464719772338867
              ],
              [
                31.780553817749023,
                31.20764923095703
              ],
              [
                31.93739891052246,
                31.271915435791016
              ],
              [
                31.999635696411133,
                31.079113006591797
              ],
              [
                32.303932189941406,
                31.079113006591797
              ],
              [
                32.23719787597656,
                31.20764923095703
              ],
              [
                32.38941192626953,
                31.20764923095703
              ],
              [
                32.53215408325195,
                31.079113006591797
              ],
              [
                32.76515197753906,
                31.143381118774414
              ],
              [
                32.8316764831543,
                31.014846801757812
              ],
              [
                33.74934005737305,
                31.079113006591797
              ],
              [
                34.2972412109375,
                31.271915435791016
              ],
              [
                34.30759811401367,
                31.40045166015625
              ],
              [
                34.546607971191406,
                31.528987884521484
              ],
              [
                34.6388053894043,
                31.7217960357666
              ],
              [
                34.57329559326172,
                31.8503360748291
              ],
              [
                34.81304168701172,
                31.978878021240234
              ],
              [
                34.76983642578125,
                32.36451721191406
              ],
              [
                34.91707229614258,
                32.30024337768555
              ],
              [
                34.922672271728516,
                32.36451721191406
              ],
              [
                35.1406364440918,
                32.23596954345703
              ],
              [
                35.03096008300781,
                31.8503360748291
              ],
              [
                34.69367980957031,
                31.464719772338867
              ],
              [
                34.67786407470703,
                31.271915435791016
              ],
              [
                34.038578033447266,
                30.886310577392578
              ],
              [
                33.962554931640625,
                30.886310577392578
              ],
              [
                33.648681640625,
                30.757776260375977
              ],
              [
                32.580162048339844,
                30.69350814819336
              ],
              [
                32.110816955566406,
                30.500701904296875
              ],
              [
                32.10192108154297,
                30.372163772583008
              ]
            ]
          ],
          [
            [
              [
                14.339592933654785,
                36.03080368041992
              ],
              [
                14.417119026184082,
                36.03080368041992
              ],
              [
                14.571182250976562,
                35.9664192199707
              ],
              [
                14.568227767944336,
                35.77327346801758
              ],
              [
                14.33681869506836,
                35.837650299072266
              ],
              [
                14.339592933654785,
                36.03080368041992
              ]
            ]
          ],
          [
            [
              [
                22.887205123901367,
                36.417205810546875
              ],
              [
                22.964859008789062,
                36.417205810546875
              ],
              [
                23.116798400878906,
                36.3527946472168
              ],
              [
                23.10675048828125,
                36.15959167480469
              ],
              [
                22.87404441833496,
                36.15959167480469
              ],
              [
                22.887205123901367,
                36.417205810546875
              ]
            ]
          ],
          [
            [
              [
                20.621307373046875,
                37.89975357055664
              ],
              [
                20.69947624206543,
                37.89975357055664
              ],
              [
                20.933977127075195,
                37.89975357055664
              ],
              [
                20.922147750854492,
                37.641746520996094
              ],
              [
                20.612695693969727,
                37.706241607666016
              ],
              [
                20.621307373046875,
                37.89975357055664
              ]
            ]
          ],
          [
            [
              [
                20.328466415405273,
                38.351463317871094
              ],
              [
                20.488054275512695,
                38.416015625
              ],
              [
                20.566410064697266,
                38.416015625
              ],
              [
                20.795446395874023,
                38.28691864013672
              ],
              [
                20.7864933013916,
                38.09331130981445
              ],
              [
                20.319902420043945,
                38.157840728759766
              ],
              [
                20.328466415405273,
                38.351463317871094
              ]
            ]
          ],
          [
            [
              [
                20.66591453552246,
                38.8680305480957
              ],
              [
                20.732181549072266,
                38.60969924926758
              ],
              [
                20.49690055847168,
                38.60969924926758
              ],
              [
                20.587390899658203,
                38.8680305480957
              ],
              [
                20.66591453552246,
                38.8680305480957
              ]
            ]
          ],
          [
            [
              [
                19.921405792236328,
                39.77294921875
              ],
              [
                19.918411254882812,
                39.70827102661133
              ],
              [
                19.912464141845703,
                39.57893371582031
              ],
              [
                19.75778579711914,
                39.64360046386719
              ],
              [
                19.76365852355957,
                39.77294921875
              ],
              [
                19.921405792236328,
                39.77294921875
              ]
            ]
          ]
        ]
      }
    }
  ]
}