{
  "type": "FeatureCollection",
  "name": "territory-766",
  "features": [
    {
      "type": "Feature",
      "properties": {
        "Name": "Italian Republic",
        "FromYear": 1811,
        "ToYear": 1811,
        "Area": 84975.24884218919,
        "Type": "POLITY",
        "Wikipedia": "Italy",
        "Wikidata": "Q38",
        "SeshatID": "",
        "Components": "",
        "MemberOf": ""
      },
      "geometry": {
        "type": "Polygon",
        "coordinates": [
          [
            [
              13.226387023925781,
              45.82429504394531
            ],
            [
              13.060476303100586,
              45.62776184082031
            ],
            [
              12.816752433776855,
              45.693260192871094
            ],
            [
              12.652192115783691,
              45.56227111816406
            ],
            [
              12.162785530090332,
              45.496795654296875
            ],
            [
              12.160021781921387,
              45.169586181640625
            ],
            [
              12.40256118774414,
              45.03877639770508
            ],
            [
              12.399906158447266,
              44.77729415893555
            ],
            [
              12.157197952270508,
              44.842647552490234
            ],
            [
              12.153728485107422,
              44.45067596435547
            ],
            [
              12.553191184997559,
              43.99384307861328
            ],
            [
              13.355091094970703,
              43.6678352355957
            ],
            [
              13.672640800476074,
              43.407203674316406
            ],
            [
              13.747068405151367,
              43.08163070678711
            ],
            [
              13.906397819519043,
              43.016544342041016
            ],
            [
              13.90514087677002,
              42.95146560668945
            ],
            [
              13.583069801330566,
              42.88639831542969
            ],
            [
              13.500658988952637,
              42.75628662109375
            ],
            [
              13.180078506469727,
              42.75628662109375
            ],
            [
              13.028154373168945,
              43.342071533203125
            ],
            [
              12.94774055480957,
              43.342071533203125
            ],
            [
              12.62608528137207,
              43.342071533203125
            ],
            [
              12.386920928955078,
              43.53750228881836
            ],
            [
              12.225911140441895,
              43.53750228881836
            ],
            [
              12.309718132019043,
              43.86341094970703
            ],
            [
              11.988690376281738,
              44.05907440185547
            ],
            [
              11.746440887451172,
              44.05907440185547
            ],
            [
              11.505900382995605,
              44.38538360595703
            ],
            [
              10.53516674041748,
              44.12431716918945
            ],
            [
              9.969700813293457,
              44.12431716918945
            ],
            [
              9.64546012878418,
              44.32010269165039
            ],
            [
              9.644696235656738,
              44.45067596435547
            ],
            [
              10.049148559570312,
              44.5159797668457
            ],
            [
              10.048676490783691,
              44.64661407470703
            ],
            [
              10.291471481323242,
              44.77729415893555
            ],
            [
              10.290996551513672,
              44.973392486572266
            ],
            [
              9.965350151062012,
              45.169586181640625
            ],
            [
              8.664804458618164,
              45.169586181640625
            ],
            [
              8.578357696533203,
              45.56227111816406
            ],
            [
              8.41446304321289,
              45.62776184082031
            ],
            [
              8.412568092346191,
              45.75876998901367
            ],
            [
              8.164677619934082,
              45.95537567138672
            ],
            [
              8.001335144042969,
              45.95537567138672
            ],
            [
              8.000204086303711,
              46.02093505859375
            ],
            [
              8.078590393066406,
              46.21768569946289
            ],
            [
              8.40284538269043,
              46.414546966552734
            ],
            [
              8.488550186157227,
              46.1520881652832
            ],
            [
              8.652090072631836,
              46.1520881652832
            ],
            [
              8.98212718963623,
              45.889827728271484
            ],
            [
              9.303140640258789,
              46.480194091796875
            ],
            [
              10.041536331176758,
              46.283294677734375
            ],
            [
              10.122788429260254,
              46.414546966552734
            ],
            [
              10.040886878967285,
              46.414546966552734
            ],
            [
              10.039896965026855,
              46.61152267456055
            ],
            [
              10.367905616760254,
              46.61152267456055
            ],
            [
              10.449238777160645,
              46.87434005737305
            ],
            [
              10.941988945007324,
              46.74290466308594
            ],
            [
              11.188736915588379,
              47.005828857421875
            ],
            [
              11.681962013244629,
              47.005828857421875
            ],
            [
              11.762310028076172,
              46.677207946777344
            ],
            [
              12.09045124053955,
              46.677207946777344
            ],
            [
              12.173563957214355,
              46.808616638183594
            ],
            [
              12.58195972442627,
              46.61152267456055
            ],
            [
              13.564879417419434,
              46.54585266113281
            ],
            [
              13.562676429748535,
              46.414546966552734
            ],
            [
              13.397838592529297,
              46.348915100097656
            ],
            [
              13.47651481628418,
              46.1520881652832
            ],
            [
              13.31197738647461,
              46.08650588989258
            ],
            [
              13.307992935180664,
              45.82429504394531
            ],
            [
              13.226387023925781,
              45.82429504394531
            ]
          ]
        ]
      }
    }
  ]
}