{
  "type": "FeatureCollection",
  "name": "territory-767",
  "features": [
    {
      "type": "Feature",
      "properties": {
        "Name": "Empire of Haiti",
        "FromYear": 1822,
        "ToYear": 1845,
        "Area": 83655.62131294688,
        "Type": "POLITY",
        "Wikipedia": "First Empire of Haiti",
        "Wikidata": "Q2006756",
        "SeshatID": "",
        "Components": "",
        "MemberOf": ""
      },
      "geometry": {
        "type": "MultiPolygon",
        "coordinates": [
          [
            [
              [
                -70.77458190917969,
                19.893383026123047
              ],
              [
                -70.22978973388672,
                19.700523376464844
              ],
              [
                -69.8595199584961,
                19.700523376464844
              ],
              [
                -69.6596450805664,
                19.314802169799805
              ],
              [
                -69.07612609863281,
                19.379087448120117
              ],
              [
                -69.12458801269531,
                19.186227798461914
              ],
              [
                -69.48600769042969,
                19.12194061279297
              ],
              [
                -68.5814208984375,
                18.993366241455078
              ],
              [
                -68.56468963623047,
                18.864791870117188
              ],
              [
                -68.24402618408203,
                18.67193031311035
              ],
              [
                -68.28504180908203,
                18.414779663085938
              ],
              [
                -68.43283081054688,
                18.414779663085938
              ],
              [
                -68.55606079101562,
                18.2219181060791
              ],
              [
                -69.09786987304688,
                18.414779663085938
              ],
              [
                -69.83680725097656,
                18.414779663085938
              ],
              [
                -69.95960235595703,
                18.2219181060791
              ],
              [
                -70.5505599975586,
                18.2219181060791
              ],
              [
                -70.56732940673828,
                18.350492477416992
              ],
              [
                -70.71510314941406,
                18.350492477416992
              ],
              [
                -70.99378204345703,
                18.2219181060791
              ],
              [
                -71.27989196777344,
                17.57904052734375
              ],
              [
                -71.59156799316406,
                17.707616806030273
              ],
              [
                -71.7071304321289,
                18.029054641723633
              ],
              [
                -72.10183715820312,
                18.2219181060791
              ],
              [
                -73.65311431884766,
                18.2219181060791
              ],
              [
                -73.70099639892578,
                18.029054641723633
              ],
              [
                -73.92253875732422,
                18.029054641723633
              ],
              [
                -74.17896270751953,
                18.286205291748047
              ],
              [
                -74.40059661865234,
                18.286205291748047
              ],
              [
                -74.4448471069336,
                18.607641220092773
              ],
              [
                -74.24089813232422,
                18.736217498779297
              ],
              [
                -73.1707534790039,
                18.479066848754883
              ],
              [
                -72.30123901367188,
                18.607641220092773
              ],
              [
                -72.71465301513672,
                18.929079055786133
              ],
              [
                -72.79470825195312,
                19.507661819458008
              ],
              [
                -73.40503692626953,
                19.6362361907959
              ],
              [
                -73.43228912353516,
                19.8290958404541
              ],
              [
                -73.22825622558594,
                19.95766830444336
              ],
              [
                -72.63556671142578,
                19.95766830444336
              ],
              [
                -72.39530944824219,
                19.8290958404541
              ],
              [
                -71.71976470947266,
                19.764808654785156
              ],
              [
                -71.67244720458984,
                19.95766830444336
              ],
              [
                -70.78340911865234,
                19.95766830444336
              ],
              [
                -70.77458190917969,
                19.893383026123047
              ]
            ]
          ],
          [
            [
              [
                -72.90132904052734,
                18.67193031311035
              ],
              [
                -73.29744720458984,
                18.864791870117188
              ],
              [
                -73.31520080566406,
                18.993366241455078
              ],
              [
                -72.78861236572266,
                18.929079055786133
              ],
              [
                -72.67955017089844,
                18.67193031311035
              ],
              [
                -72.82740020751953,
                18.67193031311035
              ],
              [
                -72.90132904052734,
                18.67193031311035
              ]
            ]
          ]
        ]
      }
    }
  ]
}