{
  "type": "FeatureCollection",
  "name": "territory-768",
  "features": [
    {
      "type": "Feature",
      "properties": {
        "Name": "Muhammad Ali dynasty",
        "FromYear": 1840,
        "ToYear": 1841,
        "Area": 2689003.41684581,
        "Type": "POLITY",
        "Wikipedia": "History of Egypt under the Muhammad Ali dynasty",
        "Wikidata": "Q3057606",
        "SeshatID": "eg_egypt_modern_1",
        "Components": "",
        "MemberOf": ""
      },
      "geometry": {
        "type": "MultiPolygon",
        "coordinates": [
          [
            [
              [
                27.4237060546875,
                11.278841018676758
              ],
              [
                27.425277709960938,
                11.343128204345703
              ],
              [
                27.49847412109375,
                11.343128204345703
              ],
              [
                27.496898651123047,
                11.278841018676758
              ],
              [
                27.4237060546875,
                11.278841018676758
              ]
            ]
          ],
          [
            [
              [
                39.40629959106445,
                16.036130905151367
              ],
              [
                39.46445083618164,
                15.714691162109375
              ],
              [
                39.743446350097656,
                15.393251419067383
              ],
              [
                39.73439025878906,
                15.200387001037598
              ],
              [
                39.446250915527344,
                15.328963279724121
              ],
              [
                39.37270736694336,
                15.328963279724121
              ],
              [
                39.10568618774414,
                15.907554626464844
              ],
              [
                39.179290771484375,
                15.907554626464844
              ],
              [
                39.262168884277344,
                16.100418090820312
              ],
              [
                39.40629959106445,
                16.036130905151367
              ]
            ]
          ],
          [
            [
              [
                37.24455261230469,
                18.607641220092773
              ],
              [
                37.10281753540039,
                18.736217498779297
              ],
              [
                37.34303283691406,
                19.12194061279297
              ],
              [
                37.62345504760742,
                18.800504684448242
              ],
              [
                37.69739532470703,
                18.800504684448242
              ],
              [
                37.540225982666016,
                18.607641220092773
              ],
              [
                37.24455261230469,
                18.607641220092773
              ]
            ]
          ],
          [
            [
              [
                44.253726959228516,
                19.6362361907959
              ],
              [
                44.3277702331543,
                19.6362361907959
              ],
              [
                44.32396697998047,
                19.571949005126953
              ],
              [
                44.24993133544922,
                19.571949005126953
              ],
              [
                44.253726959228516,
                19.6362361907959
              ]
            ]
          ],
          [
            [
              [
                44.18346405029297,
                19.700523376464844
              ],
              [
                44.25751876831055,
                19.700523376464844
              ],
              [
                44.253726959228516,
                19.6362361907959
              ],
              [
                44.17967987060547,
                19.6362361907959
              ],
              [
                44.18346405029297,
                19.700523376464844
              ]
            ]
          ],
          [
            [
              [
                39.415401458740234,
                33.65024948120117
              ],
              [
                39.40131759643555,
                33.52165222167969
              ],
              [
                39.24782180786133,
                33.52165222167969
              ],
              [
                38.91337203979492,
                33.26447677612305
              ],
              [
                38.893001556396484,
                33.07160949707031
              ],
              [
                38.64313507080078,
                32.878753662109375
              ],
              [
                38.28504943847656,
                32.36451721191406
              ],
              [
                38.26596450805664,
                32.171695709228516
              ],
              [
                38.01194763183594,
                31.91460609436035
              ],
              [
                38.06972885131836,
                31.7217960357666
              ],
              [
                37.83492660522461,
                31.65752601623535
              ],
              [
                37.48277282714844,
                31.143381118774414
              ],
              [
                37.547245025634766,
                31.014846801757812
              ],
              [
                37.3951301574707,
                31.014846801757812
              ],
              [
                37.307640075683594,
                30.886310577392578
              ],
              [
                37.159767150878906,
                30.050809860229492
              ],
              [
                37.306007385253906,
                29.986536026000977
              ],
              [
                37.21951675415039,
                29.857990264892578
              ],
              [
                37.67628860473633,
                28.958093643188477
              ],
              [
                37.82230758666992,
                28.893810272216797
              ],
              [
                37.81216049194336,
                28.765243530273438
              ],
              [
                37.96828842163086,
                28.829526901245117
              ],
              [
                38.01356506347656,
                28.44382095336914
              ],
              [
                38.22993469238281,
                28.315250396728516
              ],
              [
                38.22005081176758,
                28.186676025390625
              ],
              [
                38.446231842041016,
                28.186676025390625
              ],
              [
                38.361000061035156,
                28.058101654052734
              ],
              [
                38.421749114990234,
                27.865236282348633
              ],
              [
                38.70368576049805,
                27.608078002929688
              ],
              [
                38.75993347167969,
                27.35091781616211
              ],
              [
                38.90565490722656,
                27.2866268157959
              ],
              [
                38.89628219604492,
                27.158044815063477
              ],
              [
                39.04197311401367,
                27.093751907348633
              ],
              [
                39.305747985839844,
                26.57941436767578
              ],
              [
                39.45589065551758,
                26.57941436767578
              ],
              [
                39.37630081176758,
                26.515121459960938
              ],
              [
                39.43792724609375,
                26.32224464416504
              ],
              [
                39.58352279663086,
                26.257951736450195
              ],
              [
                39.77783966064453,
                25.807899475097656
              ],
              [
                39.92338562011719,
                25.743606567382812
              ],
              [
                40.384971618652344,
                24.779226303100586
              ],
              [
                41.223960876464844,
                25.03639030456543
              ],
              [
                41.24973678588867,
                25.422143936157227
              ],
              [
                41.25412368774414,
                25.48643684387207
              ],
              [
                41.78725051879883,
                25.615020751953125
              ],
              [
                42.354087829589844,
                26.19365882873535
              ],
              [
                43.144710540771484,
                26.70800018310547
              ],
              [
                43.2408332824707,
                26.96516990661621
              ],
              [
                43.47163391113281,
                27.029460906982422
              ],
              [
                43.671722412109375,
                27.608078002929688
              ],
              [
                43.74699783325195,
                27.608078002929688
              ],
              [
                44.065391540527344,
                27.800947189331055
              ],
              [
                44.366641998291016,
                27.800947189331055
              ],
              [
                44.65612030029297,
                27.6723690032959
              ],
              [
                44.7891731262207,
                27.4794979095459
              ],
              [
                44.939666748046875,
                27.4794979095459
              ],
              [
                45.1422004699707,
                27.222335815429688
              ],
              [
                45.807308197021484,
                27.093751907348633
              ],
              [
                47.010032653808594,
                27.093751907348633
              ],
              [
                47.1785888671875,
                27.2866268157959
              ],
              [
                47.41038513183594,
                27.35091781616211
              ],
              [
                47.585933685302734,
                27.608078002929688
              ],
              [
                47.592288970947266,
                27.6723690032959
              ],
              [
                47.79905700683594,
                27.4794979095459
              ],
              [
                48.03797149658203,
                26.836584091186523
              ],
              [
                48.18215560913086,
                26.772293090820312
              ],
              [
                49.07245635986328,
                24.97209930419922
              ],
              [
                49.43046188354492,
                24.779226303100586
              ],
              [
                49.48435974121094,
                24.522062301635742
              ],
              [
                49.69307327270508,
                24.329193115234375
              ],
              [
                49.61838912963867,
                24.329193115234375
              ],
              [
                48.79685974121094,
                24.329193115234375
              ],
              [
                48.562957763671875,
                24.200613021850586
              ],
              [
                48.38954544067383,
                23.879167556762695
              ],
              [
                48.17043685913086,
                23.943456649780273
              ],
              [
                47.55492401123047,
                23.68630027770996
              ],
              [
                47.18653869628906,
                23.75058937072754
              ],
              [
                46.721126556396484,
                23.493436813354492
              ],
              [
                45.66453170776367,
                23.30057144165039
              ],
              [
                45.035545349121094,
                22.786272048950195
              ],
              [
                44.67521286010742,
                21.7576847076416
              ],
              [
                44.522762298583984,
                21.693397521972656
              ],
              [
                44.511356353759766,
                21.500539779663086
              ],
              [
                44.046993255615234,
                21.179107666015625
              ],
              [
                44.03211975097656,
                20.921964645385742
              ],
              [
                43.80211639404297,
                20.793392181396484
              ],
              [
                43.86151885986328,
                20.53624725341797
              ],
              [
                43.639041900634766,
                20.53624725341797
              ],
              [
                43.68737030029297,
                20.08624267578125
              ],
              [
                43.835575103759766,
                20.08624267578125
              ],
              [
                43.82813262939453,
                19.95766830444336
              ],
              [
                43.980045318603516,
                20.021955490112305
              ],
              [
                44.31254196166992,
                19.379087448120117
              ],
              [
                44.464393615722656,
                19.443374633789062
              ],
              [
                44.38273239135742,
                19.314802169799805
              ],
              [
                44.44140625,
                19.057653427124023
              ],
              [
                44.27817916870117,
                18.800504684448242
              ],
              [
                44.13029479980469,
                18.800504684448242
              ],
              [
                43.50886917114258,
                18.286205291748047
              ],
              [
                43.641666412353516,
                18.029054641723633
              ],
              [
                43.46803665161133,
                17.57904052734375
              ],
              [
                43.464351654052734,
                17.514753341674805
              ],
              [
                42.55038070678711,
                17.000450134277344
              ],
              [
                42.476654052734375,
                17.000450134277344
              ],
              [
                42.48373794555664,
                17.129026412963867
              ],
              [
                42.33625793457031,
                17.129026412963867
              ],
              [
                42.28022766113281,
                17.450464248657227
              ],
              [
                41.784889221191406,
                17.836191177368164
              ],
              [
                41.45082092285156,
                18.479066848754883
              ],
              [
                41.23610305786133,
                18.607641220092773
              ],
              [
                41.25007629394531,
                18.864791870117188
              ],
              [
                41.04209899902344,
                19.12194061279297
              ],
              [
                40.985382080078125,
                19.443374633789062
              ],
              [
                40.84076690673828,
                19.507661819458008
              ],
              [
                40.85103988647461,
                19.700523376464844
              ],
              [
                40.561588287353516,
                19.8290958404541
              ],
              [
                40.14036178588867,
                20.279102325439453
              ],
              [
                39.84385299682617,
                20.279102325439453
              ],
              [
                39.35056686401367,
                20.793392181396484
              ],
              [
                39.14701461791992,
                21.179107666015625
              ],
              [
                39.16929626464844,
                21.629112243652344
              ],
              [
                39.02705764770508,
                21.7576847076416
              ],
              [
                39.14019775390625,
                22.529123306274414
              ],
              [
                38.8588752746582,
                22.85055923461914
              ],
              [
                38.86882400512695,
                23.043420791625977
              ],
              [
                38.60107421875,
                23.622013092041016
              ],
              [
                38.03175354003906,
                24.136323928833008
              ],
              [
                37.444801330566406,
                24.329193115234375
              ],
              [
                37.38759231567383,
                24.650644302368164
              ],
              [
                37.17045593261719,
                24.779226303100586
              ],
              [
                37.1776123046875,
                24.907808303833008
              ],
              [
                37.3307991027832,
                24.97209930419922
              ],
              [
                37.27071762084961,
                25.229267120361328
              ],
              [
                36.772972106933594,
                25.67931365966797
              ],
              [
                36.7172966003418,
                26.000778198242188
              ],
              [
                36.42910385131836,
                26.19365882873535
              ],
              [
                36.16486358642578,
                26.772293090820312
              ],
              [
                35.671688079833984,
                27.2866268157959
              ],
              [
                35.61323928833008,
                27.54378890991211
              ],
              [
                35.46693801879883,
                27.608078002929688
              ],
              [
                35.40869903564453,
                27.865236282348633
              ],
              [
                35.04917907714844,
                28.12238883972168
              ],
              [
                34.59267044067383,
                28.058101654052734
              ],
              [
                34.60541915893555,
                28.25096321105957
              ],
              [
                34.853519439697266,
                28.572391510009766
              ],
              [
                34.91290283203125,
                29.40805435180664
              ],
              [
                34.75225830078125,
                29.279497146606445
              ],
              [
                34.517303466796875,
                28.058101654052734
              ],
              [
                34.35825729370117,
                27.92952537536621
              ],
              [
                34.345943450927734,
                27.736658096313477
              ],
              [
                34.12004470825195,
                27.736658096313477
              ],
              [
                33.6169548034668,
                28.12238883972168
              ],
              [
                33.553810119628906,
                28.315250396728516
              ],
              [
                33.40296936035156,
                28.315250396728516
              ],
              [
                33.18891525268555,
                28.508106231689453
              ],
              [
                33.213871002197266,
                28.893810272216797
              ],
              [
                32.857112884521484,
                29.21521759033203
              ],
              [
                32.52609634399414,
                29.922264099121094
              ],
              [
                32.428688049316406,
                29.600887298583984
              ],
              [
                32.638694763183594,
                29.34377670288086
              ],
              [
                32.68916320800781,
                28.958093643188477
              ],
              [
                32.83612823486328,
                28.893810272216797
              ],
              [
                33.10531997680664,
                28.379535675048828
              ],
              [
                33.60887145996094,
                27.993812561035156
              ],
              [
                33.585105895996094,
                27.608078002929688
              ],
              [
                33.7991943359375,
                27.41520881652832
              ],
              [
                33.92659378051758,
                27.029460906982422
              ],
              [
                34.07311248779297,
                26.96516990661621
              ],
              [
                34.05074691772461,
                26.57941436767578
              ],
              [
                34.197208404541016,
                26.515121459960938
              ],
              [
                34.461280822753906,
                25.8721923828125
              ],
              [
                34.60763931274414,
                25.807899475097656
              ],
              [
                35.145530700683594,
                24.650644302368164
              ],
              [
                35.860408782958984,
                24.00774574279785
              ],
              [
                35.85411834716797,
                23.879167556762695
              ],
              [
                35.558753967285156,
                23.943456649780273
              ],
              [
                35.546443939208984,
                23.68630027770996
              ],
              [
                35.808685302734375,
                22.914846420288086
              ],
              [
                35.662662506103516,
                22.97913360595703
              ],
              [
                35.049800872802734,
                22.59341049194336
              ],
              [
                34.22566223144531,
                22.46483612060547
              ],
              [
                33.99181365966797,
                22.20768928527832
              ],
              [
                33.98391342163086,
                22.014829635620117
              ],
              [
                34.058265686035156,
                22.014829635620117
              ],
              [
                33.96823501586914,
                21.629112243652344
              ],
              [
                34.042537689208984,
                21.629112243652344
              ],
              [
                34.14134979248047,
                20.40767478942871
              ],
              [
                34.215492248535156,
                20.40767478942871
              ],
              [
                34.40019226074219,
                19.507661819458008
              ],
              [
                34.54275894165039,
                19.379087448120117
              ],
              [
                34.67136764526367,
                18.929079055786133
              ],
              [
                35.02702713012695,
                18.607641220092773
              ],
              [
                35.36223602294922,
                17.836191177368164
              ],
              [
                35.784908294677734,
                17.38617706298828
              ],
              [
                35.93244934082031,
                17.38617706298828
              ],
              [
                36.357479095458984,
                17.000450134277344
              ],
              [
                37.24518966674805,
                17.06473731994629
              ],
              [
                37.00910949707031,
                16.743297576904297
              ],
              [
                37.059268951416016,
                16.228994369506836
              ],
              [
                36.90621566772461,
                16.100418090820312
              ],
              [
                36.6489372253418,
                15.26467514038086
              ],
              [
                36.493751525878906,
                15.07181167602539
              ],
              [
                36.54091262817383,
                14.428933143615723
              ],
              [
                36.61436462402344,
                14.428933143615723
              ],
              [
                36.51321029663086,
                13.721768379211426
              ],
              [
                36.2785758972168,
                13.336042404174805
              ],
              [
                36.18421173095703,
                12.757453918457031
              ],
              [
                35.664344787597656,
                12.564591407775879
              ],
              [
                35.35163497924805,
                11.986002922058105
              ],
              [
                35.12556838989258,
                11.793140411376953
              ],
              [
                35.027713775634766,
                11.021690368652344
              ],
              [
                34.44429016113281,
                11.085978507995605
              ],
              [
                33.34086990356445,
                10.893115997314453
              ],
              [
                32.53603744506836,
                10.893115997314453
              ],
              [
                32.247047424316406,
                11.021690368652344
              ],
              [
                31.881168365478516,
                11.021690368652344
              ],
              [
                31.449338912963867,
                11.278841018676758
              ],
              [
                29.175334930419922,
                11.085978507995605
              ],
              [
                27.571672439575195,
                11.343128204345703
              ],
              [
                27.49847412109375,
                11.343128204345703
              ],
              [
                27.439594268798828,
                11.92171573638916
              ],
              [
                27.36635398864746,
                11.92171573638916
              ],
              [
                27.394319534301758,
                13.014603614807129
              ],
              [
                27.77484703063965,
                13.528904914855957
              ],
              [
                27.787321090698242,
                13.97891902923584
              ],
              [
                27.651371002197266,
                14.364645004272461
              ],
              [
                27.3667049407959,
                14.686083793640137
              ],
              [
                27.333187103271484,
                16.036130905151367
              ],
              [
                27.25956916809082,
                16.036130905151367
              ],
              [
                27.273353576660156,
                16.486146926879883
              ],
              [
                27.19968605041504,
                16.486146926879883
              ],
              [
                27.201662063598633,
                16.550434112548828
              ],
              [
                27.066146850585938,
                16.9361629486084
              ],
              [
                27.165813446044922,
                17.77190399169922
              ],
              [
                27.555265426635742,
                18.414779663085938
              ],
              [
                27.705101013183594,
                18.479066848754883
              ],
              [
                27.711233139038086,
                18.67193031311035
              ],
              [
                27.857027053833008,
                18.607641220092773
              ],
              [
                27.861141204833984,
                18.736217498779297
              ],
              [
                28.319395065307617,
                19.186227798461914
              ],
              [
                29.144086837768555,
                19.507661819458008
              ],
              [
                29.538066864013672,
                20.214815139770508
              ],
              [
                29.546586990356445,
                20.471960067749023
              ],
              [
                28.909700393676758,
                21.43625259399414
              ],
              [
                28.84754180908203,
                21.821969985961914
              ],
              [
                28.777252197265625,
                21.950544357299805
              ],
              [
                28.628564834594727,
                21.950544357299805
              ],
              [
                28.71097755432129,
                22.20768928527832
              ],
              [
                28.572303771972656,
                22.529123306274414
              ],
              [
                28.582509994506836,
                22.85055923461914
              ],
              [
                28.508045196533203,
                22.85055923461914
              ],
              [
                28.39472007751465,
                23.943456649780273
              ],
              [
                28.32009506225586,
                23.943456649780273
              ],
              [
                28.30586814880371,
                25.615020751953125
              ],
              [
                28.230972290039062,
                25.615020751953125
              ],
              [
                28.34531593322754,
                26.57941436767578
              ],
              [
                28.270244598388672,
                26.57941436767578
              ],
              [
                28.29547691345215,
                27.158044815063477
              ],
              [
                28.220294952392578,
                27.158044815063477
              ],
              [
                28.312999725341797,
                27.54378890991211
              ],
              [
                28.24070167541504,
                27.608078002929688
              ],
              [
                28.472572326660156,
                27.736658096313477
              ],
              [
                28.602100372314453,
                28.829526901245117
              ],
              [
                28.464351654052734,
                29.08665657043457
              ],
              [
                28.430082321166992,
                29.857990264892578
              ],
              [
                28.220441818237305,
                30.179353713989258
              ],
              [
                28.068744659423828,
                30.179353713989258
              ],
              [
                27.927650451660156,
                30.372163772583008
              ],
              [
                27.631086349487305,
                30.500701904296875
              ],
              [
                26.12873077392578,
                30.822044372558594
              ],
              [
                25.384357452392578,
                31.143381118774414
              ],
              [
                25.32421112060547,
                31.464719772338867
              ],
              [
                26.847702026367188,
                31.464719772338867
              ],
              [
                27.297456741333008,
                31.336183547973633
              ],
              [
                27.514896392822266,
                31.143381118774414
              ],
              [
                28.496395111083984,
                31.014846801757812
              ],
              [
                28.865032196044922,
                30.822044372558594
              ],
              [
                29.3970890045166,
                30.822044372558594
              ],
              [
                29.485143661499023,
                31.014846801757812
              ],
              [
                29.633193969726562,
                30.950578689575195
              ],
              [
                29.86956024169922,
                31.079113006591797
              ],
              [
                29.8017635345459,
                31.20764923095703
              ],
              [
                29.882049560546875,
                31.271915435791016
              ],
              [
                30.33879280090332,
                31.271915435791016
              ],
              [
                30.271244049072266,
                31.40045166015625
              ],
              [
                30.351730346679688,
                31.464719772338867
              ],
              [
                30.80877685546875,
                31.464719772338867
              ],
              [
                30.965608596801758,
                31.528987884521484
              ],
              [
                30.974620819091797,
                31.65752601623535
              ],
              [
                31.203296661376953,
                31.65752601623535
              ],
              [
                31.117990493774414,
                31.528987884521484
              ],
              [
                31.265825271606445,
                31.464719772338867
              ],
              [
                31.875221252441406,
                31.464719772338867
              ],
              [
                31.780553817749023,
                31.20764923095703
              ],
              [
                31.93739891052246,
                31.271915435791016
              ],
              [
                31.999635696411133,
                31.079113006591797
              ],
              [
                32.303932189941406,
                31.079113006591797
              ],
              [
                32.23719787597656,
                31.20764923095703
              ],
              [
                32.38941192626953,
                31.20764923095703
              ],
              [
                32.53215408325195,
                31.079113006591797
              ],
              [
                32.76515197753906,
                31.143381118774414
              ],
              [
                32.8316764831543,
                31.014846801757812
              ],
              [
                33.74934005737305,
                31.079113006591797
              ],
              [
                34.2972412109375,
                31.271915435791016
              ],
              [
                34.30759811401367,
                31.40045166015625
              ],
              [
                34.63344955444336,
                31.65752601623535
              ],
              [
                34.57329559326172,
                31.8503360748291
              ],
              [
                34.81304168701172,
                31.978878021240234
              ],
              [
                34.76983642578125,
                32.36451721191406
              ],
              [
                35.021759033203125,
                32.62162780761719
              ],
              [
                35.05632781982422,
                33.00732421875
              ],
              [
                35.21538543701172,
                33.07160949707031
              ],
              [
                35.39840316772461,
                33.393062591552734
              ],
              [
                35.34577560424805,
                33.65024948120117
              ],
              [
                35.49934768676758,
                33.65024948120117
              ],
              [
                35.4470100402832,
                33.90746307373047
              ],
              [
                35.68381118774414,
                33.971771240234375
              ],
              [
                35.64447784423828,
                34.3576545715332
              ],
              [
                35.79212951660156,
                34.2933349609375
              ],
              [
                36.048770904541016,
                34.55062484741211
              ],
              [
                36.0682373046875,
                34.743614196777344
              ],
              [
                35.92698669433594,
                34.87228775024414
              ],
              [
                35.959747314453125,
                35.194007873535156
              ],
              [
                35.88248825073242,
                35.194007873535156
              ],
              [
                35.99294662475586,
                35.51579284667969
              ],
              [
                35.84488296508789,
                35.58015823364258
              ],
              [
                35.990074157714844,
                36.2239875793457
              ],
              [
                35.84174346923828,
                36.28839111328125
              ],
              [
                36.26490020751953,
                36.61045455932617
              ],
              [
                36.28622817993164,
                36.80373764038086
              ],
              [
                36.144901275634766,
                36.932613372802734
              ],
              [
                35.833587646484375,
                36.932613372802734
              ],
              [
                35.487709045410156,
                36.61045455932617
              ],
              [
                35.332271575927734,
                36.61045455932617
              ],
              [
                35.11265563964844,
                36.73930740356445
              ],
              [
                34.95038986206055,
                36.67487716674805
              ],
              [
                34.886104583740234,
                36.80373764038086
              ],
              [
                34.892860412597656,
                36.8681755065918
              ],
              [
                34.90644454956055,
                36.9970588684082
              ],
              [
                35.33060836791992,
                37.3193473815918
              ],
              [
                36.154266357421875,
                37.706241607666016
              ],
              [
                36.54475784301758,
                37.706241607666016
              ],
              [
                36.99046325683594,
                37.51277160644531
              ],
              [
                37.123741149902344,
                37.3193473815918
              ],
              [
                37.49826431274414,
                37.1904182434082
              ],
              [
                37.631221771240234,
                36.9970588684082
              ],
              [
                37.786922454833984,
                36.9970588684082
              ],
              [
                38.06003189086914,
                36.67487716674805
              ],
              [
                38.21551513671875,
                36.67487716674805
              ],
              [
                38.49575424194336,
                36.417205810546875
              ],
              [
                38.46540832519531,
                36.15959167480469
              ],
              [
                38.28045654296875,
                35.902034759521484
              ],
              [
                38.42798614501953,
                35.837650299072266
              ],
              [
                38.54581832885742,
                35.51579284667969
              ],
              [
                38.83300018310547,
                35.32271194458008
              ],
              [
                38.81826400756836,
                35.194007873535156
              ],
              [
                39.03525924682617,
                35.065311431884766
              ],
              [
                39.02055740356445,
                34.93662643432617
              ],
              [
                39.38423538208008,
                34.743614196777344
              ],
              [
                39.369529724121094,
                34.614952087402344
              ],
              [
                39.78764724731445,
                34.22901916503906
              ],
              [
                39.904991149902344,
                33.90746307373047
              ],
              [
                39.89773941040039,
                33.84315490722656
              ],
              [
                39.645755767822266,
                33.65024948120117
              ],
              [
                39.415401458740234,
                33.65024948120117
              ]
            ],
            [
              [
                35.52387237548828,
                33.90746307373047
              ],
              [
                35.51771545410156,
                33.84315490722656
              ],
              [
                35.59455490112305,
                33.84315490722656
              ],
              [
                35.60073471069336,
                33.90746307373047
              ],
              [
                35.52387237548828,
                33.90746307373047
              ]
            ],
            [
              [
                34.846256256103516,
                32.36451721191406
              ],
              [
                34.84067153930664,
                32.30024337768555
              ],
              [
                34.91707229614258,
                32.30024337768555
              ],
              [
                34.922672271728516,
                32.36451721191406
              ],
              [
                34.846256256103516,
                32.36451721191406
              ]
            ]
          ],
          [
            [
              [
                40.06037139892578,
                25.55072784423828
              ],
              [
                40.135257720947266,
                25.55072784423828
              ],
              [
                40.131011962890625,
                25.48643684387207
              ],
              [
                40.05613708496094,
                25.48643684387207
              ],
              [
                40.06037139892578,
                25.55072784423828
              ]
            ]
          ]
        ]
      }
    }
  ]
}