{
  "type": "FeatureCollection",
  "name": "territory-770",
  "features": [
    {
      "type": "Feature",
      "properties": {
        "Name": "(First French Empire)",
        "FromYear": 1811,
        "ToYear": 1811,
        "Area": 1243595.949101118,
        "Type": "POLITY",
        "Wikipedia": "First French Empire",
        "Wikidata": "Q71084",
        "SeshatID": "fr_bourbon_k_2",
        "Components": "First French Empire;French India",
        "MemberOf": ""
      },
      "geometry": {
        "type": "MultiPolygon",
        "coordinates": [
          [
            [
              [
                -3.615231275558472,
                5.10723352432251
              ],
              [
                -3.614365339279175,
                5.235808849334717
              ],
              [
                -3.394870042800903,
                5.364383697509766
              ],
              [
                -3.321982860565186,
                5.364383697509766
              ],
              [
                -3.177960634231567,
                5.10723352432251
              ],
              [
                -3.542352914810181,
                5.10723352432251
              ],
              [
                -3.615231275558472,
                5.10723352432251
              ]
            ]
          ],
          [
            [
              [
                -16.25000762939453,
                16.100418090820312
              ],
              [
                -16.169858932495117,
                15.907554626464844
              ],
              [
                -16.239168167114258,
                15.77897834777832
              ],
              [
                -16.3863468170166,
                15.77897834777832
              ],
              [
                -16.384206771850586,
                15.714691162109375
              ],
              [
                -16.602807998657227,
                15.650403022766113
              ],
              [
                -16.47311019897461,
                16.16470718383789
              ],
              [
                -16.25000762939453,
                16.100418090820312
              ]
            ]
          ],
          [
            [
              [
                -3.253536462783813,
                38.416015625
              ],
              [
                -3.614887475967407,
                37.96426773071289
              ],
              [
                -3.924286127090454,
                36.73930740356445
              ],
              [
                -4.002048969268799,
                36.73930740356445
              ],
              [
                -4.468626022338867,
                36.73930740356445
              ],
              [
                -4.688807487487793,
                36.5460319519043
              ],
              [
                -5.22819709777832,
                36.48161697387695
              ],
              [
                -5.296883106231689,
                36.3527946472168
              ],
              [
                -5.374516010284424,
                36.3527946472168
              ],
              [
                -5.831079006195068,
                36.2239875793457
              ],
              [
                -5.908668994903564,
                36.2239875793457
              ],
              [
                -6.063849925994873,
                36.2239875793457
              ],
              [
                -6.432291984558105,
                36.9970588684082
              ],
              [
                -6.587993621826172,
                36.9970588684082
              ],
              [
                -6.84182596206665,
                37.254878997802734
              ],
              [
                -7.309464931488037,
                37.254878997802734
              ],
              [
                -7.387404441833496,
                37.254878997802734
              ],
              [
                -7.502705097198486,
                37.706241607666016
              ],
              [
                -7.27909517288208,
                37.835243225097656
              ],
              [
                -7.14418888092041,
                38.09331130981445
              ],
              [
                -6.987714290618896,
                38.09331130981445
              ],
              [
                -6.998411178588867,
                38.22237777709961
              ],
              [
                -7.244168281555176,
                38.351463317871094
              ],
              [
                -7.271727085113525,
                38.67427444458008
              ],
              [
                -7.047373294830322,
                38.80344009399414
              ],
              [
                -6.497878551483154,
                38.80344009399414
              ],
              [
                -6.446197986602783,
                39.1264533996582
              ],
              [
                -6.169263362884521,
                39.57893371582031
              ],
              [
                -6.889771461486816,
                39.70827102661133
              ],
              [
                -7.435848712921143,
                39.64360046386719
              ],
              [
                -8.217978477478027,
                39.57893371582031
              ],
              [
                -8.363347053527832,
                39.449623107910156
              ],
              [
                -8.351198196411133,
                39.320335388183594
              ],
              [
                -8.786495208740234,
                38.93262481689453
              ],
              [
                -9.42748737335205,
                39.06184005737305
              ],
              [
                -9.433820724487305,
                39.1264533996582
              ],
              [
                -9.387048721313477,
                39.449623107910156
              ],
              [
                -9.157164573669434,
                39.51427459716797
              ],
              [
                -9.044321060180664,
                39.9670295715332
              ],
              [
                -8.965371131896973,
                39.9670295715332
              ],
              [
                -8.97181224822998,
                40.031734466552734
              ],
              [
                -8.327553749084473,
                39.90232849121094
              ],
              [
                -8.188251495361328,
                40.0964469909668
              ],
              [
                -7.647331714630127,
                40.225894927978516
              ],
              [
                -7.428216457366943,
                40.42012023925781
              ],
              [
                -7.452541351318359,
                40.6791877746582
              ],
              [
                -7.214819431304932,
                40.6791877746582
              ],
              [
                -7.239114761352539,
                40.93837356567383
              ],
              [
                -6.921718597412109,
                40.93837356567383
              ],
              [
                -6.56047248840332,
                41.32738494873047
              ],
              [
                -6.254164218902588,
                41.45711898803711
              ],
              [
                -6.271912097930908,
                41.65177917480469
              ],
              [
                -6.94645881652832,
                42.041324615478516
              ],
              [
                -6.910749912261963,
                42.496177673339844
              ],
              [
                -7.150832653045654,
                42.496177673339844
              ],
              [
                -7.176769256591797,
                42.75628662109375
              ],
              [
                -7.02943229675293,
                42.88639831542969
              ],
              [
                -7.042453289031982,
                43.016544342041016
              ],
              [
                -7.209576606750488,
                43.08163070678711
              ],
              [
                -7.236128330230713,
                43.342071533203125
              ],
              [
                -7.40369701385498,
                43.407203674316406
              ],
              [
                -7.437654972076416,
                43.73301696777344
              ],
              [
                -7.357059001922607,
                43.73301696777344
              ],
              [
                -7.276463031768799,
                43.73301696777344
              ],
              [
                -7.343485832214355,
                43.6026611328125
              ],
              [
                -7.175715446472168,
                43.53750228881836
              ],
              [
                -5.732783794403076,
                43.6026611328125
              ],
              [
                -4.990375518798828,
                43.407203674316406
              ],
              [
                -3.467212915420532,
                43.472347259521484
              ],
              [
                -3.295851230621338,
                43.342071533203125
              ],
              [
                -1.687574744224548,
                43.342071533203125
              ],
              [
                -1.459883332252502,
                43.53750228881836
              ],
              [
                -1.402047991752625,
                43.86341094970703
              ],
              [
                -1.321390628814697,
                43.86341094970703
              ],
              [
                -1.348801136016846,
                44.25482940673828
              ],
              [
                -1.267958283424377,
                44.25482940673828
              ],
              [
                -1.286344885826111,
                44.5159797668457
              ],
              [
                -1.205376982688904,
                44.5159797668457
              ],
              [
                -1.251859068870544,
                45.169586181640625
              ],
              [
                -1.170574903488159,
                45.169586181640625
              ],
              [
                -1.189373373985291,
                45.431331634521484
              ],
              [
                -1.031213998794556,
                45.496795654296875
              ],
              [
                -1.045281529426575,
                45.693260192871094
              ],
              [
                -1.213142395019531,
                45.75876998901367
              ],
              [
                -1.141096234321594,
                45.889827728271484
              ],
              [
                -1.222735166549683,
                45.889827728271484
              ],
              [
                -1.251809358596802,
                46.283294677734375
              ],
              [
                -1.666043281555176,
                46.348915100097656
              ],
              [
                -2.014399528503418,
                46.61152267456055
              ],
              [
                -2.024919986724854,
                46.74290466308594
              ],
              [
                -2.194406032562256,
                46.808616638183594
              ],
              [
                -2.139080047607422,
                47.13737487792969
              ],
              [
                -2.232228517532349,
                47.26897048950195
              ],
              [
                -2.561590671539307,
                47.26897048950195
              ],
              [
                -2.578423976898193,
                47.46647262573242
              ],
              [
                -2.825755596160889,
                47.46647262573242
              ],
              [
                -2.837259292602539,
                47.598209381103516
              ],
              [
                -3.155531167984009,
                47.46647262573242
              ],
              [
                -3.344320774078369,
                47.730003356933594
              ],
              [
                -3.757235288619995,
                47.730003356933594
              ],
              [
                -3.934937715530396,
                47.86185836791992
              ],
              [
                -4.424368858337402,
                47.79592514038086
              ],
              [
                -4.692053318023682,
                47.993770599365234
              ],
              [
                -4.705362796783447,
                48.1257438659668
              ],
              [
                -4.546383857727051,
                48.191749572753906
              ],
              [
                -4.642560005187988,
                48.323814392089844
              ],
              [
                -4.891265392303467,
                48.323814392089844
              ],
              [
                -4.911745548248291,
                48.52202224731445
              ],
              [
                -4.599917888641357,
                48.72037124633789
              ],
              [
                -3.85184383392334,
                48.72037124633789
              ],
              [
                -3.455082654953003,
                48.91886520385742
              ],
              [
                -3.122164011001587,
                48.91886520385742
              ],
              [
                -2.759404182434082,
                48.5881233215332
              ],
              [
                -2.521934509277344,
                48.72037124633789
              ],
              [
                -1.602181315422058,
                48.654239654541016
              ],
              [
                -1.718345284461975,
                49.051273345947266
              ],
              [
                -1.635041356086731,
                49.051273345947266
              ],
              [
                -1.651668906211853,
                49.2500114440918
              ],
              [
                -1.913302421569824,
                49.38258361816406
              ],
              [
                -2.031550645828247,
                49.78071212768555
              ],
              [
                -1.361783027648926,
                49.78071212768555
              ],
              [
                -1.250783205032349,
                49.44889450073242
              ],
              [
                0.007001183927059,
                49.38258361816406
              ],
              [
                -0.012448177672923,
                49.64793395996094
              ],
              [
                0.224112883210182,
                49.84712600708008
              ],
              [
                1.052847385406494,
                49.98000717163086
              ],
              [
                1.454967975616455,
                50.2459831237793
              ],
              [
                1.424705147743225,
                50.71213912963867
              ],
              [
                1.656218767166138,
                51.04566955566406
              ],
              [
                2.577829360961914,
                51.17921447753906
              ],
              [
                3.155481338500977,
                51.44654083251953
              ],
              [
                3.579142093658447,
                51.44654083251953
              ],
              [
                3.40621018409729,
                51.51342010498047
              ],
              [
                3.399252653121948,
                51.64724349975586
              ],
              [
                3.738690614700317,
                51.64724349975586
              ],
              [
                3.647099733352661,
                51.78114318847656
              ],
              [
                3.81699013710022,
                51.78114318847656
              ],
              [
                3.810401916503906,
                51.91512680053711
              ],
              [
                3.980464458465576,
                51.91512680053711
              ],
              [
                3.974021434783936,
                52.0491943359375
              ],
              [
                4.223166942596436,
                52.18334197998047
              ],
              [
                4.21693229675293,
                52.31757736206055
              ],
              [
                4.463808536529541,
                52.51908493041992
              ],
              [
                4.454747676849365,
                52.720787048339844
              ],
              [
                4.699799060821533,
                52.99003219604492
              ],
              [
                4.614058017730713,
                52.99003219604492
              ],
              [
                4.608114719390869,
                53.124786376953125
              ],
              [
                4.862768650054932,
                53.192195892333984
              ],
              [
                4.868449687957764,
                53.057395935058594
              ],
              [
                4.782663345336914,
                53.057395935058594
              ],
              [
                4.785540580749512,
                52.99003219604492
              ],
              [
                4.871281623840332,
                52.99003219604492
              ],
              [
                4.879741191864014,
                52.78806686401367
              ],
              [
                5.056382656097412,
                52.653533935546875
              ],
              [
                5.136557102203369,
                52.78806686401367
              ],
              [
                5.390830039978027,
                52.85536575317383
              ],
              [
                5.385728359222412,
                52.99003219604492
              ],
              [
                5.20894193649292,
                53.124786376953125
              ],
              [
                5.542333602905273,
                53.39456558227539
              ],
              [
                6.226210117340088,
                53.52959060668945
              ],
              [
                6.916844367980957,
                53.462066650390625
              ],
              [
                6.913325786590576,
                53.597137451171875
              ],
              [
                7.082295417785645,
                53.732303619384766
              ],
              [
                7.944795608520508,
                53.732303619384766
              ],
              [
                8.032201766967773,
                53.664710998535156
              ],
              [
                7.94840145111084,
                53.52959060668945
              ],
              [
                8.120620727539062,
                53.52959060668945
              ],
              [
                8.204607963562012,
                53.664710998535156
              ],
              [
                8.37701416015625,
                53.664710998535156
              ],
              [
                8.459527015686035,
                53.93522644042969
              ],
              [
                8.805828094482422,
                53.86756134033203
              ],
              [
                8.892172813415527,
                53.86756134033203
              ],
              [
                9.237549781799316,
                53.86756134033203
              ],
              [
                9.584169387817383,
                53.597137451171875
              ],
              [
                9.928793907165527,
                53.597137451171875
              ],
              [
                10.014796257019043,
                53.732303619384766
              ],
              [
                10.359683990478516,
                53.664710998535156
              ],
              [
                10.5331449508667,
                54.00291442871094
              ],
              [
                10.792462348937988,
                54.00291442871094
              ],
              [
                10.79210376739502,
                53.93522644042969
              ],
              [
                10.791748046875,
                53.86756134033203
              ],
              [
                10.705403327941895,
                53.86756134033203
              ],
              [
                10.705098152160645,
                53.799922943115234
              ],
              [
                10.704795837402344,
                53.732303619384766
              ],
              [
                10.791046142578125,
                53.732303619384766
              ],
              [
                10.79069995880127,
                53.664710998535156
              ],
              [
                10.790016174316406,
                53.52959060668945
              ],
              [
                10.617313385009766,
                53.39456558227539
              ],
              [
                11.132387161254883,
                53.25962829589844
              ],
              [
                11.21831226348877,
                53.25962829589844
              ],
              [
                11.217759132385254,
                53.192195892333984
              ],
              [
                11.303637504577637,
                53.192195892333984
              ],
              [
                11.38951587677002,
                53.192195892333984
              ],
              [
                11.388239860534668,
                53.057395935058594
              ],
              [
                11.216126441955566,
                52.99003219604492
              ],
              [
                10.787421226501465,
                52.99003219604492
              ],
              [
                10.786507606506348,
                52.78806686401367
              ],
              [
                10.872113227844238,
                52.78806686401367
              ],
              [
                10.871770858764648,
                52.720787048339844
              ],
              [
                10.870770454406738,
                52.51908493041992
              ],
              [
                10.614492416381836,
                52.51908493041992
              ],
              [
                10.69944953918457,
                52.38472366333008
              ],
              [
                9.845865249633789,
                52.4518928527832
              ],
              [
                9.760738372802734,
                52.38472366333008
              ],
              [
                9.846723556518555,
                52.18334197998047
              ],
              [
                9.591107368469238,
                52.18334197998047
              ],
              [
                9.676621437072754,
                52.11625671386719
              ],
              [
                9.592172622680664,
                51.98215103149414
              ],
              [
                8.91228199005127,
                51.91512680053711
              ],
              [
                8.825004577636719,
                52.11625671386719
              ],
              [
                8.570398330688477,
                52.0491943359375
              ],
              [
                8.739053726196289,
                52.18334197998047
              ],
              [
                8.737476348876953,
                52.31757736206055
              ],
              [
                7.976937294006348,
                51.91512680053711
              ],
              [
                7.891906261444092,
                51.91512680053711
              ],
              [
                7.806874752044678,
                51.91512680053711
              ],
              [
                7.808143615722656,
                51.84812545776367
              ],
              [
                7.723155498504639,
                51.84812545776367
              ],
              [
                6.71241569519043,
                51.51342010498047
              ],
              [
                6.719674110412598,
                51.24601745605469
              ],
              [
                6.892337799072266,
                51.112430572509766
              ],
              [
                6.899223804473877,
                50.84549331665039
              ],
              [
                7.071211338043213,
                50.71213912963867
              ],
              [
                7.077744960784912,
                50.445655822753906
              ],
              [
                7.328577518463135,
                50.51224899291992
              ],
              [
                7.336133480072021,
                50.17946243286133
              ],
              [
                7.762485027313232,
                49.84712600708008
              ],
              [
                8.181282997131348,
                49.84712600708008
              ],
              [
                8.182406425476074,
                49.78071212768555
              ],
              [
                8.266127586364746,
                49.78071212768555
              ],
              [
                8.267212867736816,
                49.71431350708008
              ],
              [
                8.268299102783203,
                49.64793395996094
              ],
              [
                8.351943016052246,
                49.64793395996094
              ],
              [
                8.35299301147461,
                49.58156967163086
              ],
              [
                8.115007400512695,
                48.852684020996094
              ],
              [
                7.705782890319824,
                48.52202224731445
              ],
              [
                7.633763790130615,
                47.993770599365234
              ],
              [
                7.551040172576904,
                47.993770599365234
              ],
              [
                7.559404373168945,
                47.598209381103516
              ],
              [
                7.39728307723999,
                47.46647262573242
              ],
              [
                6.983439445495605,
                47.53233337402344
              ],
              [
                6.912492275238037,
                47.07159423828125
              ],
              [
                7.080090999603271,
                46.94007873535156
              ],
              [
                6.424554824829102,
                46.87434005737305
              ],
              [
                6.103800296783447,
                46.61152267456055
              ],
              [
                6.033519744873047,
                46.21768569946289
              ],
              [
                6.273390769958496,
                46.414546966552734
              ],
              [
                6.92860746383667,
                46.414546966552734
              ],
              [
                7.01361083984375,
                46.283294677734375
              ],
              [
                7.177282333374023,
                46.283294677734375
              ],
              [
                7.745107173919678,
                46.54585266113281
              ],
              [
                8.154950141906738,
                46.54585266113281
              ],
              [
                8.316819190979004,
                46.677207946777344
              ],
              [
                8.39885425567627,
                46.677207946777344
              ],
              [
                8.40284538269043,
                46.414546966552734
              ],
              [
                8.078590393066406,
                46.21768569946289
              ],
              [
                8.000204086303711,
                46.02093505859375
              ],
              [
                8.001335144042969,
                45.95537567138672
              ],
              [
                8.164677619934082,
                45.95537567138672
              ],
              [
                8.412568092346191,
                45.75876998901367
              ],
              [
                8.41446304321289,
                45.62776184082031
              ],
              [
                8.578357696533203,
                45.56227111816406
              ],
              [
                8.664804458618164,
                45.169586181640625
              ],
              [
                9.965350151062012,
                45.169586181640625
              ],
              [
                10.290996551513672,
                44.973392486572266
              ],
              [
                10.291471481323242,
                44.77729415893555
              ],
              [
                10.048676490783691,
                44.64661407470703
              ],
              [
                10.049148559570312,
                44.5159797668457
              ],
              [
                9.644696235656738,
                44.45067596435547
              ],
              [
                9.64546012878418,
                44.32010269165039
              ],
              [
                9.969700813293457,
                44.12431716918945
              ],
              [
                9.888919830322266,
                44.12431716918945
              ],
              [
                9.565396308898926,
                44.18956756591797
              ],
              [
                9.159077644348145,
                44.45067596435547
              ],
              [
                8.592522621154785,
                44.45067596435547
              ],
              [
                8.191595077514648,
                44.18956756591797
              ],
              [
                8.033902168273926,
                43.92862319946289
              ],
              [
                7.150246143341064,
                43.73301696777344
              ],
              [
                6.993107318878174,
                43.53750228881836
              ],
              [
                6.67255163192749,
                43.472347259521484
              ],
              [
                6.517646789550781,
                43.211830139160156
              ],
              [
                6.278174877166748,
                43.146724700927734
              ],
              [
                5.796233177185059,
                43.146724700927734
              ],
              [
                5.631923198699951,
                43.276947021484375
              ],
              [
                5.390771865844727,
                43.276947021484375
              ],
              [
                5.386905193328857,
                43.407203674316406
              ],
              [
                5.063065528869629,
                43.472347259521484
              ],
              [
                4.177847862243652,
                43.472347259521484
              ],
              [
                4.173032760620117,
                43.6026611328125
              ],
              [
                3.692415952682495,
                43.53750228881836
              ],
              [
                3.617136240005493,
                43.407203674316406
              ],
              [
                2.984907388687134,
                43.146724700927734
              ],
              [
                3.009923458099365,
                42.56119155883789
              ],
              [
                3.178062200546265,
                42.36617660522461
              ],
              [
                3.116764783859253,
                41.911441802978516
              ],
              [
                2.572504997253418,
                41.586883544921875
              ],
              [
                2.333626985549927,
                41.586883544921875
              ],
              [
                2.106574535369873,
                41.32738494873047
              ],
              [
                1.238392949104309,
                41.19768524169922
              ],
              [
                0.695793092250824,
                40.93837356567383
              ],
              [
                0.709256291389465,
                40.6791877746582
              ],
              [
                0.247769102454185,
                40.42012023925781
              ],
              [
                0.182543575763702,
                40.16116714477539
              ],
              [
                -0.201878547668457,
                39.9670295715332
              ],
              [
                -0.266573429107666,
                39.70827102661133
              ],
              [
                -0.345421016216278,
                39.70827102661133
              ],
              [
                -0.438729703426361,
                39.9670295715332
              ],
              [
                -0.844826400279999,
                40.16116714477539
              ],
              [
                -1.192521810531616,
                40.6791877746582
              ],
              [
                -1.588725686073303,
                40.6791877746582
              ],
              [
                -1.914183259010315,
                40.80876541137695
              ],
              [
                -2.544071435928345,
                40.74397277832031
              ],
              [
                -2.759318113327026,
                40.42012023925781
              ],
              [
                -2.710848808288574,
                39.70827102661133
              ],
              [
                -2.53189492225647,
                39.38497543334961
              ],
              [
                -2.577055931091309,
                38.8680305480957
              ],
              [
                -3.022679567337036,
                38.48057174682617
              ],
              [
                -3.179437398910522,
                38.48057174682617
              ],
              [
                -3.17518138885498,
                38.416015625
              ],
              [
                -3.253536462783813,
                38.416015625
              ]
            ]
          ],
          [
            [
              [
                9.5735502243042,
                42.75628662109375
              ],
              [
                9.577608108520508,
                41.97637939453125
              ],
              [
                9.497812271118164,
                41.97637939453125
              ],
              [
                9.49889087677002,
                41.781593322753906
              ],
              [
                9.262411117553711,
                41.39224624633789
              ],
              [
                9.1038236618042,
                41.32738494873047
              ],
              [
                8.783942222595215,
                41.521995544433594
              ],
              [
                8.782108306884766,
                41.71668243408203
              ],
              [
                8.622743606567383,
                41.71668243408203
              ],
              [
                8.700496673583984,
                41.911441802978516
              ],
              [
                8.538846015930176,
                42.10627746582031
              ],
              [
                8.534564018249512,
                42.496177673339844
              ],
              [
                8.772740364074707,
                42.691246032714844
              ],
              [
                9.17282485961914,
                42.75628662109375
              ],
              [
                9.251097679138184,
                43.016544342041016
              ],
              [
                9.331360816955566,
                43.016544342041016
              ],
              [
                9.491888999938965,
                43.016544342041016
              ],
              [
                9.49340534210205,
                42.75628662109375
              ],
              [
                9.5735502243042,
                42.75628662109375
              ]
            ]
          ],
          [
            [
              [
                10.21481990814209,
                42.691246032714844
              ],
              [
                10.134284973144531,
                42.88639831542969
              ],
              [
                10.214488983154297,
                42.88639831542969
              ],
              [
                10.45510196685791,
                42.88639831542969
              ],
              [
                10.455166816711426,
                42.691246032714844
              ],
              [
                10.21481990814209,
                42.691246032714844
              ]
            ]
          ],
          [
            [
              [
                9.889463424682617,
                43.99384307861328
              ],
              [
                9.889193534851074,
                44.05907440185547
              ],
              [
                9.969943046569824,
                44.05907440185547
              ],
              [
                9.970182418823242,
                43.99384307861328
              ],
              [
                9.889463424682617,
                43.99384307861328
              ]
            ]
          ],
          [
            [
              [
                45.1494255065918,
                -12.764715194702148
              ],
              [
                45.086097717285156,
                -13.021865844726562
              ],
              [
                45.01277160644531,
                -13.021865844726562
              ],
              [
                44.9394416809082,
                -13.021865844726562
              ],
              [
                44.92706298828125,
                -12.700428009033203
              ],
              [
                45.1494255065918,
                -12.764715194702148
              ]
            ]
          ],
          [
            [
              [
                43.738128662109375,
                -12.250414848327637
              ],
              [
                43.7426643371582,
                -12.378990173339844
              ],
              [
                43.74495315551758,
                -12.443277359008789
              ],
              [
                43.5228385925293,
                -12.378990173339844
              ],
              [
                43.518333435058594,
                -12.250414848327637
              ],
              [
                43.738128662109375,
                -12.250414848327637
              ]
            ]
          ],
          [
            [
              [
                44.40447235107422,
                -12.443277359008789
              ],
              [
                44.33119201660156,
                -12.443277359008789
              ],
              [
                44.175437927246094,
                -12.186127662658691
              ],
              [
                44.46847915649414,
                -12.186127662658691
              ],
              [
                44.477752685546875,
                -12.443277359008789
              ],
              [
                44.40447235107422,
                -12.443277359008789
              ]
            ]
          ],
          [
            [
              [
                43.341915130615234,
                -11.35038948059082
              ],
              [
                43.3608283996582,
                -11.928977012634277
              ],
              [
                43.21220397949219,
                -11.864689826965332
              ],
              [
                43.13896560668945,
                -11.864689826965332
              ],
              [
                43.05732345581055,
                -11.607540130615234
              ],
              [
                43.13053894042969,
                -11.607540130615234
              ],
              [
                43.122318267822266,
                -11.35038948059082
              ],
              [
                43.341915130615234,
                -11.35038948059082
              ]
            ]
          ],
          [
            [
              [
                18.85202980041504,
                42.36617660522461
              ],
              [
                18.77206039428711,
                42.36617660522461
              ],
              [
                18.143457412719727,
                42.62621307373047
              ],
              [
                17.83389663696289,
                42.88639831542969
              ],
              [
                17.593284606933594,
                42.88639831542969
              ],
              [
                17.50791358947754,
                42.75628662109375
              ],
              [
                17.515670776367188,
                42.95146560668945
              ],
              [
                17.35520362854004,
                42.95146560668945
              ],
              [
                17.36028289794922,
                43.08163070678711
              ],
              [
                17.362831115722656,
                43.146724700927734
              ],
              [
                17.595905303955078,
                42.95146560668945
              ],
              [
                18.080114364624023,
                43.016544342041016
              ],
              [
                18.232065200805664,
                42.82133865356445
              ],
              [
                18.229217529296875,
                42.75628662109375
              ],
              [
                18.386608123779297,
                42.691246032714844
              ],
              [
                18.71311378479004,
                42.82133865356445
              ],
              [
                18.85202980041504,
                42.36617660522461
              ]
            ]
          ],
          [
            [
              [
                12.853484153747559,
                42.30118942260742
              ],
              [
                13.00974178314209,
                42.041324615478516
              ],
              [
                13.328027725219727,
                41.97637939453125
              ],
              [
                13.40574836730957,
                41.84651184082031
              ],
              [
                13.804443359375,
                41.84651184082031
              ],
              [
                13.96146297454834,
                41.71668243408203
              ],
              [
                14.03740406036377,
                41.521995544433594
              ],
              [
                13.792884826660156,
                41.19768524169922
              ],
              [
                13.71342658996582,
                41.19768524169922
              ],
              [
                13.397590637207031,
                41.32738494873047
              ],
              [
                13.000019073486328,
                41.32738494873047
              ],
              [
                12.922186851501465,
                41.45711898803711
              ],
              [
                12.604641914367676,
                41.521995544433594
              ],
              [
                12.130502700805664,
                41.911441802978516
              ],
              [
                12.131669044494629,
                42.041324615478516
              ],
              [
                11.733430862426758,
                42.17123794555664
              ],
              [
                11.654799461364746,
                42.36617660522461
              ],
              [
                11.494501113891602,
                42.30118942260742
              ],
              [
                11.415224075317383,
                42.43117141723633
              ],
              [
                11.255227088928223,
                42.43117141723633
              ],
              [
                11.175962448120117,
                42.62621307373047
              ],
              [
                11.015789985656738,
                42.62621307373047
              ],
              [
                11.01634693145752,
                42.82133865356445
              ],
              [
                10.535322189331055,
                43.08163070678711
              ],
              [
                10.374164581298828,
                43.6678352355957
              ],
              [
                10.212624549865723,
                43.86341094970703
              ],
              [
                10.212483406066895,
                43.92862319946289
              ],
              [
                10.53525447845459,
                43.86341094970703
              ],
              [
                10.53516674041748,
                44.12431716918945
              ],
              [
                11.505900382995605,
                44.38538360595703
              ],
              [
                11.746440887451172,
                44.05907440185547
              ],
              [
                11.988690376281738,
                44.05907440185547
              ],
              [
                12.309718132019043,
                43.86341094970703
              ],
              [
                12.225911140441895,
                43.53750228881836
              ],
              [
                12.386920928955078,
                43.53750228881836
              ],
              [
                12.62608528137207,
                43.342071533203125
              ],
              [
                12.94774055480957,
                43.342071533203125
              ],
              [
                13.028154373168945,
                43.342071533203125
              ],
              [
                13.180078506469727,
                42.75628662109375
              ],
              [
                12.856051445007324,
                42.496177673339844
              ],
              [
                12.853484153747559,
                42.30118942260742
              ]
            ]
          ],
          [
            [
              [
                14.260871887207031,
                44.58129119873047
              ],
              [
                14.269240379333496,
                44.973392486572266
              ],
              [
                14.350428581237793,
                44.973392486572266
              ],
              [
                14.51131820678711,
                44.908016204833984
              ],
              [
                14.502378463745117,
                44.5159797668457
              ],
              [
                14.260871887207031,
                44.58129119873047
              ]
            ]
          ],
          [
            [
              [
                16.39789581298828,
                45.496795654296875
              ],
              [
                16.642229080200195,
                45.496795654296875
              ],
              [
                16.80035400390625,
                45.36587905883789
              ],
              [
                16.795595169067383,
                45.23500442504883
              ],
              [
                16.4703311920166,
                45.23500442504883
              ],
              [
                16.219921112060547,
                45.03877639770508
              ],
              [
                15.982434272766113,
                45.23500442504883
              ],
              [
                15.819802284240723,
                45.23500442504883
              ],
              [
                15.803844451904297,
                44.71194839477539
              ],
              [
                16.19840431213379,
                44.38538360595703
              ],
              [
                16.268434524536133,
                44.05907440185547
              ],
              [
                16.429935455322266,
                44.05907440185547
              ],
              [
                16.819412231445312,
                43.6678352355957
              ],
              [
                16.98054313659668,
                43.6678352355957
              ],
              [
                17.36538314819336,
                43.211830139160156
              ],
              [
                17.2850284576416,
                43.211830139160156
              ],
              [
                17.12186050415039,
                43.146724700927734
              ],
              [
                17.05129051208496,
                43.407203674316406
              ],
              [
                16.727190017700195,
                43.342071533203125
              ],
              [
                16.734172821044922,
                43.53750228881836
              ],
              [
                16.575437545776367,
                43.6026611328125
              ],
              [
                15.927099227905273,
                43.472347259521484
              ],
              [
                16.01169204711914,
                43.6026611328125
              ],
              [
                15.856636047363281,
                43.79821014404297
              ],
              [
                15.695383071899414,
                43.79821014404297
              ],
              [
                15.618592262268066,
                43.92862319946289
              ],
              [
                15.374701499938965,
                43.86341094970703
              ],
              [
                15.459075927734375,
                43.99384307861328
              ],
              [
                15.218687057495117,
                44.05907440185547
              ],
              [
                15.146636962890625,
                44.38538360595703
              ],
              [
                14.908865928649902,
                44.58129119873047
              ],
              [
                14.91874885559082,
                44.973392486572266
              ],
              [
                14.515777587890625,
                45.10417556762695
              ],
              [
                14.603090286254883,
                45.36587905883789
              ],
              [
                14.196189880371094,
                45.36587905883789
              ],
              [
                14.189410209655762,
                45.03877639770508
              ],
              [
                13.945749282836914,
                45.03877639770508
              ],
              [
                13.943220138549805,
                44.908016204833984
              ],
              [
                13.780906677246094,
                44.908016204833984
              ],
              [
                13.705584526062012,
                45.23500442504883
              ],
              [
                13.544051170349121,
                45.300437927246094
              ],
              [
                13.547340393066406,
                45.496795654296875
              ],
              [
                13.710229873657227,
                45.496795654296875
              ],
              [
                13.714865684509277,
                45.75876998901367
              ],
              [
                13.389599800109863,
                45.82429504394531
              ],
              [
                13.307992935180664,
                45.82429504394531
              ],
              [
                13.31197738647461,
                46.08650588989258
              ],
              [
                13.47651481628418,
                46.1520881652832
              ],
              [
                13.397838592529297,
                46.348915100097656
              ],
              [
                13.562676429748535,
                46.414546966552734
              ],
              [
                13.564879417419434,
                46.54585266113281
              ],
              [
                12.58195972442627,
                46.61152267456055
              ],
              [
                12.173563957214355,
                46.808616638183594
              ],
              [
                12.174103736877441,
                46.87434005737305
              ],
              [
                12.174644470214844,
                46.94007873535156
              ],
              [
                12.175186157226562,
                47.005828857421875
              ],
              [
                12.175729751586914,
                47.07159423828125
              ],
              [
                14.889586448669434,
                47.07159423828125
              ],
              [
                14.887921333312988,
                47.005828857421875
              ],
              [
                15.129260063171387,
                46.808616638183594
              ],
              [
                15.19543743133545,
                46.21768569946289
              ],
              [
                16.323030471801758,
                45.693260192871094
              ],
              [
                16.39789581298828,
                45.496795654296875
              ]
            ]
          ],
          [
            [
              [
                10.780385971069336,
                51.112430572509766
              ],
              [
                10.864909172058105,
                51.112430572509766
              ],
              [
                10.864250183105469,
                50.912200927734375
              ],
              [
                10.695452690124512,
                50.912200927734375
              ],
              [
                10.695862770080566,
                51.112430572509766
              ],
              [
                10.780385971069336,
                51.112430572509766
              ]
            ]
          ]
        ]
      }
    }
  ]
}