{
  "type": "FeatureCollection",
  "name": "territory-771",
  "features": [
    {
      "type": "Feature",
      "properties": {
        "Name": "Serbs",
        "FromYear": 1912,
        "ToYear": 1912,
        "Area": 90659.80609963546,
        "Type": "POLITY",
        "Wikipedia": "Serbs",
        "Wikidata": "Q127885",
        "SeshatID": "",
        "Components": "",
        "MemberOf": ""
      },
      "geometry": {
        "type": "MultiPolygon",
        "coordinates": [
          [
            [
              [
                19.440670013427734,
                41.32738494873047
              ],
              [
                19.520183563232422,
                41.32738494873047
              ],
              [
                19.517045974731445,
                41.26253128051758
              ],
              [
                19.437559127807617,
                41.26253128051758
              ],
              [
                19.440670013427734,
                41.32738494873047
              ]
            ]
          ],
          [
            [
              [
                22.65691566467285,
                44.18956756591797
              ],
              [
                22.400911331176758,
                43.99384307861328
              ],
              [
                22.373964309692383,
                43.6026611328125
              ],
              [
                22.75822639465332,
                43.342071533203125
              ],
              [
                22.749074935913086,
                43.211830139160156
              ],
              [
                22.583864212036133,
                43.146724700927734
              ],
              [
                22.468109130859375,
                42.62621307373047
              ],
              [
                22.303613662719727,
                42.56119155883789
              ],
              [
                22.290706634521484,
                42.36617660522461
              ],
              [
                22.210737228393555,
                42.36617660522461
              ],
              [
                22.286426544189453,
                42.30118942260742
              ],
              [
                22.18121910095215,
                41.911441802978516
              ],
              [
                22.332313537597656,
                41.781593322753906
              ],
              [
                22.08087158203125,
                41.586883544921875
              ],
              [
                22.07272720336914,
                41.45711898803711
              ],
              [
                22.227760314941406,
                41.39224624633789
              ],
              [
                22.215518951416016,
                41.19768524169922
              ],
              [
                21.07770347595215,
                40.74397277832031
              ],
              [
                20.54340934753418,
                41.132843017578125
              ],
              [
                20.5573787689209,
                41.39224624633789
              ],
              [
                20.40872573852539,
                41.586883544921875
              ],
              [
                19.520183563232422,
                41.32738494873047
              ],
              [
                19.523332595825195,
                41.39224624633789
              ],
              [
                19.443790435791016,
                41.39224624633789
              ],
              [
                19.529659271240234,
                41.521995544433594
              ],
              [
                19.456375122070312,
                41.65177917480469
              ],
              [
                19.54244041442871,
                41.781593322753906
              ],
              [
                19.46272850036621,
                41.781593322753906
              ],
              [
                19.465919494628906,
                41.84651184082031
              ],
              [
                19.708423614501953,
                41.911441802978516
              ],
              [
                19.891630172729492,
                42.36617660522461
              ],
              [
                20.21504020690918,
                42.43117141723633
              ],
              [
                20.218584060668945,
                42.496177673339844
              ],
              [
                20.54973030090332,
                42.691246032714844
              ],
              [
                20.090267181396484,
                43.08163070678711
              ],
              [
                19.38084602355957,
                43.342071533203125
              ],
              [
                19.31032371520996,
                43.53750228881836
              ],
              [
                19.474700927734375,
                43.6026611328125
              ],
              [
                19.410938262939453,
                43.92862319946289
              ],
              [
                19.498432159423828,
                44.05907440185547
              ],
              [
                19.107723236083984,
                44.32010269165039
              ],
              [
                19.117544174194336,
                44.5159797668457
              ],
              [
                19.380733489990234,
                44.908016204833984
              ],
              [
                19.624204635620117,
                44.908016204833984
              ],
              [
                19.856950759887695,
                44.71194839477539
              ],
              [
                20.019073486328125,
                44.71194839477539
              ],
              [
                20.114822387695312,
                44.973392486572266
              ],
              [
                20.280941009521484,
                45.03877639770508
              ],
              [
                20.52076530456543,
                44.973392486572266
              ],
              [
                20.590364456176758,
                44.77729415893555
              ],
              [
                20.748632431030273,
                44.71194839477539
              ],
              [
                21.40547752380371,
                44.842647552490234
              ],
              [
                21.879146575927734,
                44.64661407470703
              ],
              [
                21.951416015625,
                44.5159797668457
              ],
              [
                22.275287628173828,
                44.5159797668457
              ],
              [
                22.531999588012695,
                44.71194839477539
              ],
              [
                22.689453125,
                44.64661407470703
              ],
              [
                22.518192291259766,
                44.5159797668457
              ],
              [
                22.50443458557129,
                44.32010269165039
              ],
              [
                22.65691566467285,
                44.18956756591797
              ]
            ]
          ]
        ]
      }
    }
  ]
}