{
  "type": "FeatureCollection",
  "name": "territory-772",
  "features": [
    {
      "type": "Feature",
      "properties": {
        "Name": "Austrian Empire",
        "FromYear": 1856,
        "ToYear": 1856,
        "Area": 810973.0032425548,
        "Type": "POLITY",
        "Wikipedia": "Austrian Empire",
        "Wikidata": "Q131964",
        "SeshatID": "at_habsburg_2",
        "Components": "",
        "MemberOf": ""
      },
      "geometry": {
        "type": "MultiPolygon",
        "coordinates": [
          [
            [
              [
                18.226377487182617,
                42.691246032714844
              ],
              [
                18.306493759155273,
                42.691246032714844
              ],
              [
                18.386608123779297,
                42.691246032714844
              ],
              [
                18.389509201049805,
                42.75628662109375
              ],
              [
                18.469654083251953,
                42.75628662109375
              ],
              [
                18.47258949279785,
                42.82133865356445
              ],
              [
                18.71311378479004,
                42.82133865356445
              ],
              [
                18.85202980041504,
                42.36617660522461
              ],
              [
                18.77206039428711,
                42.36617660522461
              ],
              [
                18.143457412719727,
                42.62621307373047
              ],
              [
                17.83389663696289,
                42.88639831542969
              ],
              [
                17.593284606933594,
                42.88639831542969
              ],
              [
                17.50791358947754,
                42.75628662109375
              ],
              [
                17.515670776367188,
                42.95146560668945
              ],
              [
                17.35520362854004,
                42.95146560668945
              ],
              [
                17.36028289794922,
                43.08163070678711
              ],
              [
                17.362831115722656,
                43.146724700927734
              ],
              [
                17.595905303955078,
                42.95146560668945
              ],
              [
                18.080114364624023,
                43.016544342041016
              ],
              [
                18.232065200805664,
                42.82133865356445
              ],
              [
                18.229217529296875,
                42.75628662109375
              ],
              [
                18.226377487182617,
                42.691246032714844
              ]
            ]
          ],
          [
            [
              [
                10.45510196685791,
                42.88639831542969
              ],
              [
                10.455166816711426,
                42.691246032714844
              ],
              [
                10.21481990814209,
                42.691246032714844
              ],
              [
                10.134284973144531,
                42.88639831542969
              ],
              [
                10.214488983154297,
                42.88639831542969
              ],
              [
                10.45510196685791,
                42.88639831542969
              ]
            ]
          ],
          [
            [
              [
                11.656058311462402,
                42.56119155883789
              ],
              [
                11.574831008911133,
                42.36617660522461
              ],
              [
                11.494861602783203,
                42.36617660522461
              ],
              [
                11.255227088928223,
                42.43117141723633
              ],
              [
                11.175962448120117,
                42.62621307373047
              ],
              [
                11.015789985656738,
                42.62621307373047
              ],
              [
                11.01634693145752,
                42.82133865356445
              ],
              [
                10.535322189331055,
                43.08163070678711
              ],
              [
                10.293281555175781,
                43.86341094970703
              ],
              [
                10.13144302368164,
                44.05907440185547
              ],
              [
                9.969943046569824,
                44.05907440185547
              ],
              [
                9.969700813293457,
                44.12431716918945
              ],
              [
                10.615947723388672,
                44.12431716918945
              ],
              [
                10.858479499816895,
                44.25482940673828
              ],
              [
                11.505900382995605,
                44.38538360595703
              ],
              [
                11.746440887451172,
                44.05907440185547
              ],
              [
                11.988690376281738,
                44.05907440185547
              ],
              [
                12.309718132019043,
                43.86341094970703
              ],
              [
                12.307077407836914,
                43.6026611328125
              ],
              [
                12.144805908203125,
                43.472347259521484
              ],
              [
                12.0580472946167,
                42.75628662109375
              ],
              [
                11.97790241241455,
                42.75628662109375
              ],
              [
                11.656058311462402,
                42.56119155883789
              ]
            ]
          ],
          [
            [
              [
                14.502378463745117,
                44.5159797668457
              ],
              [
                14.260871887207031,
                44.58129119873047
              ],
              [
                14.269240379333496,
                44.973392486572266
              ],
              [
                14.350428581237793,
                44.973392486572266
              ],
              [
                14.51131820678711,
                44.908016204833984
              ],
              [
                14.502378463745117,
                44.5159797668457
              ]
            ]
          ],
          [
            [
              [
                20.51714324951172,
                50.17946243286133
              ],
              [
                21.02581787109375,
                50.2459831237793
              ],
              [
                21.477136611938477,
                50.64549255371094
              ],
              [
                21.735273361206055,
                50.71213912963867
              ],
              [
                21.74620246887207,
                50.84549331665039
              ],
              [
                21.99927520751953,
                50.84549331665039
              ],
              [
                21.988101959228516,
                50.71213912963867
              ],
              [
                22.15102195739746,
                50.64549255371094
              ],
              [
                23.764331817626953,
                50.77880859375
              ],
              [
                24.00420570373535,
                50.64549255371094
              ],
              [
                24.341148376464844,
                50.64549255371094
              ],
              [
                24.566909790039062,
                50.37908172607422
              ],
              [
                25.07135772705078,
                50.37908172607422
              ],
              [
                25.29567527770996,
                50.11296081542969
              ],
              [
                25.722383499145508,
                50.17946243286133
              ],
              [
                25.701093673706055,
                49.98000717163086
              ],
              [
                25.854578018188477,
                49.84712600708008
              ],
              [
                25.841760635375977,
                48.91886520385742
              ],
              [
                25.924989700317383,
                48.91886520385742
              ],
              [
                25.904876708984375,
                48.72037124633789
              ],
              [
                26.140729904174805,
                48.5881233215332
              ],
              [
                26.26645278930664,
                48.191749572753906
              ],
              [
                26.853185653686523,
                48.257774353027344
              ],
              [
                27.23225212097168,
                47.92780685424805
              ],
              [
                27.431140899658203,
                47.46647262573242
              ],
              [
                27.890256881713867,
                47.13737487792969
              ],
              [
                27.876171112060547,
                47.005828857421875
              ],
              [
                28.108566284179688,
                46.87434005737305
              ],
              [
                28.094419479370117,
                46.74290466308594
              ],
              [
                28.24434471130371,
                46.61152267456055
              ],
              [
                28.120285034179688,
                46.21768569946289
              ],
              [
                28.11903953552246,
                45.431331634521484
              ],
              [
                27.868051528930664,
                45.36587905883789
              ],
              [
                27.847858428955078,
                45.169586181640625
              ],
              [
                27.99687957763672,
                45.03877639770508
              ],
              [
                27.969886779785156,
                44.77729415893555
              ],
              [
                27.801036834716797,
                44.71194839477539
              ],
              [
                27.787734985351562,
                44.58129119873047
              ],
              [
                27.943035125732422,
                44.5159797668457
              ],
              [
                27.916336059570312,
                44.25482940673828
              ],
              [
                27.492671966552734,
                44.05907440185547
              ],
              [
                26.281423568725586,
                44.05907440185547
              ],
              [
                25.84855079650879,
                43.73301696777344
              ],
              [
                25.353763580322266,
                43.6026611328125
              ],
              [
                24.881397247314453,
                43.73301696777344
              ],
              [
                24.15087890625,
                43.6678352355957
              ],
              [
                23.601760864257812,
                43.86341094970703
              ],
              [
                22.951791763305664,
                43.79821014404297
              ],
              [
                22.894636154174805,
                44.12431716918945
              ],
              [
                22.65691566467285,
                44.18956756591797
              ],
              [
                22.50443458557129,
                44.32010269165039
              ],
              [
                22.518192291259766,
                44.5159797668457
              ],
              [
                22.689453125,
                44.64661407470703
              ],
              [
                21.951416015625,
                44.5159797668457
              ],
              [
                21.879146575927734,
                44.64661407470703
              ],
              [
                21.40547752380371,
                44.842647552490234
              ],
              [
                20.748632431030273,
                44.71194839477539
              ],
              [
                20.590364456176758,
                44.77729415893555
              ],
              [
                20.52076530456543,
                44.973392486572266
              ],
              [
                20.280941009521484,
                45.03877639770508
              ],
              [
                20.114822387695312,
                44.973392486572266
              ],
              [
                20.019073486328125,
                44.71194839477539
              ],
              [
                19.856950759887695,
                44.71194839477539
              ],
              [
                19.624204635620117,
                44.908016204833984
              ],
              [
                19.296220779418945,
                44.842647552490234
              ],
              [
                19.14055824279785,
                44.973392486572266
              ],
              [
                18.890594482421875,
                44.842647552490234
              ],
              [
                18.57839012145996,
                45.10417556762695
              ],
              [
                17.76310920715332,
                45.03877639770508
              ],
              [
                17.120859146118164,
                45.23500442504883
              ],
              [
                16.4703311920166,
                45.23500442504883
              ],
              [
                16.219921112060547,
                45.03877639770508
              ],
              [
                15.982434272766113,
                45.23500442504883
              ],
              [
                15.819802284240723,
                45.23500442504883
              ],
              [
                15.803844451904297,
                44.71194839477539
              ],
              [
                16.19840431213379,
                44.38538360595703
              ],
              [
                16.268434524536133,
                44.05907440185547
              ],
              [
                16.429935455322266,
                44.05907440185547
              ],
              [
                16.819412231445312,
                43.6678352355957
              ],
              [
                16.98054313659668,
                43.6678352355957
              ],
              [
                17.36538314819336,
                43.211830139160156
              ],
              [
                17.2850284576416,
                43.211830139160156
              ],
              [
                17.12186050415039,
                43.146724700927734
              ],
              [
                17.05129051208496,
                43.407203674316406
              ],
              [
                16.727190017700195,
                43.342071533203125
              ],
              [
                16.734172821044922,
                43.53750228881836
              ],
              [
                16.575437545776367,
                43.6026611328125
              ],
              [
                15.927099227905273,
                43.472347259521484
              ],
              [
                16.01169204711914,
                43.6026611328125
              ],
              [
                15.856636047363281,
                43.79821014404297
              ],
              [
                15.695383071899414,
                43.79821014404297
              ],
              [
                15.618592262268066,
                43.92862319946289
              ],
              [
                15.374701499938965,
                43.86341094970703
              ],
              [
                15.459075927734375,
                43.99384307861328
              ],
              [
                15.218687057495117,
                44.05907440185547
              ],
              [
                15.146636962890625,
                44.38538360595703
              ],
              [
                14.908865928649902,
                44.58129119873047
              ],
              [
                14.91874885559082,
                44.973392486572266
              ],
              [
                14.515777587890625,
                45.10417556762695
              ],
              [
                14.603090286254883,
                45.36587905883789
              ],
              [
                14.196189880371094,
                45.36587905883789
              ],
              [
                14.189410209655762,
                45.03877639770508
              ],
              [
                13.945749282836914,
                45.03877639770508
              ],
              [
                13.943220138549805,
                44.908016204833984
              ],
              [
                13.780906677246094,
                44.908016204833984
              ],
              [
                13.705584526062012,
                45.23500442504883
              ],
              [
                13.544051170349121,
                45.300437927246094
              ],
              [
                13.547340393066406,
                45.496795654296875
              ],
              [
                13.710229873657227,
                45.496795654296875
              ],
              [
                13.714865684509277,
                45.75876998901367
              ],
              [
                13.144780158996582,
                45.82429504394531
              ],
              [
                13.060476303100586,
                45.62776184082031
              ],
              [
                12.816752433776855,
                45.693260192871094
              ],
              [
                12.652192115783691,
                45.56227111816406
              ],
              [
                12.162785530090332,
                45.496795654296875
              ],
              [
                12.160021781921387,
                45.169586181640625
              ],
              [
                12.40256118774414,
                45.03877639770508
              ],
              [
                12.399906158447266,
                44.77729415893555
              ],
              [
                12.23771858215332,
                44.77729415893555
              ],
              [
                12.238323211669922,
                44.842647552490234
              ],
              [
                12.239523887634277,
                44.973392486572266
              ],
              [
                11.34644889831543,
                44.973392486572266
              ],
              [
                10.453373908996582,
                44.973392486572266
              ],
              [
                9.80278205871582,
                45.169586181640625
              ],
              [
                9.31507682800293,
                45.169586181640625
              ],
              [
                9.234965324401855,
                45.03877639770508
              ],
              [
                8.582672119140625,
                45.23500442504883
              ],
              [
                8.578357696533203,
                45.56227111816406
              ],
              [
                8.41446304321289,
                45.62776184082031
              ],
              [
                8.41065502166748,
                45.889827728271484
              ],
              [
                8.570320129394531,
                46.1520881652832
              ],
              [
                8.98212718963623,
                45.889827728271484
              ],
              [
                9.303140640258789,
                46.480194091796875
              ],
              [
                10.041536331176758,
                46.283294677734375
              ],
              [
                10.122788429260254,
                46.414546966552734
              ],
              [
                10.040886878967285,
                46.414546966552734
              ],
              [
                10.039896965026855,
                46.61152267456055
              ],
              [
                10.44974136352539,
                46.677207946777344
              ],
              [
                10.44906997680664,
                46.94007873535156
              ],
              [
                10.366899490356445,
                46.94007873535156
              ],
              [
                10.36669635772705,
                47.005828857421875
              ],
              [
                10.202829360961914,
                46.87434005737305
              ],
              [
                9.9564208984375,
                46.87434005737305
              ],
              [
                9.625838279724121,
                47.13737487792969
              ],
              [
                9.625325202941895,
                47.20316696166992
              ],
              [
                9.54301929473877,
                47.20316696166992
              ],
              [
                9.542471885681152,
                47.26897048950195
              ],
              [
                9.541923522949219,
                47.33478927612305
              ],
              [
                9.541373252868652,
                47.4006233215332
              ],
              [
                9.623783111572266,
                47.4006233215332
              ],
              [
                9.62326717376709,
                47.46647262573242
              ],
              [
                9.622751235961914,
                47.53233337402344
              ],
              [
                9.952665328979492,
                47.53233337402344
              ],
              [
                10.118547439575195,
                47.33478927612305
              ],
              [
                10.36567211151123,
                47.33478927612305
              ],
              [
                10.447366714477539,
                47.598209381103516
              ],
              [
                10.859928131103516,
                47.53233337402344
              ],
              [
                11.024742126464844,
                47.4006233215332
              ],
              [
                11.933061599731445,
                47.664100646972656
              ],
              [
                12.75854206085205,
                47.664100646972656
              ],
              [
                12.839411735534668,
                47.53233337402344
              ],
              [
                13.087788581848145,
                47.598209381103516
              ],
              [
                12.924517631530762,
                47.730003356933594
              ],
              [
                12.927179336547852,
                47.92780685424805
              ],
              [
                12.762627601623535,
                47.993770599365234
              ],
              [
                12.765129089355469,
                48.191749572753906
              ],
              [
                13.26423168182373,
                48.323814392089844
              ],
              [
                13.434637069702148,
                48.5881233215332
              ],
              [
                13.768134117126465,
                48.654239654541016
              ],
              [
                13.770781517028809,
                48.786521911621094
              ],
              [
                12.532414436340332,
                49.51522445678711
              ],
              [
                12.534139633178711,
                49.64793395996094
              ],
              [
                12.36764907836914,
                49.71431350708008
              ],
              [
                12.370920181274414,
                49.98000717163086
              ],
              [
                12.204005241394043,
                50.04647445678711
              ],
              [
                12.12234115600586,
                50.2459831237793
              ],
              [
                12.290331840515137,
                50.2459831237793
              ],
              [
                12.376081466674805,
                50.37908172607422
              ],
              [
                12.796454429626465,
                50.37908172607422
              ],
              [
                13.391927719116211,
                50.71213912963867
              ],
              [
                14.153997421264648,
                50.84549331665039
              ],
              [
                14.328418731689453,
                51.04566955566406
              ],
              [
                14.8309965133667,
                50.912200927734375
              ],
              [
                15.255345344543457,
                50.97892379760742
              ],
              [
                15.416954040527344,
                50.77880859375
              ],
              [
                16.338764190673828,
                50.64549255371094
              ],
              [
                16.24351692199707,
                50.37908172607422
              ],
              [
                16.487279891967773,
                50.17946243286133
              ],
              [
                16.823102951049805,
                50.17946243286133
              ],
              [
                16.919164657592773,
                50.445655822753906
              ],
              [
                17.750011444091797,
                50.2459831237793
              ],
              [
                17.739870071411133,
                50.04647445678711
              ],
              [
                18.487384796142578,
                49.91355895996094
              ],
              [
                18.807432174682617,
                49.64793395996094
              ],
              [
                18.799970626831055,
                49.51522445678711
              ],
              [
                19.23357391357422,
                49.78071212768555
              ],
              [
                19.165773391723633,
                50.04647445678711
              ],
              [
                19.84113311767578,
                50.11296081542969
              ],
              [
                20.33548927307129,
                49.98000717163086
              ],
              [
                20.51714324951172,
                50.17946243286133
              ]
            ]
          ]
        ]
      }
    }
  ]
}