{
  "type": "FeatureCollection",
  "name": "territory-773",
  "features": [
    {
      "type": "Feature",
      "properties": {
        "Name": "Kingdom of Bavaria",
        "FromYear": 1807,
        "ToYear": 1808,
        "Area": 90318.52730242931,
        "Type": "POLITY",
        "Wikipedia": "Kingdom of Bavaria",
        "Wikidata": "Q154195",
        "SeshatID": "",
        "Components": "",
        "MemberOf": ""
      },
      "geometry": {
        "type": "Polygon",
        "coordinates": [
          [
            [
              12.45133113861084,
              49.71431350708008
            ],
            [
              12.450495719909668,
              49.64793395996094
            ],
            [
              12.69770336151123,
              49.38258361816406
            ],
            [
              13.442953109741211,
              49.051273345947266
            ],
            [
              13.770781517028809,
              48.786521911621094
            ],
            [
              13.768134117126465,
              48.654239654541016
            ],
            [
              13.434637069702148,
              48.5881233215332
            ],
            [
              13.26423168182373,
              48.323814392089844
            ],
            [
              12.765129089355469,
              48.191749572753906
            ],
            [
              12.762627601623535,
              47.993770599365234
            ],
            [
              12.927179336547852,
              47.92780685424805
            ],
            [
              12.924517631530762,
              47.730003356933594
            ],
            [
              13.087788581848145,
              47.598209381103516
            ],
            [
              12.839411735534668,
              47.53233337402344
            ],
            [
              12.75854206085205,
              47.664100646972656
            ],
            [
              12.510897636413574,
              47.664100646972656
            ],
            [
              12.508110046386719,
              47.4006233215332
            ],
            [
              12.177369117736816,
              47.26897048950195
            ],
            [
              12.175729751586914,
              47.07159423828125
            ],
            [
              12.093491554260254,
              47.07159423828125
            ],
            [
              12.33655834197998,
              46.677207946777344
            ],
            [
              12.09045124053955,
              46.677207946777344
            ],
            [
              11.843135833740234,
              46.480194091796875
            ],
            [
              11.841521263122559,
              46.21768569946289
            ],
            [
              11.677236557006836,
              46.08650588989258
            ],
            [
              11.350288391113281,
              46.08650588989258
            ],
            [
              11.10473918914795,
              45.889827728271484
            ],
            [
              11.104503631591797,
              45.75876998901367
            ],
            [
              10.696676254272461,
              45.693260192871094
            ],
            [
              10.45177173614502,
              45.82429504394531
            ],
            [
              10.532170295715332,
              46.480194091796875
            ],
            [
              10.367905616760254,
              46.61152267456055
            ],
            [
              10.367706298828125,
              46.677207946777344
            ],
            [
              10.44974136352539,
              46.677207946777344
            ],
            [
              10.449575424194336,
              46.74290466308594
            ],
            [
              10.449407577514648,
              46.808616638183594
            ],
            [
              10.449238777160645,
              46.87434005737305
            ],
            [
              10.44906997680664,
              46.94007873535156
            ],
            [
              10.366899490356445,
              46.94007873535156
            ],
            [
              10.284491539001465,
              47.005828857421875
            ],
            [
              10.202829360961914,
              46.87434005737305
            ],
            [
              9.9564208984375,
              46.87434005737305
            ],
            [
              9.625838279724121,
              47.13737487792969
            ],
            [
              9.625325202941895,
              47.20316696166992
            ],
            [
              9.54301929473877,
              47.20316696166992
            ],
            [
              9.542471885681152,
              47.26897048950195
            ],
            [
              9.622751235961914,
              47.53233337402344
            ],
            [
              9.457207679748535,
              47.598209381103516
            ],
            [
              9.950777053833008,
              47.86185836791992
            ],
            [
              9.949649810791016,
              48.059749603271484
            ],
            [
              10.032408714294434,
              48.059749603271484
            ],
            [
              9.948530197143555,
              48.257774353027344
            ],
            [
              9.698975563049316,
              48.38986587524414
            ],
            [
              9.61603832244873,
              48.38986587524414
            ],
            [
              9.531457901000977,
              48.5881233215332
            ],
            [
              9.947053909301758,
              48.52202224731445
            ],
            [
              10.112491607666016,
              48.654239654541016
            ],
            [
              10.111074447631836,
              48.98506164550781
            ],
            [
              9.943500518798828,
              49.18375015258789
            ],
            [
              10.10972785949707,
              49.316287994384766
            ],
            [
              10.024267196655273,
              49.78071212768555
            ],
            [
              10.107988357543945,
              49.78071212768555
            ],
            [
              10.107087135314941,
              50.04647445678711
            ],
            [
              10.442537307739258,
              50.11296081542969
            ],
            [
              10.442440032958984,
              50.2459831237793
            ],
            [
              10.526434898376465,
              50.2459831237793
            ],
            [
              10.610429763793945,
              50.2459831237793
            ],
            [
              10.694425582885742,
              50.2459831237793
            ],
            [
              10.694503784179688,
              50.312522888183594
            ],
            [
              10.778538703918457,
              50.312522888183594
            ],
            [
              10.862573623657227,
              50.312522888183594
            ],
            [
              10.94660758972168,
              50.312522888183594
            ],
            [
              11.282390594482422,
              50.2459831237793
            ],
            [
              11.451708793640137,
              50.445655822753906
            ],
            [
              11.45125961303711,
              50.37908172607422
            ],
            [
              11.535334587097168,
              50.37908172607422
            ],
            [
              11.534852027893066,
              50.312522888183594
            ],
            [
              11.61888599395752,
              50.312522888183594
            ],
            [
              11.701277732849121,
              50.11296081542969
            ],
            [
              11.449529647827148,
              50.11296081542969
            ],
            [
              11.364151954650879,
              49.84712600708008
            ],
            [
              11.699701309204102,
              49.91355895996094
            ],
            [
              11.869729042053223,
              50.17946243286133
            ],
            [
              12.12159538269043,
              50.17946243286133
            ],
            [
              12.370920181274414,
              49.98000717163086
            ],
            [
              12.36764907836914,
              49.71431350708008
            ],
            [
              12.45133113861084,
              49.71431350708008
            ]
          ],
          [
            [
              10.526637077331543,
              49.71431350708008
            ],
            [
              10.610319137573242,
              49.71431350708008
            ],
            [
              10.69397258758545,
              49.64793395996094
            ],
            [
              10.526796340942383,
              49.51522445678711
            ],
            [
              10.192741394042969,
              49.44889450073242
            ],
            [
              10.192316055297852,
              49.58156967163086
            ],
            [
              10.526637077331543,
              49.71431350708008
            ]
          ]
        ]
      }
    }
  ]
}