{
  "type": "FeatureCollection",
  "name": "territory-774",
  "features": [
    {
      "type": "Feature",
      "properties": {
        "Name": "Grand Duchy of Berg",
        "FromYear": 1814,
        "ToYear": 1814,
        "Area": 102967.66653671826,
        "Type": "POLITY",
        "Wikipedia": "Grand Duchy of Berg",
        "Wikidata": "Q249428",
        "SeshatID": "",
        "Components": "",
        "MemberOf": ""
      },
      "geometry": {
        "type": "MultiPolygon",
        "coordinates": [
          [
            [
              [
                7.420088768005371,
                50.17946243286133
              ],
              [
                7.762485027313232,
                49.84712600708008
              ],
              [
                8.181282997131348,
                49.84712600708008
              ],
              [
                8.182406425476074,
                49.78071212768555
              ],
              [
                8.266127586364746,
                49.78071212768555
              ],
              [
                8.267212867736816,
                49.71431350708008
              ],
              [
                8.268299102783203,
                49.64793395996094
              ],
              [
                8.351943016052246,
                49.64793395996094
              ],
              [
                8.35299301147461,
                49.58156967163086
              ],
              [
                8.275930404663086,
                49.18375015258789
              ],
              [
                8.112674713134766,
                48.98506164550781
              ],
              [
                6.608359813690186,
                49.18375015258789
              ],
              [
                6.367959499359131,
                48.852684020996094
              ],
              [
                6.217577457427979,
                48.323814392089844
              ],
              [
                5.811697959899902,
                48.059749603271484
              ],
              [
                5.815986633300781,
                47.92780685424805
              ],
              [
                5.572402954101562,
                47.79592514038086
              ],
              [
                5.496574401855469,
                47.598209381103516
              ],
              [
                5.171298980712891,
                47.46647262573242
              ],
              [
                5.665962219238281,
                47.46647262573242
              ],
              [
                5.826627254486084,
                47.598209381103516
              ],
              [
                6.156679630279541,
                47.598209381103516
              ],
              [
                6.646436214447021,
                47.79592514038086
              ],
              [
                6.889251708984375,
                47.993770599365234
              ],
              [
                7.549637794494629,
                48.059749603271484
              ],
              [
                7.559404373168945,
                47.598209381103516
              ],
              [
                7.476891040802002,
                47.598209381103516
              ],
              [
                6.983439445495605,
                47.53233337402344
              ],
              [
                6.985063552856445,
                47.46647262573242
              ],
              [
                6.73600435256958,
                47.53233337402344
              ],
              [
                6.331189632415771,
                47.26897048950195
              ],
              [
                5.594502449035645,
                47.13737487792969
              ],
              [
                5.434449672698975,
                47.005828857421875
              ],
              [
                4.119184017181396,
                47.005828857421875
              ],
              [
                3.53769850730896,
                47.13737487792969
              ],
              [
                3.278264284133911,
                47.4006233215332
              ],
              [
                2.941993951797485,
                47.53233337402344
              ],
              [
                2.935327768325806,
                47.664100646972656
              ],
              [
                2.504900455474854,
                47.993770599365234
              ],
              [
                2.40772819519043,
                48.257774353027344
              ],
              [
                2.155388593673706,
                48.323814392089844
              ],
              [
                2.041935682296753,
                48.852684020996094
              ],
              [
                2.125128507614136,
                48.852684020996094
              ],
              [
                2.193121671676636,
                49.11750411987305
              ],
              [
                2.609827280044556,
                49.11750411987305
              ],
              [
                2.87037205696106,
                48.91886520385742
              ],
              [
                2.877346515655518,
                48.786521911621094
              ],
              [
                3.133537530899048,
                48.654239654541016
              ],
              [
                3.757811546325684,
                47.730003356933594
              ],
              [
                4.181972503662109,
                47.46647262573242
              ],
              [
                4.51174783706665,
                47.46647262573242
              ],
              [
                4.751384258270264,
                47.664100646972656
              ],
              [
                4.91648006439209,
                47.664100646972656
              ],
              [
                5.879561424255371,
                48.52202224731445
              ],
              [
                6.03309965133667,
                48.91886520385742
              ],
              [
                6.195518970489502,
                49.051273345947266
              ],
              [
                6.266860485076904,
                49.44889450073242
              ],
              [
                5.928430557250977,
                49.58156967163086
              ],
              [
                5.343191146850586,
                49.58156967163086
              ],
              [
                5.254647731781006,
                49.71431350708008
              ],
              [
                4.830895900726318,
                49.84712600708008
              ],
              [
                4.736247062683105,
                50.11296081542969
              ],
              [
                4.490188121795654,
                49.98000717163086
              ],
              [
                4.154837608337402,
                49.98000717163086
              ],
              [
                4.142810344696045,
                50.2459831237793
              ],
              [
                3.968613386154175,
                50.37908172607422
              ],
              [
                3.548239946365356,
                50.37908172607422
              ],
              [
                3.106679201126099,
                50.77880859375
              ],
              [
                2.600777626037598,
                50.77880859375
              ],
              [
                2.493265151977539,
                51.17921447753906
              ],
              [
                2.577829360961914,
                51.17921447753906
              ],
              [
                2.73940634727478,
                51.31283950805664
              ],
              [
                3.324945688247681,
                51.44654083251953
              ],
              [
                3.409677743911743,
                51.44654083251953
              ],
              [
                3.504641532897949,
                51.24601745605469
              ],
              [
                4.01227855682373,
                51.24601745605469
              ],
              [
                4.341732025146484,
                51.44654083251953
              ],
              [
                5.019589424133301,
                51.44654083251953
              ],
              [
                5.535188674926758,
                51.24601745605469
              ],
              [
                5.864670753479004,
                51.51342010498047
              ],
              [
                5.770728588104248,
                51.78114318847656
              ],
              [
                6.023392200469971,
                51.84812545776367
              ],
              [
                6.108380317687988,
                51.84812545776367
              ],
              [
                6.193368434906006,
                51.84812545776367
              ],
              [
                6.369336605072021,
                51.64724349975586
              ],
              [
                6.71241569519043,
                51.51342010498047
              ],
              [
                6.719674110412598,
                51.24601745605469
              ],
              [
                6.892337799072266,
                51.112430572509766
              ],
              [
                6.899223804473877,
                50.84549331665039
              ],
              [
                7.071211338043213,
                50.71213912963867
              ],
              [
                7.072845935821533,
                50.64549255371094
              ],
              [
                7.166632652282715,
                50.2459831237793
              ],
              [
                7.336133480072021,
                50.17946243286133
              ],
              [
                7.420088768005371,
                50.17946243286133
              ]
            ]
          ],
          [
            [
              [
                11.282390594482422,
                50.2459831237793
              ],
              [
                10.442440032958984,
                50.2459831237793
              ],
              [
                10.189842224121094,
                50.51224899291992
              ],
              [
                10.021533012390137,
                50.51224899291992
              ],
              [
                10.021310806274414,
                50.578861236572266
              ],
              [
                10.021092414855957,
                50.64549255371094
              ],
              [
                10.020878791809082,
                50.71213912963867
              ],
              [
                10.020668983459473,
                50.77880859375
              ],
              [
                10.442255973815918,
                50.912200927734375
              ],
              [
                10.526535987854004,
                50.71213912963867
              ],
              [
                10.694977760314941,
                50.64549255371094
              ],
              [
                10.779851913452148,
                50.912200927734375
              ],
              [
                10.864250183105469,
                50.912200927734375
              ],
              [
                11.28624439239502,
                50.912200927734375
              ],
              [
                11.285423278808594,
                50.77880859375
              ],
              [
                11.791977882385254,
                50.84549331665039
              ],
              [
                11.791325569152832,
                50.77880859375
              ],
              [
                11.790678977966309,
                50.71213912963867
              ],
              [
                11.537850379943848,
                50.71213912963867
              ],
              [
                11.451708793640137,
                50.445655822753906
              ],
              [
                11.282390594482422,
                50.2459831237793
              ]
            ]
          ],
          [
            [
              [
                10.611913681030273,
                51.44654083251953
              ],
              [
                11.03591537475586,
                51.51342010498047
              ],
              [
                11.034910202026367,
                51.31283950805664
              ],
              [
                10.865614891052246,
                51.31283950805664
              ],
              [
                10.865859985351562,
                51.37968063354492
              ],
              [
                10.611913681030273,
                51.44654083251953
              ]
            ]
          ]
        ]
      }
    }
  ]
}