{
  "type": "FeatureCollection",
  "name": "territory-775",
  "features": [
    {
      "type": "Feature",
      "properties": {
        "Name": "Duchy of Warsaw",
        "FromYear": 1812,
        "ToYear": 1813,
        "Area": 181110.32543156488,
        "Type": "POLITY",
        "Wikipedia": "Duchy of Warsaw",
        "Wikidata": "Q152115",
        "SeshatID": "",
        "Components": "",
        "MemberOf": ""
      },
      "geometry": {
        "type": "MultiPolygon",
        "coordinates": [
          [
            [
              [
                10.694977760314941,
                50.64549255371094
              ],
              [
                10.694771766662598,
                50.51224899291992
              ],
              [
                10.526461601257324,
                50.51224899291992
              ],
              [
                10.442259788513184,
                50.71213912963867
              ],
              [
                10.526535987854004,
                50.71213912963867
              ],
              [
                10.610812187194824,
                50.71213912963867
              ],
              [
                10.61074161529541,
                50.64549255371094
              ],
              [
                10.694977760314941,
                50.64549255371094
              ]
            ]
          ],
          [
            [
              [
                10.780574798583984,
                51.17921447753906
              ],
              [
                10.86513900756836,
                51.17921447753906
              ],
              [
                10.864909172058105,
                51.112430572509766
              ],
              [
                10.780385971069336,
                51.112430572509766
              ],
              [
                10.695862770080566,
                51.112430572509766
              ],
              [
                10.696009635925293,
                51.17921447753906
              ],
              [
                10.780574798583984,
                51.17921447753906
              ]
            ]
          ],
          [
            [
              [
                15.173232078552246,
                51.04566955566406
              ],
              [
                14.999794006347656,
                50.912200927734375
              ],
              [
                14.577799797058105,
                50.912200927734375
              ],
              [
                14.497381210327148,
                51.04566955566406
              ],
              [
                14.328418731689453,
                51.04566955566406
              ],
              [
                14.153997421264648,
                50.84549331665039
              ],
              [
                13.391927719116211,
                50.71213912963867
              ],
              [
                12.796454429626465,
                50.37908172607422
              ],
              [
                12.376081466674805,
                50.37908172607422
              ],
              [
                12.290331840515137,
                50.2459831237793
              ],
              [
                12.12234115600586,
                50.2459831237793
              ],
              [
                12.038346290588379,
                50.2459831237793
              ],
              [
                12.039060592651367,
                50.312522888183594
              ],
              [
                11.955025672912598,
                50.312522888183594
              ],
              [
                11.955707550048828,
                50.37908172607422
              ],
              [
                11.87163257598877,
                50.37908172607422
              ],
              [
                11.872282981872559,
                50.445655822753906
              ],
              [
                11.95639705657959,
                50.445655822753906
              ],
              [
                11.957799911499023,
                50.578861236572266
              ],
              [
                12.21121883392334,
                50.64549255371094
              ],
              [
                12.212909698486328,
                50.77880859375
              ],
              [
                12.045051574707031,
                50.84549331665039
              ],
              [
                11.95923137664795,
                50.71213912963867
              ],
              [
                11.790678977966309,
                50.71213912963867
              ],
              [
                11.791325569152832,
                50.77880859375
              ],
              [
                11.877037048339844,
                50.912200927734375
              ],
              [
                12.21550464630127,
                50.97892379760742
              ],
              [
                12.299944877624512,
                50.97892379760742
              ],
              [
                12.552227973937988,
                50.912200927734375
              ],
              [
                12.555364608764648,
                51.112430572509766
              ],
              [
                12.135334014892578,
                51.31283950805664
              ],
              [
                11.879911422729492,
                51.17921447753906
              ],
              [
                11.877744674682617,
                50.97892379760742
              ],
              [
                11.456053733825684,
                51.04566955566406
              ],
              [
                11.287090301513672,
                51.04566955566406
              ],
              [
                11.203798294067383,
                51.24601745605469
              ],
              [
                10.86513900756836,
                51.17921447753906
              ],
              [
                10.526949882507324,
                51.24601745605469
              ],
              [
                10.357771873474121,
                51.112430572509766
              ],
              [
                10.273249626159668,
                51.112430572509766
              ],
              [
                10.188726425170898,
                51.112430572509766
              ],
              [
                10.188623428344727,
                51.17921447753906
              ],
              [
                10.104059219360352,
                51.17921447753906
              ],
              [
                10.61178970336914,
                51.37968063354492
              ],
              [
                10.696479797363281,
                51.37968063354492
              ],
              [
                11.034910202026367,
                51.31283950805664
              ],
              [
                11.036260604858398,
                51.580322265625
              ],
              [
                11.206330299377441,
                51.64724349975586
              ],
              [
                11.291190147399902,
                51.64724349975586
              ],
              [
                11.288854598999023,
                51.31283950805664
              ],
              [
                11.541653633117676,
                51.17921447753906
              ],
              [
                12.051520347595215,
                51.37968063354492
              ],
              [
                11.96843433380127,
                51.51342010498047
              ],
              [
                11.969246864318848,
                51.580322265625
              ],
              [
                12.308514595031738,
                51.580322265625
              ],
              [
                12.397505760192871,
                51.84812545776367
              ],
              [
                12.313535690307617,
                51.91512680053711
              ],
              [
                12.228504180908203,
                51.91512680053711
              ],
              [
                12.23147201538086,
                52.11625671386719
              ],
              [
                12.657279968261719,
                52.11625671386719
              ],
              [
                12.569785118103027,
                51.98215103149414
              ],
              [
                12.9087553024292,
                51.91512680053711
              ],
              [
                14.194217681884766,
                52.250450134277344
              ],
              [
                14.44567584991455,
                52.11625671386719
              ],
              [
                14.439318656921387,
                51.91512680053711
              ],
              [
                14.779444694519043,
                51.91512680053711
              ],
              [
                14.954254150390625,
                52.0491943359375
              ],
              [
                15.027374267578125,
                51.71418380737305
              ],
              [
                14.857569694519043,
                51.71418380737305
              ],
              [
                14.853023529052734,
                51.580322265625
              ],
              [
                15.272184371948242,
                51.44654083251953
              ],
              [
                15.177922248840332,
                51.17921447753906
              ],
              [
                15.175570487976074,
                51.112430572509766
              ],
              [
                15.173232078552246,
                51.04566955566406
              ]
            ]
          ],
          [
            [
              [
                22.606571197509766,
                52.85536575317383
              ],
              [
                22.428829193115234,
                52.78806686401367
              ],
              [
                22.409648895263672,
                52.586299896240234
              ],
              [
                22.56774139404297,
                52.4518928527832
              ],
              [
                22.988040924072266,
                52.38472366333008
              ],
              [
                23.060142517089844,
                52.250450134277344
              ],
              [
                23.39438247680664,
                52.18334197998047
              ],
              [
                23.629487991333008,
                51.98215103149414
              ],
              [
                23.51096534729004,
                51.64724349975586
              ],
              [
                23.595823287963867,
                51.64724349975586
              ],
              [
                23.712371826171875,
                51.112430572509766
              ],
              [
                24.030471801757812,
                50.912200927734375
              ],
              [
                24.010730743408203,
                50.71213912963867
              ],
              [
                23.00547981262207,
                50.77880859375
              ],
              [
                22.662311553955078,
                50.71213912963867
              ],
              [
                22.72307777404785,
                50.445655822753906
              ],
              [
                22.386619567871094,
                50.445655822753906
              ],
              [
                22.156654357910156,
                50.71213912963867
              ],
              [
                21.988101959228516,
                50.71213912963867
              ],
              [
                21.99927520751953,
                50.84549331665039
              ],
              [
                21.74620246887207,
                50.84549331665039
              ],
              [
                21.735273361206055,
                50.71213912963867
              ],
              [
                21.477136611938477,
                50.64549255371094
              ],
              [
                21.02581787109375,
                50.2459831237793
              ],
              [
                20.51714324951172,
                50.17946243286133
              ],
              [
                20.163354873657227,
                49.91355895996094
              ],
              [
                19.409168243408203,
                49.91355895996094
              ],
              [
                19.317293167114258,
                49.78071212768555
              ],
              [
                19.149852752685547,
                49.78071212768555
              ],
              [
                19.2415714263916,
                49.91355895996094
              ],
              [
                19.077926635742188,
                49.98000717163086
              ],
              [
                19.089900970458984,
                50.17946243286133
              ],
              [
                19.17385482788086,
                50.17946243286133
              ],
              [
                19.18613052368164,
                50.37908172607422
              ],
              [
                19.022031784057617,
                50.445655822753906
              ],
              [
                19.030193328857422,
                50.578861236572266
              ],
              [
                18.70132827758789,
                50.71213912963867
              ],
              [
                18.709320068359375,
                50.84549331665039
              ],
              [
                18.049345016479492,
                51.112430572509766
              ],
              [
                17.972288131713867,
                51.24601745605469
              ],
              [
                17.549257278442383,
                51.24601745605469
              ],
              [
                17.31973648071289,
                51.71418380737305
              ],
              [
                16.980127334594727,
                51.71418380737305
              ],
              [
                16.718996047973633,
                51.580322265625
              ],
              [
                16.55561637878418,
                51.71418380737305
              ],
              [
                16.131103515625,
                51.71418380737305
              ],
              [
                16.136985778808594,
                51.84812545776367
              ],
              [
                15.646231651306152,
                52.31757736206055
              ],
              [
                15.651822090148926,
                52.4518928527832
              ],
              [
                15.483783721923828,
                52.51908493041992
              ],
              [
                15.48926830291748,
                52.653533935546875
              ],
              [
                15.751615524291992,
                52.78806686401367
              ],
              [
                16.265247344970703,
                52.78806686401367
              ],
              [
                16.96437644958496,
                53.057395935058594
              ],
              [
                16.971601486206055,
                53.192195892333984
              ],
              [
                17.48297691345215,
                53.124786376953125
              ],
              [
                17.576705932617188,
                53.25962829589844
              ],
              [
                17.8344783782959,
                53.25962829589844
              ],
              [
                17.993816375732422,
                53.057395935058594
              ],
              [
                18.169635772705078,
                53.124786376953125
              ],
              [
                18.24690055847168,
                52.99003219604492
              ],
              [
                18.41838264465332,
                52.99003219604492
              ],
              [
                18.6937198638916,
                53.25962829589844
              ],
              [
                18.956199645996094,
                53.32708740234375
              ],
              [
                18.97042465209961,
                53.52959060668945
              ],
              [
                19.482044219970703,
                53.462066650390625
              ],
              [
                19.54295539855957,
                53.124786376953125
              ],
              [
                19.8759822845459,
                52.99003219604492
              ],
              [
                19.972116470336914,
                53.124786376953125
              ],
              [
                20.395845413208008,
                53.057395935058594
              ],
              [
                20.66997718811035,
                53.25962829589844
              ],
              [
                20.927749633789062,
                53.25962829589844
              ],
              [
                21.28936767578125,
                53.462066650390625
              ],
              [
                22.07036781311035,
                53.52959060668945
              ],
              [
                22.348546981811523,
                53.732303619384766
              ],
              [
                22.521047592163086,
                53.732303619384766
              ],
              [
                22.482206344604492,
                54.20612335205078
              ],
              [
                22.66232681274414,
                54.27390670776367
              ],
              [
                22.71874237060547,
                54.817054748535156
              ],
              [
                22.812959671020508,
                54.88506317138672
              ],
              [
                22.653079986572266,
                55.021148681640625
              ],
              [
                22.667421340942383,
                55.15733337402344
              ],
              [
                23.023895263671875,
                55.225467681884766
              ],
              [
                23.278297424316406,
                55.15733337402344
              ],
              [
                23.350427627563477,
                55.021148681640625
              ],
              [
                23.327884674072266,
                54.817054748535156
              ],
              [
                23.48680877685547,
                54.681121826171875
              ],
              [
                23.261449813842773,
                54.20612335205078
              ],
              [
                23.41990852355957,
                54.07062530517578
              ],
              [
                23.23971176147461,
                54.00291442871094
              ],
              [
                23.22533416748047,
                53.86756134033203
              ],
              [
                22.68671989440918,
                53.664710998535156
              ],
              [
                22.712085723876953,
                53.057395935058594
              ],
              [
                22.626298904418945,
                53.057395935058594
              ],
              [
                22.606571197509766,
                52.85536575317383
              ]
            ]
          ]
        ]
      }
    }
  ]
}