{
  "type": "FeatureCollection",
  "name": "territory-776",
  "features": [
    {
      "type": "Feature",
      "properties": {
        "Name": "Confederation of the Rhine",
        "FromYear": 1814,
        "ToYear": 1814,
        "Area": 257954.52131471623,
        "Type": "POLITY",
        "Wikipedia": "Confederation of the Rhine",
        "Wikidata": "Q154741",
        "SeshatID": "",
        "Components": "",
        "MemberOf": ""
      },
      "geometry": {
        "type": "MultiPolygon",
        "coordinates": [
          [
            [
              [
                12.299031257629395,
                50.912200927734375
              ],
              [
                12.214632034301758,
                50.912200927734375
              ],
              [
                12.21550464630127,
                50.97892379760742
              ],
              [
                12.299944877624512,
                50.97892379760742
              ],
              [
                12.299031257629395,
                50.912200927734375
              ]
            ]
          ],
          [
            [
              [
                10.779851913452148,
                50.912200927734375
              ],
              [
                10.695452690124512,
                50.912200927734375
              ],
              [
                10.696009635925293,
                51.17921447753906
              ],
              [
                10.86513900756836,
                51.17921447753906
              ],
              [
                10.864909172058105,
                51.112430572509766
              ],
              [
                10.864684104919434,
                51.04566955566406
              ],
              [
                10.86446475982666,
                50.97892379760742
              ],
              [
                10.864250183105469,
                50.912200927734375
              ],
              [
                10.779851913452148,
                50.912200927734375
              ]
            ]
          ],
          [
            [
              [
                18.799970626831055,
                49.51522445678711
              ],
              [
                18.807432174682617,
                49.64793395996094
              ],
              [
                18.487384796142578,
                49.91355895996094
              ],
              [
                17.904199600219727,
                49.98000717163086
              ],
              [
                17.739870071411133,
                50.04647445678711
              ],
              [
                17.750011444091797,
                50.2459831237793
              ],
              [
                17.49802589416504,
                50.2459831237793
              ],
              [
                17.1715087890625,
                50.445655822753906
              ],
              [
                16.919164657592773,
                50.445655822753906
              ],
              [
                16.823102951049805,
                50.17946243286133
              ],
              [
                16.487279891967773,
                50.17946243286133
              ],
              [
                16.24351692199707,
                50.37908172607422
              ],
              [
                16.338764190673828,
                50.64549255371094
              ],
              [
                15.416954040527344,
                50.77880859375
              ],
              [
                15.173232078552246,
                51.04566955566406
              ],
              [
                15.272184371948242,
                51.44654083251953
              ],
              [
                14.853023529052734,
                51.580322265625
              ],
              [
                14.857569694519043,
                51.71418380737305
              ],
              [
                15.027374267578125,
                51.71418380737305
              ],
              [
                14.954254150390625,
                52.0491943359375
              ],
              [
                14.779444694519043,
                51.91512680053711
              ],
              [
                14.439318656921387,
                51.91512680053711
              ],
              [
                14.44567584991455,
                52.11625671386719
              ],
              [
                14.194217681884766,
                52.250450134277344
              ],
              [
                13.766172409057617,
                52.18334197998047
              ],
              [
                13.76082992553711,
                51.98215103149414
              ],
              [
                13.675755500793457,
                51.98215103149414
              ],
              [
                13.670628547668457,
                51.78114318847656
              ],
              [
                13.495952606201172,
                51.580322265625
              ],
              [
                12.731405258178711,
                51.51342010498047
              ],
              [
                12.560754776000977,
                51.44654083251953
              ],
              [
                12.471861839294434,
                51.17921447753906
              ],
              [
                12.387297630310059,
                51.17921447753906
              ],
              [
                12.302733421325684,
                51.17921447753906
              ],
              [
                12.301795959472656,
                51.112430572509766
              ],
              [
                12.217273712158203,
                51.112430572509766
              ],
              [
                12.216384887695312,
                51.04566955566406
              ],
              [
                12.131903648376465,
                51.04566955566406
              ],
              [
                12.047422409057617,
                51.04566955566406
              ],
              [
                11.96294116973877,
                51.04566955566406
              ],
              [
                11.456053733825684,
                51.04566955566406
              ],
              [
                11.287090301513672,
                51.04566955566406
              ],
              [
                11.203798294067383,
                51.24601745605469
              ],
              [
                10.86513900756836,
                51.17921447753906
              ],
              [
                10.526949882507324,
                51.24601745605469
              ],
              [
                10.357771873474121,
                51.112430572509766
              ],
              [
                10.273249626159668,
                51.112430572509766
              ],
              [
                10.188726425170898,
                51.112430572509766
              ],
              [
                10.188623428344727,
                51.17921447753906
              ],
              [
                10.104059219360352,
                51.17921447753906
              ],
              [
                10.019495010375977,
                51.17921447753906
              ],
              [
                9.934269905090332,
                51.37968063354492
              ],
              [
                9.68019962310791,
                51.37968063354492
              ],
              [
                9.680888175964355,
                51.24601745605469
              ],
              [
                9.427544593811035,
                51.17921447753906
              ],
              [
                9.426129341125488,
                51.37968063354492
              ],
              [
                9.594372749328613,
                51.580322265625
              ],
              [
                9.338921546936035,
                51.71418380737305
              ],
              [
                8.83102035522461,
                51.580322265625
              ],
              [
                8.746203422546387,
                51.580322265625
              ],
              [
                8.661386489868164,
                51.580322265625
              ],
              [
                8.576569557189941,
                51.580322265625
              ],
              [
                8.491752624511719,
                51.580322265625
              ],
              [
                8.492680549621582,
                51.51342010498047
              ],
              [
                8.407905578613281,
                51.51342010498047
              ],
              [
                8.318073272705078,
                51.84812545776367
              ],
              [
                8.061968803405762,
                51.91512680053711
              ],
              [
                7.723155498504639,
                51.84812545776367
              ],
              [
                7.89680814743042,
                51.64724349975586
              ],
              [
                7.39061164855957,
                51.51342010498047
              ],
              [
                7.562949180603027,
                51.37968063354492
              ],
              [
                7.565735340118408,
                51.24601745605469
              ],
              [
                7.734947681427002,
                51.24601745605469
              ],
              [
                7.738874912261963,
                51.04566955566406
              ],
              [
                7.910290718078613,
                50.912200927734375
              ],
              [
                7.916431427001953,
                50.578861236572266
              ],
              [
                7.832236289978027,
                50.578861236572266
              ],
              [
                7.920123100280762,
                50.37908172607422
              ],
              [
                7.581041812896729,
                50.51224899291992
              ],
              [
                7.658444404602051,
                50.84549331665039
              ],
              [
                7.485430717468262,
                51.04566955566406
              ],
              [
                7.071211338043213,
                50.71213912963867
              ],
              [
                6.899223804473877,
                50.84549331665039
              ],
              [
                6.892337799072266,
                51.112430572509766
              ],
              [
                6.719674110412598,
                51.24601745605469
              ],
              [
                6.71241569519043,
                51.51342010498047
              ],
              [
                6.369336605072021,
                51.64724349975586
              ],
              [
                6.193368434906006,
                51.84812545776367
              ],
              [
                6.533320903778076,
                51.84812545776367
              ],
              [
                6.614560127258301,
                51.98215103149414
              ],
              [
                6.699635028839111,
                51.98215103149414
              ],
              [
                6.697800159454346,
                52.0491943359375
              ],
              [
                6.695963382720947,
                52.11625671386719
              ],
              [
                6.781125068664551,
                52.11625671386719
              ],
              [
                6.779329299926758,
                52.18334197998047
              ],
              [
                6.864534378051758,
                52.18334197998047
              ],
              [
                6.944602489471436,
                52.38472366333008
              ],
              [
                6.68488883972168,
                52.51908493041992
              ],
              [
                6.68117618560791,
                52.653533935546875
              ],
              [
                7.021557331085205,
                52.720787048339844
              ],
              [
                7.179872989654541,
                53.25962829589844
              ],
              [
                7.178262233734131,
                53.32708740234375
              ],
              [
                6.918599128723145,
                53.39456558227539
              ],
              [
                6.913325786590576,
                53.597137451171875
              ],
              [
                7.082295417785645,
                53.732303619384766
              ],
              [
                7.944795608520508,
                53.732303619384766
              ],
              [
                8.032201766967773,
                53.664710998535156
              ],
              [
                7.947200775146484,
                53.597137451171875
              ],
              [
                7.94840145111084,
                53.52959060668945
              ],
              [
                7.776182174682617,
                53.52959060668945
              ],
              [
                7.695418357849121,
                53.25962829589844
              ],
              [
                7.609494209289551,
                53.25962829589844
              ],
              [
                7.529257297515869,
                52.99003219604492
              ],
              [
                7.78776216506958,
                52.92268753051758
              ],
              [
                7.963908195495605,
                52.653533935546875
              ],
              [
                8.133841514587402,
                52.720787048339844
              ],
              [
                8.131644248962402,
                52.85536575317383
              ],
              [
                8.47332763671875,
                52.92268753051758
              ],
              [
                8.5590238571167,
                52.92268753051758
              ],
              [
                8.730415344238281,
                52.92268753051758
              ],
              [
                8.728852272033691,
                53.057395935058594
              ],
              [
                8.556406021118164,
                53.124786376953125
              ],
              [
                8.470573425292969,
                53.124786376953125
              ],
              [
                8.380881309509277,
                53.39456558227539
              ],
              [
                8.466897964477539,
                53.39456558227539
              ],
              [
                8.46413803100586,
                53.597137451171875
              ],
              [
                8.37701416015625,
                53.664710998535156
              ],
              [
                8.376045227050781,
                53.732303619384766
              ],
              [
                8.459527015686035,
                53.93522644042969
              ],
              [
                8.805828094482422,
                53.86756134033203
              ],
              [
                8.892172813415527,
                53.86756134033203
              ],
              [
                9.237549781799316,
                53.86756134033203
              ],
              [
                9.411450386047363,
                53.664710998535156
              ],
              [
                9.842811584472656,
                53.52959060668945
              ],
              [
                10.273246765136719,
                53.39456558227539
              ],
              [
                10.359575271606445,
                53.597137451171875
              ],
              [
                10.273481369018555,
                53.664710998535156
              ],
              [
                10.359683990478516,
                53.664710998535156
              ],
              [
                10.446371078491211,
                53.86756134033203
              ],
              [
                10.705403327941895,
                53.86756134033203
              ],
              [
                10.704795837402344,
                53.732303619384766
              ],
              [
                10.791046142578125,
                53.732303619384766
              ],
              [
                10.79069995880127,
                53.664710998535156
              ],
              [
                10.790016174316406,
                53.52959060668945
              ],
              [
                10.617313385009766,
                53.39456558227539
              ],
              [
                10.960538864135742,
                53.25962829589844
              ],
              [
                11.132387161254883,
                53.25962829589844
              ],
              [
                11.306057929992676,
                53.462066650390625
              ],
              [
                11.563496589660645,
                53.39456558227539
              ],
              [
                11.738075256347656,
                53.597137451171875
              ],
              [
                11.910387992858887,
                53.597137451171875
              ],
              [
                11.909440994262695,
                53.52959060668945
              ],
              [
                12.16561222076416,
                53.39456558227539
              ],
              [
                12.68171215057373,
                53.39456558227539
              ],
              [
                13.196187019348145,
                53.32708740234375
              ],
              [
                13.547355651855469,
                53.597137451171875
              ],
              [
                13.46479606628418,
                53.732303619384766
              ],
              [
                13.378546714782715,
                53.732303619384766
              ],
              [
                13.118182182312012,
                53.664710998535156
              ],
              [
                12.950356483459473,
                53.86756134033203
              ],
              [
                13.036701202392578,
                53.86756134033203
              ],
              [
                13.641111373901367,
                53.86756134033203
              ],
              [
                13.475763320922852,
                54.138362884521484
              ],
              [
                13.477616310119629,
                54.20612335205078
              ],
              [
                14.165812492370605,
                54.07062530517578
              ],
              [
                14.159177780151367,
                53.86756134033203
              ],
              [
                13.98438835144043,
                53.799922943115234
              ],
              [
                14.499796867370605,
                53.732303619384766
              ],
              [
                14.50934886932373,
                54.00291442871094
              ],
              [
                15.036103248596191,
                54.20612335205078
              ],
              [
                15.991765975952148,
                54.27390670776367
              ],
              [
                16.442564010620117,
                54.613189697265625
              ],
              [
                17.501720428466797,
                54.88506317138672
              ],
              [
                18.459484100341797,
                54.88506317138672
              ],
              [
                18.44533348083496,
                54.681121826171875
              ],
              [
                18.686851501464844,
                54.4095458984375
              ],
              [
                19.462186813354492,
                54.341712951660156
              ],
              [
                19.559396743774414,
                54.47740173339844
              ],
              [
                19.819725036621094,
                54.47740173339844
              ],
              [
                19.830615997314453,
                54.613189697265625
              ],
              [
                20.004362106323242,
                54.613189697265625
              ],
              [
                19.83608627319336,
                54.681121826171875
              ],
              [
                19.950855255126953,
                55.021148681640625
              ],
              [
                20.654220581054688,
                55.089229583740234
              ],
              [
                20.72932243347168,
                54.95309066772461
              ],
              [
                20.990678787231445,
                54.95309066772461
              ],
              [
                21.202974319458008,
                55.36180877685547
              ],
              [
                20.96585464477539,
                55.63479995727539
              ],
              [
                20.98489761352539,
                55.83982467651367
              ],
              [
                20.991283416748047,
                55.90821838378906
              ],
              [
                21.248220443725586,
                55.83982467651367
              ],
              [
                21.235198974609375,
                55.70311737060547
              ],
              [
                21.640066146850586,
                55.36180877685547
              ],
              [
                22.412668228149414,
                55.225467681884766
              ],
              [
                22.398584365844727,
                55.089229583740234
              ],
              [
                22.573020935058594,
                55.089229583740234
              ],
              [
                22.812959671020508,
                54.88506317138672
              ],
              [
                22.71874237060547,
                54.817054748535156
              ],
              [
                22.66232681274414,
                54.27390670776367
              ],
              [
                22.482206344604492,
                54.20612335205078
              ],
              [
                22.521047592163086,
                53.732303619384766
              ],
              [
                21.80574607849121,
                53.462066650390625
              ],
              [
                21.28936767578125,
                53.462066650390625
              ],
              [
                20.927749633789062,
                53.25962829589844
              ],
              [
                20.66997718811035,
                53.25962829589844
              ],
              [
                20.395845413208008,
                53.057395935058594
              ],
              [
                19.972116470336914,
                53.124786376953125
              ],
              [
                19.790241241455078,
                52.99003219604492
              ],
              [
                19.714618682861328,
                53.124786376953125
              ],
              [
                19.54295539855957,
                53.124786376953125
              ],
              [
                19.482044219970703,
                53.462066650390625
              ],
              [
                18.97042465209961,
                53.52959060668945
              ],
              [
                18.956199645996094,
                53.32708740234375
              ],
              [
                18.6937198638916,
                53.25962829589844
              ],
              [
                18.41838264465332,
                52.99003219604492
              ],
              [
                18.24690055847168,
                52.99003219604492
              ],
              [
                18.169635772705078,
                53.124786376953125
              ],
              [
                17.993816375732422,
                53.057395935058594
              ],
              [
                17.8344783782959,
                53.25962829589844
              ],
              [
                17.576705932617188,
                53.25962829589844
              ],
              [
                17.48297691345215,
                53.124786376953125
              ],
              [
                16.971601486206055,
                53.192195892333984
              ],
              [
                16.96437644958496,
                53.057395935058594
              ],
              [
                16.265247344970703,
                52.78806686401367
              ],
              [
                15.751615524291992,
                52.78806686401367
              ],
              [
                15.48926830291748,
                52.653533935546875
              ],
              [
                15.483783721923828,
                52.51908493041992
              ],
              [
                15.651822090148926,
                52.4518928527832
              ],
              [
                15.646231651306152,
                52.31757736206055
              ],
              [
                16.136985778808594,
                51.84812545776367
              ],
              [
                16.131103515625,
                51.71418380737305
              ],
              [
                16.55561637878418,
                51.71418380737305
              ],
              [
                16.718996047973633,
                51.580322265625
              ],
              [
                16.980127334594727,
                51.71418380737305
              ],
              [
                17.31973648071289,
                51.71418380737305
              ],
              [
                17.549257278442383,
                51.24601745605469
              ],
              [
                17.972288131713867,
                51.24601745605469
              ],
              [
                18.049345016479492,
                51.112430572509766
              ],
              [
                18.709320068359375,
                50.84549331665039
              ],
              [
                18.70132827758789,
                50.71213912963867
              ],
              [
                19.030193328857422,
                50.578861236572266
              ],
              [
                19.022031784057617,
                50.445655822753906
              ],
              [
                19.18613052368164,
                50.37908172607422
              ],
              [
                19.17385482788086,
                50.17946243286133
              ],
              [
                19.089900970458984,
                50.17946243286133
              ],
              [
                19.077926635742188,
                49.98000717163086
              ],
              [
                19.2415714263916,
                49.91355895996094
              ],
              [
                19.149852752685547,
                49.78071212768555
              ],
              [
                18.799970626831055,
                49.51522445678711
              ]
            ],
            [
              [
                12.397505760192871,
                51.84812545776367
              ],
              [
                12.143472671508789,
                51.91512680053711
              ],
              [
                12.055794715881348,
                51.71418380737305
              ],
              [
                11.460345268249512,
                51.580322265625
              ],
              [
                11.96843433380127,
                51.51342010498047
              ],
              [
                12.309504508972168,
                51.64724349975586
              ],
              [
                12.310501098632812,
                51.71418380737305
              ],
              [
                12.395403861999512,
                51.71418380737305
              ],
              [
                12.397505760192871,
                51.84812545776367
              ]
            ],
            [
              [
                10.78203296661377,
                51.64724349975586
              ],
              [
                10.952065467834473,
                51.71418380737305
              ],
              [
                10.868002891540527,
                51.91512680053711
              ],
              [
                10.527877807617188,
                51.91512680053711
              ],
              [
                10.187544822692871,
                52.18334197998047
              ],
              [
                9.591107368469238,
                52.18334197998047
              ],
              [
                9.676933288574219,
                52.0491943359375
              ],
              [
                9.422470092773438,
                51.91512680053711
              ],
              [
                9.166799545288086,
                51.98215103149414
              ],
              [
                9.168535232543945,
                51.78114318847656
              ],
              [
                10.10293197631836,
                51.78114318847656
              ],
              [
                10.102721214294434,
                51.91512680053711
              ],
              [
                10.187751770019531,
                51.91512680053711
              ],
              [
                10.527765274047852,
                51.84812545776367
              ],
              [
                10.78203296661377,
                51.64724349975586
              ]
            ],
            [
              [
                10.951443672180176,
                51.580322265625
              ],
              [
                11.036260604858398,
                51.580322265625
              ],
              [
                11.376049995422363,
                51.64724349975586
              ],
              [
                11.377108573913574,
                51.78114318847656
              ],
              [
                10.952065467834473,
                51.71418380737305
              ],
              [
                10.951443672180176,
                51.580322265625
              ]
            ],
            [
              [
                11.03591537475586,
                51.51342010498047
              ],
              [
                10.611913681030273,
                51.44654083251953
              ],
              [
                10.865859985351562,
                51.37968063354492
              ],
              [
                10.865614891052246,
                51.31283950805664
              ],
              [
                11.034910202026367,
                51.31283950805664
              ],
              [
                11.03591537475586,
                51.51342010498047
              ]
            ],
            [
              [
                10.870770454406738,
                52.51908493041992
              ],
              [
                10.614492416381836,
                52.51908493041992
              ],
              [
                10.69944953918457,
                52.38472366333008
              ],
              [
                10.18742561340332,
                52.38472366333008
              ],
              [
                10.187501907348633,
                52.250450134277344
              ],
              [
                10.357955932617188,
                52.18334197998047
              ],
              [
                10.443161010742188,
                52.18334197998047
              ],
              [
                10.869808197021484,
                52.31757736206055
              ],
              [
                10.870770454406738,
                52.51908493041992
              ]
            ],
            [
              [
                8.570398330688477,
                52.0491943359375
              ],
              [
                8.400161743164062,
                52.0491943359375
              ],
              [
                8.488973617553711,
                51.78114318847656
              ],
              [
                8.828001976013184,
                51.84812545776367
              ],
              [
                8.910870552062988,
                52.0491943359375
              ],
              [
                8.90876293182373,
                52.250450134277344
              ],
              [
                8.738264083862305,
                52.250450134277344
              ],
              [
                8.570398330688477,
                52.0491943359375
              ]
            ]
          ]
        ]
      }
    }
  ]
}