{
  "type": "FeatureCollection",
  "name": "territory-778",
  "features": [
    {
      "type": "Feature",
      "properties": {
        "Name": "Republic of Venezuela",
        "FromYear": 1811,
        "ToYear": 1811,
        "Area": 400228.16017382866,
        "Type": "POLITY",
        "Wikipedia": "Venezuela",
        "Wikidata": "Q717",
        "SeshatID": "",
        "Components": "",
        "MemberOf": ""
      },
      "geometry": {
        "type": "MultiPolygon",
        "coordinates": [
          [
            [
              [
                -67.31666564941406,
                10.571678161621094
              ],
              [
                -66.37355041503906,
                10.7002534866333
              ],
              [
                -66.15019989013672,
                10.635965347290039
              ],
              [
                -65.83870697021484,
                10.314528465270996
              ],
              [
                -64.9468002319336,
                10.057377815246582
              ],
              [
                -64.59552001953125,
                10.314528465270996
              ],
              [
                -64.37612915039062,
                10.314528465270996
              ],
              [
                -64.38343048095703,
                10.443102836608887
              ],
              [
                -64.09455871582031,
                10.507390975952148
              ],
              [
                -64.03263092041016,
                10.7002534866333
              ],
              [
                -61.91484069824219,
                10.764540672302246
              ],
              [
                -61.97705078125,
                10.571678161621094
              ],
              [
                -62.851158142089844,
                10.507390975952148
              ],
              [
                -62.843971252441406,
                10.378815650939941
              ],
              [
                -62.62457275390625,
                10.378815650939941
              ],
              [
                -62.617530822753906,
                10.250240325927734
              ],
              [
                -62.471282958984375,
                10.250240325927734
              ],
              [
                -62.30142593383789,
                9.800228118896484
              ],
              [
                -62.228328704833984,
                9.800228118896484
              ],
              [
                -62.50466537475586,
                9.478790283203125
              ],
              [
                -62.492340087890625,
                9.221640586853027
              ],
              [
                -62.1038818359375,
                8.707340240478516
              ],
              [
                -62.23902893066406,
                8.450189590454102
              ],
              [
                -62.38507080078125,
                8.450189590454102
              ],
              [
                -62.45277786254883,
                8.321614265441895
              ],
              [
                -62.88304138183594,
                8.128751754760742
              ],
              [
                -63.83209991455078,
                8.128751754760742
              ],
              [
                -64.26237487792969,
                7.935888767242432
              ],
              [
                -64.70552062988281,
                8.06446361541748
              ],
              [
                -64.98976135253906,
                7.871601104736328
              ],
              [
                -65.05278778076172,
                7.614450931549072
              ],
              [
                -65.271728515625,
                7.614450931549072
              ],
              [
                -65.42516326904297,
                7.807313442230225
              ],
              [
                -65.7952651977539,
                7.935888767242432
              ],
              [
                -65.86309814453125,
                7.807313442230225
              ],
              [
                -66.51238250732422,
                7.614450931549072
              ],
              [
                -66.57798767089844,
                7.421587944030762
              ],
              [
                -67.0063247680664,
                7.164437294006348
              ],
              [
                -67.0637435913086,
                6.714424133300781
              ],
              [
                -67.41227722167969,
                6.200123310089111
              ],
              [
                -67.99756622314453,
                6.264410972595215
              ],
              [
                -68.28536987304688,
                6.135835647583008
              ],
              [
                -69.45201873779297,
                6.135835647583008
              ],
              [
                -70.06107330322266,
                6.907287120819092
              ],
              [
                -70.50348663330078,
                7.035862445831299
              ],
              [
                -72.0354995727539,
                7.035862445831299
              ],
              [
                -72.11595916748047,
                7.228724956512451
              ],
              [
                -72.49125671386719,
                7.485875606536865
              ],
              [
                -72.50505828857422,
                7.807313442230225
              ],
              [
                -72.30062103271484,
                8.128751754760742
              ],
              [
                -72.31279754638672,
                8.385902404785156
              ],
              [
                -72.0207290649414,
                8.385902404785156
              ],
              [
                -71.88409423828125,
                8.578764915466309
              ],
              [
                -71.81106567382812,
                8.578764915466309
              ],
              [
                -71.81426239013672,
                8.643052101135254
              ],
              [
                -71.60489654541016,
                8.835914611816406
              ],
              [
                -71.16993713378906,
                8.900202751159668
              ],
              [
                -71.39915466308594,
                9.09306526184082
              ],
              [
                -71.40257263183594,
                9.157352447509766
              ],
              [
                -71.18683624267578,
                9.221640586853027
              ],
              [
                -71.1314468383789,
                9.543078422546387
              ],
              [
                -71.05836486816406,
                9.543078422546387
              ],
              [
                -70.76245880126953,
                9.478790283203125
              ],
              [
                -70.62711334228516,
                9.671652793884277
              ],
              [
                -70.7265625,
                10.121665954589844
              ],
              [
                -70.66521453857422,
                10.314528465270996
              ],
              [
                -71.03890228271484,
                10.443102836608887
              ],
              [
                -71.22312927246094,
                11.021690368652344
              ],
              [
                -71.22752380371094,
                11.085978507995605
              ],
              [
                -70.22515106201172,
                11.407415390014648
              ],
              [
                -70.15194702148438,
                11.407415390014648
              ],
              [
                -70.14299011230469,
                11.278841018676758
              ],
              [
                -69.91462707519531,
                11.15026569366455
              ],
              [
                -69.5487060546875,
                11.15026569366455
              ],
              [
                -69.41547393798828,
                11.343128204345703
              ],
              [
                -69.2003173828125,
                11.407415390014648
              ],
              [
                -69.20928955078125,
                11.535990715026855
              ],
              [
                -69.13607788085938,
                11.535990715026855
              ],
              [
                -68.76554107666016,
                11.47170352935791
              ],
              [
                -68.30884552001953,
                11.214552879333496
              ],
              [
                -68.19046783447266,
                10.507390975952148
              ],
              [
                -67.38981628417969,
                10.571678161621094
              ],
              [
                -67.31666564941406,
                10.571678161621094
              ]
            ]
          ],
          [
            [
              [
                -64.04025268554688,
                10.828827857971191
              ],
              [
                -64.26361846923828,
                10.893115997314453
              ],
              [
                -64.3486099243164,
                11.085978507995605
              ],
              [
                -64.05193328857422,
                11.021690368652344
              ],
              [
                -63.844329833984375,
                11.214552879333496
              ],
              [
                -63.75532531738281,
                10.957403182983398
              ],
              [
                -63.96709442138672,
                10.828827857971191
              ],
              [
                -64.04025268554688,
                10.828827857971191
              ]
            ]
          ]
        ]
      }
    }
  ]
}