{
  "type": "FeatureCollection",
  "name": "territory-779",
  "features": [
    {
      "type": "Feature",
      "properties": {
        "Name": "Mexicans",
        "FromYear": 1814,
        "ToYear": 1814,
        "Area": 310981.4326846153,
        "Type": "POLITY",
        "Wikipedia": "Mexicans",
        "Wikidata": "Q1209676",
        "SeshatID": "",
        "Components": "",
        "MemberOf": ""
      },
      "geometry": {
        "type": "Polygon",
        "coordinates": [
          [
            [
              -93.9037094116211,
              15.971842765808105
            ],
            [
              -94.15343475341797,
              16.16470718383789
            ],
            [
              -94.6688461303711,
              16.16470718383789
            ],
            [
              -94.68843841552734,
              16.293283462524414
            ],
            [
              -94.84561157226562,
              16.35757064819336
            ],
            [
              -94.95361328125,
              16.100418090820312
            ],
            [
              -95.36624908447266,
              15.907554626464844
            ],
            [
              -96.21102905273438,
              15.650403022766113
            ],
            [
              -96.7260513305664,
              15.650403022766113
            ],
            [
              -97.0493392944336,
              15.843266487121582
            ],
            [
              -97.87862396240234,
              15.971842765808105
            ],
            [
              -98.05585479736328,
              16.16470718383789
            ],
            [
              -98.43414306640625,
              16.228994369506836
            ],
            [
              -98.85388946533203,
              16.550434112548828
            ],
            [
              -99.68539428710938,
              16.67901039123535
            ],
            [
              -100.02298736572266,
              16.9361629486084
            ],
            [
              -101.11003112792969,
              17.257600784301758
            ],
            [
              -101.89891815185547,
              17.964767456054688
            ],
            [
              -102.56346893310547,
              17.964767456054688
            ],
            [
              -103.52046966552734,
              18.350492477416992
            ],
            [
              -103.53240203857422,
              18.414779663085938
            ],
            [
              -103.21076965332031,
              18.67193031311035
            ],
            [
              -102.82917785644531,
              18.607641220092773
            ],
            [
              -102.7791976928711,
              18.736217498779297
            ],
            [
              -102.48345947265625,
              18.736217498779297
            ],
            [
              -102.35953521728516,
              18.864791870117188
            ],
            [
              -102.5556640625,
              19.12194061279297
            ],
            [
              -102.55461883544922,
              19.507661819458008
            ],
            [
              -102.88755798339844,
              19.700523376464844
            ],
            [
              -102.91218566894531,
              19.8290958404541
            ],
            [
              -102.54183197021484,
              19.8290958404541
            ],
            [
              -102.41826629638672,
              19.95766830444336
            ],
            [
              -101.91191864013672,
              20.021955490112305
            ],
            [
              -101.96107482910156,
              20.279102325439453
            ],
            [
              -101.63971710205078,
              20.53624725341797
            ],
            [
              -101.49139404296875,
              20.53624725341797
            ],
            [
              -101.3316650390625,
              21.24339485168457
            ],
            [
              -101.03466796875,
              21.24339485168457
            ],
            [
              -100.58878326416016,
              20.857677459716797
            ],
            [
              -100.29198455810547,
              20.857677459716797
            ],
            [
              -100.1930160522461,
              21.114822387695312
            ],
            [
              -99.89608001708984,
              21.114822387695312
            ],
            [
              -99.56222534179688,
              20.921964645385742
            ],
            [
              -98.96855926513672,
              20.921964645385742
            ],
            [
              -98.84455871582031,
              21.050535202026367
            ],
            [
              -98.72163391113281,
              20.793392181396484
            ],
            [
              -98.48696899414062,
              20.72910499572754
            ],
            [
              -98.38703155517578,
              20.986249923706055
            ],
            [
              -98.2507553100586,
              21.050535202026367
            ],
            [
              -98.37393188476562,
              21.307680130004883
            ],
            [
              -98.25004577636719,
              21.43625259399414
            ],
            [
              -98.37403869628906,
              21.693397521972656
            ],
            [
              -98.16360473632812,
              21.7576847076416
            ],
            [
              -98.20132446289062,
              21.950544357299805
            ],
            [
              -98.37539672851562,
              22.079116821289062
            ],
            [
              -97.63179016113281,
              22.079116821289062
            ],
            [
              -97.6191635131836,
              22.014829635620117
            ],
            [
              -97.54424285888672,
              21.629112243652344
            ],
            [
              -97.37100982666016,
              21.500539779663086
            ],
            [
              -97.18753814697266,
              20.921964645385742
            ],
            [
              -96.89349365234375,
              20.53624725341797
            ],
            [
              -96.88167572021484,
              20.471960067749023
            ],
            [
              -97.08049011230469,
              20.343387603759766
            ],
            [
              -97.10751342773438,
              20.08624267578125
            ],
            [
              -97.4275131225586,
              20.214815139770508
            ],
            [
              -97.73904418945312,
              19.893383026123047
            ],
            [
              -97.70378112792969,
              19.700523376464844
            ],
            [
              -97.84014892578125,
              19.6362361907959
            ],
            [
              -97.94139099121094,
              19.379087448120117
            ],
            [
              -98.1634292602539,
              19.379087448120117
            ],
            [
              -98.50656127929688,
              19.6362361907959
            ],
            [
              -98.86495208740234,
              19.571949005126953
            ],
            [
              -98.93621063232422,
              19.95766830444336
            ],
            [
              -99.10828399658203,
              20.08624267578125
            ],
            [
              -99.39270782470703,
              20.021955490112305
            ],
            [
              -99.49301147460938,
              19.764808654785156
            ],
            [
              -99.70323944091797,
              19.700523376464844
            ],
            [
              -99.7295913696289,
              19.443374633789062
            ],
            [
              -99.93975067138672,
              19.379087448120117
            ],
            [
              -100.01667785644531,
              18.993366241455078
            ],
            [
              -100.30073547363281,
              18.929079055786133
            ],
            [
              -100.40160369873047,
              18.67193031311035
            ],
            [
              -100.12171936035156,
              18.350492477416992
            ],
            [
              -99.97394561767578,
              18.350492477416992
            ],
            [
              -99.36664581298828,
              18.67193031311035
            ],
            [
              -98.98546600341797,
              18.607641220092773
            ],
            [
              -98.89554595947266,
              18.929079055786133
            ],
            [
              -98.61133575439453,
              18.993366241455078
            ],
            [
              -98.35472106933594,
              18.800504684448242
            ],
            [
              -98.31547546386719,
              18.993366241455078
            ],
            [
              -97.9341049194336,
              18.929079055786133
            ],
            [
              -97.7237548828125,
              18.993366241455078
            ],
            [
              -97.48568725585938,
              19.314802169799805
            ],
            [
              -97.11566162109375,
              19.314802169799805
            ],
            [
              -97.00706481933594,
              19.12194061279297
            ],
            [
              -97.29146575927734,
              19.057653427124023
            ],
            [
              -97.24559783935547,
              18.800504684448242
            ],
            [
              -97.01239013671875,
              18.736217498779297
            ],
            [
              -96.98969268798828,
              18.607641220092773
            ],
            [
              -96.71665954589844,
              18.736217498779297
            ],
            [
              -96.57518768310547,
              18.350492477416992
            ],
            [
              -96.01374053955078,
              18.093341827392578
            ],
            [
              -96.0005111694336,
              17.57904052734375
            ],
            [
              -95.29476165771484,
              17.77190399169922
            ],
            [
              -95.26258087158203,
              17.57904052734375
            ],
            [
              -95.03056335449219,
              17.514753341674805
            ],
            [
              -94.76710510253906,
              17.257600784301758
            ],
            [
              -93.4292221069336,
              17.193313598632812
            ],
            [
              -93.55619812011719,
              17.06473731994629
            ],
            [
              -93.44193267822266,
              16.807586669921875
            ],
            [
              -93.56928253173828,
              16.67901039123535
            ],
            [
              -93.79034423828125,
              16.67901039123535
            ],
            [
              -93.63801574707031,
              16.16470718383789
            ],
            [
              -93.8301010131836,
              15.971842765808105
            ],
            [
              -93.9037094116211,
              15.971842765808105
            ]
          ]
        ]
      }
    }
  ]
}