{
  "type": "FeatureCollection",
  "name": "territory-78",
  "features": [
    {
      "type": "Feature",
      "properties": {
        "Name": "Galatia",
        "FromYear": -49,
        "ToYear": -28,
        "Area": 85740.27015212613,
        "Type": "POLITY",
        "Wikipedia": "Galatia",
        "Wikidata": "Q26847",
        "SeshatID": "",
        "Components": "",
        "MemberOf": ""
      },
      "geometry": {
        "type": "Polygon",
        "coordinates": [
          [
            [
              34.53628921508789,
              39.9670295715332
            ],
            [
              34.82843017578125,
              39.77294921875
            ],
            [
              34.726253509521484,
              39.57893371582031
            ],
            [
              34.766693115234375,
              39.25570297241211
            ],
            [
              34.47871780395508,
              38.80344009399414
            ],
            [
              33.67961502075195,
              38.67427444458008
            ],
            [
              33.266754150390625,
              38.48057174682617
            ],
            [
              33.304447174072266,
              38.09331130981445
            ],
            [
              33.12809753417969,
              37.89975357055664
            ],
            [
              33.09543228149414,
              37.5772590637207
            ],
            [
              32.75785827636719,
              37.3193473815918
            ],
            [
              32.79827117919922,
              36.932613372802734
            ],
            [
              32.55256271362305,
              36.80373764038086
            ],
            [
              32.241424560546875,
              36.80373764038086
            ],
            [
              31.972171783447266,
              37.254878997802734
            ],
            [
              31.59439468383789,
              37.38381576538086
            ],
            [
              31.600387573242188,
              37.44829177856445
            ],
            [
              31.522380828857422,
              37.44829177856445
            ],
            [
              31.216249465942383,
              37.51277160644531
            ],
            [
              31.04850196838379,
              37.38381576538086
            ],
            [
              30.73656463623047,
              37.38381576538086
            ],
            [
              30.748069763183594,
              37.51277160644531
            ],
            [
              30.531185150146484,
              37.706241607666016
            ],
            [
              30.15203285217285,
              37.835243225097656
            ],
            [
              30.24740982055664,
              38.028785705566406
            ],
            [
              30.891101837158203,
              38.22237777709961
            ],
            [
              30.98763656616211,
              38.416015625
            ],
            [
              31.385658264160156,
              38.48057174682617
            ],
            [
              31.442956924438477,
              39.06184005737305
            ],
            [
              31.23297691345215,
              39.320335388183594
            ],
            [
              31.37827491760254,
              39.9670295715332
            ],
            [
              31.306106567382812,
              40.031734466552734
            ],
            [
              32.110042572021484,
              40.16116714477539
            ],
            [
              32.30427932739258,
              40.4848747253418
            ],
            [
              33.00168991088867,
              40.355369567871094
            ],
            [
              33.095882415771484,
              40.4848747253418
            ],
            [
              33.41252517700195,
              40.4848747253418
            ],
            [
              33.555442810058594,
              40.355369567871094
            ],
            [
              34.48881149291992,
              40.225894927978516
            ],
            [
              34.56786346435547,
              40.225894927978516
            ],
            [
              34.53628921508789,
              39.9670295715332
            ]
          ]
        ]
      }
    }
  ]
}