{
  "type": "FeatureCollection",
  "name": "territory-782",
  "features": [
    {
      "type": "Feature",
      "properties": {
        "Name": "Río de la Plata",
        "FromYear": 1811,
        "ToYear": 1811,
        "Area": 1678493.5127176126,
        "Type": "POLITY",
        "Wikipedia": "Río de la Plata",
        "Wikidata": "Q35827",
        "SeshatID": "",
        "Components": "",
        "MemberOf": ""
      },
      "geometry": {
        "type": "Polygon",
        "coordinates": [
          [
            [
              -56.12749099731445,
              -27.422470092773438
            ],
            [
              -56.11604309082031,
              -27.358179092407227
            ],
            [
              -55.751312255859375,
              -27.422470092773438
            ],
            [
              -55.63090133666992,
              -27.165306091308594
            ],
            [
              -54.96379470825195,
              -26.77955436706543
            ],
            [
              -54.76039505004883,
              -26.458091735839844
            ],
            [
              -54.71277618408203,
              -25.68657684326172
            ],
            [
              -53.96368408203125,
              -25.68657684326172
            ],
            [
              -53.883583068847656,
              -26.136627197265625
            ],
            [
              -53.80859375,
              -26.136627197265625
            ],
            [
              -53.84946823120117,
              -26.393798828125
            ],
            [
              -53.77442932128906,
              -26.393798828125
            ],
            [
              -53.89078140258789,
              -27.101015090942383
            ],
            [
              -54.31069564819336,
              -27.358179092407227
            ],
            [
              -54.12973403930664,
              -27.615341186523438
            ],
            [
              -53.52753448486328,
              -27.615341186523438
            ],
            [
              -53.27130889892578,
              -27.87249755859375
            ],
            [
              -53.9701042175293,
              -30.700767517089844
            ],
            [
              -53.89412307739258,
              -30.700767517089844
            ],
            [
              -53.962581634521484,
              -31.022106170654297
            ],
            [
              -53.69375991821289,
              -31.53624725341797
            ],
            [
              -53.62685012817383,
              -31.921865463256836
            ],
            [
              -53.48863983154297,
              -31.98613739013672
            ],
            [
              -53.376075744628906,
              -32.50033187866211
            ],
            [
              -53.237892150878906,
              -32.56460952758789
            ],
            [
              -53.29727554321289,
              -32.82173156738281
            ],
            [
              -53.572113037109375,
              -33.014583587646484
            ],
            [
              -53.67923355102539,
              -33.46461868286133
            ],
            [
              -53.526676177978516,
              -33.78611755371094
            ],
            [
              -53.54233932495117,
              -33.85042190551758
            ],
            [
              -53.714263916015625,
              -34.23628616333008
            ],
            [
              -54.02592849731445,
              -34.557891845703125
            ],
            [
              -54.8189811706543,
              -34.94389343261719
            ],
            [
              -56.03681564331055,
              -34.879554748535156
            ],
            [
              -56.379703521728516,
              -35.008235931396484
            ],
            [
              -56.559810638427734,
              -34.815216064453125
            ],
            [
              -57.08256912231445,
              -34.75088119506836
            ],
            [
              -57.125370025634766,
              -34.62221908569336
            ],
            [
              -57.3994026184082,
              -34.49356460571289
            ],
            [
              -58.09275436401367,
              -34.49356460571289
            ],
            [
              -58.31477355957031,
              -34.17197036743164
            ],
            [
              -58.468658447265625,
              -34.17197036743164
            ],
            [
              -58.59730911254883,
              -34.36492156982422
            ],
            [
              -58.37608337402344,
              -34.68655014038086
            ],
            [
              -57.28129196166992,
              -35.20127487182617
            ],
            [
              -57.34575271606445,
              -35.71617126464844
            ],
            [
              -58.47597122192383,
              -35.32998275756836
            ],
            [
              -58.5174446105957,
              -35.20127487182617
            ],
            [
              -58.80855941772461,
              -35.136924743652344
            ],
            [
              -59.069969177246094,
              -34.68655014038086
            ],
            [
              -59.769935607910156,
              -34.42924118041992
            ],
            [
              -60.06689453125,
              -34.1076545715332
            ],
            [
              -60.62953186035156,
              -33.91472625732422
            ],
            [
              -61.013851165771484,
              -33.91472625732422
            ],
            [
              -61.37456512451172,
              -34.1076545715332
            ],
            [
              -61.60533142089844,
              -34.1076545715332
            ],
            [
              -61.71817398071289,
              -34.23628616333008
            ],
            [
              -61.93101119995117,
              -34.17197036743164
            ],
            [
              -62.10297775268555,
              -34.23628616333008
            ],
            [
              -62.06230163574219,
              -34.36492156982422
            ],
            [
              -62.37030029296875,
              -34.36492156982422
            ],
            [
              -63.06043243408203,
              -34.62221908569336
            ],
            [
              -63.59998321533203,
              -34.62221908569336
            ],
            [
              -63.56253433227539,
              -34.49356460571289
            ],
            [
              -64.3535385131836,
              -34.300601959228516
            ],
            [
              -67.85697937011719,
              -34.42924118041992
            ],
            [
              -68.7642593383789,
              -34.62221908569336
            ],
            [
              -68.9791030883789,
              -34.815216064453125
            ],
            [
              -69.77103424072266,
              -34.879554748535156
            ],
            [
              -70.49987030029297,
              -35.45869827270508
            ],
            [
              -70.52113342285156,
              -35.52306365966797
            ],
            [
              -70.65455627441406,
              -35.45869827270508
            ],
            [
              -70.24458312988281,
              -34.42924118041992
            ],
            [
              -69.95296478271484,
              -34.23628616333008
            ],
            [
              -70.04673767089844,
              -34.04334259033203
            ],
            [
              -69.9084243774414,
              -33.59321212768555
            ],
            [
              -69.98519134521484,
              -33.59321212768555
            ],
            [
              -69.92674255371094,
              -33.40032196044922
            ],
            [
              -70.19477081298828,
              -33.2717399597168
            ],
            [
              -70.09876251220703,
              -32.95029830932617
            ],
            [
              -70.29042053222656,
              -32.82173156738281
            ],
            [
              -70.25403594970703,
              -32.43605422973633
            ],
            [
              -70.44609069824219,
              -32.30750274658203
            ],
            [
              -70.43033599853516,
              -31.98613739013672
            ],
            [
              -70.68083190917969,
              -31.793325424194336
            ],
            [
              -70.66699981689453,
              -31.47197914123535
            ],
            [
              -70.74317932128906,
              -31.47197914123535
            ],
            [
              -70.68983459472656,
              -31.2791748046875
            ],
            [
              -70.40882873535156,
              -31.08637237548828
            ],
            [
              -70.36424255371094,
              -30.636499404907227
            ],
            [
              -69.95986938476562,
              -30.250883102416992
            ],
            [
              -70.06211853027344,
              -30.058069229125977
            ],
            [
              -70.01322174072266,
              -29.865249633789062
            ],
            [
              -70.13243865966797,
              -29.7367000579834
            ],
            [
              -70.08443450927734,
              -29.54387092590332
            ],
            [
              -70.1601333618164,
              -29.54387092590332
            ],
            [
              -70.08135223388672,
              -29.22247886657715
            ],
            [
              -69.89910888671875,
              -29.093917846679688
            ],
            [
              -69.73321533203125,
              -28.386796951293945
            ],
            [
              -69.34457397460938,
              -28.001075744628906
            ],
            [
              -68.95201110839844,
              -27.229597091674805
            ],
            [
              -68.46084594726562,
              -27.03672218322754
            ],
            [
              -68.4214096069336,
              -26.843847274780273
            ],
            [
              -68.66998291015625,
              -26.58667755126953
            ],
            [
              -68.48181915283203,
              -26.008041381835938
            ],
            [
              -68.69683074951172,
              -25.55799102783203
            ],
            [
              -68.52871704101562,
              -25.04365348815918
            ],
            [
              -68.65557861328125,
              -24.915069580078125
            ],
            [
              -68.61080169677734,
              -24.65790557861328
            ],
            [
              -68.25736236572266,
              -24.336454391479492
            ],
            [
              -67.38320922851562,
              -24.01500701904297
            ],
            [
              -67.08344268798828,
              -23.050682067871094
            ],
            [
              -67.25869750976562,
              -22.729246139526367
            ],
            [
              -66.57914733886719,
              -22.150665283203125
            ],
            [
              -66.43041229248047,
              -22.150665283203125
            ],
            [
              -66.31060791015625,
              -21.82923126220703
            ],
            [
              -65.83544921875,
              -22.150665283203125
            ],
            [
              -64.86863708496094,
              -22.150665283203125
            ],
            [
              -64.60719299316406,
              -22.40781021118164
            ],
            [
              -64.51331329345703,
              -22.793533325195312
            ],
            [
              -64.35517120361328,
              -22.729246139526367
            ],
            [
              -64.12493133544922,
              -22.150665283203125
            ],
            [
              -63.66107177734375,
              -22.022090911865234
            ],
            [
              -62.99189758300781,
              -22.022090911865234
            ],
            [
              -62.93500518798828,
              -22.150665283203125
            ],
            [
              -62.720645904541016,
              -22.214950561523438
            ],
            [
              -62.73823165893555,
              -22.343524932861328
            ],
            [
              -62.4105339050293,
              -22.664958953857422
            ],
            [
              -62.47681427001953,
              -24.143585205078125
            ],
            [
              -62.188018798828125,
              -24.207876205444336
            ],
            [
              -62.06840133666992,
              -24.400745391845703
            ],
            [
              -60.53547668457031,
              -25.10794448852539
            ],
            [
              -60.02062225341797,
              -25.622283935546875
            ],
            [
              -59.999691009521484,
              -25.943748474121094
            ],
            [
              -59.732757568359375,
              -26.136627197265625
            ],
            [
              -59.62729263305664,
              -26.393798828125
            ],
            [
              -59.19951248168945,
              -26.522384643554688
            ],
            [
              -58.614986419677734,
              -27.03672218322754
            ],
            [
              -58.73699188232422,
              -27.293888092041016
            ],
            [
              -58.67361831665039,
              -27.358179092407227
            ],
            [
              -58.13531494140625,
              -27.293888092041016
            ],
            [
              -57.56871795654297,
              -27.48676109313965
            ],
            [
              -56.90316390991211,
              -27.551050186157227
            ],
            [
              -56.202728271484375,
              -27.422470092773438
            ],
            [
              -56.12749099731445,
              -27.422470092773438
            ]
          ]
        ]
      }
    }
  ]
}