{
  "type": "FeatureCollection",
  "name": "territory-783",
  "features": [
    {
      "type": "Feature",
      "properties": {
        "Name": "Guayaquil Junta",
        "FromYear": 1812,
        "ToYear": 1813,
        "Area": 139370.5393419156,
        "Type": "POLITY",
        "Wikipedia": "Ecuadorian War of Independence",
        "Wikidata": "Q5334383",
        "SeshatID": "",
        "Components": "",
        "MemberOf": ""
      },
      "geometry": {
        "type": "Polygon",
        "coordinates": [
          [
            [
              -80.22927856445312,
              0.542813181877136
            ],
            [
              -80.22835540771484,
              0.864250957965851
            ],
            [
              -79.71869659423828,
              0.992826044559479
            ],
            [
              -79.42747497558594,
              1.185688734054565
            ],
            [
              -79.1363296508789,
              1.185688734054565
            ],
            [
              -78.99090576171875,
              1.378551483154297
            ],
            [
              -78.99101257324219,
              1.442839026451111
            ],
            [
              -78.4085922241211,
              0.992826044559479
            ],
            [
              -77.75392150878906,
              0.799963414669037
            ],
            [
              -77.53621673583984,
              0.60710072517395
            ],
            [
              -77.53709411621094,
              0.414238125085831
            ],
            [
              -77.31948852539062,
              0.285663068294525
            ],
            [
              -76.66490936279297,
              0.221375524997711
            ],
            [
              -76.51856994628906,
              0.349950581789017
            ],
            [
              -76.30024719238281,
              0.349950581789017
            ],
            [
              -76.08361053466797,
              0.092800483107567
            ],
            [
              -75.77804565429688,
              0.028512962162495
            ],
            [
              -75.70661926269531,
              -0.228637129068375
            ],
            [
              -75.41715240478516,
              -0.421499729156494
            ],
            [
              -75.34976959228516,
              -0.935800075531006
            ],
            [
              -75.49612426757812,
              -1.00008761882782
            ],
            [
              -75.94758605957031,
              -1.964401364326477
            ],
            [
              -76.39321899414062,
              -2.414414644241333
            ],
            [
              -76.98133087158203,
              -2.671565055847168
            ],
            [
              -77.55158996582031,
              -2.092976570129395
            ],
            [
              -77.91314697265625,
              -1.964401364326477
            ],
            [
              -77.90966033935547,
              -1.771538615226746
            ],
            [
              -78.05305480957031,
              -1.642963409423828
            ],
            [
              -78.48873901367188,
              -1.578675746917725
            ],
            [
              -78.7809829711914,
              -1.642963409423828
            ],
            [
              -79.0088882446289,
              -2.157264232635498
            ],
            [
              -79.4457015991211,
              -2.157264232635498
            ],
            [
              -79.80120086669922,
              -1.707250952720642
            ],
            [
              -79.79589080810547,
              -1.385813117027283
            ],
            [
              -79.5737533569336,
              -1.128662824630737
            ],
            [
              -79.6408920288086,
              -0.67864990234375
            ],
            [
              -79.34483337402344,
              -0.164349600672722
            ],
            [
              -79.56216430664062,
              -0.035774555057287
            ],
            [
              -79.5759048461914,
              0.221375524997711
            ],
            [
              -79.7207260131836,
              0.349950581789017
            ],
            [
              -80.01182556152344,
              0.349950581789017
            ],
            [
              -80.083984375,
              0.478525668382645
            ],
            [
              -80.22954559326172,
              0.478525668382645
            ],
            [
              -80.22927856445312,
              0.542813181877136
            ]
          ]
        ]
      }
    }
  ]
}