{
  "type": "FeatureCollection",
  "name": "territory-786",
  "features": [
    {
      "type": "Feature",
      "properties": {
        "Name": "Cundinamarca",
        "FromYear": 1814,
        "ToYear": 1814,
        "Area": 223335.21833127193,
        "Type": "POLITY",
        "Wikipedia": "Cundinamarca",
        "Wikidata": "Q5194225",
        "SeshatID": "",
        "Components": "",
        "MemberOf": ""
      },
      "geometry": {
        "type": "Polygon",
        "coordinates": [
          [
            [
              -74.99839782714844,
              3.114316701889038
            ],
            [
              -74.63938903808594,
              3.50004243850708
            ],
            [
              -74.64131927490234,
              3.628617763519287
            ],
            [
              -74.78799438476562,
              3.692905426025391
            ],
            [
              -74.79346466064453,
              4.01434326171875
            ],
            [
              -75.15888214111328,
              4.078630924224854
            ],
            [
              -75.30108642578125,
              3.885768175125122
            ],
            [
              -75.80985260009766,
              3.821480512619019
            ],
            [
              -75.95665740966797,
              3.885768175125122
            ],
            [
              -75.958984375,
              4.01434326171875
            ],
            [
              -75.81573486328125,
              4.142918586730957
            ],
            [
              -75.82096099853516,
              4.400069236755371
            ],
            [
              -75.67524719238281,
              4.400069236755371
            ],
            [
              -75.60516357421875,
              4.528644561767578
            ],
            [
              -75.68706512451172,
              4.914370536804199
            ],
            [
              -75.61419677734375,
              4.914370536804199
            ],
            [
              -75.62080383300781,
              5.171521186828613
            ],
            [
              -75.33452606201172,
              5.364383697509766
            ],
            [
              -74.97008514404297,
              5.364383697509766
            ],
            [
              -74.8394775390625,
              5.878684997558594
            ],
            [
              -74.54987335205078,
              5.942972660064697
            ],
            [
              -74.4653091430664,
              5.557246685028076
            ],
            [
              -74.09721374511719,
              5.428671360015869
            ],
            [
              -74.02794647216797,
              5.557246685028076
            ],
            [
              -73.88215637207031,
              5.557246685028076
            ],
            [
              -73.65811920166016,
              5.364383697509766
            ],
            [
              -73.65303039550781,
              5.171521186828613
            ],
            [
              -73.5040283203125,
              5.042945861816406
            ],
            [
              -73.56930541992188,
              4.721507549285889
            ],
            [
              -73.34651184082031,
              4.528644561767578
            ],
            [
              -73.0537338256836,
              4.464356899261475
            ],
            [
              -72.75493621826172,
              4.078630924224854
            ],
            [
              -72.24501037597656,
              4.078630924224854
            ],
            [
              -72.17447662353516,
              4.207206249237061
            ],
            [
              -71.66571044921875,
              4.271493911743164
            ],
            [
              -70.94477081298828,
              4.657219886779785
            ],
            [
              -70.30696105957031,
              5.428671360015869
            ],
            [
              -69.80181121826172,
              5.62153434753418
            ],
            [
              -69.66690826416016,
              6.007260322570801
            ],
            [
              -69.52108764648438,
              6.007260322570801
            ],
            [
              -69.45201873779297,
              6.135835647583008
            ],
            [
              -68.28536987304688,
              6.135835647583008
            ],
            [
              -67.99756622314453,
              6.264410972595215
            ],
            [
              -67.48519897460938,
              6.200123310089111
            ],
            [
              -67.61492156982422,
              5.62153434753418
            ],
            [
              -67.82872009277344,
              5.428671360015869
            ],
            [
              -67.82112121582031,
              5.10723352432251
            ],
            [
              -67.89399719238281,
              5.10723352432251
            ],
            [
              -67.80034637451172,
              4.01434326171875
            ],
            [
              -68.31025695800781,
              4.01434326171875
            ],
            [
              -68.38020324707031,
              3.821480512619019
            ],
            [
              -68.74347686767578,
              3.757192850112915
            ],
            [
              -68.88652801513672,
              3.564330101013184
            ],
            [
              -69.46919250488281,
              3.564330101013184
            ],
            [
              -69.75887298583984,
              3.435754776000977
            ],
            [
              -69.97506713867188,
              3.242892026901245
            ],
            [
              -69.9717788696289,
              2.921453714370728
            ],
            [
              -70.11682891845703,
              2.857166290283203
            ],
            [
              -70.69879150390625,
              2.7928786277771
            ],
            [
              -70.99122619628906,
              2.921453714370728
            ],
            [
              -72.3001480102539,
              2.728590965270996
            ],
            [
              -72.51702880859375,
              2.535728216171265
            ],
            [
              -72.95340728759766,
              2.471440553665161
            ],
            [
              -73.1701889038086,
              2.214290142059326
            ],
            [
              -73.6798095703125,
              2.214290142059326
            ],
            [
              -73.75027465820312,
              1.571414232254028
            ],
            [
              -73.82291412353516,
              1.442839026451111
            ],
            [
              -74.11407470703125,
              1.442839026451111
            ],
            [
              -74.62423706054688,
              1.76427698135376
            ],
            [
              -74.69868469238281,
              2.150002479553223
            ],
            [
              -74.84506225585938,
              2.27857780456543
            ],
            [
              -74.70240783691406,
              2.664303302764893
            ],
            [
              -74.99620056152344,
              2.921453714370728
            ],
            [
              -74.99839782714844,
              3.114316701889038
            ]
          ]
        ]
      }
    }
  ]
}