{
  "type": "FeatureCollection",
  "name": "territory-787",
  "features": [
    {
      "type": "Feature",
      "properties": {
        "Name": "Imamate of Yemen",
        "FromYear": 1815,
        "ToYear": 1869,
        "Area": 95817.40791166473,
        "Type": "POLITY",
        "Wikipedia": "Imams of Yemen",
        "Wikidata": "Q1042069",
        "SeshatID": "",
        "Components": "",
        "MemberOf": ""
      },
      "geometry": {
        "type": "Polygon",
        "coordinates": [
          [
            [
              44.87591552734375,
              16.421857833862305
            ],
            [
              44.8648681640625,
              16.228994369506836
            ],
            [
              45.00115966796875,
              16.036130905151367
            ],
            [
              44.89181137084961,
              15.393251419067383
            ],
            [
              45.038909912109375,
              15.393251419067383
            ],
            [
              44.93776321411133,
              14.878947257995605
            ],
            [
              45.081363677978516,
              14.81466007232666
            ],
            [
              45.47917556762695,
              13.97891902923584
            ],
            [
              45.10262680053711,
              13.786055564880371
            ],
            [
              45.0198860168457,
              13.593193054199219
            ],
            [
              44.576576232910156,
              13.528904914855957
            ],
            [
              44.34743881225586,
              13.336042404174805
            ],
            [
              44.34148406982422,
              13.207467079162598
            ],
            [
              43.825172424316406,
              13.143178939819336
            ],
            [
              43.822265625,
              13.07889175415039
            ],
            [
              43.678497314453125,
              13.143178939819336
            ],
            [
              43.6139030456543,
              13.336042404174805
            ],
            [
              43.396766662597656,
              13.40032958984375
            ],
            [
              43.32341003417969,
              13.40032958984375
            ],
            [
              43.25004959106445,
              13.40032958984375
            ],
            [
              43.26481628417969,
              13.721768379211426
            ],
            [
              43.056640625,
              13.97891902923584
            ],
            [
              42.88957214355469,
              15.07181167602539
            ],
            [
              42.74578857421875,
              15.136098861694336
            ],
            [
              42.70881652832031,
              15.843266487121582
            ],
            [
              42.78240966796875,
              15.843266487121582
            ],
            [
              42.8239860534668,
              16.614723205566406
            ],
            [
              42.54684066772461,
              16.9361629486084
            ],
            [
              42.55038070678711,
              17.000450134277344
            ],
            [
              43.464351654052734,
              17.514753341674805
            ],
            [
              43.53813552856445,
              17.514753341674805
            ],
            [
              43.61192321777344,
              17.514753341674805
            ],
            [
              43.534446716308594,
              17.450464248657227
            ],
            [
              43.600852966308594,
              17.321889877319336
            ],
            [
              43.748374938964844,
              17.321889877319336
            ],
            [
              44.238643646240234,
              16.87187385559082
            ],
            [
              44.3897819519043,
              16.9361629486084
            ],
            [
              44.452354431152344,
              16.743297576904297
            ],
            [
              44.81336975097656,
              16.614723205566406
            ],
            [
              44.80225372314453,
              16.421857833862305
            ],
            [
              44.87591552734375,
              16.421857833862305
            ]
          ]
        ]
      }
    }
  ]
}