{
  "type": "FeatureCollection",
  "name": "territory-788",
  "features": [
    {
      "type": "Feature",
      "properties": {
        "Name": "Federal League",
        "FromYear": 1815,
        "ToYear": 1819,
        "Area": 604812.998709265,
        "Type": "POLITY",
        "Wikipedia": "Federal League (1815-1820)",
        "Wikidata": "Q2625228",
        "SeshatID": "",
        "Components": "",
        "MemberOf": ""
      },
      "geometry": {
        "type": "Polygon",
        "coordinates": [
          [
            [
              -53.526676177978516,
              -33.78611755371094
            ],
            [
              -53.54233932495117,
              -33.85042190551758
            ],
            [
              -53.714263916015625,
              -34.23628616333008
            ],
            [
              -54.02592849731445,
              -34.557891845703125
            ],
            [
              -54.8189811706543,
              -34.94389343261719
            ],
            [
              -56.03681564331055,
              -34.879554748535156
            ],
            [
              -56.379703521728516,
              -35.008235931396484
            ],
            [
              -56.559810638427734,
              -34.815216064453125
            ],
            [
              -57.08256912231445,
              -34.75088119506836
            ],
            [
              -57.125370025634766,
              -34.62221908569336
            ],
            [
              -57.3994026184082,
              -34.49356460571289
            ],
            [
              -58.09275436401367,
              -34.49356460571289
            ],
            [
              -58.39171600341797,
              -34.17197036743164
            ],
            [
              -58.468658447265625,
              -34.17197036743164
            ],
            [
              -58.57121658325195,
              -33.979034423828125
            ],
            [
              -59.254547119140625,
              -33.65751266479492
            ],
            [
              -59.49390411376953,
              -33.40032196044922
            ],
            [
              -60.89207077026367,
              -32.88601303100586
            ],
            [
              -62.60163116455078,
              -32.69316864013672
            ],
            [
              -63.596256256103516,
              -32.69316864013672
            ],
            [
              -63.29994201660156,
              -31.857595443725586
            ],
            [
              -63.55548095703125,
              -31.664785385131836
            ],
            [
              -63.56633758544922,
              -31.407711029052734
            ],
            [
              -63.76237487792969,
              -31.2791748046875
            ],
            [
              -63.77424621582031,
              -31.022106170654297
            ],
            [
              -63.11705017089844,
              -30.50796127319336
            ],
            [
              -62.768611907958984,
              -29.993797302246094
            ],
            [
              -62.15062713623047,
              -29.6081485748291
            ],
            [
              -62.12197494506836,
              -29.47959327697754
            ],
            [
              -61.28885269165039,
              -28.772504806518555
            ],
            [
              -61.21332931518555,
              -28.772504806518555
            ],
            [
              -61.013771057128906,
              -28.901071548461914
            ],
            [
              -60.13405990600586,
              -29.02963638305664
            ],
            [
              -60.009952545166016,
              -29.1581974029541
            ],
            [
              -59.63191223144531,
              -29.1581974029541
            ],
            [
              -59.122291564941406,
              -28.51536750793457
            ],
            [
              -59.09634780883789,
              -28.001075744628906
            ],
            [
              -58.82406234741211,
              -27.358179092407227
            ],
            [
              -58.81220245361328,
              -27.293888092041016
            ],
            [
              -58.13531494140625,
              -27.293888092041016
            ],
            [
              -57.56871795654297,
              -27.48676109313965
            ],
            [
              -56.90316390991211,
              -27.551050186157227
            ],
            [
              -56.202728271484375,
              -27.422470092773438
            ],
            [
              -56.12749099731445,
              -27.422470092773438
            ],
            [
              -56.11604309082031,
              -27.358179092407227
            ],
            [
              -55.751312255859375,
              -27.422470092773438
            ],
            [
              -55.63090133666992,
              -27.165306091308594
            ],
            [
              -54.96379470825195,
              -26.77955436706543
            ],
            [
              -54.76039505004883,
              -26.458091735839844
            ],
            [
              -54.71277618408203,
              -25.68657684326172
            ],
            [
              -53.96368408203125,
              -25.68657684326172
            ],
            [
              -53.883583068847656,
              -26.136627197265625
            ],
            [
              -53.80859375,
              -26.136627197265625
            ],
            [
              -53.84946823120117,
              -26.393798828125
            ],
            [
              -53.77442932128906,
              -26.393798828125
            ],
            [
              -53.89078140258789,
              -27.101015090942383
            ],
            [
              -54.31069564819336,
              -27.358179092407227
            ],
            [
              -54.12973403930664,
              -27.615341186523438
            ],
            [
              -53.52753448486328,
              -27.615341186523438
            ],
            [
              -53.27130889892578,
              -27.87249755859375
            ],
            [
              -53.9701042175293,
              -30.700767517089844
            ],
            [
              -53.89412307739258,
              -30.700767517089844
            ],
            [
              -53.962581634521484,
              -31.022106170654297
            ],
            [
              -53.69375991821289,
              -31.53624725341797
            ],
            [
              -53.62685012817383,
              -31.921865463256836
            ],
            [
              -53.48863983154297,
              -31.98613739013672
            ],
            [
              -53.376075744628906,
              -32.50033187866211
            ],
            [
              -53.237892150878906,
              -32.56460952758789
            ],
            [
              -53.29727554321289,
              -32.82173156738281
            ],
            [
              -53.572113037109375,
              -33.014583587646484
            ],
            [
              -53.67923355102539,
              -33.46461868286133
            ],
            [
              -53.526676177978516,
              -33.78611755371094
            ]
          ]
        ]
      }
    }
  ]
}