{
  "type": "FeatureCollection",
  "name": "territory-795",
  "features": [
    {
      "type": "Feature",
      "properties": {
        "Name": "Talpur Dynasty",
        "FromYear": 1822,
        "ToYear": 1835,
        "Area": 535463.7924465113,
        "Type": "POLITY",
        "Wikipedia": "Talpur dynasty",
        "Wikidata": "Q19569014",
        "SeshatID": "",
        "Components": "",
        "MemberOf": ""
      },
      "geometry": {
        "type": "Polygon",
        "coordinates": [
          [
            [
              73.92049407958984,
              30.372163772583008
            ],
            [
              73.90735626220703,
              30.307893753051758
            ],
            [
              73.98323822021484,
              30.307893753051758
            ],
            [
              73.97013854980469,
              30.243623733520508
            ],
            [
              73.95708465576172,
              30.179353713989258
            ],
            [
              73.944091796875,
              30.115081787109375
            ],
            [
              73.62789154052734,
              30.050809860229492
            ],
            [
              73.52651977539062,
              29.922264099121094
            ],
            [
              73.18727111816406,
              29.34377670288086
            ],
            [
              72.12115478515625,
              28.893810272216797
            ],
            [
              71.0809097290039,
              28.12238883972168
            ],
            [
              70.93014526367188,
              28.12238883972168
            ],
            [
              70.58604431152344,
              27.865236282348633
            ],
            [
              70.1923828125,
              27.2866268157959
            ],
            [
              70.07557678222656,
              26.515121459960938
            ],
            [
              70.21626281738281,
              26.450830459594727
            ],
            [
              70.19754791259766,
              26.32224464416504
            ],
            [
              70.34759521484375,
              26.32224464416504
            ],
            [
              70.55638885498047,
              25.67931365966797
            ],
            [
              70.75460052490234,
              25.48643684387207
            ],
            [
              70.78622436523438,
              25.164974212646484
            ],
            [
              71.05162048339844,
              24.907808303833008
            ],
            [
              71.06889343261719,
              24.457773208618164
            ],
            [
              71.21829986572266,
              24.457773208618164
            ],
            [
              71.34362030029297,
              24.264904022216797
            ],
            [
              71.02132415771484,
              24.07203483581543
            ],
            [
              69.76001739501953,
              24.136323928833008
            ],
            [
              69.3640365600586,
              23.943456649780273
            ],
            [
              68.7596206665039,
              23.879167556762695
            ],
            [
              68.35022735595703,
              23.557723999023438
            ],
            [
              68.2756576538086,
              23.557723999023438
            ],
            [
              68.12652587890625,
              23.557723999023438
            ],
            [
              68.15538787841797,
              23.814878463745117
            ],
            [
              67.63314819335938,
              23.814878463745117
            ],
            [
              67.49114990234375,
              23.879167556762695
            ],
            [
              67.43836975097656,
              24.07203483581543
            ],
            [
              67.28907775878906,
              24.07203483581543
            ],
            [
              67.32612609863281,
              24.393482208251953
            ],
            [
              67.25143432617188,
              24.393482208251953
            ],
            [
              67.2146987915039,
              24.714935302734375
            ],
            [
              66.63204956054688,
              24.843517303466797
            ],
            [
              66.67909240722656,
              25.229267120361328
            ],
            [
              66.34514617919922,
              25.55072784423828
            ],
            [
              66.02147674560547,
              25.357851028442383
            ],
            [
              64.8160629272461,
              25.29355812072754
            ],
            [
              64.80064392089844,
              25.164974212646484
            ],
            [
              64.2845230102539,
              25.229267120361328
            ],
            [
              64.22502136230469,
              25.357851028442383
            ],
            [
              63.62620544433594,
              25.357851028442383
            ],
            [
              63.536216735839844,
              25.229267120361328
            ],
            [
              62.563419342041016,
              25.229267120361328
            ],
            [
              62.47393035888672,
              25.100683212280273
            ],
            [
              62.18195724487305,
              25.164974212646484
            ],
            [
              62.01787185668945,
              25.03639030456543
            ],
            [
              61.651031494140625,
              25.100683212280273
            ],
            [
              61.65822219848633,
              25.164974212646484
            ],
            [
              61.85404586791992,
              26.19365882873535
            ],
            [
              62.42774963378906,
              26.57941436767578
            ],
            [
              63.11177062988281,
              26.643707275390625
            ],
            [
              63.27887725830078,
              26.772293090820312
            ],
            [
              63.33076095581055,
              27.158044815063477
            ],
            [
              62.82195281982422,
              27.2866268157959
            ],
            [
              62.90277099609375,
              27.865236282348633
            ],
            [
              62.82744598388672,
              27.865236282348633
            ],
            [
              62.79844284057617,
              28.186676025390625
            ],
            [
              61.874298095703125,
              28.572391510009766
            ],
            [
              61.48815155029297,
              29.022375106811523
            ],
            [
              61.451602935791016,
              29.279497146606445
            ],
            [
              60.98139572143555,
              29.665164947509766
            ],
            [
              61.001495361328125,
              29.79371452331543
            ],
            [
              62.3036994934082,
              29.40805435180664
            ],
            [
              63.75174331665039,
              29.472333908081055
            ],
            [
              63.827423095703125,
              29.472333908081055
            ],
            [
              64.11966705322266,
              29.40805435180664
            ],
            [
              64.52979278564453,
              29.600887298583984
            ],
            [
              65.12470245361328,
              29.536611557006836
            ],
            [
              65.99028778076172,
              29.729440689086914
            ],
            [
              66.25102233886719,
              29.922264099121094
            ],
            [
              66.32681274414062,
              29.922264099121094
            ],
            [
              66.33809661865234,
              29.986536026000977
            ],
            [
              66.43708038330078,
              30.950578689575195
            ],
            [
              66.87832641601562,
              31.271915435791016
            ],
            [
              67.55099487304688,
              31.20764923095703
            ],
            [
              67.81696319580078,
              31.40045166015625
            ],
            [
              67.6646499633789,
              31.40045166015625
            ],
            [
              67.61372375488281,
              31.528987884521484
            ],
            [
              67.93124389648438,
              31.593257904052734
            ],
            [
              68.12230682373047,
              31.78606605529785
            ],
            [
              68.6561279296875,
              31.78606605529785
            ],
            [
              68.78253173828125,
              31.65752601623535
            ],
            [
              69.08743286132812,
              31.65752601623535
            ],
            [
              69.292724609375,
              31.91460609436035
            ],
            [
              69.59790802001953,
              31.91460609436035
            ],
            [
              69.73397064208984,
              31.464719772338867
            ],
            [
              70.1148452758789,
              31.464719772338867
            ],
            [
              70.06156158447266,
              30.822044372558594
            ],
            [
              69.85929107666016,
              30.564971923828125
            ],
            [
              69.93523406982422,
              30.564971923828125
            ],
            [
              69.8857192993164,
              30.307893753051758
            ],
            [
              70.10105895996094,
              30.243623733520508
            ],
            [
              69.87681579589844,
              29.857990264892578
            ],
            [
              69.71339416503906,
              29.79371452331543
            ],
            [
              69.65479278564453,
              29.472333908081055
            ],
            [
              69.8471450805664,
              29.279497146606445
            ],
            [
              69.65046691894531,
              29.022375106811523
            ],
            [
              69.616943359375,
              28.829526901245117
            ],
            [
              69.6924819946289,
              28.829526901245117
            ],
            [
              69.52977752685547,
              28.315250396728516
            ],
            [
              69.9068832397461,
              28.315250396728516
            ],
            [
              70.1657943725586,
              28.508106231689453
            ],
            [
              70.76129150390625,
              28.893810272216797
            ],
            [
              70.87120819091797,
              29.08665657043457
            ],
            [
              71.10958862304688,
              29.150936126708984
            ],
            [
              71.13294982910156,
              29.279497146606445
            ],
            [
              71.91317749023438,
              29.40805435180664
            ],
            [
              72.24004364013672,
              29.536611557006836
            ],
            [
              72.61708068847656,
              29.922264099121094
            ],
            [
              73.92049407958984,
              30.372163772583008
            ]
          ]
        ]
      }
    }
  ]
}