{
  "type": "FeatureCollection",
  "name": "territory-797",
  "features": [
    {
      "type": "Feature",
      "properties": {
        "Name": "Burma",
        "FromYear": 1822,
        "ToYear": 1824,
        "Area": 797916.0204786219,
        "Type": "POLITY",
        "Wikipedia": "Myanmar",
        "Wikidata": "Q836",
        "SeshatID": "",
        "Components": "",
        "MemberOf": ""
      },
      "geometry": {
        "type": "MultiPolygon",
        "coordinates": [
          [
            [
              [
                98.08775329589844,
                10.828827857971191
              ],
              [
                98.09922790527344,
                10.957403182983398
              ],
              [
                98.24556732177734,
                10.957403182983398
              ],
              [
                98.30723571777344,
                10.828827857971191
              ],
              [
                98.3015365600586,
                10.764540672302246
              ],
              [
                98.08775329589844,
                10.828827857971191
              ]
            ]
          ],
          [
            [
              [
                98.30491638183594,
                11.6002779006958
              ],
              [
                98.32334899902344,
                11.793140411376953
              ],
              [
                98.61006927490234,
                11.728853225708008
              ],
              [
                98.51847076416016,
                11.535990715026855
              ],
              [
                98.44525909423828,
                11.535990715026855
              ],
              [
                98.30491638183594,
                11.6002779006958
              ]
            ]
          ],
          [
            [
              [
                98.48676300048828,
                12.69316577911377
              ],
              [
                98.46028900146484,
                12.436016082763672
              ],
              [
                98.24700164794922,
                12.500303268432617
              ],
              [
                98.26020050048828,
                12.628878593444824
              ],
              [
                98.26686096191406,
                12.69316577911377
              ],
              [
                98.48676300048828,
                12.69316577911377
              ]
            ]
          ],
          [
            [
              [
                97.9365234375,
                17.643327713012695
              ],
              [
                97.9178695678711,
                17.514753341674805
              ],
              [
                98.62763977050781,
                16.807586669921875
              ],
              [
                98.63817596435547,
                16.35757064819336
              ],
              [
                98.93278503417969,
                16.35757064819336
              ],
              [
                98.90609741210938,
                16.16470718383789
              ],
              [
                98.6676254272461,
                16.036130905151367
              ],
              [
                98.67230224609375,
                15.52182674407959
              ],
              [
                98.26284790039062,
                15.200387001037598
              ],
              [
                98.23027801513672,
                14.943235397338867
              ],
              [
                98.48443603515625,
                14.621796607971191
              ],
              [
                98.46879577636719,
                14.493220329284668
              ],
              [
                99.12709045410156,
                13.850343704223633
              ],
              [
                99.24447631835938,
                13.593193054199219
              ],
              [
                99.20860290527344,
                13.271754264831543
              ],
              [
                99.28195190429688,
                13.271754264831543
              ],
              [
                99.16683197021484,
                12.886029243469238
              ],
              [
                99.42621612548828,
                12.564591407775879
              ],
              [
                99.46651458740234,
                12.24315357208252
              ],
              [
                99.66049194335938,
                11.986002922058105
              ],
              [
                99.5434341430664,
                11.535990715026855
              ],
              [
                98.97727966308594,
                10.957403182983398
              ],
              [
                98.77433776855469,
                10.314528465270996
              ],
              [
                98.5331802368164,
                10.057377815246582
              ],
              [
                98.46006774902344,
                10.057377815246582
              ],
              [
                98.4478530883789,
                10.764540672302246
              ],
              [
                98.59989166259766,
                10.828827857971191
              ],
              [
                98.6962661743164,
                11.085978507995605
              ],
              [
                98.65278625488281,
                11.407415390014648
              ],
              [
                98.75652313232422,
                11.728853225708008
              ],
              [
                98.61006927490234,
                11.728853225708008
              ],
              [
                98.64683532714844,
                12.821741104125977
              ],
              [
                98.42300415039062,
                13.464617729187012
              ],
              [
                98.28340911865234,
                13.528904914855957
              ],
              [
                98.24630737304688,
                13.850343704223633
              ],
              [
                98.04086303710938,
                13.97891902923584
              ],
              [
                98.07085418701172,
                14.236069679260254
              ],
              [
                97.8811264038086,
                14.493220329284668
              ],
              [
                97.9858627319336,
                14.750371932983398
              ],
              [
                97.77332305908203,
                14.81466007232666
              ],
              [
                97.74982452392578,
                15.77897834777832
              ],
              [
                97.55474090576172,
                15.971842765808105
              ],
              [
                97.62474060058594,
                16.486146926879883
              ],
              [
                97.40374755859375,
                16.486146926879883
              ],
              [
                97.27415466308594,
                16.614723205566406
              ],
              [
                97.16256713867188,
                16.87187385559082
              ],
              [
                97.19876861572266,
                17.129026412963867
              ],
              [
                97.0512924194336,
                17.129026412963867
              ],
              [
                97.06951141357422,
                17.257600784301758
              ],
              [
                96.9311294555664,
                17.321889877319336
              ],
              [
                96.92353820800781,
                16.743297576904297
              ],
              [
                96.83206939697266,
                16.614723205566406
              ],
              [
                96.66708374023438,
                16.486146926879883
              ],
              [
                96.3724136352539,
                16.486146926879883
              ],
              [
                96.35496520996094,
                16.35757064819336
              ],
              [
                96.03450012207031,
                16.16470718383789
              ],
              [
                95.81361389160156,
                16.16470718383789
              ],
              [
                95.60743713378906,
                15.714691162109375
              ],
              [
                95.3131103515625,
                15.714691162109375
              ],
              [
                95.33806610107422,
                15.907554626464844
              ],
              [
                94.87162017822266,
                15.714691162109375
              ],
              [
                94.81454467773438,
                15.843266487121582
              ],
              [
                94.2423095703125,
                15.971842765808105
              ],
              [
                94.35287475585938,
                16.807586669921875
              ],
              [
                94.42657470703125,
                16.807586669921875
              ],
              [
                94.60650634765625,
                17.57904052734375
              ],
              [
                94.48590850830078,
                17.77190399169922
              ],
              [
                94.47563171386719,
                18.2219181060791
              ],
              [
                94.12384796142578,
                18.864791870117188
              ],
              [
                93.82804870605469,
                18.864791870117188
              ],
              [
                93.80060577392578,
                18.67193031311035
              ],
              [
                93.51400756835938,
                18.736217498779297
              ],
              [
                93.54138946533203,
                18.929079055786133
              ],
              [
                93.76325988769531,
                18.929079055786133
              ],
              [
                93.51317596435547,
                19.25051498413086
              ],
              [
                93.53150939941406,
                19.379087448120117
              ],
              [
                93.67953491210938,
                19.379087448120117
              ],
              [
                93.79956817626953,
                19.700523376464844
              ],
              [
                93.57740783691406,
                19.700523376464844
              ],
              [
                93.6049575805664,
                19.893383026123047
              ],
              [
                93.38272094726562,
                19.893383026123047
              ],
              [
                93.40103912353516,
                20.021955490112305
              ],
              [
                93.02145385742188,
                19.95766830444336
              ],
              [
                93.05791473388672,
                20.214815139770508
              ],
              [
                92.82646942138672,
                20.150527954101562
              ],
              [
                92.85374450683594,
                20.343387603759766
              ],
              [
                92.63134002685547,
                20.343387603759766
              ],
              [
                92.37098693847656,
                20.60053253173828
              ],
              [
                92.38911437988281,
                20.72910499572754
              ],
              [
                92.1195297241211,
                20.921964645385742
              ],
              [
                92.0347671508789,
                21.371967315673828
              ],
              [
                92.0439224243164,
                21.43625259399414
              ],
              [
                92.19247436523438,
                21.43625259399414
              ],
              [
                92.37796020507812,
                21.693397521972656
              ],
              [
                92.43400573730469,
                22.079116821289062
              ],
              [
                92.50836944580078,
                22.079116821289062
              ],
              [
                92.53587341308594,
                21.7576847076416
              ],
              [
                92.61019134521484,
                21.7576847076416
              ],
              [
                92.7314453125,
                22.079116821289062
              ],
              [
                93.01941680908203,
                22.014829635620117
              ],
              [
                93.18712615966797,
                22.143402099609375
              ],
              [
                93.17465209960938,
                23.043420791625977
              ],
              [
                93.41824340820312,
                23.171995162963867
              ],
              [
                93.4795913696289,
                23.557723999023438
              ],
              [
                93.3722152709961,
                23.814878463745117
              ],
              [
                93.414794921875,
                24.07203483581543
              ],
              [
                93.0630874633789,
                24.200613021850586
              ],
              [
                93.09577941894531,
                24.393482208251953
              ],
              [
                92.96844482421875,
                24.522062301635742
              ],
              [
                93.48030090332031,
                25.29355812072754
              ],
              [
                93.52854919433594,
                25.55072784423828
              ],
              [
                93.35311126708984,
                25.807899475097656
              ],
              [
                92.99087524414062,
                25.8721923828125
              ],
              [
                92.86598205566406,
                26.000778198242188
              ],
              [
                91.35438537597656,
                25.936485290527344
              ],
              [
                91.27943420410156,
                25.936485290527344
              ],
              [
                90.62928771972656,
                26.06507110595703
              ],
              [
                90.76657104492188,
                26.386537551879883
              ],
              [
                89.89125061035156,
                26.515121459960938
              ],
              [
                89.90390014648438,
                26.57941436767578
              ],
              [
                89.91661071777344,
                26.643707275390625
              ],
              [
                89.92939758300781,
                26.70800018310547
              ],
              [
                90.34380340576172,
                26.900876998901367
              ],
              [
                90.56920623779297,
                26.900876998901367
              ],
              [
                90.69332885742188,
                26.772293090820312
              ],
              [
                91.8199462890625,
                26.772293090820312
              ],
              [
                92.1469955444336,
                26.900876998901367
              ],
              [
                92.22212219238281,
                26.900876998901367
              ],
              [
                93.49938201904297,
                26.900876998901367
              ],
              [
                94.00543212890625,
                27.158044815063477
              ],
              [
                94.13703918457031,
                27.41520881652832
              ],
              [
                94.75096893310547,
                27.800947189331055
              ],
              [
                95.05180358886719,
                28.12238883972168
              ],
              [
                95.4439697265625,
                28.186676025390625
              ],
              [
                95.71649932861328,
                28.379535675048828
              ],
              [
                96.2602310180664,
                28.44382095336914
              ],
              [
                96.33567810058594,
                28.44382095336914
              ],
              [
                96.86382293701172,
                28.44382095336914
              ],
              [
                97.4198989868164,
                28.25096321105957
              ],
              [
                97.55886840820312,
                28.508106231689453
              ],
              [
                97.70979309082031,
                28.508106231689453
              ],
              [
                98.15814971923828,
                28.186676025390625
              ],
              [
                98.26004791259766,
                27.6723690032959
              ],
              [
                98.56119537353516,
                27.6723690032959
              ],
              [
                98.78654479980469,
                27.35091781616211
              ],
              [
                98.74424743652344,
                26.836584091186523
              ],
              [
                98.81936645507812,
                26.836584091186523
              ],
              [
                98.7623291015625,
                26.57941436767578
              ],
              [
                98.83740234375,
                26.57941436767578
              ],
              [
                98.67317199707031,
                25.807899475097656
              ],
              [
                98.17144775390625,
                25.55072784423828
              ],
              [
                98.13310241699219,
                25.357851028442383
              ],
              [
                97.87094116210938,
                25.164974212646484
              ],
              [
                97.82181549072266,
                24.907808303833008
              ],
              [
                97.64815521240234,
                24.779226303100586
              ],
              [
                97.58908081054688,
                24.457773208618164
              ],
              [
                97.78995513916016,
                24.329193115234375
              ],
              [
                97.64704895019531,
                23.943456649780273
              ],
              [
                98.8753662109375,
                24.136323928833008
              ],
              [
                98.7326431274414,
                23.75058937072754
              ],
              [
                98.87066650390625,
                23.68630027770996
              ],
              [
                98.94291687011719,
                23.236284255981445
              ],
              [
                99.57035827636719,
                22.97913360595703
              ],
              [
                99.28540802001953,
                22.143402099609375
              ],
              [
                99.94442749023438,
                22.079116821289062
              ],
              [
                100.07260131835938,
                21.950544357299805
              ],
              [
                100.03181457519531,
                21.693397521972656
              ],
              [
                100.22432708740234,
                21.500539779663086
              ],
              [
                100.74431610107422,
                21.500539779663086
              ],
              [
                101.15673828125,
                21.7576847076416
              ],
              [
                101.17981719970703,
                21.43625259399414
              ],
              [
                100.69373321533203,
                21.179107666015625
              ],
              [
                100.6435546875,
                20.857677459716797
              ],
              [
                100.24270629882812,
                20.664819717407227
              ],
              [
                100.1288833618164,
                20.40767478942871
              ],
              [
                99.83231353759766,
                20.40767478942871
              ],
              [
                99.41250610351562,
                20.08624267578125
              ],
              [
                99.19020080566406,
                20.08624267578125
              ],
              [
                98.91905212402344,
                19.764808654785156
              ],
              [
                98.1043701171875,
                19.764808654785156
              ],
              [
                97.93692779541016,
                19.6362361907959
              ],
              [
                97.86650085449219,
                18.67193031311035
              ],
              [
                97.77346801757812,
                18.543354034423828
              ],
              [
                97.46833038330078,
                18.479066848754883
              ],
              [
                97.44935607910156,
                18.350492477416992
              ],
              [
                97.59712982177734,
                18.350492477416992
              ],
              [
                97.83582305908203,
                17.964767456054688
              ],
              [
                97.79826354980469,
                17.707616806030273
              ],
              [
                97.9365234375,
                17.643327713012695
              ]
            ]
          ]
        ]
      }
    }
  ]
}