{
  "type": "FeatureCollection",
  "name": "territory-798",
  "features": [
    {
      "type": "Feature",
      "properties": {
        "Name": "Trucial States",
        "FromYear": 1873,
        "ToYear": 1889,
        "Area": 73445.40788823123,
        "Type": "POLITY",
        "Wikipedia": "Trucial States",
        "Wikidata": "Q1852345",
        "SeshatID": "gb_british_emp_2",
        "Components": "",
        "MemberOf": "(British Empire)"
      },
      "geometry": {
        "type": "Polygon",
        "coordinates": [
          [
            [
              55.2257194519043,
              22.657697677612305
            ],
            [
              55.1408805847168,
              22.529123306274414
            ],
            [
              54.84319305419922,
              22.529123306274414
            ],
            [
              52.63515853881836,
              22.85055923461914
            ],
            [
              51.67782974243164,
              23.943456649780273
            ],
            [
              51.704200744628906,
              24.264904022216797
            ],
            [
              51.85354995727539,
              24.264904022216797
            ],
            [
              51.90695571899414,
              24.00774574279785
            ],
            [
              52.28013229370117,
              24.00774574279785
            ],
            [
              52.60029602050781,
              24.264904022216797
            ],
            [
              53.11201095581055,
              24.136323928833008
            ],
            [
              54.082523345947266,
              24.136323928833008
            ],
            [
              54.099464416503906,
              24.329193115234375
            ],
            [
              54.31781005859375,
              24.264904022216797
            ],
            [
              54.55914306640625,
              24.457773208618164
            ],
            [
              54.74416732788086,
              24.843517303466797
            ],
            [
              55.14265441894531,
              25.100683212280273
            ],
            [
              55.41188049316406,
              25.55072784423828
            ],
            [
              55.73131561279297,
              25.743606567382812
            ],
            [
              55.806236267089844,
              25.743606567382812
            ],
            [
              55.98478698730469,
              25.29355812072754
            ],
            [
              55.978336334228516,
              25.229267120361328
            ],
            [
              56.05316925048828,
              25.229267120361328
            ],
            [
              56.04674530029297,
              25.164974212646484
            ],
            [
              56.04035949707031,
              25.100683212280273
            ],
            [
              56.03401184082031,
              25.03639030456543
            ],
            [
              56.027706146240234,
              24.97209930419922
            ],
            [
              55.865665435791016,
              24.843517303466797
            ],
            [
              55.823150634765625,
              24.393482208251953
            ],
            [
              56.0177001953125,
              24.07203483581543
            ],
            [
              55.558345794677734,
              23.943456649780273
            ],
            [
              55.61030197143555,
              23.68630027770996
            ],
            [
              55.35348129272461,
              23.30057144165039
            ],
            [
              55.3001594543457,
              22.657697677612305
            ],
            [
              55.2257194519043,
              22.657697677612305
            ]
          ]
        ]
      }
    }
  ]
}