{
  "type": "FeatureCollection",
  "name": "territory-8",
  "features": [
    {
      "type": "Feature",
      "properties": {
        "Name": "Gutian Dynasty",
        "FromYear": -2100,
        "ToYear": -2001,
        "Area": 131488.49053817926,
        "Type": "POLITY",
        "Wikipedia": "Gutian rule in Mesopotamia",
        "Wikidata": "Q1064034",
        "SeshatID": "",
        "Components": "",
        "MemberOf": ""
      },
      "geometry": {
        "type": "MultiPolygon",
        "coordinates": [
          [
            [
              [
                50.537986755371094,
                31.464719772338867
              ],
              [
                50.46181106567383,
                31.464719772338867
              ],
              [
                50.47063446044922,
                31.528987884521484
              ],
              [
                50.54682540893555,
                31.528987884521484
              ],
              [
                50.537986755371094,
                31.464719772338867
              ]
            ]
          ],
          [
            [
              [
                48.53766632080078,
                33.00732421875
              ],
              [
                49.27607345581055,
                32.81447219848633
              ],
              [
                49.24876022338867,
                32.62162780761719
              ],
              [
                49.716880798339844,
                32.685909271240234
              ],
              [
                49.85148620605469,
                32.557350158691406
              ],
              [
                49.8241081237793,
                32.36451721191406
              ],
              [
                50.03515625,
                32.23596954345703
              ],
              [
                50.0170783996582,
                32.107421875
              ],
              [
                50.286407470703125,
                31.8503360748291
              ],
              [
                50.259700775146484,
                31.65752601623535
              ],
              [
                50.4794921875,
                31.593257904052734
              ],
              [
                50.38563537597656,
                31.464719772338867
              ],
              [
                50.529178619384766,
                31.40045166015625
              ],
              [
                50.511661529541016,
                31.271915435791016
              ],
              [
                50.72254943847656,
                31.143381118774414
              ],
              [
                50.7052001953125,
                31.014846801757812
              ],
              [
                50.983463287353516,
                30.822044372558594
              ],
              [
                51.1012077331543,
                30.564971923828125
              ],
              [
                51.17715072631836,
                30.564971923828125
              ],
              [
                51.050838470458984,
                30.179353713989258
              ],
              [
                50.519901275634766,
                30.179353713989258
              ],
              [
                50.232810974121094,
                30.307893753051758
              ],
              [
                50.0648078918457,
                30.179353713989258
              ],
              [
                49.98896026611328,
                30.179353713989258
              ],
              [
                49.929290771484375,
                30.307893753051758
              ],
              [
                49.7016487121582,
                30.307893753051758
              ],
              [
                49.566043853759766,
                30.436433792114258
              ],
              [
                49.110572814941406,
                30.436433792114258
              ],
              [
                49.126670837402344,
                30.564971923828125
              ],
              [
                49.28668975830078,
                30.629240036010742
              ],
              [
                49.14290237426758,
                30.69350814819336
              ],
              [
                48.103145599365234,
                30.886310577392578
              ],
              [
                48.027122497558594,
                30.886310577392578
              ],
              [
                47.738956451416016,
                31.014846801757812
              ],
              [
                47.695072174072266,
                31.271915435791016
              ],
              [
                47.39057540893555,
                31.271915435791016
              ],
              [
                47.21445083618164,
                31.079113006591797
              ],
              [
                46.91015625,
                31.079113006591797
              ],
              [
                46.69758605957031,
                31.20764923095703
              ],
              [
                46.36223602294922,
                30.950578689575195
              ],
              [
                45.44974136352539,
                30.950578689575195
              ],
              [
                45.45722961425781,
                31.014846801757812
              ],
              [
                45.38117218017578,
                31.014846801757812
              ],
              [
                45.44972610473633,
                31.593257904052734
              ],
              [
                45.30503845214844,
                31.65752601623535
              ],
              [
                45.39683532714844,
                31.78606605529785
              ],
              [
                45.18363952636719,
                31.91460609436035
              ],
              [
                45.19933319091797,
                32.043148040771484
              ],
              [
                45.062408447265625,
                32.171695709228516
              ],
              [
                44.833316802978516,
                32.171695709228516
              ],
              [
                44.71202850341797,
                32.428794860839844
              ],
              [
                44.32204055786133,
                32.36451721191406
              ],
              [
                44.33769226074219,
                32.493072509765625
              ],
              [
                44.1926155090332,
                32.557350158691406
              ],
              [
                44.16355895996094,
                32.94303894042969
              ],
              [
                44.4256477355957,
                33.20018768310547
              ],
              [
                44.57895278930664,
                33.20018768310547
              ],
              [
                44.59535598754883,
                33.32876968383789
              ],
              [
                45.32052993774414,
                33.00732421875
              ],
              [
                45.550323486328125,
                33.00732421875
              ],
              [
                45.56705093383789,
                33.13589859008789
              ],
              [
                46.069705963134766,
                33.45735549926758
              ],
              [
                46.129180908203125,
                33.32876968383789
              ],
              [
                46.90489196777344,
                33.393062591552734
              ],
              [
                47.48293685913086,
                33.13589859008789
              ],
              [
                48.54673767089844,
                33.07160949707031
              ],
              [
                48.53766632080078,
                33.00732421875
              ]
            ]
          ]
        ]
      }
    }
  ]
}