{
  "type": "FeatureCollection",
  "name": "territory-801",
  "features": [
    {
      "type": "Feature",
      "properties": {
        "Name": "Gran Colombia",
        "FromYear": 1824,
        "ToYear": 1829,
        "Area": 4324091.5973264845,
        "Type": "POLITY",
        "Wikipedia": "Gran Colombia",
        "Wikidata": "Q199821",
        "SeshatID": "co_colombia_rep_1",
        "Components": "",
        "MemberOf": ""
      },
      "geometry": {
        "type": "MultiPolygon",
        "coordinates": [
          [
            [
              [
                -65.11322784423828,
                -11.993265151977539
              ],
              [
                -64.82524108886719,
                -12.057552337646484
              ],
              [
                -64.34808349609375,
                -12.50756549835205
              ],
              [
                -63.68851852416992,
                -12.50756549835205
              ],
              [
                -63.55752182006836,
                -12.700428009033203
              ],
              [
                -63.191017150878906,
                -12.700428009033203
              ],
              [
                -62.99217224121094,
                -12.9575777053833
              ],
              [
                -62.274932861328125,
                -13.15044116973877
              ],
              [
                -62.07114791870117,
                -13.343303680419922
              ],
              [
                -62.082130432128906,
                -13.471879005432129
              ],
              [
                -61.79974365234375,
                -13.600454330444336
              ],
              [
                -61.133853912353516,
                -13.536166191101074
              ],
              [
                -60.777984619140625,
                -13.664741516113281
              ],
              [
                -60.58013916015625,
                -13.921893119812012
              ],
              [
                -60.29215621948242,
                -13.986180305480957
              ],
              [
                -59.86632537841797,
                -14.9504976272583
              ],
              [
                -59.364051818847656,
                -15.079072952270508
              ],
              [
                -59.23561096191406,
                -15.271936416625977
              ],
              [
                -58.66606903076172,
                -15.464800834655762
              ],
              [
                -58.18925094604492,
                -15.850528717041016
              ],
              [
                -57.69337844848633,
                -16.043392181396484
              ],
              [
                -57.46482849121094,
                -16.68627166748047
              ],
              [
                -57.32417297363281,
                -16.750560760498047
              ],
              [
                -57.312042236328125,
                -17.329151153564453
              ],
              [
                -57.13974380493164,
                -17.779165267944336
              ],
              [
                -57.18252182006836,
                -18.164892196655273
              ],
              [
                -57.10865783691406,
                -18.164892196655273
              ],
              [
                -57.269954681396484,
                -18.93634033203125
              ],
              [
                -57.6104850769043,
                -19.322063446044922
              ],
              [
                -57.90816879272461,
                -19.96493148803711
              ],
              [
                -58.14572525024414,
                -20.093503952026367
              ],
              [
                -58.19184875488281,
                -20.47922134399414
              ],
              [
                -57.941612243652344,
                -20.864938735961914
              ],
              [
                -57.91429901123047,
                -21.250656127929688
              ],
              [
                -58.018394470214844,
                -22.08637809753418
              ],
              [
                -57.94403076171875,
                -22.08637809753418
              ],
              [
                -57.97686004638672,
                -22.343524932861328
              ],
              [
                -57.77020263671875,
                -22.472097396850586
              ],
              [
                -57.969451904296875,
                -22.857820510864258
              ],
              [
                -57.820518493652344,
                -22.857820510864258
              ],
              [
                -57.70570373535156,
                -23.11496925354004
              ],
              [
                -57.49940490722656,
                -23.243545532226562
              ],
              [
                -57.41163635253906,
                -23.69356346130371
              ],
              [
                -57.3370475769043,
                -23.69356346130371
              ],
              [
                -57.34397506713867,
                -24.272165298461914
              ],
              [
                -57.2225227355957,
                -24.46503448486328
              ],
              [
                -57.2603759765625,
                -24.722196578979492
              ],
              [
                -57.52338409423828,
                -24.979360580444336
              ],
              [
                -57.647830963134766,
                -25.30082130432129
              ],
              [
                -57.87236022949219,
                -25.30082130432129
              ],
              [
                -58.05679702758789,
                -25.04365348815918
              ],
              [
                -59.129051208496094,
                -24.722196578979492
              ],
              [
                -59.18423843383789,
                -24.593616485595703
              ],
              [
                -59.47339630126953,
                -24.529325485229492
              ],
              [
                -59.938514709472656,
                -24.143585205078125
              ],
              [
                -61.15985107421875,
                -23.822139739990234
              ],
              [
                -61.541961669921875,
                -23.372121810913086
              ],
              [
                -61.89621353149414,
                -23.243545532226562
              ],
              [
                -62.4105339050293,
                -22.664958953857422
              ],
              [
                -62.73823165893555,
                -22.343524932861328
              ],
              [
                -62.720645904541016,
                -22.214950561523438
              ],
              [
                -62.93500518798828,
                -22.150665283203125
              ],
              [
                -62.99189758300781,
                -22.022090911865234
              ],
              [
                -63.66107177734375,
                -22.022090911865234
              ],
              [
                -64.12493133544922,
                -22.150665283203125
              ],
              [
                -64.35517120361328,
                -22.729246139526367
              ],
              [
                -64.51331329345703,
                -22.793533325195312
              ],
              [
                -64.60719299316406,
                -22.40781021118164
              ],
              [
                -64.86863708496094,
                -22.150665283203125
              ],
              [
                -65.83544921875,
                -22.150665283203125
              ],
              [
                -66.31060791015625,
                -21.82923126220703
              ],
              [
                -66.43041229248047,
                -22.150665283203125
              ],
              [
                -66.57914733886719,
                -22.150665283203125
              ],
              [
                -67.25869750976562,
                -22.729246139526367
              ],
              [
                -67.09317779541016,
                -23.11496925354004
              ],
              [
                -67.16767883300781,
                -23.11496925354004
              ],
              [
                -67.28789520263672,
                -23.886428833007812
              ],
              [
                -67.45784759521484,
                -24.01500701904297
              ],
              [
                -70.65640258789062,
                -23.95071792602539
              ],
              [
                -70.6456527709961,
                -23.886428833007812
              ],
              [
                -70.528564453125,
                -23.629274368286133
              ],
              [
                -70.80585479736328,
                -23.50069808959961
              ],
              [
                -70.75408172607422,
                -23.179258346557617
              ],
              [
                -70.51019287109375,
                -23.050682067871094
              ],
              [
                -70.39552307128906,
                -22.793533325195312
              ],
              [
                -70.24049377441406,
                -21.76494598388672
              ],
              [
                -70.23107147216797,
                -21.700658798217773
              ],
              [
                -70.00814056396484,
                -21.700658798217773
              ],
              [
                -69.36736297607422,
                -21.379228591918945
              ],
              [
                -69.12805938720703,
                -20.736366271972656
              ],
              [
                -69.03009033203125,
                -20.029216766357422
              ],
              [
                -68.58952331542969,
                -19.514923095703125
              ],
              [
                -68.70275115966797,
                -19.257776260375977
              ],
              [
                -68.97266387939453,
                -19.06491470336914
              ],
              [
                -69.23920440673828,
                -18.293466567993164
              ],
              [
                -69.21379852294922,
                -18.100603103637695
              ],
              [
                -69.4184799194336,
                -17.972028732299805
              ],
              [
                -69.64698791503906,
                -17.457727432250977
              ],
              [
                -69.6141586303711,
                -17.20057487487793
              ],
              [
                -69.09198760986328,
                -16.557695388793945
              ],
              [
                -69.018310546875,
                -16.557695388793945
              ],
              [
                -68.93685150146484,
                -16.493408203125
              ],
              [
                -68.9950180053711,
                -16.364831924438477
              ],
              [
                -68.84770965576172,
                -16.364831924438477
              ],
              [
                -68.75872802734375,
                -16.236255645751953
              ],
              [
                -69.04563903808594,
                -16.171968460083008
              ],
              [
                -68.94929504394531,
                -15.979104042053223
              ],
              [
                -69.34623718261719,
                -15.593376159667969
              ],
              [
                -69.41980743408203,
                -15.593376159667969
              ],
              [
                -69.2957534790039,
                -15.14336109161377
              ],
              [
                -69.42869567871094,
                -15.014784812927246
              ],
              [
                -69.40099334716797,
                -14.757633209228516
              ],
              [
                -68.9803237915039,
                -14.243330955505371
              ],
              [
                -68.96099853515625,
                -14.050468444824219
              ],
              [
                -69.0951156616211,
                -13.921893119812012
              ],
              [
                -68.9930648803711,
                -12.82900333404541
              ],
              [
                -68.84078216552734,
                -12.764715194702148
              ],
              [
                -68.74517822265625,
                -12.50756549835205
              ],
              [
                -68.8862533569336,
                -12.443277359008789
              ],
              [
                -69.19416809082031,
                -11.736114501953125
              ],
              [
                -69.33549499511719,
                -11.67182731628418
              ],
              [
                -69.32032012939453,
                -11.478964805603027
              ],
              [
                -69.46173095703125,
                -11.414677619934082
              ],
              [
                -69.57394409179688,
                -10.964664459228516
              ],
              [
                -68.55902862548828,
                -11.093239784240723
              ],
              [
                -68.2521743774414,
                -10.90037727355957
              ],
              [
                -68.16516876220703,
                -10.707514762878418
              ],
              [
                -67.72171783447266,
                -10.643227577209473
              ],
              [
                -67.40701293945312,
                -10.321789741516113
              ],
              [
                -66.95964813232422,
                -10.193214416503906
              ],
              [
                -66.6462631225586,
                -9.871777534484863
              ],
              [
                -66.57316589355469,
                -9.871777534484863
              ],
              [
                -65.46861267089844,
                -9.743202209472656
              ],
              [
                -65.3509750366211,
                -10.193214416503906
              ],
              [
                -65.50990295410156,
                -10.386076927185059
              ],
              [
                -65.5316162109375,
                -10.707514762878418
              ],
              [
                -65.40316009521484,
                -10.964664459228516
              ],
              [
                -65.4355697631836,
                -11.414677619934082
              ],
              [
                -65.23509979248047,
                -11.67182731628418
              ],
              [
                -65.23995971679688,
                -11.736114501953125
              ],
              [
                -65.11322784423828,
                -11.993265151977539
              ]
            ],
            [
              [
                -68.10356140136719,
                -16.30054473876953
              ],
              [
                -68.2356948852539,
                -16.171968460083008
              ],
              [
                -68.6114501953125,
                -16.236255645751953
              ],
              [
                -68.64218139648438,
                -16.493408203125
              ],
              [
                -68.50259399414062,
                -16.557695388793945
              ],
              [
                -68.42891693115234,
                -16.557695388793945
              ],
              [
                -68.12651062011719,
                -16.493408203125
              ],
              [
                -68.10356140136719,
                -16.30054473876953
              ]
            ]
          ],
          [
            [
              [
                -71.6491470336914,
                10.828827857971191
              ],
              [
                -71.50282287597656,
                10.828827857971191
              ],
              [
                -71.15876007080078,
                11.15026569366455
              ],
              [
                -70.15194702148438,
                11.407415390014648
              ],
              [
                -70.08782958984375,
                11.535990715026855
              ],
              [
                -69.79044342041016,
                11.47170352935791
              ],
              [
                -69.799560546875,
                11.6002779006958
              ],
              [
                -69.65773010253906,
                11.664566040039062
              ],
              [
                -69.5708236694336,
                11.47170352935791
              ],
              [
                -68.98965454101562,
                11.535990715026855
              ],
              [
                -68.46390533447266,
                11.343128204345703
              ],
              [
                -68.30884552001953,
                11.214552879333496
              ],
              [
                -68.19046783447266,
                10.507390975952148
              ],
              [
                -67.45906066894531,
                10.507390975952148
              ],
              [
                -67.1742935180664,
                10.635965347290039
              ],
              [
                -66.37355041503906,
                10.7002534866333
              ],
              [
                -66.15019989013672,
                10.635965347290039
              ],
              [
                -65.83870697021484,
                10.314528465270996
              ],
              [
                -65.24639892578125,
                10.185953140258789
              ],
              [
                -65.09302520751953,
                10.057377815246582
              ],
              [
                -64.80410766601562,
                10.121665954589844
              ],
              [
                -64.59552001953125,
                10.314528465270996
              ],
              [
                -64.37612915039062,
                10.314528465270996
              ],
              [
                -64.38343048095703,
                10.443102836608887
              ],
              [
                -64.09455871582031,
                10.507390975952148
              ],
              [
                -64.03263092041016,
                10.7002534866333
              ],
              [
                -61.91484069824219,
                10.764540672302246
              ],
              [
                -61.97705078125,
                10.571678161621094
              ],
              [
                -62.851158142089844,
                10.507390975952148
              ],
              [
                -62.843971252441406,
                10.378815650939941
              ],
              [
                -62.62457275390625,
                10.378815650939941
              ],
              [
                -62.617530822753906,
                10.250240325927734
              ],
              [
                -62.471282958984375,
                10.250240325927734
              ],
              [
                -62.30142593383789,
                9.800228118896484
              ],
              [
                -62.234920501708984,
                9.928803443908691
              ],
              [
                -61.945823669433594,
                9.993090629577637
              ],
              [
                -61.78974533081055,
                9.800228118896484
              ],
              [
                -61.4275016784668,
                9.86451530456543
              ],
              [
                -61.34477996826172,
                9.671652793884277
              ],
              [
                -60.82693862915039,
                9.543078422546387
              ],
              [
                -60.74177551269531,
                9.285927772521973
              ],
              [
                -61.02523422241211,
                9.09306526184082
              ],
              [
                -61.0111083984375,
                8.771627426147461
              ],
              [
                -61.15443420410156,
                8.707340240478516
              ],
              [
                -61.149017333984375,
                8.578764915466309
              ],
              [
                -61.43844985961914,
                8.514476776123047
              ],
              [
                -60.64049530029297,
                8.643052101135254
              ],
              [
                -60.710853576660156,
                8.578764915466309
              ],
              [
                -60.632568359375,
                8.450189590454102
              ],
              [
                -60.1163215637207,
                8.321614265441895
              ],
              [
                -59.96286392211914,
                8.128751754760742
              ],
              [
                -60.10166549682617,
                7.935888767242432
              ],
              [
                -60.247657775878906,
                7.935888767242432
              ],
              [
                -60.67403030395508,
                7.614450931549072
              ],
              [
                -60.588035583496094,
                7.228724956512451
              ],
              [
                -60.29208755493164,
                7.100150108337402
              ],
              [
                -60.35907745361328,
                6.907287120819092
              ],
              [
                -61.00979995727539,
                6.714424133300781
              ],
              [
                -61.15193176269531,
                6.585848808288574
              ],
              [
                -61.070098876953125,
                6.264410972595215
              ],
              [
                -61.35509490966797,
                6.007260322570801
              ],
              [
                -61.27592086791992,
                5.750109672546387
              ],
              [
                -60.68156433105469,
                5.235808849334717
              ],
              [
                -60.60492706298828,
                5.042945861816406
              ],
              [
                -60.67542266845703,
                4.914370536804199
              ],
              [
                -60.67426681518555,
                4.850082874298096
              ],
              [
                -60.88848876953125,
                4.592932224273682
              ],
              [
                -61.39645004272461,
                4.464356899261475
              ],
              [
                -61.68400955200195,
                4.207206249237061
              ],
              [
                -61.90256118774414,
                4.207206249237061
              ],
              [
                -62.04645538330078,
                4.078630924224854
              ],
              [
                -62.70207595825195,
                4.078630924224854
              ],
              [
                -62.769996643066406,
                3.692905426025391
              ],
              [
                -62.91421890258789,
                3.564330101013184
              ],
              [
                -63.1334342956543,
                3.628617763519287
              ],
              [
                -63.355079650878906,
                3.885768175125122
              ],
              [
                -64.08435821533203,
                3.950055837631226
              ],
              [
                -64.23280334472656,
                4.142918586730957
              ],
              [
                -64.6698989868164,
                4.142918586730957
              ],
              [
                -64.81758880615234,
                4.271493911743164
              ],
              [
                -64.66622924804688,
                3.885768175125122
              ],
              [
                -64.29878997802734,
                3.628617763519287
              ],
              [
                -64.07080841064453,
                2.471440553665161
              ],
              [
                -63.48806381225586,
                2.407152891159058
              ],
              [
                -63.414772033691406,
                2.27857780456543
              ],
              [
                -64.21453094482422,
                1.76427698135376
              ],
              [
                -64.36029815673828,
                1.378551483154297
              ],
              [
                -64.65145874023438,
                1.378551483154297
              ],
              [
                -65.08857727050781,
                1.185688734054565
              ],
              [
                -65.60047149658203,
                0.60710072517395
              ],
              [
                -65.8919677734375,
                0.542813181877136
              ],
              [
                -65.96603393554688,
                0.349950581789017
              ],
              [
                -66.11157989501953,
                0.349950581789017
              ],
              [
                -66.173095703125,
                -0.228637129068375
              ],
              [
                -66.46559143066406,
                -0.421499729156494
              ],
              [
                -66.47025299072266,
                -0.935800075531006
              ],
              [
                -66.39747619628906,
                -0.935800075531006
              ],
              [
                -66.33617401123047,
                -1.83582615852356
              ],
              [
                -65.97840118408203,
                -2.221551656723022
              ],
              [
                -65.91385650634766,
                -2.671565055847168
              ],
              [
                -66.64590454101562,
                -2.864427804946899
              ],
              [
                -68.0294189453125,
                -2.864427804946899
              ],
              [
                -68.619140625,
                -3.185865879058838
              ],
              [
                -68.54935455322266,
                -3.314441204071045
              ],
              [
                -68.62532043457031,
                -3.443016529083252
              ],
              [
                -69.57539367675781,
                -3.57159161567688
              ],
              [
                -69.79900360107422,
                -3.76445460319519
              ],
              [
                -69.73149108886719,
                -3.957317352294922
              ],
              [
                -70.02655792236328,
                -4.085892677307129
              ],
              [
                -70.17224884033203,
                -4.085892677307129
              ],
              [
                -70.38347625732422,
                -3.828742265701294
              ],
              [
                -71.18836212158203,
                -3.957317352294922
              ],
              [
                -71.25576782226562,
                -3.76445460319519
              ],
              [
                -71.76386260986328,
                -3.700166940689087
              ],
              [
                -71.97718048095703,
                -3.507303953170776
              ],
              [
                -71.97384643554688,
                -3.378728866577148
              ],
              [
                -72.26850891113281,
                -3.507303953170776
              ],
              [
                -72.70549774169922,
                -3.507303953170776
              ],
              [
                -72.84779357910156,
                -3.378728866577148
              ],
              [
                -73.2831039428711,
                -3.314441204071045
              ],
              [
                -73.3592758178711,
                -3.443016529083252
              ],
              [
                -73.50493621826172,
                -3.443016529083252
              ],
              [
                -73.43910217285156,
                -3.700166940689087
              ],
              [
                -73.51935577392578,
                -3.957317352294922
              ],
              [
                -73.7359848022461,
                -3.893029928207397
              ],
              [
                -73.96428680419922,
                -4.214468002319336
              ],
              [
                -74.25772857666016,
                -4.278755664825439
              ],
              [
                -74.32652282714844,
                -4.150180339813232
              ],
              [
                -74.617919921875,
                -4.150180339813232
              ],
              [
                -74.69483947753906,
                -4.278755664825439
              ],
              [
                -74.84054565429688,
                -4.278755664825439
              ],
              [
                -75.0530014038086,
                -4.085892677307129
              ],
              [
                -75.50044250488281,
                -4.407330989837646
              ],
              [
                -75.71900939941406,
                -4.407330989837646
              ],
              [
                -75.72335052490234,
                -4.535906314849854
              ],
              [
                -75.94415283203125,
                -4.600193977355957
              ],
              [
                -75.94866180419922,
                -4.728769302368164
              ],
              [
                -77.10769653320312,
                -4.535906314849854
              ],
              [
                -77.31753540039062,
                -4.278755664825439
              ],
              [
                -77.82537078857422,
                -4.214468002319336
              ],
              [
                -77.97755432128906,
                -4.407330989837646
              ],
              [
                -78.19834899902344,
                -4.47161865234375
              ],
              [
                -78.29247283935547,
                -5.050207138061523
              ],
              [
                -78.51871490478516,
                -5.243070125579834
              ],
              [
                -78.52392578125,
                -5.371645450592041
              ],
              [
                -78.89918518066406,
                -5.628796100616455
              ],
              [
                -78.91334533691406,
                -5.950234413146973
              ],
              [
                -79.13795471191406,
                -6.078809261322021
              ],
              [
                -79.4908218383789,
                -5.821659088134766
              ],
              [
                -79.3806381225586,
                -4.921631813049316
              ],
              [
                -79.52392578125,
                -4.857344150543213
              ],
              [
                -79.5872573852539,
                -4.600193977355957
              ],
              [
                -80.08814239501953,
                -4.343043327331543
              ],
              [
                -80.52981567382812,
                -4.47161865234375
              ],
              [
                -80.51441192626953,
                -4.021605014801025
              ],
              [
                -80.21687316894531,
                -3.828742265701294
              ],
              [
                -80.27998352050781,
                -3.507303953170776
              ],
              [
                -80.42194366455078,
                -3.378728866577148
              ],
              [
                -80.42013549804688,
                -3.314441204071045
              ],
              [
                -80.1270523071289,
                -3.250153541564941
              ],
              [
                -80.04412841796875,
                -2.864427804946899
              ],
              [
                -80.18976593017578,
                -2.864427804946899
              ],
              [
                -80.19469451904297,
                -3.05729079246521
              ],
              [
                -80.41316223144531,
                -3.05729079246521
              ],
              [
                -80.33069610595703,
                -2.671565055847168
              ],
              [
                -80.54913330078125,
                -2.671565055847168
              ],
              [
                -81.12286376953125,
                -2.285839319229126
              ],
              [
                -81.12015533447266,
                -2.157264232635498
              ],
              [
                -80.90043640136719,
                -2.092976570129395
              ],
              [
                -80.96051788330078,
                -1.385813117027283
              ],
              [
                -80.88673400878906,
                -1.321525454521179
              ],
              [
                -81.03038024902344,
                -1.192950367927551
              ],
              [
                -81.02684020996094,
                -0.935800075531006
              ],
              [
                -80.66131591796875,
                -0.807224988937378
              ],
              [
                -80.58253479003906,
                -0.228637129068375
              ],
              [
                -80.2898941040039,
                -0.035774555057287
              ],
              [
                -80.30448913574219,
                0.092800483107567
              ],
              [
                -80.1581039428711,
                0.221375524997711
              ],
              [
                -80.22835540771484,
                0.864250957965851
              ],
              [
                -79.06356811523438,
                1.249976277351379
              ],
              [
                -78.99114227294922,
                1.507126569747925
              ],
              [
                -79.13688659667969,
                1.571414232254028
              ],
              [
                -79.13754272460938,
                1.76427698135376
              ],
              [
                -78.70103454589844,
                1.828564524650574
              ],
              [
                -78.77699279785156,
                2.342865228652954
              ],
              [
                -78.4874038696289,
                2.535728216171265
              ],
              [
                -77.90552520751953,
                2.600015640258789
              ],
              [
                -77.76564025878906,
                3.114316701889038
              ],
              [
                -77.26336669921875,
                3.628617763519287
              ],
              [
                -77.26665496826172,
                3.821480512619019
              ],
              [
                -77.4123306274414,
                3.821480512619019
              ],
              [
                -77.56282806396484,
                4.078630924224854
              ],
              [
                -77.56674194335938,
                4.271493911743164
              ],
              [
                -77.4210433959961,
                4.271493911743164
              ],
              [
                -77.53081512451172,
                5.685822010040283
              ],
              [
                -77.31619262695312,
                5.81439733505249
              ],
              [
                -77.54344177246094,
                6.071547985076904
              ],
              [
                -77.41372680664062,
                6.521561145782471
              ],
              [
                -77.725830078125,
                7.035862445831299
              ],
              [
                -78.33206939697266,
                7.550163269042969
              ],
              [
                -78.49637603759766,
                7.935888767242432
              ],
              [
                -78.5060043334961,
                8.128751754760742
              ],
              [
                -78.2869873046875,
                8.128751754760742
              ],
              [
                -78.23062133789062,
                8.450189590454102
              ],
              [
                -78.522705078125,
                8.450189590454102
              ],
              [
                -78.52961730957031,
                8.578764915466309
              ],
              [
                -79.0625,
                8.964489936828613
              ],
              [
                -79.6431655883789,
                8.900202751159668
              ],
              [
                -79.7675552368164,
                8.514476776123047
              ],
              [
                -79.97621154785156,
                8.321614265441895
              ],
              [
                -80.4108657836914,
                8.25732707977295
              ],
              [
                -80.32125091552734,
                7.935888767242432
              ],
              [
                -80.01974487304688,
                7.743025779724121
              ],
              [
                -80.0045394897461,
                7.421587944030762
              ],
              [
                -80.3664321899414,
                7.357300281524658
              ],
              [
                -80.5766372680664,
                7.164437294006348
              ],
              [
                -80.9414291381836,
                7.164437294006348
              ],
              [
                -81.04794311523438,
                7.871601104736328
              ],
              [
                -81.18123626708984,
                7.614450931549072
              ],
              [
                -81.47315216064453,
                7.614450931549072
              ],
              [
                -81.94063568115234,
                8.193038940429688
              ],
              [
                -82.232666015625,
                8.193038940429688
              ],
              [
                -82.38568115234375,
                8.321614265441895
              ],
              [
                -82.81673431396484,
                8.193038940429688
              ],
              [
                -83.03926086425781,
                8.25732707977295
              ],
              [
                -83.04280853271484,
                8.321614265441895
              ],
              [
                -82.83094024658203,
                8.450189590454102
              ],
              [
                -82.78797912597656,
                8.964489936828613
              ],
              [
                -82.88921356201172,
                9.41450309753418
              ],
              [
                -82.60948944091797,
                9.607365608215332
              ],
              [
                -82.5363998413086,
                9.607365608215332
              ],
              [
                -82.30876159667969,
                9.478790283203125
              ],
              [
                -82.20748138427734,
                9.028778076171875
              ],
              [
                -81.83834838867188,
                8.964489936828613
              ],
              [
                -81.92312622070312,
                9.157352447509766
              ],
              [
                -81.77700805664062,
                9.157352447509766
              ],
              [
                -81.46550750732422,
                8.835914611816406
              ],
              [
                -81.02725982666016,
                8.835914611816406
              ],
              [
                -80.53499603271484,
                9.157352447509766
              ],
              [
                -79.95831298828125,
                9.285927772521973
              ],
              [
                -79.68607330322266,
                9.607365608215332
              ],
              [
                -78.95521545410156,
                9.607365608215332
              ],
              [
                -78.94718170166016,
                9.478790283203125
              ],
              [
                -78.50871276855469,
                9.478790283203125
              ],
              [
                -77.98551940917969,
                9.285927772521973
              ],
              [
                -77.7439956665039,
                8.900202751159668
              ],
              [
                -77.5141830444336,
                8.707340240478516
              ],
              [
                -77.29507446289062,
                8.707340240478516
              ],
              [
                -77.1319580078125,
                8.385902404785156
              ],
              [
                -76.8301010131836,
                8.193038940429688
              ],
              [
                -76.92643737792969,
                8.643052101135254
              ],
              [
                -76.29025268554688,
                9.028778076171875
              ],
              [
                -76.09332275390625,
                9.41450309753418
              ],
              [
                -75.65867614746094,
                9.478790283203125
              ],
              [
                -75.63796997070312,
                10.314528465270996
              ],
              [
                -75.4959716796875,
                10.378815650939941
              ],
              [
                -75.5777359008789,
                10.507390975952148
              ],
              [
                -75.44463348388672,
                10.7002534866333
              ],
              [
                -75.22962188720703,
                10.764540672302246
              ],
              [
                -75.23863220214844,
                10.893115997314453
              ],
              [
                -74.96434783935547,
                11.15026569366455
              ],
              [
                -74.52061462402344,
                11.085978507995605
              ],
              [
                -74.36063385009766,
                10.893115997314453
              ],
              [
                -74.17333221435547,
                11.343128204345703
              ],
              [
                -73.15324401855469,
                11.407415390014648
              ],
              [
                -72.81107330322266,
                11.728853225708008
              ],
              [
                -72.23989868164062,
                11.92171573638916
              ],
              [
                -72.12361907958984,
                12.307440757751465
              ],
              [
                -71.90381622314453,
                12.307440757751465
              ],
              [
                -71.84087371826172,
                12.436016082763672
              ],
              [
                -71.17622375488281,
                12.37172794342041
              ],
              [
                -71.07292938232422,
                11.986002922058105
              ],
              [
                -71.56147766113281,
                11.664566040039062
              ],
              [
                -71.85435485839844,
                11.664566040039062
              ],
              [
                -71.9228286743164,
                11.6002779006958
              ],
              [
                -71.8264389038086,
                11.278841018676758
              ],
              [
                -71.82191467285156,
                11.214552879333496
              ],
              [
                -71.59342193603516,
                11.085978507995605
              ],
              [
                -71.6491470336914,
                10.828827857971191
              ]
            ]
          ],
          [
            [
              [
                -81.89875030517578,
                7.357300281524658
              ],
              [
                -81.91102600097656,
                7.614450931549072
              ],
              [
                -81.69523620605469,
                7.678738594055176
              ],
              [
                -81.68589782714844,
                7.485875606536865
              ],
              [
                -81.61293029785156,
                7.485875606536865
              ],
              [
                -81.60688018798828,
                7.357300281524658
              ],
              [
                -81.89875030517578,
                7.357300281524658
              ]
            ]
          ],
          [
            [
              [
                -79.02702331542969,
                8.321614265441895
              ],
              [
                -78.96083068847656,
                8.450189590454102
              ],
              [
                -78.81478881835938,
                8.450189590454102
              ],
              [
                -78.80462646484375,
                8.25732707977295
              ],
              [
                -78.87763977050781,
                8.25732707977295
              ],
              [
                -79.02702331542969,
                8.321614265441895
              ]
            ]
          ],
          [
            [
              [
                -64.3486099243164,
                11.085978507995605
              ],
              [
                -64.05193328857422,
                11.021690368652344
              ],
              [
                -63.844329833984375,
                11.214552879333496
              ],
              [
                -63.75532531738281,
                10.957403182983398
              ],
              [
                -63.96709442138672,
                10.828827857971191
              ],
              [
                -64.04025268554688,
                10.828827857971191
              ],
              [
                -64.26361846923828,
                10.893115997314453
              ],
              [
                -64.3486099243164,
                11.085978507995605
              ]
            ]
          ],
          [
            [
              [
                -70.23886108398438,
                11.6002779006958
              ],
              [
                -70.27698516845703,
                12.114578247070312
              ],
              [
                -70.1403579711914,
                12.24315357208252
              ],
              [
                -69.84729766845703,
                12.24315357208252
              ],
              [
                -69.76420593261719,
                12.114578247070312
              ],
              [
                -69.75934600830078,
                12.050291061401367
              ],
              [
                -69.73094940185547,
                11.664566040039062
              ],
              [
                -70.23886108398438,
                11.6002779006958
              ]
            ]
          ]
        ]
      }
    }
  ]
}