{
  "type": "FeatureCollection",
  "name": "territory-804",
  "features": [
    {
      "type": "Feature",
      "properties": {
        "Name": "Republic of Peru",
        "FromYear": 1822,
        "ToYear": 1824,
        "Area": 1471375.494138594,
        "Type": "POLITY",
        "Wikipedia": "Peru",
        "Wikidata": "Q419",
        "SeshatID": "",
        "Components": "",
        "MemberOf": ""
      },
      "geometry": {
        "type": "Polygon",
        "coordinates": [
          [
            [
              -70.17994689941406,
              -4.343043327331543
            ],
            [
              -70.39459991455078,
              -4.214468002319336
            ],
            [
              -70.90455627441406,
              -4.214468002319336
            ],
            [
              -71.34967803955078,
              -4.47161865234375
            ],
            [
              -72.00748443603516,
              -4.535906314849854
            ],
            [
              -72.60810089111328,
              -5.050207138061523
            ],
            [
              -72.75386047363281,
              -5.050207138061523
            ],
            [
              -72.97960662841797,
              -5.243070125579834
            ],
            [
              -72.98947143554688,
              -5.500220775604248
            ],
            [
              -73.22110748291016,
              -5.821659088134766
            ],
            [
              -73.25202941894531,
              -6.528822898864746
            ],
            [
              -73.78093719482422,
              -6.914548873901367
            ],
            [
              -73.79702758789062,
              -7.235986709594727
            ],
            [
              -63.72829055786133,
              -7.235986709594727
            ],
            [
              -63.54261779785156,
              -7.943150520324707
            ],
            [
              -63.77122497558594,
              -8.13601303100586
            ],
            [
              -63.79116439819336,
              -8.52173900604248
            ],
            [
              -64.03118133544922,
              -8.907464027404785
            ],
            [
              -64.69584655761719,
              -9.036039352416992
            ],
            [
              -65.01827239990234,
              -9.550339698791504
            ],
            [
              -65.37593078613281,
              -9.421764373779297
            ],
            [
              -65.46861267089844,
              -9.743202209472656
            ],
            [
              -66.57316589355469,
              -9.871777534484863
            ],
            [
              -66.56907653808594,
              -9.807489395141602
            ],
            [
              -66.64217376708984,
              -9.807489395141602
            ],
            [
              -66.6462631225586,
              -9.871777534484863
            ],
            [
              -66.95964813232422,
              -10.193214416503906
            ],
            [
              -67.40701293945312,
              -10.321789741516113
            ],
            [
              -67.72171783447266,
              -10.643227577209473
            ],
            [
              -68.16516876220703,
              -10.707514762878418
            ],
            [
              -68.2521743774414,
              -10.90037727355957
            ],
            [
              -68.55902862548828,
              -11.093239784240723
            ],
            [
              -69.57394409179688,
              -10.964664459228516
            ],
            [
              -69.46173095703125,
              -11.414677619934082
            ],
            [
              -69.32032012939453,
              -11.478964805603027
            ],
            [
              -69.33549499511719,
              -11.67182731628418
            ],
            [
              -69.19416809082031,
              -11.736114501953125
            ],
            [
              -68.8862533569336,
              -12.443277359008789
            ],
            [
              -68.74517822265625,
              -12.50756549835205
            ],
            [
              -68.84078216552734,
              -12.764715194702148
            ],
            [
              -68.9930648803711,
              -12.82900333404541
            ],
            [
              -69.0951156616211,
              -13.921893119812012
            ],
            [
              -68.96099853515625,
              -14.050468444824219
            ],
            [
              -68.9803237915039,
              -14.243330955505371
            ],
            [
              -69.40099334716797,
              -14.757633209228516
            ],
            [
              -69.42869567871094,
              -15.014784812927246
            ],
            [
              -69.2957534790039,
              -15.14336109161377
            ],
            [
              -69.41980743408203,
              -15.593376159667969
            ],
            [
              -69.49337005615234,
              -15.593376159667969
            ],
            [
              -69.68486785888672,
              -15.336224555969238
            ],
            [
              -69.97903442382812,
              -15.336224555969238
            ],
            [
              -69.94220733642578,
              -15.65766429901123
            ],
            [
              -70.08935546875,
              -15.65766429901123
            ],
            [
              -70.11186981201172,
              -15.850528717041016
            ],
            [
              -69.74388885498047,
              -15.850528717041016
            ],
            [
              -69.6854019165039,
              -15.979104042053223
            ],
            [
              -69.47215270996094,
              -16.043392181396484
            ],
            [
              -69.5610580444336,
              -16.171968460083008
            ],
            [
              -69.42147064208984,
              -16.236255645751953
            ],
            [
              -69.11927032470703,
              -16.171968460083008
            ],
            [
              -69.08418273925781,
              -16.493408203125
            ],
            [
              -69.09198760986328,
              -16.557695388793945
            ],
            [
              -69.6141586303711,
              -17.20057487487793
            ],
            [
              -69.64698791503906,
              -17.457727432250977
            ],
            [
              -69.4184799194336,
              -17.972028732299805
            ],
            [
              -69.21379852294922,
              -18.100603103637695
            ],
            [
              -69.23920440673828,
              -18.293466567993164
            ],
            [
              -68.97266387939453,
              -19.06491470336914
            ],
            [
              -68.70275115966797,
              -19.257776260375977
            ],
            [
              -68.58952331542969,
              -19.514923095703125
            ],
            [
              -69.03009033203125,
              -20.029216766357422
            ],
            [
              -69.12805938720703,
              -20.736366271972656
            ],
            [
              -69.36736297607422,
              -21.379228591918945
            ],
            [
              -70.00814056396484,
              -21.700658798217773
            ],
            [
              -70.23107147216797,
              -21.700658798217773
            ],
            [
              -70.22166442871094,
              -21.63637351989746
            ],
            [
              -70.22156524658203,
              -21.12208366394043
            ],
            [
              -70.2957992553711,
              -21.12208366394043
            ],
            [
              -70.29682922363281,
              -20.6077938079834
            ],
            [
              -70.3709945678711,
              -20.6077938079834
            ],
            [
              -70.2628173828125,
              -19.83635711669922
            ],
            [
              -70.33688354492188,
              -19.83635711669922
            ],
            [
              -70.30113220214844,
              -19.57921028137207
            ],
            [
              -70.37517547607422,
              -19.57921028137207
            ],
            [
              -70.43451690673828,
              -18.93634033203125
            ],
            [
              -70.50847625732422,
              -18.93634033203125
            ],
            [
              -70.43856048583984,
              -18.422040939331055
            ],
            [
              -70.58634948730469,
              -18.422040939331055
            ],
            [
              -70.97771453857422,
              -18.03631591796875
            ],
            [
              -71.3297119140625,
              -17.90774154663086
            ],
            [
              -71.49990844726562,
              -17.522014617919922
            ],
            [
              -71.63900756835938,
              -17.457727432250977
            ],
            [
              -71.62213134765625,
              -17.329151153564453
            ],
            [
              -72.0478515625,
              -17.20057487487793
            ],
            [
              -72.44017791748047,
              -16.814847946166992
            ],
            [
              -73.0132064819336,
              -16.68627166748047
            ],
            [
              -73.20954895019531,
              -16.493408203125
            ],
            [
              -73.987060546875,
              -16.236255645751953
            ],
            [
              -74.3148422241211,
              -15.914815902709961
            ],
            [
              -74.74047088623047,
              -15.786240577697754
            ],
            [
              -74.79821014404297,
              -15.65766429901123
            ],
            [
              -75.22389221191406,
              -15.529088973999023
            ],
            [
              -75.33989715576172,
              -15.271936416625977
            ],
            [
              -75.73546600341797,
              -14.886209487915039
            ],
            [
              -75.88246154785156,
              -14.886209487915039
            ],
            [
              -76.20560455322266,
              -14.500482559204102
            ],
            [
              -76.19117736816406,
              -14.371907234191895
            ],
            [
              -76.46356201171875,
              -14.179043769836426
            ],
            [
              -76.4218978881836,
              -13.793316841125488
            ],
            [
              -76.34850311279297,
              -13.793316841125488
            ],
            [
              -76.3817138671875,
              -13.407590866088867
            ],
            [
              -77.0143051147461,
              -12.378990173339844
            ],
            [
              -77.00831604003906,
              -12.314702033996582
            ],
            [
              -76.84408569335938,
              -12.12183952331543
            ],
            [
              -76.80968475341797,
              -11.736114501953125
            ],
            [
              -77.0181655883789,
              -11.607540130615234
            ],
            [
              -77.01261901855469,
              -11.543251991271973
            ],
            [
              -77.23225402832031,
              -11.543251991271973
            ],
            [
              -77.38985443115234,
              -11.67182731628418
            ],
            [
              -77.58724975585938,
              -11.414677619934082
            ],
            [
              -77.8013687133789,
              -11.35038948059082
            ],
            [
              -77.77444458007812,
              -11.028952598571777
            ],
            [
              -78.35681915283203,
              -10.064640045166016
            ],
            [
              -78.34247589111328,
              -9.871777534484863
            ],
            [
              -78.86370849609375,
              -8.971752166748047
            ],
            [
              -78.9113998413086,
              -8.586026191711426
            ],
            [
              -79.59014129638672,
              -7.750287532806396
            ],
            [
              -79.71047973632812,
              -7.30027437210083
            ],
            [
              -79.85286712646484,
              -7.235986709594727
            ],
            [
              -79.98148345947266,
              -6.914548873901367
            ],
            [
              -80.75439453125,
              -6.335959911346436
            ],
            [
              -81.32842254638672,
              -6.143096923828125
            ],
            [
              -81.31636047363281,
              -5.885946750640869
            ],
            [
              -81.02180480957031,
              -5.821659088134766
            ],
            [
              -81.01318359375,
              -5.628796100616455
            ],
            [
              -81.29094696044922,
              -5.307357788085938
            ],
            [
              -81.27531433105469,
              -4.921631813049316
            ],
            [
              -81.4185562133789,
              -4.857344150543213
            ],
            [
              -81.47466278076172,
              -4.407330989837646
            ],
            [
              -81.16791534423828,
              -3.957317352294922
            ],
            [
              -80.94527435302734,
              -3.828742265701294
            ],
            [
              -80.94126892089844,
              -3.700166940689087
            ],
            [
              -80.4947738647461,
              -3.378728866577148
            ],
            [
              -80.42194366455078,
              -3.378728866577148
            ],
            [
              -80.27998352050781,
              -3.507303953170776
            ],
            [
              -80.21687316894531,
              -3.828742265701294
            ],
            [
              -80.51441192626953,
              -4.021605014801025
            ],
            [
              -80.52981567382812,
              -4.47161865234375
            ],
            [
              -80.08814239501953,
              -4.343043327331543
            ],
            [
              -79.5872573852539,
              -4.600193977355957
            ],
            [
              -79.52392578125,
              -4.857344150543213
            ],
            [
              -79.3806381225586,
              -4.921631813049316
            ],
            [
              -79.4908218383789,
              -5.821659088134766
            ],
            [
              -79.13795471191406,
              -6.078809261322021
            ],
            [
              -78.91334533691406,
              -5.950234413146973
            ],
            [
              -78.89918518066406,
              -5.628796100616455
            ],
            [
              -78.52392578125,
              -5.371645450592041
            ],
            [
              -78.51871490478516,
              -5.243070125579834
            ],
            [
              -78.29247283935547,
              -5.050207138061523
            ],
            [
              -78.19834899902344,
              -4.47161865234375
            ],
            [
              -77.97755432128906,
              -4.407330989837646
            ],
            [
              -77.82537078857422,
              -4.214468002319336
            ],
            [
              -77.31753540039062,
              -4.278755664825439
            ],
            [
              -77.10769653320312,
              -4.535906314849854
            ],
            [
              -75.94866180419922,
              -4.728769302368164
            ],
            [
              -75.94415283203125,
              -4.600193977355957
            ],
            [
              -75.72335052490234,
              -4.535906314849854
            ],
            [
              -75.71900939941406,
              -4.407330989837646
            ],
            [
              -75.50044250488281,
              -4.407330989837646
            ],
            [
              -75.0530014038086,
              -4.085892677307129
            ],
            [
              -74.84054565429688,
              -4.278755664825439
            ],
            [
              -74.69483947753906,
              -4.278755664825439
            ],
            [
              -74.617919921875,
              -4.150180339813232
            ],
            [
              -74.32652282714844,
              -4.150180339813232
            ],
            [
              -74.25772857666016,
              -4.278755664825439
            ],
            [
              -73.96428680419922,
              -4.214468002319336
            ],
            [
              -73.7359848022461,
              -3.893029928207397
            ],
            [
              -73.51935577392578,
              -3.957317352294922
            ],
            [
              -73.43910217285156,
              -3.700166940689087
            ],
            [
              -73.50493621826172,
              -3.443016529083252
            ],
            [
              -73.3592758178711,
              -3.443016529083252
            ],
            [
              -73.2831039428711,
              -3.314441204071045
            ],
            [
              -72.84779357910156,
              -3.378728866577148
            ],
            [
              -72.70549774169922,
              -3.507303953170776
            ],
            [
              -72.26850891113281,
              -3.507303953170776
            ],
            [
              -71.97384643554688,
              -3.378728866577148
            ],
            [
              -71.97718048095703,
              -3.507303953170776
            ],
            [
              -71.76386260986328,
              -3.700166940689087
            ],
            [
              -71.25576782226562,
              -3.76445460319519
            ],
            [
              -71.18836212158203,
              -3.957317352294922
            ],
            [
              -70.38347625732422,
              -3.828742265701294
            ],
            [
              -70.17224884033203,
              -4.085892677307129
            ],
            [
              -70.02655792236328,
              -4.085892677307129
            ],
            [
              -70.17994689941406,
              -4.343043327331543
            ]
          ]
        ]
      }
    }
  ]
}