{
  "type": "FeatureCollection",
  "name": "territory-805",
  "features": [
    {
      "type": "Feature",
      "properties": {
        "Name": "United Provinces of Central America",
        "FromYear": 1824,
        "ToYear": 1833,
        "Area": 443683.0410740815,
        "Type": "POLITY",
        "Wikipedia": "Federal Republic of Central America",
        "Wikidata": "Q190025",
        "SeshatID": "",
        "Components": "",
        "MemberOf": ""
      },
      "geometry": {
        "type": "Polygon",
        "coordinates": [
          [
            [
              -88.30039978027344,
              15.907554626464844
            ],
            [
              -88.20897674560547,
              15.77897834777832
            ],
            [
              -87.98821258544922,
              15.77897834777832
            ],
            [
              -87.93238830566406,
              15.907554626464844
            ],
            [
              -86.4428482055664,
              15.77897834777832
            ],
            [
              -86.01872253417969,
              15.907554626464844
            ],
            [
              -85.96268463134766,
              16.036130905151367
            ],
            [
              -85.35629272460938,
              15.907554626464844
            ],
            [
              -84.62890625,
              15.971842765808105
            ],
            [
              -84.53807830810547,
              15.843266487121582
            ],
            [
              -84.09650421142578,
              15.843266487121582
            ],
            [
              -83.93238830566406,
              15.714691162109375
            ],
            [
              -83.82552337646484,
              15.457538604736328
            ],
            [
              -84.0379638671875,
              15.393251419067383
            ],
            [
              -83.28631591796875,
              15.26467514038086
            ],
            [
              -83.27033996582031,
              15.136098861694336
            ],
            [
              -83.11539459228516,
              15.07181167602539
            ],
            [
              -83.09198760986328,
              14.878947257995605
            ],
            [
              -83.30475616455078,
              14.81466007232666
            ],
            [
              -83.09062957763672,
              14.236069679260254
            ],
            [
              -83.4676742553711,
              13.657480239868164
            ],
            [
              -83.39510345458984,
              12.950316429138184
            ],
            [
              -83.51050567626953,
              12.628878593444824
            ],
            [
              -83.65097045898438,
              12.564591407775879
            ],
            [
              -83.603515625,
              12.050291061401367
            ],
            [
              -83.73855590820312,
              11.92171573638916
            ],
            [
              -83.58641815185547,
              11.857428550720215
            ],
            [
              -83.5697021484375,
              11.664566040039062
            ],
            [
              -83.7729721069336,
              11.47170352935791
            ],
            [
              -83.81965637207031,
              11.15026569366455
            ],
            [
              -83.58470153808594,
              10.957403182983398
            ],
            [
              -83.5647201538086,
              10.7002534866333
            ],
            [
              -83.23410034179688,
              10.185953140258789
            ],
            [
              -82.6137466430664,
              9.671652793884277
            ],
            [
              -82.60948944091797,
              9.607365608215332
            ],
            [
              -82.88921356201172,
              9.41450309753418
            ],
            [
              -82.78797912597656,
              8.964489936828613
            ],
            [
              -82.83094024658203,
              8.450189590454102
            ],
            [
              -83.04280853271484,
              8.321614265441895
            ],
            [
              -83.1158218383789,
              8.321614265441895
            ],
            [
              -83.2033920288086,
              8.578764915466309
            ],
            [
              -83.27642059326172,
              8.578764915466309
            ],
            [
              -83.26184844970703,
              8.321614265441895
            ],
            [
              -83.70719146728516,
              8.450189590454102
            ],
            [
              -83.72593688964844,
              8.771627426147461
            ],
            [
              -83.58760070800781,
              8.900202751159668
            ],
            [
              -83.67251586914062,
              9.09306526184082
            ],
            [
              -84.12311553955078,
              9.285927772521973
            ],
            [
              -84.2818603515625,
              9.478790283203125
            ],
            [
              -84.57417297363281,
              9.478790283203125
            ],
            [
              -84.82884979248047,
              9.993090629577637
            ],
            [
              -84.9482192993164,
              9.607365608215332
            ],
            [
              -85.24056243896484,
              9.607365608215332
            ],
            [
              -85.47767639160156,
              9.86451530456543
            ],
            [
              -85.77926635742188,
              9.993090629577637
            ],
            [
              -85.88573455810547,
              10.443102836608887
            ],
            [
              -85.68115997314453,
              10.635965347290039
            ],
            [
              -85.83755493164062,
              10.764540672302246
            ],
            [
              -85.8530044555664,
              10.957403182983398
            ],
            [
              -85.71714782714844,
              11.085978507995605
            ],
            [
              -86.583251953125,
              11.793140411376953
            ],
            [
              -86.92401885986328,
              12.307440757751465
            ],
            [
              -87.54815673828125,
              12.69316577911377
            ],
            [
              -87.66111755371094,
              13.07889175415039
            ],
            [
              -87.44111633300781,
              13.07889175415039
            ],
            [
              -87.2811050415039,
              12.950316429138184
            ],
            [
              -87.46842956542969,
              13.336042404174805
            ],
            [
              -87.7618408203125,
              13.336042404174805
            ],
            [
              -87.74122619628906,
              13.143178939819336
            ],
            [
              -88.84818267822266,
              13.207467079162598
            ],
            [
              -89.24311828613281,
              13.464617729187012
            ],
            [
              -89.9106216430664,
              13.528904914855957
            ],
            [
              -90.46885681152344,
              13.914630889892578
            ],
            [
              -91.3497085571289,
              13.914630889892578
            ],
            [
              -92.47407531738281,
              14.686083793640137
            ],
            [
              -92.75463104248047,
              15.136098861694336
            ],
            [
              -93.32321166992188,
              15.52182674407959
            ],
            [
              -93.3323745727539,
              15.586114883422852
            ],
            [
              -92.8543930053711,
              15.843266487121582
            ],
            [
              -92.68862915039062,
              15.714691162109375
            ],
            [
              -92.6611557006836,
              15.52182674407959
            ],
            [
              -92.05470275878906,
              15.393251419067383
            ],
            [
              -91.88841247558594,
              15.77897834777832
            ],
            [
              -91.63116455078125,
              16.036130905151367
            ],
            [
              -90.38895416259766,
              16.100418090820312
            ],
            [
              -90.35283660888672,
              16.35757064819336
            ],
            [
              -90.62174987792969,
              16.67901039123535
            ],
            [
              -91.27049255371094,
              17.06473731994629
            ],
            [
              -91.29054260253906,
              17.193313598632812
            ],
            [
              -91.06930541992188,
              17.193313598632812
            ],
            [
              -90.94193267822266,
              17.321889877319336
            ],
            [
              -90.93962097167969,
              17.77190399169922
            ],
            [
              -89.16804504394531,
              17.77190399169922
            ],
            [
              -89.03401947021484,
              17.38617706298828
            ],
            [
              -89.10779571533203,
              17.38617706298828
            ],
            [
              -89.11003112792969,
              15.907554626464844
            ],
            [
              -88.81562042236328,
              15.907554626464844
            ],
            [
              -88.74201202392578,
              15.907554626464844
            ],
            [
              -88.30039978027344,
              15.907554626464844
            ]
          ]
        ]
      }
    }
  ]
}