{
  "type": "FeatureCollection",
  "name": "territory-807",
  "features": [
    {
      "type": "Feature",
      "properties": {
        "Name": "Federated Republic of Mexico",
        "FromYear": 1824,
        "ToYear": 1824,
        "Area": 3188400.8720674077,
        "Type": "POLITY",
        "Wikipedia": "First Mexican Republic",
        "Wikidata": "Q1109279",
        "SeshatID": "",
        "Components": "",
        "MemberOf": ""
      },
      "geometry": {
        "type": "MultiPolygon",
        "coordinates": [
          [
            [
              [
                -86.9874267578125,
                20.279102325439453
              ],
              [
                -87.01952362060547,
                20.471960067749023
              ],
              [
                -86.74434661865234,
                20.60053253173828
              ],
              [
                -86.67018127441406,
                20.60053253173828
              ],
              [
                -86.70156860351562,
                20.343387603759766
              ],
              [
                -86.9874267578125,
                20.279102325439453
              ]
            ]
          ],
          [
            [
              [
                -115.124755859375,
                28.379535675048828
              ],
              [
                -115.07855224609375,
                28.25096321105957
              ],
              [
                -115.03276824951172,
                28.12238883972168
              ],
              [
                -115.1607666015625,
                28.058101654052734
              ],
              [
                -115.23612976074219,
                28.058101654052734
              ],
              [
                -115.27562713623047,
                28.379535675048828
              ],
              [
                -115.124755859375,
                28.379535675048828
              ]
            ]
          ],
          [
            [
              [
                -106.62601470947266,
                41.132843017578125
              ],
              [
                -106.74429321289062,
                41.06801223754883
              ],
              [
                -106.66253662109375,
                40.80876541137695
              ],
              [
                -106.78109741210938,
                40.74397277832031
              ],
              [
                -106.70417022705078,
                40.0964469909668
              ],
              [
                -106.78317260742188,
                40.0964469909668
              ],
              [
                -106.71083068847656,
                39.70827102661133
              ],
              [
                -106.7896728515625,
                39.70827102661133
              ],
              [
                -106.71392822265625,
                39.57893371582031
              ],
              [
                -106.792724609375,
                39.57893371582031
              ],
              [
                -106.71746063232422,
                39.449623107910156
              ],
              [
                -106.80010986328125,
                39.320335388183594
              ],
              [
                -106.27670288085938,
                38.67427444458008
              ],
              [
                -104.21837615966797,
                38.351463317871094
              ],
              [
                -103.992431640625,
                38.22237777709961
              ],
              [
                -102.06932067871094,
                38.28691864013672
              ],
              [
                -101.49826049804688,
                38.09331130981445
              ],
              [
                -101.06232452392578,
                38.157840728759766
              ],
              [
                -100.18028259277344,
                37.96426773071289
              ],
              [
                -100.03009033203125,
                37.51277160644531
              ],
              [
                -100.10812377929688,
                37.51277160644531
              ],
              [
                -100.02593231201172,
                37.1904182434082
              ],
              [
                -100.10385131835938,
                37.1904182434082
              ],
              [
                -99.93102264404297,
                36.9970588684082
              ],
              [
                -100.05523681640625,
                36.932613372802734
              ],
              [
                -100.00802612304688,
                36.67487716674805
              ],
              [
                -100.08576965332031,
                36.67487716674805
              ],
              [
                -100.02378845214844,
                36.5460319519043
              ],
              [
                -100.11749267578125,
                36.417205810546875
              ],
              [
                -100.0121841430664,
                36.03080368041992
              ],
              [
                -100.10688781738281,
                35.902034759521484
              ],
              [
                -99.99427795410156,
                35.32271194458008
              ],
              [
                -100.07157135009766,
                35.32271194458008
              ],
              [
                -99.98384857177734,
                35.12965774536133
              ],
              [
                -100.08016204833984,
                35.00096893310547
              ],
              [
                -100.0333023071289,
                34.55062484741211
              ],
              [
                -99.71727752685547,
                34.3576545715332
              ],
              [
                -99.36039733886719,
                34.42197799682617
              ],
              [
                -99.09459686279297,
                34.164703369140625
              ],
              [
                -98.32521057128906,
                34.164703369140625
              ],
              [
                -98.16595458984375,
                33.971771240234375
              ],
              [
                -97.88571166992188,
                34.03607940673828
              ],
              [
                -97.4198989868164,
                33.84315490722656
              ],
              [
                -97.32025909423828,
                33.971771240234375
              ],
              [
                -96.85897827148438,
                33.971771240234375
              ],
              [
                -96.54790496826172,
                33.77885055541992
              ],
              [
                -95.14106750488281,
                33.90746307373047
              ],
              [
                -94.8315658569336,
                33.71455001831055
              ],
              [
                -94.4214859008789,
                33.65024948120117
              ],
              [
                -94.3447036743164,
                33.65024948120117
              ],
              [
                -94.16521453857422,
                33.5859489440918
              ],
              [
                -94.06236267089844,
                33.32876968383789
              ],
              [
                -94.13905334472656,
                33.32876968383789
              ],
              [
                -94.06269836425781,
                33.13589859008789
              ],
              [
                -94.19064331054688,
                33.07160949707031
              ],
              [
                -93.99739837646484,
                32.171695709228516
              ],
              [
                -94.07376098632812,
                32.171695709228516
              ],
              [
                -93.59113311767578,
                31.271915435791016
              ],
              [
                -93.67474365234375,
                31.079113006591797
              ],
              [
                -93.56206512451172,
                30.757776260375977
              ],
              [
                -93.6380615234375,
                30.757776260375977
              ],
              [
                -93.62533569335938,
                30.500701904296875
              ],
              [
                -93.75520324707031,
                30.436433792114258
              ],
              [
                -93.70089721679688,
                30.050809860229492
              ],
              [
                -93.86429595947266,
                29.857990264892578
              ],
              [
                -93.82202911376953,
                29.729440689086914
              ],
              [
                -93.80103302001953,
                29.665164947509766
              ],
              [
                -94.21347045898438,
                29.536611557006836
              ],
              [
                -94.74333190917969,
                29.536611557006836
              ],
              [
                -94.78546142578125,
                29.665164947509766
              ],
              [
                -94.9369125366211,
                29.665164947509766
              ],
              [
                -94.73577880859375,
                29.279497146606445
              ],
              [
                -94.94205474853516,
                29.21521759033203
              ],
              [
                -95.14240264892578,
                28.893810272216797
              ],
              [
                -95.7063217163086,
                28.765243530273438
              ],
              [
                -95.74169921875,
                28.636676788330078
              ],
              [
                -95.94819641113281,
                28.572391510009766
              ],
              [
                -96.49661254882812,
                28.636676788330078
              ],
              [
                -96.34140014648438,
                28.379535675048828
              ],
              [
                -96.71857452392578,
                28.379535675048828
              ],
              [
                -96.65951538085938,
                28.186676025390625
              ],
              [
                -96.9415283203125,
                28.12238883972168
              ],
              [
                -96.90266418457031,
                27.993812561035156
              ],
              [
                -97.01480865478516,
                27.865236282348633
              ],
              [
                -97.31611633300781,
                27.865236282348633
              ],
              [
                -97.07048034667969,
                27.54378890991211
              ],
              [
                -97.2774887084961,
                27.4794979095459
              ],
              [
                -97.24021911621094,
                27.35091781616211
              ],
              [
                -97.39066314697266,
                27.35091781616211
              ],
              [
                -97.31707763671875,
                27.093751907348633
              ],
              [
                -97.39224243164062,
                27.093751907348633
              ],
              [
                -97.35595703125,
                26.96516990661621
              ],
              [
                -97.5062484741211,
                26.96516990661621
              ],
              [
                -97.30677795410156,
                26.515121459960938
              ],
              [
                -97.26172637939453,
                26.06507110595703
              ],
              [
                -97.0949935913086,
                26.000778198242188
              ],
              [
                -97.04515838623047,
                25.807899475097656
              ],
              [
                -97.23131561279297,
                25.357851028442383
              ],
              [
                -97.68042755126953,
                25.357851028442383
              ],
              [
                -97.5553207397461,
                24.843517303466797
              ],
              [
                -97.63008880615234,
                24.843517303466797
              ],
              [
                -97.62931060791016,
                24.522062301635742
              ],
              [
                -97.77873992919922,
                24.522062301635742
              ],
              [
                -97.61592102050781,
                24.136323928833008
              ],
              [
                -97.6905746459961,
                24.136323928833008
              ],
              [
                -97.61913299560547,
                23.814878463745117
              ],
              [
                -97.69374084472656,
                23.814878463745117
              ],
              [
                -97.58287811279297,
                23.30057144165039
              ],
              [
                -97.65740966796875,
                23.30057144165039
              ],
              [
                -97.60343933105469,
                23.043420791625977
              ],
              [
                -97.74750518798828,
                22.657697677612305
              ],
              [
                -97.54424285888672,
                21.629112243652344
              ],
              [
                -97.37100982666016,
                21.500539779663086
              ],
              [
                -97.07746887207031,
                20.72910499572754
              ],
              [
                -96.51469421386719,
                20.08624267578125
              ],
              [
                -96.25057983398438,
                19.443374633789062
              ],
              [
                -95.76676940917969,
                18.800504684448242
              ],
              [
                -95.09011840820312,
                18.736217498779297
              ],
              [
                -94.68718719482422,
                18.543354034423828
              ],
              [
                -94.48452758789062,
                18.2219181060791
              ],
              [
                -94.04130554199219,
                18.2219181060791
              ],
              [
                -93.49372100830078,
                18.479066848754883
              ],
              [
                -92.61772155761719,
                18.543354034423828
              ],
              [
                -92.50244903564453,
                18.736217498779297
              ],
              [
                -91.83705139160156,
                18.736217498779297
              ],
              [
                -91.79398345947266,
                18.479066848754883
              ],
              [
                -91.49837493896484,
                18.479066848754883
              ],
              [
                -91.44587707519531,
                18.607641220092773
              ],
              [
                -91.29804229736328,
                18.607641220092773
              ],
              [
                -91.35189819335938,
                18.929079055786133
              ],
              [
                -90.81432342529297,
                19.25051498413086
              ],
              [
                -90.74271392822266,
                19.700523376464844
              ],
              [
                -90.47938537597656,
                19.893383026123047
              ],
              [
                -90.37156677246094,
                20.986249923706055
              ],
              [
                -90.1198501586914,
                21.24339485168457
              ],
              [
                -88.89132690429688,
                21.43625259399414
              ],
              [
                -88.47954559326172,
                21.629112243652344
              ],
              [
                -87.3426742553711,
                21.500539779663086
              ],
              [
                -87.2164306640625,
                21.629112243652344
              ],
              [
                -86.91922760009766,
                21.629112243652344
              ],
              [
                -86.74839782714844,
                21.500539779663086
              ],
              [
                -86.66070556640625,
                20.986249923706055
              ],
              [
                -86.85083770751953,
                20.793392181396484
              ],
              [
                -86.82926940917969,
                20.664819717407227
              ],
              [
                -87.04102325439453,
                20.60053253173828
              ],
              [
                -87.34735107421875,
                20.214815139770508
              ],
              [
                -87.29402160644531,
                19.893383026123047
              ],
              [
                -87.54778289794922,
                19.6362361907959
              ],
              [
                -87.38911437988281,
                19.571949005126953
              ],
              [
                -87.36799621582031,
                19.443374633789062
              ],
              [
                -87.49495697021484,
                19.314802169799805
              ],
              [
                -87.45301055908203,
                19.057653427124023
              ],
              [
                -87.7293930053711,
                18.479066848754883
              ],
              [
                -87.69865417480469,
                18.286205291748047
              ],
              [
                -87.91007232666016,
                18.2219181060791
              ],
              [
                -88.03532409667969,
                18.543354034423828
              ],
              [
                -87.96141052246094,
                18.543354034423828
              ],
              [
                -87.99251556396484,
                18.736217498779297
              ],
              [
                -88.12997436523438,
                18.67193031311035
              ],
              [
                -88.17279815673828,
                18.479066848754883
              ],
              [
                -88.2467041015625,
                18.479066848754883
              ],
              [
                -88.3945083618164,
                18.479066848754883
              ],
              [
                -88.75556182861328,
                17.964767456054688
              ],
              [
                -89.05091857910156,
                17.964767456054688
              ],
              [
                -89.16804504394531,
                17.77190399169922
              ],
              [
                -90.93962097167969,
                17.77190399169922
              ],
              [
                -90.94193267822266,
                17.321889877319336
              ],
              [
                -91.06930541992188,
                17.193313598632812
              ],
              [
                -91.29054260253906,
                17.193313598632812
              ],
              [
                -91.27049255371094,
                17.06473731994629
              ],
              [
                -90.62174987792969,
                16.67901039123535
              ],
              [
                -90.35283660888672,
                16.35757064819336
              ],
              [
                -90.38895416259766,
                16.100418090820312
              ],
              [
                -91.63116455078125,
                16.036130905151367
              ],
              [
                -91.88841247558594,
                15.77897834777832
              ],
              [
                -92.05470275878906,
                15.393251419067383
              ],
              [
                -92.6611557006836,
                15.52182674407959
              ],
              [
                -92.68862915039062,
                15.714691162109375
              ],
              [
                -92.8543930053711,
                15.843266487121582
              ],
              [
                -93.3323745727539,
                15.586114883422852
              ],
              [
                -93.40594482421875,
                15.586114883422852
              ],
              [
                -94.15343475341797,
                16.16470718383789
              ],
              [
                -94.6688461303711,
                16.16470718383789
              ],
              [
                -94.77195739746094,
                16.35757064819336
              ],
              [
                -94.95361328125,
                16.100418090820312
              ],
              [
                -96.21102905273438,
                15.650403022766113
              ],
              [
                -96.7260513305664,
                15.650403022766113
              ],
              [
                -97.0493392944336,
                15.843266487121582
              ],
              [
                -97.7215347290039,
                15.907554626464844
              ],
              [
                -98.05585479736328,
                16.16470718383789
              ],
              [
                -98.43414306640625,
                16.228994369506836
              ],
              [
                -98.85388946533203,
                16.550434112548828
              ],
              [
                -99.68539428710938,
                16.67901039123535
              ],
              [
                -100.02298736572266,
                16.9361629486084
              ],
              [
                -101.11003112792969,
                17.257600784301758
              ],
              [
                -101.89891815185547,
                17.964767456054688
              ],
              [
                -102.25653076171875,
                17.90047836303711
              ],
              [
                -103.18941497802734,
                18.157629013061523
              ],
              [
                -103.52046966552734,
                18.350492477416992
              ],
              [
                -103.82637786865234,
                18.800504684448242
              ],
              [
                -105.04668426513672,
                19.379087448120117
              ],
              [
                -105.54254913330078,
                20.021955490112305
              ],
              [
                -105.63154602050781,
                20.471960067749023
              ],
              [
                -105.22492980957031,
                20.664819717407227
              ],
              [
                -105.46028900146484,
                20.72910499572754
              ],
              [
                -105.48603057861328,
                20.857677459716797
              ],
              [
                -105.28923034667969,
                20.986249923706055
              ],
              [
                -105.31514739990234,
                21.114822387695312
              ],
              [
                -105.13148498535156,
                21.307680130004883
              ],
              [
                -105.5344467163086,
                21.821969985961914
              ],
              [
                -105.69853210449219,
                22.59341049194336
              ],
              [
                -106.43732452392578,
                23.236284255981445
              ],
              [
                -106.97566986083984,
                23.943456649780273
              ],
              [
                -107.59268188476562,
                24.329193115234375
              ],
              [
                -107.71582794189453,
                24.522062301635742
              ],
              [
                -107.8652572631836,
                24.522062301635742
              ],
              [
                -108.10762023925781,
                25.164974212646484
              ],
              [
                -108.49905395507812,
                25.229267120361328
              ],
              [
                -108.7939682006836,
                25.48643684387207
              ],
              [
                -109.01859283447266,
                25.48643684387207
              ],
              [
                -109.05445098876953,
                25.615020751953125
              ],
              [
                -109.39036560058594,
                25.743606567382812
              ],
              [
                -109.42670440673828,
                26.129364013671875
              ],
              [
                -109.18354797363281,
                26.32224464416504
              ],
              [
                -109.26063537597656,
                26.57941436767578
              ],
              [
                -109.84523010253906,
                26.772293090820312
              ],
              [
                -109.94569396972656,
                27.093751907348633
              ],
              [
                -110.41718292236328,
                27.158044815063477
              ],
              [
                -110.57353210449219,
                27.865236282348633
              ],
              [
                -111.2197494506836,
                27.993812561035156
              ],
              [
                -111.28591918945312,
                28.186676025390625
              ],
              [
                -111.67735290527344,
                28.44382095336914
              ],
              [
                -112.11223602294922,
                29.022375106811523
              ],
              [
                -112.18781280517578,
                29.022375106811523
              ],
              [
                -112.16957092285156,
                28.765243530273438
              ],
              [
                -112.49501037597656,
                28.829526901245117
              ],
              [
                -112.486083984375,
                29.21521759033203
              ],
              [
                -112.3588638305664,
                29.279497146606445
              ],
              [
                -113.14522552490234,
                30.886310577392578
              ],
              [
                -113.04671478271484,
                31.014846801757812
              ],
              [
                -113.1277847290039,
                31.20764923095703
              ],
              [
                -113.53562927246094,
                31.271915435791016
              ],
              [
                -113.7220687866211,
                31.528987884521484
              ],
              [
                -114.15138244628906,
                31.464719772338867
              ],
              [
                -114.72077941894531,
                31.7217960357666
              ],
              [
                -114.68460845947266,
                31.464719772338867
              ],
              [
                -114.8297348022461,
                31.271915435791016
              ],
              [
                -114.53189086914062,
                30.564971923828125
              ],
              [
                -114.60783386230469,
                30.564971923828125
              ],
              [
                -114.5025863647461,
                30.307893753051758
              ],
              [
                -114.5784683227539,
                30.307893753051758
              ],
              [
                -114.4491958618164,
                29.986536026000977
              ],
              [
                -113.84330749511719,
                29.600887298583984
              ],
              [
                -113.59339141845703,
                29.34377670288086
              ],
              [
                -113.47262573242188,
                29.022375106811523
              ],
              [
                -113.22209930419922,
                28.958093643188477
              ],
              [
                -113.0060043334961,
                28.572391510009766
              ],
              [
                -112.83202362060547,
                28.508106231689453
              ],
              [
                -112.56362915039062,
                27.736658096313477
              ],
              [
                -112.39134979248047,
                27.6723690032959
              ],
              [
                -111.99602508544922,
                27.158044815063477
              ],
              [
                -111.84565734863281,
                27.158044815063477
              ],
              [
                -111.83857727050781,
                26.900876998901367
              ],
              [
                -111.6131820678711,
                26.900876998901367
              ],
              [
                -111.49761199951172,
                26.772293090820312
              ],
              [
                -110.76608276367188,
                25.03639030456543
              ],
              [
                -110.6912841796875,
                25.03639030456543
              ],
              [
                -110.72631072998047,
                25.164974212646484
              ],
              [
                -110.48432159423828,
                25.100683212280273
              ],
              [
                -110.48993682861328,
                24.843517303466797
              ],
              [
                -110.67391967773438,
                24.97209930419922
              ],
              [
                -110.58006286621094,
                24.329193115234375
              ],
              [
                -110.2649917602539,
                24.264904022216797
              ],
              [
                -110.29774475097656,
                24.393482208251953
              ],
              [
                -110.14836120605469,
                24.393482208251953
              ],
              [
                -109.93395233154297,
                24.136323928833008
              ],
              [
                -109.6939697265625,
                24.07203483581543
              ],
              [
                -109.59952545166016,
                23.68630027770996
              ],
              [
                -109.32964324951172,
                23.493436813354492
              ],
              [
                -109.26912689208984,
                23.236284255981445
              ],
              [
                -109.44792175292969,
                23.043420791625977
              ],
              [
                -109.59690856933594,
                23.043420791625977
              ],
              [
                -109.6418228149414,
                22.914846420288086
              ],
              [
                -110.02900695800781,
                22.97913360595703
              ],
              [
                -110.11918640136719,
                23.36486053466797
              ],
              [
                -110.659423828125,
                23.75058937072754
              ],
              [
                -110.6910171508789,
                23.879167556762695
              ],
              [
                -111.58423614501953,
                24.457773208618164
              ],
              [
                -111.8663330078125,
                24.393482208251953
              ],
              [
                -111.99148559570312,
                24.586353302001953
              ],
              [
                -111.85901641845703,
                24.650644302368164
              ],
              [
                -112.15795135498047,
                24.650644302368164
              ],
              [
                -112.26702880859375,
                24.779226303100586
              ],
              [
                -112.24446105957031,
                24.97209930419922
              ],
              [
                -112.09487915039062,
                24.97209930419922
              ],
              [
                -112.1657485961914,
                25.229267120361328
              ],
              [
                -112.07020568847656,
                25.422143936157227
              ],
              [
                -112.12521362304688,
                25.615020751953125
              ],
              [
                -112.0503158569336,
                25.615020751953125
              ],
              [
                -112.27625274658203,
                26.129364013671875
              ],
              [
                -112.70964813232422,
                26.32224464416504
              ],
              [
                -113.12965393066406,
                26.70800018310547
              ],
              [
                -113.5802230834961,
                26.70800018310547
              ],
              [
                -115.04851531982422,
                27.736658096313477
              ],
              [
                -115.09310150146484,
                27.865236282348633
              ],
              [
                -114.26451110839844,
                27.865236282348633
              ],
              [
                -114.06961822509766,
                27.736658096313477
              ],
              [
                -114.2035903930664,
                28.12238883972168
              ],
              [
                -114.0228500366211,
                28.25096321105957
              ],
              [
                -114.0394287109375,
                28.508106231689453
              ],
              [
                -114.65470886230469,
                29.150936126708984
              ],
              [
                -115.5089340209961,
                29.600887298583984
              ],
              [
                -115.7621078491211,
                29.857990264892578
              ],
              [
                -116.0829086303711,
                30.822044372558594
              ],
              [
                -116.26223754882812,
                30.886310577392578
              ],
              [
                -116.35221862792969,
                31.271915435791016
              ],
              [
                -116.56069946289062,
                31.40045166015625
              ],
              [
                -116.71347045898438,
                31.91460609436035
              ],
              [
                -117.04226684570312,
                32.30024337768555
              ],
              [
                -117.4219741821289,
                33.26447677612305
              ],
              [
                -118.10328674316406,
                33.71455001831055
              ],
              [
                -118.41050720214844,
                33.71455001831055
              ],
              [
                -118.5718765258789,
                34.03607940673828
              ],
              [
                -119.14288330078125,
                34.10039138793945
              ],
              [
                -119.61592864990234,
                34.42197799682617
              ],
              [
                -120.57373046875,
                34.48630142211914
              ],
              [
                -120.68334197998047,
                35.12965774536133
              ],
              [
                -120.96980285644531,
                35.51579284667969
              ],
              [
                -121.27255249023438,
                35.644527435302734
              ],
              [
                -121.45104217529297,
                35.9664192199707
              ],
              [
                -121.82852172851562,
                36.2239875793457
              ],
              [
                -121.97525024414062,
                36.48161697387695
              ],
              [
                -121.89757537841797,
                36.48161697387695
              ],
              [
                -121.97157287597656,
                36.61045455932617
              ],
              [
                -121.8097152709961,
                36.8681755065918
              ],
              [
                -122.19632720947266,
                36.9970588684082
              ],
              [
                -122.5805435180664,
                37.641746520996094
              ],
              [
                -122.50264739990234,
                37.7707405090332
              ],
              [
                -122.58141326904297,
                37.89975357055664
              ],
              [
                -122.97355651855469,
                38.028785705566406
              ],
              [
                -123.01547241210938,
                38.22237777709961
              ],
              [
                -122.93718719482422,
                38.22237777709961
              ],
              [
                -122.74051666259766,
                38.157840728759766
              ],
              [
                -122.70457458496094,
                38.351463317871094
              ],
              [
                -122.6262435913086,
                38.351463317871094
              ],
              [
                -122.11442565917969,
                38.157840728759766
              ],
              [
                -121.9167709350586,
                37.706241607666016
              ],
              [
                -121.45135498046875,
                37.3193473815918
              ],
              [
                -121.33745574951172,
                37.12596130371094
              ],
              [
                -121.53594970703125,
                36.932613372802734
              ],
              [
                -121.46455383300781,
                36.67487716674805
              ],
              [
                -121.58297729492188,
                36.61045455932617
              ],
              [
                -121.47247314453125,
                36.417205810546875
              ],
              [
                -121.13021087646484,
                36.2239875793457
              ],
              [
                -120.99201202392578,
                35.837650299072266
              ],
              [
                -120.43575286865234,
                35.38706970214844
              ],
              [
                -120.21253967285156,
                34.679283142089844
              ],
              [
                -119.48507690429688,
                34.614952087402344
              ],
              [
                -119.12067413330078,
                34.3576545715332
              ],
              [
                -118.47179412841797,
                34.2933349609375
              ],
              [
                -118.09054565429688,
                33.84315490722656
              ],
              [
                -117.53388214111328,
                33.65024948120117
              ],
              [
                -117.11528778076172,
                33.26447677612305
              ],
              [
                -116.8845443725586,
                32.94303894042969
              ],
              [
                -116.80944061279297,
                32.62162780761719
              ],
              [
                -115.53895568847656,
                32.685909271240234
              ],
              [
                -115.56888580322266,
                32.75019073486328
              ],
              [
                -114.69737243652344,
                32.685909271240234
              ],
              [
                -114.75692749023438,
                32.81447219848633
              ],
              [
                -114.52729797363281,
                32.81447219848633
              ],
              [
                -114.55716705322266,
                32.878753662109375
              ],
              [
                -113.93230438232422,
                32.685909271240234
              ],
              [
                -113.96184539794922,
                32.75019073486328
              ],
              [
                -113.02593231201172,
                32.878753662109375
              ],
              [
                -113.05553436279297,
                32.94303894042969
              ],
              [
                -112.56655883789062,
                32.878753662109375
              ],
              [
                -112.5787124633789,
                33.07160949707031
              ],
              [
                -112.8517074584961,
                33.32876968383789
              ],
              [
                -112.62163543701172,
                33.32876968383789
              ],
              [
                -112.52851867675781,
                33.45735549926758
              ],
              [
                -111.94844055175781,
                33.20018768310547
              ],
              [
                -111.16449737548828,
                33.32876968383789
              ],
              [
                -110.9991226196289,
                33.13589859008789
              ],
              [
                -110.84585571289062,
                33.13589859008789
              ],
              [
                -110.70435333251953,
                33.32876968383789
              ],
              [
                -110.39759063720703,
                33.32876968383789
              ],
              [
                -109.8971176147461,
                33.07160949707031
              ],
              [
                -109.66726684570312,
                33.07160949707031
              ],
              [
                -109.60137176513672,
                33.26447677612305
              ],
              [
                -109.32391357421875,
                33.32876968383789
              ],
              [
                -108.69046783447266,
                32.94303894042969
              ],
              [
                -108.53730773925781,
                32.94303894042969
              ],
              [
                -108.345703125,
                33.20018768310547
              ],
              [
                -108.40361785888672,
                33.32876968383789
              ],
              [
                -107.47389221191406,
                33.13589859008789
              ],
              [
                -107.56001281738281,
                33.32876968383789
              ],
              [
                -107.43547821044922,
                33.393062591552734
              ],
              [
                -107.49345397949219,
                33.52165222167969
              ],
              [
                -107.25574493408203,
                33.84315490722656
              ],
              [
                -107.50779724121094,
                34.55062484741211
              ],
              [
                -107.36798858642578,
                34.743614196777344
              ],
              [
                -107.41383361816406,
                35.00096893310547
              ],
              [
                -107.19792938232422,
                35.194007873535156
              ],
              [
                -107.19978332519531,
                35.51579284667969
              ],
              [
                -107.07656860351562,
                35.58015823364258
              ],
              [
                -107.13984680175781,
                35.708900451660156
              ],
              [
                -106.92552947998047,
                35.902034759521484
              ],
              [
                -106.98957824707031,
                36.03080368041992
              ],
              [
                -106.85360717773438,
                36.2239875793457
              ],
              [
                -106.69842529296875,
                36.2239875793457
              ],
              [
                -106.76322937011719,
                36.3527946472168
              ],
              [
                -106.50543212890625,
                36.61045455932617
              ],
              [
                -106.57122039794922,
                36.73930740356445
              ],
              [
                -106.43718719482422,
                36.932613372802734
              ],
              [
                -106.58174896240234,
                37.06150817871094
              ],
              [
                -106.42601013183594,
                37.06150817871094
              ],
              [
                -106.29295349121094,
                37.254878997802734
              ],
              [
                -106.36053466796875,
                37.38381576538086
              ],
              [
                -106.28254699707031,
                37.38381576538086
              ],
              [
                -106.46271514892578,
                37.5772590637207
              ],
              [
                -107.07808685302734,
                37.706241607666016
              ],
              [
                -107.90235900878906,
                37.641746520996094
              ],
              [
                -108.04227447509766,
                37.89975357055664
              ],
              [
                -107.95648956298828,
                38.028785705566406
              ],
              [
                -108.02751922607422,
                38.157840728759766
              ],
              [
                -107.94925689697266,
                38.157840728759766
              ],
              [
                -108.02070617675781,
                38.28691864013672
              ],
              [
                -107.94239807128906,
                38.28691864013672
              ],
              [
                -108.05040740966797,
                38.48057174682617
              ],
              [
                -107.96617126464844,
                38.60969924926758
              ],
              [
                -108.0391845703125,
                38.738853454589844
              ],
              [
                -107.9607162475586,
                38.738853454589844
              ],
              [
                -108.0341796875,
                38.8680305480957
              ],
              [
                -107.95565795898438,
                38.8680305480957
              ],
              [
                -108.0216293334961,
                39.25570297241211
              ],
              [
                -107.94295501708984,
                39.25570297241211
              ],
              [
                -108.0092544555664,
                39.90232849121094
              ],
              [
                -107.93032836914062,
                39.90232849121094
              ],
              [
                -108.04721069335938,
                40.0964469909668
              ],
              [
                -107.96771240234375,
                40.225894927978516
              ],
              [
                -108.04676818847656,
                40.355369567871094
              ],
              [
                -107.96766662597656,
                40.355369567871094
              ],
              [
                -108.04721069335938,
                40.4848747253418
              ],
              [
                -107.96804809570312,
                40.4848747253418
              ],
              [
                -108.04938507080078,
                40.74397277832031
              ],
              [
                -107.9312515258789,
                40.80876541137695
              ],
              [
                -108.01475524902344,
                41.06801223754883
              ],
              [
                -107.89691925048828,
                41.132843017578125
              ],
              [
                -108.10009765625,
                41.32738494873047
              ],
              [
                -107.94107055664062,
                41.32738494873047
              ],
              [
                -107.98619079589844,
                41.521995544433594
              ],
              [
                -107.86873626708984,
                41.586883544921875
              ],
              [
                -107.95716857910156,
                41.84651184082031
              ],
              [
                -107.83995819091797,
                41.911441802978516
              ],
              [
                -107.93030548095703,
                42.17123794555664
              ],
              [
                -107.85042572021484,
                42.17123794555664
              ],
              [
                -107.9361343383789,
                42.30118942260742
              ],
              [
                -106.65708923339844,
                42.30118942260742
              ],
              [
                -106.56367492675781,
                41.911441802978516
              ],
              [
                -106.68134307861328,
                41.84651184082031
              ],
              [
                -106.59471893310547,
                41.586883544921875
              ],
              [
                -106.70984649658203,
                41.39224624633789
              ],
              [
                -106.54847717285156,
                41.26253128051758
              ],
              [
                -106.62796783447266,
                41.26253128051758
              ],
              [
                -106.70745086669922,
                41.26253128051758
              ],
              [
                -106.62601470947266,
                41.132843017578125
              ]
            ]
          ],
          [
            [
              [
                -113.61618041992188,
                29.600887298583984
              ],
              [
                -113.38904571533203,
                29.600887298583984
              ],
              [
                -113.04302215576172,
                29.08665657043457
              ],
              [
                -113.0191650390625,
                29.022375106811523
              ],
              [
                -113.2697982788086,
                29.08665657043457
              ],
              [
                -113.61618041992188,
                29.600887298583984
              ]
            ]
          ],
          [
            [
              [
                -117.38619232177734,
                33.971771240234375
              ],
              [
                -117.35411071777344,
                33.90746307373047
              ],
              [
                -117.5078353881836,
                33.90746307373047
              ],
              [
                -117.7138442993164,
                34.164703369140625
              ],
              [
                -117.51549530029297,
                34.22901916503906
              ],
              [
                -117.43853759765625,
                34.22901916503906
              ],
              [
                -117.23242950439453,
                33.971771240234375
              ],
              [
                -117.38619232177734,
                33.971771240234375
              ]
            ]
          ]
        ]
      }
    }
  ]
}