{
  "type": "FeatureCollection",
  "name": "territory-808",
  "features": [
    {
      "type": "Feature",
      "properties": {
        "Name": "Bolivia",
        "FromYear": 1865,
        "ToYear": 1865,
        "Area": 1816878.4221491464,
        "Type": "POLITY",
        "Wikipedia": "Bolivia",
        "Wikidata": "Q750",
        "SeshatID": "bo_bolivia_rep",
        "Components": "",
        "MemberOf": ""
      },
      "geometry": {
        "type": "Polygon",
        "coordinates": [
          [
            [
              -70.9515151977539,
              -7.235986709594727
            ],
            [
              -70.87855529785156,
              -7.235986709594727
            ],
            [
              -63.72829055786133,
              -7.235986709594727
            ],
            [
              -63.54261779785156,
              -7.943150520324707
            ],
            [
              -63.77122497558594,
              -8.13601303100586
            ],
            [
              -63.79116439819336,
              -8.52173900604248
            ],
            [
              -64.03118133544922,
              -8.907464027404785
            ],
            [
              -64.69584655761719,
              -9.036039352416992
            ],
            [
              -65.01827239990234,
              -9.550339698791504
            ],
            [
              -65.16443634033203,
              -9.550339698791504
            ],
            [
              -65.22977447509766,
              -9.421764373779297
            ],
            [
              -65.45286560058594,
              -9.486052513122559
            ],
            [
              -65.47261810302734,
              -9.807489395141602
            ],
            [
              -65.34681701660156,
              -10.128927230834961
            ],
            [
              -65.50990295410156,
              -10.386076927185059
            ],
            [
              -65.5316162109375,
              -10.707514762878418
            ],
            [
              -65.40316009521484,
              -10.964664459228516
            ],
            [
              -65.4355697631836,
              -11.414677619934082
            ],
            [
              -65.2448501586914,
              -11.800402641296387
            ],
            [
              -64.34808349609375,
              -12.50756549835205
            ],
            [
              -63.68851852416992,
              -12.50756549835205
            ],
            [
              -63.55752182006836,
              -12.700428009033203
            ],
            [
              -63.191017150878906,
              -12.700428009033203
            ],
            [
              -62.85086441040039,
              -13.021865844726562
            ],
            [
              -62.274932861328125,
              -13.15044116973877
            ],
            [
              -62.07114791870117,
              -13.343303680419922
            ],
            [
              -62.082130432128906,
              -13.471879005432129
            ],
            [
              -61.79974365234375,
              -13.600454330444336
            ],
            [
              -61.133853912353516,
              -13.536166191101074
            ],
            [
              -60.777984619140625,
              -13.664741516113281
            ],
            [
              -60.58013916015625,
              -13.921893119812012
            ],
            [
              -60.35992431640625,
              -13.921893119812012
            ],
            [
              -59.86632537841797,
              -14.9504976272583
            ],
            [
              -59.364051818847656,
              -15.079072952270508
            ],
            [
              -59.23561096191406,
              -15.271936416625977
            ],
            [
              -58.66606903076172,
              -15.464800834655762
            ],
            [
              -58.18925094604492,
              -15.850528717041016
            ],
            [
              -57.69337844848633,
              -16.043392181396484
            ],
            [
              -57.46482849121094,
              -16.68627166748047
            ],
            [
              -57.32417297363281,
              -16.750560760498047
            ],
            [
              -57.1158447265625,
              -18.22917938232422
            ],
            [
              -57.269954681396484,
              -18.93634033203125
            ],
            [
              -57.6104850769043,
              -19.322063446044922
            ],
            [
              -57.90816879272461,
              -19.96493148803711
            ],
            [
              -58.14572525024414,
              -20.093503952026367
            ],
            [
              -58.19184875488281,
              -20.47922134399414
            ],
            [
              -57.890777587890625,
              -21.057798385620117
            ],
            [
              -58.018394470214844,
              -22.08637809753418
            ],
            [
              -57.94403076171875,
              -22.08637809753418
            ],
            [
              -57.97686004638672,
              -22.343524932861328
            ],
            [
              -57.77020263671875,
              -22.472097396850586
            ],
            [
              -57.969451904296875,
              -22.857820510864258
            ],
            [
              -57.820518493652344,
              -22.857820510864258
            ],
            [
              -57.70570373535156,
              -23.11496925354004
            ],
            [
              -57.49940490722656,
              -23.243545532226562
            ],
            [
              -57.41163635253906,
              -23.69356346130371
            ],
            [
              -57.3370475769043,
              -23.69356346130371
            ],
            [
              -57.34397506713867,
              -24.272165298461914
            ],
            [
              -57.2225227355957,
              -24.46503448486328
            ],
            [
              -57.2603759765625,
              -24.722196578979492
            ],
            [
              -57.52338409423828,
              -24.979360580444336
            ],
            [
              -57.647830963134766,
              -25.30082130432129
            ],
            [
              -57.87236022949219,
              -25.30082130432129
            ],
            [
              -58.05679702758789,
              -25.04365348815918
            ],
            [
              -59.129051208496094,
              -24.722196578979492
            ],
            [
              -59.18423843383789,
              -24.593616485595703
            ],
            [
              -59.47339630126953,
              -24.529325485229492
            ],
            [
              -59.938514709472656,
              -24.143585205078125
            ],
            [
              -61.15985107421875,
              -23.822139739990234
            ],
            [
              -61.541961669921875,
              -23.372121810913086
            ],
            [
              -61.89621353149414,
              -23.243545532226562
            ],
            [
              -62.4105339050293,
              -22.664958953857422
            ],
            [
              -62.73823165893555,
              -22.343524932861328
            ],
            [
              -62.720645904541016,
              -22.214950561523438
            ],
            [
              -62.93500518798828,
              -22.150665283203125
            ],
            [
              -62.99189758300781,
              -22.022090911865234
            ],
            [
              -63.66107177734375,
              -22.022090911865234
            ],
            [
              -64.12493133544922,
              -22.150665283203125
            ],
            [
              -64.35517120361328,
              -22.729246139526367
            ],
            [
              -64.51331329345703,
              -22.793533325195312
            ],
            [
              -64.60719299316406,
              -22.40781021118164
            ],
            [
              -64.86863708496094,
              -22.150665283203125
            ],
            [
              -65.83544921875,
              -22.150665283203125
            ],
            [
              -66.31060791015625,
              -21.82923126220703
            ],
            [
              -66.43041229248047,
              -22.150665283203125
            ],
            [
              -66.57914733886719,
              -22.150665283203125
            ],
            [
              -67.25869750976562,
              -22.729246139526367
            ],
            [
              -67.09317779541016,
              -23.11496925354004
            ],
            [
              -67.16767883300781,
              -23.11496925354004
            ],
            [
              -67.28789520263672,
              -23.886428833007812
            ],
            [
              -67.45784759521484,
              -24.01500701904297
            ],
            [
              -70.65640258789062,
              -23.95071792602539
            ],
            [
              -70.6456527709961,
              -23.886428833007812
            ],
            [
              -70.528564453125,
              -23.629274368286133
            ],
            [
              -70.80585479736328,
              -23.50069808959961
            ],
            [
              -70.75408172607422,
              -23.179258346557617
            ],
            [
              -70.51019287109375,
              -23.050682067871094
            ],
            [
              -70.39552307128906,
              -22.793533325195312
            ],
            [
              -70.24049377441406,
              -21.76494598388672
            ],
            [
              -70.23107147216797,
              -21.700658798217773
            ],
            [
              -70.00814056396484,
              -21.700658798217773
            ],
            [
              -69.36736297607422,
              -21.379228591918945
            ],
            [
              -69.12805938720703,
              -20.736366271972656
            ],
            [
              -69.03009033203125,
              -20.029216766357422
            ],
            [
              -68.58952331542969,
              -19.514923095703125
            ],
            [
              -68.70275115966797,
              -19.257776260375977
            ],
            [
              -68.97266387939453,
              -19.06491470336914
            ],
            [
              -69.23920440673828,
              -18.293466567993164
            ],
            [
              -69.21379852294922,
              -18.100603103637695
            ],
            [
              -69.4184799194336,
              -17.972028732299805
            ],
            [
              -69.64698791503906,
              -17.457727432250977
            ],
            [
              -69.6141586303711,
              -17.20057487487793
            ],
            [
              -69.09198760986328,
              -16.557695388793945
            ],
            [
              -69.018310546875,
              -16.557695388793945
            ],
            [
              -68.93685150146484,
              -16.493408203125
            ],
            [
              -68.9950180053711,
              -16.364831924438477
            ],
            [
              -68.84770965576172,
              -16.364831924438477
            ],
            [
              -68.75872802734375,
              -16.236255645751953
            ],
            [
              -69.04563903808594,
              -16.171968460083008
            ],
            [
              -68.94929504394531,
              -15.979104042053223
            ],
            [
              -69.34623718261719,
              -15.593376159667969
            ],
            [
              -69.41980743408203,
              -15.593376159667969
            ],
            [
              -69.2957534790039,
              -15.14336109161377
            ],
            [
              -69.42869567871094,
              -15.014784812927246
            ],
            [
              -69.40099334716797,
              -14.757633209228516
            ],
            [
              -68.9803237915039,
              -14.243330955505371
            ],
            [
              -68.96099853515625,
              -14.050468444824219
            ],
            [
              -69.0951156616211,
              -13.921893119812012
            ],
            [
              -68.9930648803711,
              -12.82900333404541
            ],
            [
              -68.84078216552734,
              -12.764715194702148
            ],
            [
              -68.74517822265625,
              -12.50756549835205
            ],
            [
              -68.8862533569336,
              -12.443277359008789
            ],
            [
              -69.19416809082031,
              -11.736114501953125
            ],
            [
              -69.33549499511719,
              -11.67182731628418
            ],
            [
              -69.32032012939453,
              -11.478964805603027
            ],
            [
              -69.46173095703125,
              -11.414677619934082
            ],
            [
              -69.57394409179688,
              -10.964664459228516
            ],
            [
              -70.15931701660156,
              -10.964664459228516
            ],
            [
              -70.31536102294922,
              -11.093239784240723
            ],
            [
              -70.67152404785156,
              -10.964664459228516
            ],
            [
              -70.64142608642578,
              -9.486052513122559
            ],
            [
              -70.78758239746094,
              -9.486052513122559
            ],
            [
              -71.25601959228516,
              -9.936064720153809
            ],
            [
              -71.55729675292969,
              -10.064640045166016
            ],
            [
              -72.14220428466797,
              -10.064640045166016
            ],
            [
              -72.26630401611328,
              -9.743202209472656
            ],
            [
              -72.54145812988281,
              -9.486052513122559
            ],
            [
              -73.19490051269531,
              -9.421764373779297
            ],
            [
              -73.09284210205078,
              -8.971752166748047
            ],
            [
              -73.37301635742188,
              -8.778888702392578
            ],
            [
              -73.49580383300781,
              -8.393163681030273
            ],
            [
              -73.84221649169922,
              -8.071725845336914
            ],
            [
              -73.82779693603516,
              -7.8145751953125
            ],
            [
              -74.03970336914062,
              -7.685999870300293
            ],
            [
              -74.02933502197266,
              -7.493137359619141
            ],
            [
              -73.80366516113281,
              -7.364562034606934
            ],
            [
              -73.79702758789062,
              -7.235986709594727
            ],
            [
              -70.9515151977539,
              -7.235986709594727
            ]
          ]
        ]
      }
    }
  ]
}