{
  "type": "FeatureCollection",
  "name": "territory-81",
  "features": [
    {
      "type": "Feature",
      "properties": {
        "Name": "Greek Colonies",
        "FromYear": -247,
        "ToYear": -240,
        "Area": 82651.22551445004,
        "Type": "POLITY",
        "Wikipedia": "Greek colonisation",
        "Wikidata": "Q828047",
        "SeshatID": "",
        "Components": "",
        "MemberOf": ""
      },
      "geometry": {
        "type": "MultiPolygon",
        "coordinates": [
          [
            [
              [
                24.156919479370117,
                35.51579284667969
              ],
              [
                24.149879455566406,
                35.38706970214844
              ],
              [
                24.30097007751465,
                35.32271194458008
              ],
              [
                25.69233512878418,
                35.32271194458008
              ],
              [
                25.680648803710938,
                35.12965774536133
              ],
              [
                26.22533416748047,
                35.194007873535156
              ],
              [
                26.140073776245117,
                35.065311431884766
              ],
              [
                24.823745727539062,
                35.00096893310547
              ],
              [
                24.7574462890625,
                35.194007873535156
              ],
              [
                24.52567481994629,
                35.194007873535156
              ],
              [
                24.44841766357422,
                35.194007873535156
              ],
              [
                23.679210662841797,
                35.258358001708984
              ],
              [
                23.615402221679688,
                35.51579284667969
              ],
              [
                24.156919479370117,
                35.51579284667969
              ]
            ]
          ],
          [
            [
              [
                14.430707931518555,
                36.932613372802734
              ],
              [
                14.431703567504883,
                36.9970588684082
              ],
              [
                15.060440063476562,
                37.3193473815918
              ],
              [
                15.059245109558105,
                37.254878997802734
              ],
              [
                15.137184143066406,
                37.254878997802734
              ],
              [
                15.135971069335938,
                37.1904182434082
              ],
              [
                15.213889122009277,
                37.1904182434082
              ],
              [
                15.212657928466797,
                37.12596130371094
              ],
              [
                15.049844741821289,
                36.73930740356445
              ],
              [
                14.661029815673828,
                36.73930740356445
              ],
              [
                14.430707931518555,
                36.932613372802734
              ]
            ]
          ],
          [
            [
              [
                20.319902420043945,
                38.157840728759766
              ],
              [
                20.328466415405273,
                38.351463317871094
              ],
              [
                20.488054275512695,
                38.416015625
              ],
              [
                20.566410064697266,
                38.416015625
              ],
              [
                20.795446395874023,
                38.28691864013672
              ],
              [
                20.7864933013916,
                38.09331130981445
              ],
              [
                20.319902420043945,
                38.157840728759766
              ]
            ]
          ],
          [
            [
              [
                -0.313707679510117,
                39.1264533996582
              ],
              [
                0.096056789159775,
                38.80344009399414
              ],
              [
                -0.125997006893158,
                38.54513168334961
              ],
              [
                -0.538960754871368,
                38.93262481689453
              ],
              [
                -0.567464292049408,
                39.449623107910156
              ],
              [
                -0.571073591709137,
                39.51427459716797
              ],
              [
                -0.51402348279953,
                39.90232849121094
              ],
              [
                -0.201878547668457,
                39.9670295715332
              ],
              [
                -0.345421016216278,
                39.70827102661133
              ],
              [
                -0.313707679510117,
                39.1264533996582
              ]
            ]
          ],
          [
            [
              [
                20.151897430419922,
                39.64360046386719
              ],
              [
                20.148855209350586,
                39.57893371582031
              ],
              [
                20.070056915283203,
                39.57893371582031
              ],
              [
                20.073074340820312,
                39.64360046386719
              ],
              [
                20.151897430419922,
                39.64360046386719
              ]
            ]
          ],
          [
            [
              [
                21.529672622680664,
                38.8680305480957
              ],
              [
                21.287609100341797,
                38.738853454589844
              ],
              [
                21.349960327148438,
                38.416015625
              ],
              [
                21.271604537963867,
                38.416015625
              ],
              [
                20.898353576660156,
                38.80344009399414
              ],
              [
                20.74135398864746,
                38.80344009399414
              ],
              [
                20.91095733642578,
                39.06184005737305
              ],
              [
                20.29724884033203,
                39.38497543334961
              ],
              [
                20.15495491027832,
                39.70827102661133
              ],
              [
                19.918411254882812,
                39.70827102661133
              ],
              [
                19.912464141845703,
                39.57893371582031
              ],
              [
                19.75778579711914,
                39.64360046386719
              ],
              [
                19.76365852355957,
                39.77294921875
              ],
              [
                20.00027847290039,
                39.77294921875
              ],
              [
                20.009418487548828,
                39.9670295715332
              ],
              [
                19.62952995300293,
                40.29063034057617
              ],
              [
                19.47136878967285,
                40.29063034057617
              ],
              [
                19.48629379272461,
                40.614410400390625
              ],
              [
                19.2486515045166,
                40.614410400390625
              ],
              [
                19.254547119140625,
                40.74397277832031
              ],
              [
                19.33381462097168,
                40.74397277832031
              ],
              [
                19.733280181884766,
                40.80876541137695
              ],
              [
                20.189504623413086,
                40.42012023925781
              ],
              [
                20.42690658569336,
                40.42012023925781
              ],
              [
                20.57188606262207,
                40.16116714477539
              ],
              [
                20.805606842041016,
                40.0964469909668
              ],
              [
                20.943429946899414,
                39.70827102661133
              ],
              [
                21.16985321044922,
                39.51427459716797
              ],
              [
                21.16651153564453,
                39.449623107910156
              ],
              [
                21.471250534057617,
                39.25570297241211
              ],
              [
                21.536365509033203,
                38.997230529785156
              ],
              [
                21.529672622680664,
                38.8680305480957
              ]
            ]
          ],
          [
            [
              [
                24.551259994506836,
                40.54964065551758
              ],
              [
                24.490964889526367,
                40.80876541137695
              ],
              [
                24.57025909423828,
                40.80876541137695
              ],
              [
                24.808143615722656,
                40.80876541137695
              ],
              [
                24.793624877929688,
                40.614410400390625
              ],
              [
                24.551259994506836,
                40.54964065551758
              ]
            ]
          ],
          [
            [
              [
                27.378206253051758,
                42.041324615478516
              ],
              [
                27.384279251098633,
                42.10627746582031
              ],
              [
                27.46407168835584,
                42.10627746582031
              ],
              [
                27.316564559936523,
                42.236209869384766
              ],
              [
                27.328767776489258,
                42.36617660522461
              ],
              [
                27.174896240234375,
                42.43117141723633
              ],
              [
                27.193193435668945,
                42.62621307373047
              ],
              [
                27.65704917907715,
                43.276947021484375
              ],
              [
                27.998247146606445,
                43.472347259521484
              ],
              [
                28.11857795715332,
                43.86341094970703
              ],
              [
                28.3001708984375,
                44.05907440185547
              ],
              [
                28.341028213500977,
                44.45067596435547
              ],
              [
                28.421964645385742,
                44.45067596435547
              ],
              [
                28.368471145629883,
                44.71194839477539
              ],
              [
                28.639629364013672,
                44.973392486572266
              ],
              [
                28.802005767822266,
                44.973392486572266
              ],
              [
                28.84072494506836,
                44.58129119873047
              ],
              [
                28.576906204223633,
                44.38538360595703
              ],
              [
                28.53555679321289,
                43.99384307861328
              ],
              [
                28.616275787353516,
                43.99384307861328
              ],
              [
                28.48109245300293,
                43.472347259521484
              ],
              [
                28.159194946289062,
                43.472347259521484
              ],
              [
                28.22636604309082,
                43.342071533203125
              ],
              [
                27.89820098876953,
                43.276947021484375
              ],
              [
                27.80489730834961,
                43.146724700927734
              ],
              [
                27.8530216217041,
                42.82133865356445
              ],
              [
                27.84662628173828,
                42.75628662109375
              ],
              [
                27.513538360595703,
                42.62621307373047
              ],
              [
                27.494890213012695,
                42.43117141723633
              ],
              [
                27.796031951904297,
                42.236209869384766
              ],
              [
                27.92448616027832,
                41.911441802978516
              ],
              [
                27.611539840698242,
                41.97637939453125
              ],
              [
                27.537853460201855,
                42.04128641719828
              ],
              [
                27.5317440032959,
                41.97637939453125
              ],
              [
                27.451948165893555,
                41.97637939453125
              ],
              [
                27.458030700683594,
                42.041324615478516
              ],
              [
                27.378206253051758,
                42.041324615478516
              ]
            ],
            [
              [
                27.537810095202254,
                42.041324615478516
              ],
              [
                27.46412767615548,
                42.10622814868252
              ],
              [
                27.458030700683594,
                42.041324615478516
              ],
              [
                27.537810095202254,
                42.041324615478516
              ]
            ]
          ],
          [
            [
              [
                5.386905193328857,
                43.407203674316406
              ],
              [
                5.063065528869629,
                43.472347259521484
              ],
              [
                4.177847862243652,
                43.472347259521484
              ],
              [
                4.173032760620117,
                43.6026611328125
              ],
              [
                3.850892543792725,
                43.6026611328125
              ],
              [
                2.984907388687134,
                43.146724700927734
              ],
              [
                3.009923458099365,
                42.56119155883789
              ],
              [
                3.178062200546265,
                42.36617660522461
              ],
              [
                3.039664268493652,
                41.84651184082031
              ],
              [
                2.698246717453003,
                42.36617660522461
              ],
              [
                2.775402784347534,
                42.43117141723633
              ],
              [
                2.669466018676758,
                43.016544342041016
              ],
              [
                2.749729871749878,
                43.016544342041016
              ],
              [
                2.74102783203125,
                43.211830139160156
              ],
              [
                3.445524215698242,
                43.6678352355957
              ],
              [
                4.727918148040771,
                43.86341094970703
              ],
              [
                5.869569301605225,
                43.407203674316406
              ],
              [
                6.593565464019775,
                43.407203674316406
              ],
              [
                6.596527099609375,
                43.276947021484375
              ],
              [
                6.278174877166748,
                43.146724700927734
              ],
              [
                6.197851181030273,
                43.146724700927734
              ],
              [
                5.796233177185059,
                43.146724700927734
              ],
              [
                5.631923198699951,
                43.276947021484375
              ],
              [
                5.390771865844727,
                43.276947021484375
              ],
              [
                5.386905193328857,
                43.407203674316406
              ]
            ]
          ],
          [
            [
              [
                27.742563247680664,
                35.902034759521484
              ],
              [
                27.692523956298828,
                36.28839111328125
              ],
              [
                28.01713752746582,
                36.48161697387695
              ],
              [
                28.09481430053711,
                36.48161697387695
              ],
              [
                28.250165939331055,
                36.48161697387695
              ],
              [
                28.139331817626953,
                36.03080368041992
              ],
              [
                27.742563247680664,
                35.902034759521484
              ]
            ]
          ],
          [
            [
              [
                27.61235237121582,
                37.3193473815918
              ],
              [
                28.241052627563477,
                37.38381576538086
              ],
              [
                28.30401039123535,
                37.1904182434082
              ],
              [
                28.226093292236328,
                37.1904182434082
              ],
              [
                28.221139907836914,
                37.12596130371094
              ],
              [
                27.597978591918945,
                37.12596130371094
              ],
              [
                27.607545852661133,
                37.254878997802734
              ],
              [
                27.61235237121582,
                37.3193473815918
              ]
            ]
          ],
          [
            [
              [
                40.38059616088867,
                41.00318908691406
              ],
              [
                40.4599723815918,
                41.00318908691406
              ],
              [
                40.59807205200195,
                40.873565673828125
              ],
              [
                40.57756042480469,
                40.74397277832031
              ],
              [
                40.40887451171875,
                40.6791877746582
              ],
              [
                39.6164665222168,
                40.6791877746582
              ],
              [
                39.39837646484375,
                40.80876541137695
              ],
              [
                39.00190353393555,
                40.80876541137695
              ],
              [
                38.824058532714844,
                40.6791877746582
              ],
              [
                37.8731689453125,
                40.6791877746582
              ],
              [
                37.35506820678711,
                40.93837356567383
              ],
              [
                36.509090423583984,
                41.132843017578125
              ],
              [
                36.52714920043945,
                41.26253128051758
              ],
              [
                36.60663604736328,
                41.26253128051758
              ],
              [
                36.77476501464844,
                41.32738494873047
              ],
              [
                37.06510925292969,
                41.132843017578125
              ],
              [
                37.23323440551758,
                41.19768524169922
              ],
              [
                37.21474075317383,
                41.06801223754883
              ],
              [
                37.770565032958984,
                41.06801223754883
              ],
              [
                37.83116149902344,
                40.93837356567383
              ],
              [
                38.15805435180664,
                41.00318908691406
              ],
              [
                38.29773712158203,
                40.873565673828125
              ],
              [
                38.951820373535156,
                41.00318908691406
              ],
              [
                38.96162414550781,
                41.06801223754883
              ],
              [
                39.20975112915039,
                41.132843017578125
              ],
              [
                39.735538482666016,
                40.93837356567383
              ],
              [
                40.38059616088867,
                41.00318908691406
              ]
            ]
          ],
          [
            [
              [
                28.285430908203125,
                41.521995544433594
              ],
              [
                28.27918243408203,
                41.45711898803711
              ],
              [
                28.975934982299805,
                41.26253128051758
              ],
              [
                28.96312141418457,
                41.132843017578125
              ],
              [
                29.366811752319336,
                41.19768524169922
              ],
              [
                29.255043029785156,
                40.873565673828125
              ],
              [
                29.10276222229004,
                40.93837356567383
              ],
              [
                29.115554809570312,
                41.06801223754883
              ],
              [
                28.63913345336914,
                41.06801223754883
              ],
              [
                28.559728622436523,
                41.06801223754883
              ],
              [
                28.162710189819336,
                41.06801223754883
              ],
              [
                28.08330726623535,
                41.06801223754883
              ],
              [
                28.20583152770996,
                41.521995544433594
              ],
              [
                28.285430908203125,
                41.521995544433594
              ]
            ]
          ],
          [
            [
              [
                31.51219940185547,
                41.19768524169922
              ],
              [
                31.36052894592285,
                41.26253128051758
              ],
              [
                31.693260192871094,
                41.39224624633789
              ],
              [
                31.591657638549805,
                41.19768524169922
              ],
              [
                31.51219940185547,
                41.19768524169922
              ]
            ]
          ],
          [
            [
              [
                35.08602523803711,
                41.781593322753906
              ],
              [
                35.006317138671875,
                41.781593322753906
              ],
              [
                35.015045166015625,
                41.84651184082031
              ],
              [
                34.79319381713867,
                41.97637939453125
              ],
              [
                35.121212005615234,
                42.041324615478516
              ],
              [
                35.08602523803711,
                41.781593322753906
              ]
            ]
          ],
          [
            [
              [
                35.12517547607422,
                44.908016204833984
              ],
              [
                34.376285552978516,
                44.77729415893555
              ],
              [
                33.92564392089844,
                44.45067596435547
              ],
              [
                33.44884490966797,
                44.5159797668457
              ],
              [
                33.61005401611328,
                45.10417556762695
              ],
              [
                33.45886480873342,
                45.187189180353144
              ],
              [
                33.77961995159482,
                45.155259645793734
              ],
              [
                33.91688919067383,
                44.973392486572266
              ],
              [
                34.986323485009116,
                45.300437927246094
              ],
              [
                35.01994323730469,
                45.300437927246094
              ],
              [
                35.18263626098633,
                45.300437927246094
              ],
              [
                35.153846740722656,
                45.10417556762695
              ],
              [
                35.23509979248047,
                45.10417556762695
              ],
              [
                35.12517547607422,
                44.908016204833984
              ]
            ]
          ],
          [
            [
              [
                31.566814422607422,
                46.94007873535156
              ],
              [
                31.53286361694336,
                46.677207946777344
              ],
              [
                30.87657928466797,
                46.677207946777344
              ],
              [
                30.297666549682617,
                45.95537567138672
              ],
              [
                30.044963836669922,
                45.889827728271484
              ],
              [
                29.85890007019043,
                45.693260192871094
              ],
              [
                29.614274978637695,
                45.693260192871094
              ],
              [
                29.64429473876953,
                45.95537567138672
              ],
              [
                30.188798904418945,
                46.414546966552734
              ],
              [
                30.270700454711914,
                46.414546966552734
              ],
              [
                30.45840072631836,
                46.61152267456055
              ],
              [
                31.06547737121582,
                46.87434005737305
              ],
              [
                31.082130432128906,
                47.005828857421875
              ],
              [
                31.566814422607422,
                46.94007873535156
              ]
            ]
          ],
          [
            [
              [
                38.6668815612793,
                47.598209381103516
              ],
              [
                39.07944869995117,
                47.598209381103516
              ],
              [
                39.13816833496094,
                47.46647262573242
              ],
              [
                39.12632369995117,
                47.4006233215332
              ],
              [
                39.1968879699707,
                47.33478927612305
              ],
              [
                38.35022735595703,
                47.20316696166992
              ],
              [
                38.384639739990234,
                47.4006233215332
              ],
              [
                38.6668815612793,
                47.598209381103516
              ]
            ]
          ]
        ]
      }
    }
  ]
}