{
  "type": "FeatureCollection",
  "name": "territory-810",
  "features": [
    {
      "type": "Feature",
      "properties": {
        "Name": "Emirate of Afghanistan",
        "FromYear": 1828,
        "ToYear": 1829,
        "Area": 884103.4959619216,
        "Type": "POLITY",
        "Wikipedia": "Emirate of Afghanistan",
        "Wikidata": "Q1335260",
        "SeshatID": "af_afghanistan_emirate",
        "Components": "",
        "MemberOf": ""
      },
      "geometry": {
        "type": "Polygon",
        "coordinates": [
          [
            [
              74.91697692871094,
              37.254878997802734
            ],
            [
              74.58694458007812,
              37.1904182434082
            ],
            [
              74.55056762695312,
              37.06150817871094
            ],
            [
              75.31097412109375,
              36.9970588684082
            ],
            [
              75.41193389892578,
              36.80373764038086
            ],
            [
              75.7826156616211,
              36.73930740356445
            ],
            [
              76.00286865234375,
              36.417205810546875
            ],
            [
              75.98487854003906,
              36.3527946472168
            ],
            [
              75.99100494384766,
              36.09519577026367
            ],
            [
              76.1703872680664,
              35.902034759521484
            ],
            [
              76.57561492919922,
              35.9664192199707
            ],
            [
              76.59979248046875,
              35.77327346801758
            ],
            [
              77.08859252929688,
              35.58015823364258
            ],
            [
              77.09552764892578,
              35.32271194458008
            ],
            [
              77.4223403930664,
              35.38706970214844
            ],
            [
              77.30987548828125,
              35.258358001708984
            ],
            [
              77.48916625976562,
              35.065311431884766
            ],
            [
              78.036865234375,
              34.80794906616211
            ],
            [
              78.2086181640625,
              34.87228775024414
            ],
            [
              78.2334213256836,
              34.679283142089844
            ],
            [
              78.87483978271484,
              34.48630142211914
            ],
            [
              78.67729187011719,
              34.03607940673828
            ],
            [
              78.84819793701172,
              34.10039138793945
            ],
            [
              78.58609008789062,
              33.393062591552734
            ],
            [
              78.66280364990234,
              33.393062591552734
            ],
            [
              78.52821350097656,
              32.557350158691406
            ],
            [
              78.5123291015625,
              32.493072509765625
            ],
            [
              78.33061981201172,
              32.685909271240234
            ],
            [
              78.08521270751953,
              32.62162780761719
            ],
            [
              77.8109359741211,
              32.75019073486328
            ],
            [
              77.84281158447266,
              32.878753662109375
            ],
            [
              77.72171020507812,
              33.00732421875
            ],
            [
              77.3227767944336,
              32.94303894042969
            ],
            [
              76.85027313232422,
              33.20018768310547
            ],
            [
              75.31719207763672,
              33.20018768310547
            ],
            [
              75.3485336303711,
              33.32876968383789
            ],
            [
              75.50191497802734,
              33.32876968383789
            ],
            [
              75.70289611816406,
              33.52165222167969
            ],
            [
              75.76705169677734,
              33.77885055541992
            ],
            [
              75.56883239746094,
              33.90746307373047
            ],
            [
              75.58502960205078,
              33.971771240234375
            ],
            [
              75.48522186279297,
              34.48630142211914
            ],
            [
              75.50178527832031,
              34.55062484741211
            ],
            [
              75.42472839355469,
              34.55062484741211
            ],
            [
              75.27667999267578,
              34.87228775024414
            ],
            [
              74.58226776123047,
              34.87228775024414
            ],
            [
              74.47771453857422,
              35.065311431884766
            ],
            [
              74.1688461303711,
              35.065311431884766
            ],
            [
              73.96501922607422,
              34.87228775024414
            ],
            [
              73.64009857177734,
              34.80794906616211
            ],
            [
              73.6076431274414,
              34.679283142089844
            ],
            [
              73.34420013427734,
              34.55062484741211
            ],
            [
              73.29629516601562,
              34.3576545715332
            ],
            [
              73.373291015625,
              34.3576545715332
            ],
            [
              73.33984375,
              33.90746307373047
            ],
            [
              73.41670227050781,
              33.90746307373047
            ],
            [
              73.4926986694336,
              33.26447677612305
            ],
            [
              73.56936645507812,
              33.26447677612305
            ],
            [
              73.5087890625,
              33.00732421875
            ],
            [
              73.00253295898438,
              33.13589859008789
            ],
            [
              73.20095825195312,
              33.65024948120117
            ],
            [
              72.69462585449219,
              34.10039138793945
            ],
            [
              71.21736145019531,
              34.3576545715332
            ],
            [
              71.07931518554688,
              34.10039138793945
            ],
            [
              70.81841278076172,
              33.971771240234375
            ],
            [
              71.37309265136719,
              33.71455001831055
            ],
            [
              71.34317779541016,
              33.5859489440918
            ],
            [
              71.6352767944336,
              33.52165222167969
            ],
            [
              71.82073974609375,
              33.32876968383789
            ],
            [
              71.4881820678711,
              32.878753662109375
            ],
            [
              71.22974395751953,
              32.75019073486328
            ],
            [
              71.17280578613281,
              32.493072509765625
            ],
            [
              70.84602355957031,
              32.043148040771484
            ],
            [
              70.39486694335938,
              28.958093643188477
            ],
            [
              70.1657943725586,
              28.508106231689453
            ],
            [
              69.9068832397461,
              28.315250396728516
            ],
            [
              69.52977752685547,
              28.315250396728516
            ],
            [
              69.6924819946289,
              28.829526901245117
            ],
            [
              69.616943359375,
              28.829526901245117
            ],
            [
              69.65046691894531,
              29.022375106811523
            ],
            [
              69.8471450805664,
              29.279497146606445
            ],
            [
              69.65479278564453,
              29.472333908081055
            ],
            [
              69.71339416503906,
              29.79371452331543
            ],
            [
              69.87681579589844,
              29.857990264892578
            ],
            [
              70.10105895996094,
              30.243623733520508
            ],
            [
              69.8857192993164,
              30.307893753051758
            ],
            [
              69.93523406982422,
              30.564971923828125
            ],
            [
              69.85929107666016,
              30.564971923828125
            ],
            [
              70.06156158447266,
              30.822044372558594
            ],
            [
              70.1148452758789,
              31.464719772338867
            ],
            [
              69.73397064208984,
              31.464719772338867
            ],
            [
              69.59790802001953,
              31.91460609436035
            ],
            [
              69.292724609375,
              31.91460609436035
            ],
            [
              69.08743286132812,
              31.65752601623535
            ],
            [
              68.78253173828125,
              31.65752601623535
            ],
            [
              68.6561279296875,
              31.78606605529785
            ],
            [
              68.12230682373047,
              31.78606605529785
            ],
            [
              67.93124389648438,
              31.593257904052734
            ],
            [
              67.61372375488281,
              31.528987884521484
            ],
            [
              67.6646499633789,
              31.40045166015625
            ],
            [
              67.81696319580078,
              31.40045166015625
            ],
            [
              67.55099487304688,
              31.20764923095703
            ],
            [
              66.87832641601562,
              31.271915435791016
            ],
            [
              66.43708038330078,
              30.950578689575195
            ],
            [
              66.33809661865234,
              29.986536026000977
            ],
            [
              66.26229095458984,
              29.986536026000977
            ],
            [
              66.25102233886719,
              29.922264099121094
            ],
            [
              65.99028778076172,
              29.729440689086914
            ],
            [
              65.12470245361328,
              29.536611557006836
            ],
            [
              64.52979278564453,
              29.600887298583984
            ],
            [
              64.11966705322266,
              29.40805435180664
            ],
            [
              63.827423095703125,
              29.472333908081055
            ],
            [
              63.837886810302734,
              29.536611557006836
            ],
            [
              63.76219177246094,
              29.536611557006836
            ],
            [
              63.75174331665039,
              29.472333908081055
            ],
            [
              62.3036994934082,
              29.40805435180664
            ],
            [
              61.001495361328125,
              29.79371452331543
            ],
            [
              60.92573928833008,
              29.79371452331543
            ],
            [
              60.95616912841797,
              29.986536026000977
            ],
            [
              61.38716506958008,
              30.307893753051758
            ],
            [
              61.87461853027344,
              30.950578689575195
            ],
            [
              61.91905212402344,
              31.20764923095703
            ],
            [
              61.72434997558594,
              31.40045166015625
            ],
            [
              61.115089416503906,
              31.40045166015625
            ],
            [
              60.84385299682617,
              31.593257904052734
            ],
            [
              60.88142776489258,
              32.23596954345703
            ],
            [
              60.65742874145508,
              32.685909271240234
            ],
            [
              60.692955017089844,
              32.878753662109375
            ],
            [
              60.61639404296875,
              32.878753662109375
            ],
            [
              60.68838119506836,
              33.26447677612305
            ],
            [
              60.890625,
              33.52165222167969
            ],
            [
              60.531375885009766,
              33.65024948120117
            ],
            [
              60.56644058227539,
              34.22901916503906
            ],
            [
              60.82268524169922,
              34.3576545715332
            ],
            [
              60.783958435058594,
              34.55062484741211
            ],
            [
              61.05390167236328,
              34.743614196777344
            ],
            [
              61.303009033203125,
              35.58015823364258
            ],
            [
              61.80400085449219,
              35.38706970214844
            ],
            [
              62.190589904785156,
              35.38706970214844
            ],
            [
              62.304466247558594,
              35.194007873535156
            ],
            [
              62.963775634765625,
              35.38706970214844
            ],
            [
              63.16013717651367,
              35.58015823364258
            ],
            [
              63.138858795166016,
              35.837650299072266
            ],
            [
              64.29588317871094,
              36.15959167480469
            ],
            [
              64.6951675415039,
              36.5460319519043
            ],
            [
              64.83184051513672,
              37.12596130371094
            ],
            [
              65.564208984375,
              37.254878997802734
            ],
            [
              65.70548248291016,
              37.51277160644531
            ],
            [
              66.51548767089844,
              37.3193473815918
            ],
            [
              66.99945068359375,
              37.38381576538086
            ],
            [
              67.12300109863281,
              37.254878997802734
            ],
            [
              67.74652099609375,
              37.254878997802734
            ],
            [
              67.91515350341797,
              36.9970588684082
            ],
            [
              68.1487045288086,
              36.9970588684082
            ],
            [
              68.7763900756836,
              37.3193473815918
            ],
            [
              69.0102767944336,
              37.3193473815918
            ],
            [
              69.1160659790039,
              37.12596130371094
            ],
            [
              69.3497543334961,
              37.12596130371094
            ],
            [
              69.5460205078125,
              37.5772590637207
            ],
            [
              70.07515716552734,
              37.51277160644531
            ],
            [
              70.26583862304688,
              37.641746520996094
            ],
            [
              70.1970443725586,
              37.96426773071289
            ],
            [
              70.4245834350586,
              38.22237777709961
            ],
            [
              70.71366119384766,
              38.416015625
            ],
            [
              71.18379211425781,
              38.416015625
            ],
            [
              71.3639907836914,
              38.22237777709961
            ],
            [
              71.27379608154297,
              37.89975357055664
            ],
            [
              71.56851959228516,
              37.835243225097656
            ],
            [
              71.41844177246094,
              36.9970588684082
            ],
            [
              71.58341979980469,
              36.73930740356445
            ],
            [
              72.24005126953125,
              36.8681755065918
            ],
            [
              73.33428192138672,
              37.44829177856445
            ],
            [
              73.72431945800781,
              37.44829177856445
            ],
            [
              73.82582092285156,
              37.254878997802734
            ],
            [
              74.09605407714844,
              37.38381576538086
            ],
            [
              74.79792022705078,
              37.38381576538086
            ],
            [
              74.91697692871094,
              37.254878997802734
            ]
          ]
        ]
      }
    }
  ]
}