{
  "type": "FeatureCollection",
  "name": "territory-812",
  "features": [
    {
      "type": "Feature",
      "properties": {
        "Name": "Poles",
        "FromYear": 1830,
        "ToYear": 1833,
        "Area": 113663.05361095733,
        "Type": "POLITY",
        "Wikipedia": "Polish people",
        "Wikidata": "Q1026",
        "SeshatID": "",
        "Components": "",
        "MemberOf": ""
      },
      "geometry": {
        "type": "Polygon",
        "coordinates": [
          [
            [
              24.030471801757812,
              50.912200927734375
            ],
            [
              24.010730743408203,
              50.71213912963867
            ],
            [
              23.00547981262207,
              50.77880859375
            ],
            [
              22.656435012817383,
              50.64549255371094
            ],
            [
              22.15102195739746,
              50.64549255371094
            ],
            [
              21.988101959228516,
              50.71213912963867
            ],
            [
              21.99927520751953,
              50.84549331665039
            ],
            [
              21.74620246887207,
              50.84549331665039
            ],
            [
              21.735273361206055,
              50.71213912963867
            ],
            [
              21.477136611938477,
              50.64549255371094
            ],
            [
              21.02581787109375,
              50.2459831237793
            ],
            [
              20.689838409423828,
              50.2459831237793
            ],
            [
              20.34004783630371,
              50.04647445678711
            ],
            [
              20.25617218017578,
              50.04647445678711
            ],
            [
              19.165773391723633,
              50.04647445678711
            ],
            [
              19.081897735595703,
              50.04647445678711
            ],
            [
              19.18613052368164,
              50.37908172607422
            ],
            [
              19.022031784057617,
              50.445655822753906
            ],
            [
              19.030193328857422,
              50.578861236572266
            ],
            [
              18.86180305480957,
              50.578861236572266
            ],
            [
              18.548505783081055,
              50.97892379760742
            ],
            [
              18.29518699645996,
              50.97892379760742
            ],
            [
              17.891399383544922,
              51.31283950805664
            ],
            [
              17.90643310546875,
              51.580322265625
            ],
            [
              17.666772842407227,
              51.84812545776367
            ],
            [
              17.67803382873535,
              52.0491943359375
            ],
            [
              18.022464752197266,
              52.11625671386719
            ],
            [
              18.298656463623047,
              52.4518928527832
            ],
            [
              18.640182495117188,
              52.4518928527832
            ],
            [
              19.180551528930664,
              52.85536575317383
            ],
            [
              19.60880470275879,
              52.85536575317383
            ],
            [
              19.972116470336914,
              53.124786376953125
            ],
            [
              20.395845413208008,
              53.057395935058594
            ],
            [
              20.66997718811035,
              53.25962829589844
            ],
            [
              20.927749633789062,
              53.25962829589844
            ],
            [
              21.28936767578125,
              53.462066650390625
            ],
            [
              21.80574607849121,
              53.462066650390625
            ],
            [
              22.521047592163086,
              53.732303619384766
            ],
            [
              22.482206344604492,
              54.20612335205078
            ],
            [
              22.66232681274414,
              54.27390670776367
            ],
            [
              22.69742774963379,
              54.613189697265625
            ],
            [
              22.704511642456055,
              54.681121826171875
            ],
            [
              22.812959671020508,
              54.88506317138672
            ],
            [
              22.653079986572266,
              55.021148681640625
            ],
            [
              22.667421340942383,
              55.15733337402344
            ],
            [
              23.278297424316406,
              55.15733337402344
            ],
            [
              23.327884674072266,
              54.817054748535156
            ],
            [
              23.48680877685547,
              54.681121826171875
            ],
            [
              23.464303970336914,
              54.47740173339844
            ],
            [
              23.28339385986328,
              54.4095458984375
            ],
            [
              23.261449813842773,
              54.20612335205078
            ],
            [
              23.41990852355957,
              54.07062530517578
            ],
            [
              23.23971176147461,
              54.00291442871094
            ],
            [
              23.22533416748047,
              53.86756134033203
            ],
            [
              22.68671989440918,
              53.664710998535156
            ],
            [
              22.712085723876953,
              53.057395935058594
            ],
            [
              22.626298904418945,
              53.057395935058594
            ],
            [
              22.606571197509766,
              52.85536575317383
            ],
            [
              22.428829193115234,
              52.78806686401367
            ],
            [
              22.409648895263672,
              52.586299896240234
            ],
            [
              22.56774139404297,
              52.4518928527832
            ],
            [
              22.988040924072266,
              52.38472366333008
            ],
            [
              23.060142517089844,
              52.250450134277344
            ],
            [
              23.39438247680664,
              52.18334197998047
            ],
            [
              23.629487991333008,
              51.98215103149414
            ],
            [
              23.51096534729004,
              51.64724349975586
            ],
            [
              23.595823287963867,
              51.64724349975586
            ],
            [
              23.712371826171875,
              51.112430572509766
            ],
            [
              24.030471801757812,
              50.912200927734375
            ]
          ]
        ]
      }
    }
  ]
}