{
  "type": "FeatureCollection",
  "name": "territory-817",
  "features": [
    {
      "type": "Feature",
      "properties": {
        "Name": "Peru-Bolivian Confederation",
        "FromYear": 1836,
        "ToYear": 1839,
        "Area": 3196799.965315495,
        "Type": "POLITY",
        "Wikipedia": "Peru-Bolivian Confederation",
        "Wikidata": "Q899706",
        "SeshatID": "",
        "Components": "",
        "MemberOf": ""
      },
      "geometry": {
        "type": "Polygon",
        "coordinates": [
          [
            [
              -68.62065124511719,
              -3.250153541564941
            ],
            [
              -68.55091094970703,
              -3.378728866577148
            ],
            [
              -68.62532043457031,
              -3.443016529083252
            ],
            [
              -69.57539367675781,
              -3.57159161567688
            ],
            [
              -69.79900360107422,
              -3.76445460319519
            ],
            [
              -69.73149108886719,
              -3.957317352294922
            ],
            [
              -69.95185852050781,
              -4.021605014801025
            ],
            [
              -70.17994689941406,
              -4.343043327331543
            ],
            [
              -70.39459991455078,
              -4.214468002319336
            ],
            [
              -70.90455627441406,
              -4.214468002319336
            ],
            [
              -71.34967803955078,
              -4.47161865234375
            ],
            [
              -72.00748443603516,
              -4.535906314849854
            ],
            [
              -72.60810089111328,
              -5.050207138061523
            ],
            [
              -72.75386047363281,
              -5.050207138061523
            ],
            [
              -72.97960662841797,
              -5.243070125579834
            ],
            [
              -72.98947143554688,
              -5.500220775604248
            ],
            [
              -73.22110748291016,
              -5.821659088134766
            ],
            [
              -73.25202941894531,
              -6.528822898864746
            ],
            [
              -73.78093719482422,
              -6.914548873901367
            ],
            [
              -73.79702758789062,
              -7.235986709594727
            ],
            [
              -63.72829055786133,
              -7.235986709594727
            ],
            [
              -63.54261779785156,
              -7.943150520324707
            ],
            [
              -63.77122497558594,
              -8.13601303100586
            ],
            [
              -63.79116439819336,
              -8.52173900604248
            ],
            [
              -64.03118133544922,
              -8.907464027404785
            ],
            [
              -64.69584655761719,
              -9.036039352416992
            ],
            [
              -65.01827239990234,
              -9.550339698791504
            ],
            [
              -65.16443634033203,
              -9.550339698791504
            ],
            [
              -65.22977447509766,
              -9.421764373779297
            ],
            [
              -65.45286560058594,
              -9.486052513122559
            ],
            [
              -65.47261810302734,
              -9.807489395141602
            ],
            [
              -65.33857727050781,
              -10.000351905822754
            ],
            [
              -65.50990295410156,
              -10.386076927185059
            ],
            [
              -65.4355697631836,
              -11.414677619934082
            ],
            [
              -65.2448501586914,
              -11.800402641296387
            ],
            [
              -65.10330200195312,
              -11.864689826965332
            ],
            [
              -65.11322784423828,
              -11.993265151977539
            ],
            [
              -64.82524108886719,
              -12.057552337646484
            ],
            [
              -64.48946380615234,
              -12.443277359008789
            ],
            [
              -64.13343048095703,
              -12.571852684020996
            ],
            [
              -63.68851852416992,
              -12.50756549835205
            ],
            [
              -63.55752182006836,
              -12.700428009033203
            ],
            [
              -63.191017150878906,
              -12.700428009033203
            ],
            [
              -62.99217224121094,
              -12.9575777053833
            ],
            [
              -62.274932861328125,
              -13.15044116973877
            ],
            [
              -62.07114791870117,
              -13.343303680419922
            ],
            [
              -62.082130432128906,
              -13.471879005432129
            ],
            [
              -61.79974365234375,
              -13.600454330444336
            ],
            [
              -61.133853912353516,
              -13.536166191101074
            ],
            [
              -60.777984619140625,
              -13.664741516113281
            ],
            [
              -60.58013916015625,
              -13.921893119812012
            ],
            [
              -60.29215621948242,
              -13.986180305480957
            ],
            [
              -59.86632537841797,
              -14.9504976272583
            ],
            [
              -59.364051818847656,
              -15.079072952270508
            ],
            [
              -59.23561096191406,
              -15.271936416625977
            ],
            [
              -58.66606903076172,
              -15.464800834655762
            ],
            [
              -58.18925094604492,
              -15.850528717041016
            ],
            [
              -57.69337844848633,
              -16.043392181396484
            ],
            [
              -57.46482849121094,
              -16.68627166748047
            ],
            [
              -57.32417297363281,
              -16.750560760498047
            ],
            [
              -57.312042236328125,
              -17.329151153564453
            ],
            [
              -57.13974380493164,
              -17.779165267944336
            ],
            [
              -57.18252182006836,
              -18.164892196655273
            ],
            [
              -57.10865783691406,
              -18.164892196655273
            ],
            [
              -57.269954681396484,
              -18.93634033203125
            ],
            [
              -57.6104850769043,
              -19.322063446044922
            ],
            [
              -57.90816879272461,
              -19.96493148803711
            ],
            [
              -58.14572525024414,
              -20.093503952026367
            ],
            [
              -58.19184875488281,
              -20.47922134399414
            ],
            [
              -57.941612243652344,
              -20.864938735961914
            ],
            [
              -57.91429901123047,
              -21.250656127929688
            ],
            [
              -58.018394470214844,
              -22.08637809753418
            ],
            [
              -57.94403076171875,
              -22.08637809753418
            ],
            [
              -57.97686004638672,
              -22.343524932861328
            ],
            [
              -57.77020263671875,
              -22.472097396850586
            ],
            [
              -57.969451904296875,
              -22.857820510864258
            ],
            [
              -57.820518493652344,
              -22.857820510864258
            ],
            [
              -57.70570373535156,
              -23.11496925354004
            ],
            [
              -57.49940490722656,
              -23.243545532226562
            ],
            [
              -57.41163635253906,
              -23.69356346130371
            ],
            [
              -57.3370475769043,
              -23.69356346130371
            ],
            [
              -57.34397506713867,
              -24.272165298461914
            ],
            [
              -57.2225227355957,
              -24.46503448486328
            ],
            [
              -57.2603759765625,
              -24.722196578979492
            ],
            [
              -57.52338409423828,
              -24.979360580444336
            ],
            [
              -57.647830963134766,
              -25.30082130432129
            ],
            [
              -57.87236022949219,
              -25.30082130432129
            ],
            [
              -58.05679702758789,
              -25.04365348815918
            ],
            [
              -59.129051208496094,
              -24.722196578979492
            ],
            [
              -59.18423843383789,
              -24.593616485595703
            ],
            [
              -59.47339630126953,
              -24.529325485229492
            ],
            [
              -59.938514709472656,
              -24.143585205078125
            ],
            [
              -61.15985107421875,
              -23.822139739990234
            ],
            [
              -61.541961669921875,
              -23.372121810913086
            ],
            [
              -61.89621353149414,
              -23.243545532226562
            ],
            [
              -62.4105339050293,
              -22.664958953857422
            ],
            [
              -62.73823165893555,
              -22.343524932861328
            ],
            [
              -62.720645904541016,
              -22.214950561523438
            ],
            [
              -62.93500518798828,
              -22.150665283203125
            ],
            [
              -62.99189758300781,
              -22.022090911865234
            ],
            [
              -63.66107177734375,
              -22.022090911865234
            ],
            [
              -64.12493133544922,
              -22.150665283203125
            ],
            [
              -64.35517120361328,
              -22.729246139526367
            ],
            [
              -64.51331329345703,
              -22.793533325195312
            ],
            [
              -64.60719299316406,
              -22.40781021118164
            ],
            [
              -64.86863708496094,
              -22.150665283203125
            ],
            [
              -65.83544921875,
              -22.150665283203125
            ],
            [
              -66.31060791015625,
              -21.82923126220703
            ],
            [
              -66.43041229248047,
              -22.150665283203125
            ],
            [
              -66.57914733886719,
              -22.150665283203125
            ],
            [
              -67.25869750976562,
              -22.729246139526367
            ],
            [
              -67.09317779541016,
              -23.11496925354004
            ],
            [
              -67.16767883300781,
              -23.11496925354004
            ],
            [
              -67.28789520263672,
              -23.886428833007812
            ],
            [
              -67.45784759521484,
              -24.01500701904297
            ],
            [
              -70.65640258789062,
              -23.95071792602539
            ],
            [
              -70.6456527709961,
              -23.886428833007812
            ],
            [
              -70.528564453125,
              -23.629274368286133
            ],
            [
              -70.80585479736328,
              -23.50069808959961
            ],
            [
              -70.75408172607422,
              -23.179258346557617
            ],
            [
              -70.51019287109375,
              -23.050682067871094
            ],
            [
              -70.39552307128906,
              -22.793533325195312
            ],
            [
              -70.18431091308594,
              -21.379228591918945
            ],
            [
              -70.25858306884766,
              -21.379228591918945
            ],
            [
              -70.22156524658203,
              -21.12208366394043
            ],
            [
              -70.2957992553711,
              -21.12208366394043
            ],
            [
              -70.29682922363281,
              -20.6077938079834
            ],
            [
              -70.3709945678711,
              -20.6077938079834
            ],
            [
              -70.2628173828125,
              -19.83635711669922
            ],
            [
              -70.33688354492188,
              -19.83635711669922
            ],
            [
              -70.30113220214844,
              -19.57921028137207
            ],
            [
              -70.37517547607422,
              -19.57921028137207
            ],
            [
              -70.43451690673828,
              -18.93634033203125
            ],
            [
              -70.50847625732422,
              -18.93634033203125
            ],
            [
              -70.43856048583984,
              -18.422040939331055
            ],
            [
              -70.58634948730469,
              -18.422040939331055
            ],
            [
              -70.97771453857422,
              -18.03631591796875
            ],
            [
              -71.3297119140625,
              -17.90774154663086
            ],
            [
              -71.49990844726562,
              -17.522014617919922
            ],
            [
              -71.63900756835938,
              -17.457727432250977
            ],
            [
              -71.62213134765625,
              -17.329151153564453
            ],
            [
              -72.0478515625,
              -17.20057487487793
            ],
            [
              -72.44017791748047,
              -16.814847946166992
            ],
            [
              -73.0132064819336,
              -16.68627166748047
            ],
            [
              -73.20954895019531,
              -16.493408203125
            ],
            [
              -73.987060546875,
              -16.236255645751953
            ],
            [
              -74.3148422241211,
              -15.914815902709961
            ],
            [
              -74.74047088623047,
              -15.786240577697754
            ],
            [
              -74.79821014404297,
              -15.65766429901123
            ],
            [
              -75.22389221191406,
              -15.529088973999023
            ],
            [
              -75.33989715576172,
              -15.271936416625977
            ],
            [
              -75.73546600341797,
              -14.886209487915039
            ],
            [
              -75.88246154785156,
              -14.886209487915039
            ],
            [
              -76.20560455322266,
              -14.500482559204102
            ],
            [
              -76.19117736816406,
              -14.371907234191895
            ],
            [
              -76.46356201171875,
              -14.179043769836426
            ],
            [
              -76.4218978881836,
              -13.793316841125488
            ],
            [
              -76.34850311279297,
              -13.793316841125488
            ],
            [
              -76.3817138671875,
              -13.407590866088867
            ],
            [
              -76.64266967773438,
              -13.086153030395508
            ],
            [
              -76.75159454345703,
              -12.700428009033203
            ],
            [
              -76.89202880859375,
              -12.636139869689941
            ],
            [
              -76.94102478027344,
              -12.378990173339844
            ],
            [
              -77.28361511230469,
              -12.12183952331543
            ],
            [
              -77.31663513183594,
              -11.67182731628418
            ],
            [
              -77.8013687133789,
              -11.35038948059082
            ],
            [
              -77.77444458007812,
              -11.028952598571777
            ],
            [
              -78.35681915283203,
              -10.064640045166016
            ],
            [
              -78.34247589111328,
              -9.871777534484863
            ],
            [
              -78.86370849609375,
              -8.971752166748047
            ],
            [
              -78.97621154785156,
              -8.457450866699219
            ],
            [
              -79.59014129638672,
              -7.750287532806396
            ],
            [
              -79.71047973632812,
              -7.30027437210083
            ],
            [
              -79.85286712646484,
              -7.235986709594727
            ],
            [
              -79.98148345947266,
              -6.914548873901367
            ],
            [
              -80.75439453125,
              -6.335959911346436
            ],
            [
              -81.32842254638672,
              -6.143096923828125
            ],
            [
              -81.31636047363281,
              -5.885946750640869
            ],
            [
              -81.02180480957031,
              -5.821659088134766
            ],
            [
              -81.01318359375,
              -5.628796100616455
            ],
            [
              -81.29094696044922,
              -5.307357788085938
            ],
            [
              -81.27531433105469,
              -4.921631813049316
            ],
            [
              -81.4185562133789,
              -4.857344150543213
            ],
            [
              -81.47466278076172,
              -4.407330989837646
            ],
            [
              -81.16791534423828,
              -3.957317352294922
            ],
            [
              -80.94527435302734,
              -3.828742265701294
            ],
            [
              -80.94126892089844,
              -3.700166940689087
            ],
            [
              -80.4947738647461,
              -3.378728866577148
            ],
            [
              -80.42194366455078,
              -3.378728866577148
            ],
            [
              -80.27998352050781,
              -3.507303953170776
            ],
            [
              -80.21687316894531,
              -3.828742265701294
            ],
            [
              -80.51441192626953,
              -4.021605014801025
            ],
            [
              -80.52981567382812,
              -4.47161865234375
            ],
            [
              -80.08814239501953,
              -4.343043327331543
            ],
            [
              -79.5872573852539,
              -4.600193977355957
            ],
            [
              -79.45350646972656,
              -4.921631813049316
            ],
            [
              -79.16448974609375,
              -4.98591947555542
            ],
            [
              -78.70612335205078,
              -4.407330989837646
            ],
            [
              -78.61439514160156,
              -3.828742265701294
            ],
            [
              -78.3845443725586,
              -3.443016529083252
            ],
            [
              -78.1624984741211,
              -3.314441204071045
            ],
            [
              -78.1590576171875,
              -3.185865879058838
            ],
            [
              -77.64118957519531,
              -2.864427804946899
            ],
            [
              -76.6144027709961,
              -2.542989730834961
            ],
            [
              -75.94758605957031,
              -1.964401364326477
            ],
            [
              -75.49612426757812,
              -1.00008761882782
            ],
            [
              -75.34976959228516,
              -0.935800075531006
            ],
            [
              -75.41715240478516,
              -0.421499729156494
            ],
            [
              -75.70661926269531,
              -0.228637129068375
            ],
            [
              -75.70563507080078,
              -0.100062072277069
            ],
            [
              -74.90560150146484,
              -0.164349600672722
            ],
            [
              -74.47286987304688,
              -0.614362359046936
            ],
            [
              -74.33158111572266,
              -1.00008761882782
            ],
            [
              -73.6097412109375,
              -1.450100660324097
            ],
            [
              -73.54194641113281,
              -1.771538615226746
            ],
            [
              -73.182373046875,
              -2.028688907623291
            ],
            [
              -73.18842315673828,
              -2.350126981735229
            ],
            [
              -72.97259521484375,
              -2.478702068328857
            ],
            [
              -72.39144134521484,
              -2.542989730834961
            ],
            [
              -71.87547302246094,
              -2.221551656723022
            ],
            [
              -71.65705871582031,
              -2.221551656723022
            ],
            [
              -71.44233703613281,
              -2.414414644241333
            ],
            [
              -71.22144317626953,
              -2.285839319229126
            ],
            [
              -70.857421875,
              -2.285839319229126
            ],
            [
              -70.78707885742188,
              -2.414414644241333
            ],
            [
              -70.35277557373047,
              -2.542989730834961
            ],
            [
              -70.21250915527344,
              -2.800140142440796
            ],
            [
              -69.92264556884766,
              -2.864427804946899
            ],
            [
              -69.8526840209961,
              -2.993003129959106
            ],
            [
              -69.05311584472656,
              -3.05729079246521
            ],
            [
              -68.62065124511719,
              -3.250153541564941
            ]
          ]
        ]
      }
    }
  ]
}