{
  "type": "FeatureCollection",
  "name": "territory-823",
  "features": [
    {
      "type": "Feature",
      "properties": {
        "Name": "Republic of the Rio Grande",
        "FromYear": 1840,
        "ToYear": 1841,
        "Area": 300402.06240810815,
        "Type": "POLITY",
        "Wikipedia": "Republic of the Rio Grande",
        "Wikidata": "Q2014442",
        "SeshatID": "",
        "Components": "",
        "MemberOf": ""
      },
      "geometry": {
        "type": "Polygon",
        "coordinates": [
          [
            [
              -97.0949935913086,
              26.000778198242188
            ],
            [
              -97.04515838623047,
              25.807899475097656
            ],
            [
              -97.12008666992188,
              25.807899475097656
            ],
            [
              -97.17241668701172,
              25.422143936157227
            ],
            [
              -97.68042755126953,
              25.357851028442383
            ],
            [
              -97.5553207397461,
              24.843517303466797
            ],
            [
              -97.63008880615234,
              24.843517303466797
            ],
            [
              -97.62931060791016,
              24.522062301635742
            ],
            [
              -97.77873992919922,
              24.522062301635742
            ],
            [
              -97.61592102050781,
              24.136323928833008
            ],
            [
              -97.6905746459961,
              24.136323928833008
            ],
            [
              -97.61913299560547,
              23.814878463745117
            ],
            [
              -97.69374084472656,
              23.814878463745117
            ],
            [
              -97.60343933105469,
              23.043420791625977
            ],
            [
              -97.74750518798828,
              22.657697677612305
            ],
            [
              -97.64446258544922,
              22.143402099609375
            ],
            [
              -97.63179016113281,
              22.079116821289062
            ],
            [
              -98.31378936767578,
              22.143402099609375
            ],
            [
              -98.51139068603516,
              22.014829635620117
            ],
            [
              -98.76000213623047,
              22.143402099609375
            ],
            [
              -99.13185119628906,
              22.143402099609375
            ],
            [
              -99.50757598876953,
              22.529123306274414
            ],
            [
              -99.79206085205078,
              22.46483612060547
            ],
            [
              -100.21739959716797,
              22.72198486328125
            ],
            [
              -100.35448455810547,
              23.36486053466797
            ],
            [
              -100.72718048095703,
              23.36486053466797
            ],
            [
              -100.70713806152344,
              23.943456649780273
            ],
            [
              -100.63251495361328,
              23.943456649780273
            ],
            [
              -100.69166564941406,
              24.200613021850586
            ],
            [
              -100.61700439453125,
              24.200613021850586
            ],
            [
              -100.72343444824219,
              24.650644302368164
            ],
            [
              -100.6487045288086,
              24.650644302368164
            ],
            [
              -100.9198226928711,
              24.843517303466797
            ],
            [
              -101.28282165527344,
              25.100683212280273
            ],
            [
              -101.91397094726562,
              25.229267120361328
            ],
            [
              -102.20503234863281,
              25.48643684387207
            ],
            [
              -102.57940673828125,
              25.48643684387207
            ],
            [
              -102.8452377319336,
              25.357851028442383
            ],
            [
              -102.96160125732422,
              25.229267120361328
            ],
            [
              -103.18608856201172,
              25.229267120361328
            ],
            [
              -103.49495697021484,
              25.55072784423828
            ],
            [
              -103.61693572998047,
              26.000778198242188
            ],
            [
              -103.48477935791016,
              26.06507110595703
            ],
            [
              -103.52059936523438,
              26.19365882873535
            ],
            [
              -103.34991455078125,
              26.386537551879883
            ],
            [
              -103.40505981445312,
              26.57941436767578
            ],
            [
              -103.76148223876953,
              26.772293090820312
            ],
            [
              -103.66815948486328,
              26.96516990661621
            ],
            [
              -103.76485443115234,
              27.2866268157959
            ],
            [
              -103.68964385986328,
              27.2866268157959
            ],
            [
              -103.87650299072266,
              28.12238883972168
            ],
            [
              -103.65860748291016,
              28.379535675048828
            ],
            [
              -103.70099639892578,
              28.508106231689453
            ],
            [
              -103.46326446533203,
              28.700960159301758
            ],
            [
              -103.42088317871094,
              29.022375106811523
            ],
            [
              -102.96742248535156,
              29.022375106811523
            ],
            [
              -103.01136779785156,
              29.150936126708984
            ],
            [
              -102.82878112792969,
              29.279497146606445
            ],
            [
              -102.84270477294922,
              29.536611557006836
            ],
            [
              -102.35063934326172,
              29.857990264892578
            ],
            [
              -101.39607238769531,
              29.729440689086914
            ],
            [
              -100.78662109375,
              29.279497146606445
            ],
            [
              -100.14785766601562,
              28.25096321105957
            ],
            [
              -99.38441467285156,
              27.4794979095459
            ],
            [
              -99.30973052978516,
              26.96516990661621
            ],
            [
              -98.99786376953125,
              26.386537551879883
            ],
            [
              -98.60523986816406,
              26.32224464416504
            ],
            [
              -97.91960144042969,
              26.000778198242188
            ],
            [
              -97.16996002197266,
              26.000778198242188
            ],
            [
              -97.0949935913086,
              26.000778198242188
            ]
          ]
        ]
      }
    }
  ]
}