{
  "type": "FeatureCollection",
  "name": "territory-824",
  "features": [
    {
      "type": "Feature",
      "properties": {
        "Name": "Republic of Costa Rica",
        "FromYear": 1905,
        "ToYear": 1999,
        "Area": 56086.93578144053,
        "Type": "POLITY",
        "Wikipedia": "Costa Rica",
        "Wikidata": "Q800",
        "SeshatID": "cr_costa_rica_rep",
        "Components": "",
        "MemberOf": ""
      },
      "geometry": {
        "type": "Polygon",
        "coordinates": [
          [
            [
              -83.49156188964844,
              10.7002534866333
            ],
            [
              -83.23410034179688,
              10.185953140258789
            ],
            [
              -82.6137466430664,
              9.671652793884277
            ],
            [
              -82.60948944091797,
              9.607365608215332
            ],
            [
              -82.88921356201172,
              9.41450309753418
            ],
            [
              -82.78797912597656,
              8.964489936828613
            ],
            [
              -82.83094024658203,
              8.450189590454102
            ],
            [
              -83.04280853271484,
              8.321614265441895
            ],
            [
              -83.1158218383789,
              8.321614265441895
            ],
            [
              -83.2033920288086,
              8.578764915466309
            ],
            [
              -83.27642059326172,
              8.578764915466309
            ],
            [
              -83.26184844970703,
              8.321614265441895
            ],
            [
              -83.70719146728516,
              8.450189590454102
            ],
            [
              -83.72593688964844,
              8.771627426147461
            ],
            [
              -83.58760070800781,
              8.900202751159668
            ],
            [
              -83.67251586914062,
              9.09306526184082
            ],
            [
              -84.12311553955078,
              9.285927772521973
            ],
            [
              -84.2818603515625,
              9.478790283203125
            ],
            [
              -84.57417297363281,
              9.478790283203125
            ],
            [
              -84.82884979248047,
              9.993090629577637
            ],
            [
              -84.9482192993164,
              9.607365608215332
            ],
            [
              -85.24056243896484,
              9.607365608215332
            ],
            [
              -85.47767639160156,
              9.86451530456543
            ],
            [
              -85.77926635742188,
              9.993090629577637
            ],
            [
              -85.88573455810547,
              10.443102836608887
            ],
            [
              -85.68115997314453,
              10.635965347290039
            ],
            [
              -85.83755493164062,
              10.764540672302246
            ],
            [
              -85.8530044555664,
              10.957403182983398
            ],
            [
              -85.71188354492188,
              11.021690368652344
            ],
            [
              -85.71714782714844,
              11.085978507995605
            ],
            [
              -85.35652160644531,
              11.15026569366455
            ],
            [
              -85.12129211425781,
              10.957403182983398
            ],
            [
              -84.46790313720703,
              11.021690368652344
            ],
            [
              -83.93048858642578,
              10.7002534866333
            ],
            [
              -83.57463073730469,
              10.828827857971191
            ],
            [
              -83.56965637207031,
              10.764540672302246
            ],
            [
              -83.5647201538086,
              10.7002534866333
            ],
            [
              -83.49156188964844,
              10.7002534866333
            ]
          ]
        ]
      }
    }
  ]
}