{
  "type": "FeatureCollection",
  "name": "territory-826",
  "features": [
    {
      "type": "Feature",
      "properties": {
        "Name": "Natalia Republic",
        "FromYear": 1900,
        "ToYear": 1907,
        "Area": 62052.17711587225,
        "Type": "POLITY",
        "Wikipedia": "Natalia Republic",
        "Wikidata": "Q1029847",
        "SeshatID": "",
        "Components": "",
        "MemberOf": ""
      },
      "geometry": {
        "type": "Polygon",
        "coordinates": [
          [
            [
              32.05937194824219,
              -28.836788177490234
            ],
            [
              31.471363067626953,
              -29.093917846679688
            ],
            [
              31.479625701904297,
              -29.22247886657715
            ],
            [
              31.050657272338867,
              -29.6081485748291
            ],
            [
              30.92886734008789,
              -30.058069229125977
            ],
            [
              30.709970474243164,
              -30.186613082885742
            ],
            [
              30.579875946044922,
              -30.50796127319336
            ],
            [
              30.50394630432129,
              -30.50796127319336
            ],
            [
              30.00271987915039,
              -29.800975799560547
            ],
            [
              29.6917724609375,
              -29.67242431640625
            ],
            [
              29.237411499023438,
              -29.67242431640625
            ],
            [
              29.286575317382812,
              -29.22247886657715
            ],
            [
              28.814884185791016,
              -28.901071548461914
            ],
            [
              28.804338455200195,
              -28.708221435546875
            ],
            [
              29.53798484802246,
              -28.322511672973633
            ],
            [
              29.651071548461914,
              -27.615341186523438
            ],
            [
              29.876893997192383,
              -27.615341186523438
            ],
            [
              30.03426742553711,
              -27.743919372558594
            ],
            [
              30.044649124145508,
              -27.936786651611328
            ],
            [
              30.1988582611084,
              -28.001075744628906
            ],
            [
              30.342479705810547,
              -27.87249755859375
            ],
            [
              31.23545265197754,
              -27.679630279541016
            ],
            [
              31.443267822265625,
              -27.358179092407227
            ],
            [
              31.518491744995117,
              -27.358179092407227
            ],
            [
              31.593713760375977,
              -27.358179092407227
            ],
            [
              31.668935775756836,
              -27.358179092407227
            ],
            [
              31.66535186767578,
              -27.293888092041016
            ],
            [
              31.74056053161621,
              -27.293888092041016
            ],
            [
              31.815771102905273,
              -27.293888092041016
            ],
            [
              31.69089126586914,
              -27.743919372558594
            ],
            [
              32.075016021728516,
              -27.87249755859375
            ],
            [
              32.158077239990234,
              -28.001075744628906
            ],
            [
              32.23343276977539,
              -28.001075744628906
            ],
            [
              32.38808059692383,
              -28.06536293029785
            ],
            [
              32.40810012817383,
              -28.386796951293945
            ],
            [
              32.13490676879883,
              -28.836788177490234
            ],
            [
              32.05937194824219,
              -28.836788177490234
            ]
          ]
        ]
      }
    }
  ]
}