{
  "type": "FeatureCollection",
  "name": "territory-83",
  "features": [
    {
      "type": "Feature",
      "properties": {
        "Name": "Greco-Bactrian Kingdom",
        "FromYear": -170,
        "ToYear": -165,
        "Area": 1364109.8599099824,
        "Type": "POLITY",
        "Wikipedia": "Greco-Bactrian Kingdom",
        "Wikidata": "Q488880",
        "SeshatID": "af_greco_bactrian_k",
        "Components": "",
        "MemberOf": ""
      },
      "geometry": {
        "type": "MultiPolygon",
        "coordinates": [
          [
            [
              [
                67.63790130615234,
                33.84315490722656
              ],
              [
                67.5610580444336,
                33.84315490722656
              ],
              [
                67.57521057128906,
                33.90746307373047
              ],
              [
                67.6520767211914,
                33.90746307373047
              ],
              [
                67.63790130615234,
                33.84315490722656
              ]
            ]
          ],
          [
            [
              [
                72.76615905761719,
                41.00318908691406
              ],
              [
                72.78146362304688,
                40.80876541137695
              ],
              [
                73.01934814453125,
                40.80876541137695
              ],
              [
                73.29378509521484,
                40.6791877746582
              ],
              [
                73.33053588867188,
                40.54964065551758
              ],
              [
                73.48890686035156,
                40.54964065551758
              ],
              [
                73.5257339477539,
                40.42012023925781
              ],
              [
                73.68400573730469,
                40.42012023925781
              ],
              [
                73.93253326416016,
                39.9670295715332
              ],
              [
                73.91181945800781,
                39.90232849121094
              ],
              [
                73.86797332763672,
                39.51427459716797
              ],
              [
                73.6902847290039,
                39.449623107910156
              ],
              [
                73.63028717041016,
                39.25570297241211
              ],
              [
                73.7479019165039,
                39.1264533996582
              ],
              [
                73.49423217773438,
                38.54513168334961
              ],
              [
                72.98930358886719,
                38.157840728759766
              ],
              [
                71.88554382324219,
                36.9970588684082
              ],
              [
                71.89447021484375,
                36.73930740356445
              ],
              [
                71.70489501953125,
                36.61045455932617
              ],
              [
                71.67105865478516,
                36.48161697387695
              ],
              [
                71.74873352050781,
                36.48161697387695
              ],
              [
                71.62068939208984,
                36.28839111328125
              ],
              [
                71.69830322265625,
                36.28839111328125
              ],
              [
                71.63176727294922,
                36.03080368041992
              ],
              [
                71.70929718017578,
                36.03080368041992
              ],
              [
                71.72090911865234,
                35.77327346801758
              ],
              [
                71.85939025878906,
                35.708900451660156
              ],
              [
                71.82672882080078,
                35.58015823364258
              ],
              [
                72.02627563476562,
                35.45143127441406
              ],
              [
                71.99385833740234,
                35.32271194458008
              ],
              [
                72.11613464355469,
                35.194007873535156
              ],
              [
                72.74662017822266,
                34.93662643432617
              ],
              [
                72.7916030883789,
                34.80794906616211
              ],
              [
                72.94587707519531,
                34.80794906616211
              ],
              [
                72.99087524414062,
                34.679283142089844
              ],
              [
                73.2831802368164,
                34.614952087402344
              ],
              [
                73.46625518798828,
                34.42197799682617
              ],
              [
                73.92835235595703,
                34.42197799682617
              ],
              [
                73.896240234375,
                34.2933349609375
              ],
              [
                74.03417205810547,
                34.22901916503906
              ],
              [
                75.5406494140625,
                34.10039138793945
              ],
              [
                75.68698120117188,
                33.45735549926758
              ],
              [
                75.82453918457031,
                33.393062591552734
              ],
              [
                75.94432830810547,
                32.94303894042969
              ],
              [
                76.09748840332031,
                32.94303894042969
              ],
              [
                76.06634521484375,
                32.81447219848633
              ],
              [
                76.14289093017578,
                32.81447219848633
              ],
              [
                76.08113098144531,
                32.557350158691406
              ],
              [
                76.46338653564453,
                32.23596954345703
              ],
              [
                78.4480209350586,
                31.593257904052734
              ],
              [
                78.84430694580078,
                31.65752601623535
              ],
              [
                78.84478759765625,
                31.336183547973633
              ],
              [
                79.17961883544922,
                31.464719772338867
              ],
              [
                79.42373657226562,
                31.20764923095703
              ],
              [
                79.40872955322266,
                31.143381118774414
              ],
              [
                77.9357681274414,
                29.986536026000977
              ],
              [
                77.85477447509766,
                29.600887298583984
              ],
              [
                77.93048858642578,
                29.600887298583984
              ],
              [
                77.87759399414062,
                29.34377670288086
              ],
              [
                77.98974609375,
                29.150936126708984
              ],
              [
                77.96339416503906,
                28.636676788330078
              ],
              [
                77.00678253173828,
                28.765243530273438
              ],
              [
                76.38938903808594,
                29.08665657043457
              ],
              [
                75.3435287475586,
                29.150936126708984
              ],
              [
                74.81671905517578,
                28.765243530273438
              ],
              [
                73.35357666015625,
                28.186676025390625
              ],
              [
                72.65280151367188,
                28.058101654052734
              ],
              [
                72.57743835449219,
                28.058101654052734
              ],
              [
                70.71566009521484,
                27.736658096313477
              ],
              [
                70.73670196533203,
                27.865236282348633
              ],
              [
                70.54254150390625,
                28.058101654052734
              ],
              [
                70.0692367553711,
                27.92952537536621
              ],
              [
                69.9068832397461,
                28.315250396728516
              ],
              [
                69.52977752685547,
                28.315250396728516
              ],
              [
                69.24947357177734,
                28.44382095336914
              ],
              [
                68.72148895263672,
                28.893810272216797
              ],
              [
                67.26457977294922,
                29.21521759033203
              ],
              [
                66.99494171142578,
                29.40805435180664
              ],
              [
                67.01708221435547,
                29.536611557006836
              ],
              [
                66.56549835205078,
                29.986536026000977
              ],
              [
                66.53726959228516,
                31.079113006591797
              ],
              [
                67.04198455810547,
                31.7217960357666
              ],
              [
                67.4875259399414,
                32.043148040771484
              ],
              [
                67.52667236328125,
                32.23596954345703
              ],
              [
                67.8987045288086,
                32.557350158691406
              ],
              [
                67.93914794921875,
                32.75019073486328
              ],
              [
                68.3905258178711,
                33.07160949707031
              ],
              [
                68.55121612548828,
                33.45735549926758
              ],
              [
                68.4744873046875,
                33.45735549926758
              ],
              [
                68.51705169677734,
                33.65024948120117
              ],
              [
                67.79158782958984,
                33.84315490722656
              ],
              [
                67.66629028320312,
                33.971771240234375
              ],
              [
                67.49835205078125,
                33.90746307373047
              ],
              [
                67.38717651367188,
                34.10039138793945
              ],
              [
                66.98844909667969,
                34.03607940673828
              ],
              [
                66.96822357177734,
                34.2933349609375
              ],
              [
                66.75150299072266,
                34.3576545715332
              ],
              [
                66.78004455566406,
                34.48630142211914
              ],
              [
                66.6117172241211,
                34.42197799682617
              ],
              [
                66.53469848632812,
                34.42197799682617
              ],
              [
                66.5632095336914,
                34.55062484741211
              ],
              [
                66.14356994628906,
                34.743614196777344
              ],
              [
                65.61793518066406,
                34.80794906616211
              ],
              [
                65.41487121582031,
                34.93662643432617
              ],
              [
                64.75547790527344,
                34.743614196777344
              ],
              [
                64.36990356445312,
                34.743614196777344
              ],
              [
                64.18815612792969,
                34.614952087402344
              ],
              [
                63.95692443847656,
                34.614952087402344
              ],
              [
                63.83008575439453,
                34.743614196777344
              ],
              [
                63.2767333984375,
                34.679283142089844
              ],
              [
                63.149574279785156,
                34.80794906616211
              ],
              [
                62.623050689697266,
                34.87228775024414
              ],
              [
                62.190589904785156,
                35.38706970214844
              ],
              [
                61.80400085449219,
                35.38706970214844
              ],
              [
                61.303009033203125,
                35.58015823364258
              ],
              [
                61.2346076965332,
                36.3527946472168
              ],
              [
                61.15697479248047,
                36.3527946472168
              ],
              [
                61.21279525756836,
                36.61045455932617
              ],
              [
                61.4742546081543,
                36.73930740356445
              ],
              [
                61.02931594848633,
                37.1904182434082
              ],
              [
                60.87348175048828,
                37.1904182434082
              ],
              [
                60.980167388916016,
                37.3193473815918
              ],
              [
                60.66255569458008,
                37.641746520996094
              ],
              [
                60.73598098754883,
                37.96426773071289
              ],
              [
                60.5309944152832,
                38.09331130981445
              ],
              [
                60.56078338623047,
                38.22237777709961
              ],
              [
                60.370792388916016,
                38.416015625
              ],
              [
                60.43135452270508,
                38.67427444458008
              ],
              [
                60.32030487060547,
                38.8680305480957
              ],
              [
                60.41352081298828,
                39.25570297241211
              ],
              [
                60.713134765625,
                39.51427459716797
              ],
              [
                60.791908264160156,
                39.51427459716797
              ],
              [
                62.50175094604492,
                40.031734466552734
              ],
              [
                62.879478454589844,
                39.9670295715332
              ],
              [
                64.01988983154297,
                40.0964469909668
              ],
              [
                64.38936614990234,
                40.29063034057617
              ],
              [
                65.23503112792969,
                40.4848747253418
              ],
              [
                65.27192687988281,
                40.614410400390625
              ],
              [
                65.35114288330078,
                40.614410400390625
              ],
              [
                65.36971282958984,
                40.6791877746582
              ],
              [
                65.4489517211914,
                40.6791877746582
              ],
              [
                65.43035125732422,
                40.614410400390625
              ],
              [
                65.58878326416016,
                40.614410400390625
              ],
              [
                65.80352020263672,
                40.80876541137695
              ],
              [
                66.61353302001953,
                41.132843017578125
              ],
              [
                66.65251922607422,
                41.26253128051758
              ],
              [
                66.89097595214844,
                41.26253128051758
              ],
              [
                67.54730987548828,
                41.586883544921875
              ],
              [
                68.68572235107422,
                41.911441802978516
              ],
              [
                70.62844848632812,
                42.236209869384766
              ],
              [
                70.70835876464844,
                42.236209869384766
              ],
              [
                71.04993438720703,
                42.30118942260742
              ],
              [
                71.08600616455078,
                42.17123794555664
              ],
              [
                71.32565307617188,
                42.17123794555664
              ],
              [
                71.87642669677734,
                41.911441802978516
              ],
              [
                72.51294708251953,
                41.19768524169922
              ],
              [
                72.5924072265625,
                41.19768524169922
              ],
              [
                72.76615905761719,
                41.00318908691406
              ]
            ]
          ]
        ]
      }
    }
  ]
}