{
  "type": "FeatureCollection",
  "name": "territory-831",
  "features": [
    {
      "type": "Feature",
      "properties": {
        "Name": "Kashmir and Jammu",
        "FromYear": 1947,
        "ToYear": 1947,
        "Area": 182006.4521879708,
        "Type": "POLITY",
        "Wikipedia": "Jammu and Kashmir (princely state)",
        "Wikidata": "Q2571484",
        "SeshatID": "",
        "Components": "",
        "MemberOf": ""
      },
      "geometry": {
        "type": "Polygon",
        "coordinates": [
          [
            [
              76.11058044433594,
              35.9664192199707
            ],
            [
              76.1880874633789,
              35.9664192199707
            ],
            [
              76.57561492919922,
              35.9664192199707
            ],
            [
              76.59979248046875,
              35.77327346801758
            ],
            [
              77.08859252929688,
              35.58015823364258
            ],
            [
              77.05331420898438,
              35.45143127441406
            ],
            [
              77.1728286743164,
              35.32271194458008
            ],
            [
              77.10308074951172,
              35.065311431884766
            ],
            [
              76.83696746826172,
              34.93662643432617
            ],
            [
              76.80268859863281,
              34.80794906616211
            ],
            [
              77.55931854248047,
              35.32271194458008
            ],
            [
              78.05872344970703,
              35.45143127441406
            ],
            [
              78.16651916503906,
              35.00096893310547
            ],
            [
              78.24371337890625,
              35.00096893310547
            ],
            [
              78.1737060546875,
              34.743614196777344
            ],
            [
              79.07111358642578,
              34.3576545715332
            ],
            [
              79.01922607421875,
              34.164703369140625
            ],
            [
              78.72016143798828,
              33.90746307373047
            ],
            [
              78.52821350097656,
              32.557350158691406
            ],
            [
              78.5123291015625,
              32.493072509765625
            ],
            [
              78.33061981201172,
              32.685909271240234
            ],
            [
              78.08521270751953,
              32.62162780761719
            ],
            [
              77.8109359741211,
              32.75019073486328
            ],
            [
              77.84281158447266,
              32.878753662109375
            ],
            [
              77.72171020507812,
              33.00732421875
            ],
            [
              77.3227767944336,
              32.94303894042969
            ],
            [
              76.85027313232422,
              33.20018768310547
            ],
            [
              76.46700286865234,
              33.20018768310547
            ],
            [
              76.25064849853516,
              32.94303894042969
            ],
            [
              76.09748840332031,
              32.94303894042969
            ],
            [
              76.11190795898438,
              32.685909271240234
            ],
            [
              75.89768981933594,
              32.428794860839844
            ],
            [
              75.33260345458984,
              32.30024337768555
            ],
            [
              74.78112030029297,
              32.557350158691406
            ],
            [
              74.39876556396484,
              32.557350158691406
            ],
            [
              74.2142333984375,
              32.75019073486328
            ],
            [
              73.77003479003906,
              32.81447219848633
            ],
            [
              73.5087890625,
              33.00732421875
            ],
            [
              73.56936645507812,
              33.26447677612305
            ],
            [
              73.4926986694336,
              33.26447677612305
            ],
            [
              73.41670227050781,
              33.90746307373047
            ],
            [
              73.33984375,
              33.90746307373047
            ],
            [
              73.34420013427734,
              34.55062484741211
            ],
            [
              73.6076431274414,
              34.679283142089844
            ],
            [
              73.64009857177734,
              34.80794906616211
            ],
            [
              74.0586166381836,
              34.93662643432617
            ],
            [
              74.09162902832031,
              35.065311431884766
            ],
            [
              73.66128540039062,
              35.194007873535156
            ],
            [
              73.69441223144531,
              35.32271194458008
            ],
            [
              73.86568450927734,
              35.38706970214844
            ],
            [
              73.82182312011719,
              35.51579284667969
            ],
            [
              73.31365966796875,
              35.644527435302734
            ],
            [
              73.20912170410156,
              35.837650299072266
            ],
            [
              72.58941650390625,
              35.837650299072266
            ],
            [
              72.63961791992188,
              36.03080368041992
            ],
            [
              72.56208801269531,
              36.03080368041992
            ],
            [
              72.61267852783203,
              36.2239875793457
            ],
            [
              72.84545135498047,
              36.2239875793457
            ],
            [
              73.12965393066406,
              36.417205810546875
            ],
            [
              73.27671813964844,
              36.67487716674805
            ],
            [
              73.89864349365234,
              36.67487716674805
            ],
            [
              73.79618072509766,
              36.8681755065918
            ],
            [
              74.10740661621094,
              36.8681755065918
            ],
            [
              74.55056762695312,
              37.06150817871094
            ],
            [
              75.31097412109375,
              36.9970588684082
            ],
            [
              75.41193389892578,
              36.80373764038086
            ],
            [
              75.7826156616211,
              36.73930740356445
            ],
            [
              76.00286865234375,
              36.417205810546875
            ],
            [
              75.98487854003906,
              36.3527946472168
            ],
            [
              75.99100494384766,
              36.09519577026367
            ],
            [
              76.11058044433594,
              35.9664192199707
            ]
          ]
        ]
      }
    }
  ]
}