{
  "type": "FeatureCollection",
  "name": "territory-832",
  "features": [
    {
      "type": "Feature",
      "properties": {
        "Name": "Dominican Republic",
        "FromYear": 1846,
        "ToYear": 1860,
        "Area": 52641.011931225374,
        "Type": "POLITY",
        "Wikipedia": "Dominican Republic",
        "Wikidata": "Q786",
        "SeshatID": "",
        "Components": "",
        "MemberOf": ""
      },
      "geometry": {
        "type": "Polygon",
        "coordinates": [
          [
            [
              -69.44619750976562,
              19.379087448120117
            ],
            [
              -69.07612609863281,
              19.379087448120117
            ],
            [
              -69.05908966064453,
              19.25051498413086
            ],
            [
              -69.48600769042969,
              19.12194061279297
            ],
            [
              -68.5814208984375,
              18.993366241455078
            ],
            [
              -68.56468963623047,
              18.864791870117188
            ],
            [
              -68.24402618408203,
              18.67193031311035
            ],
            [
              -68.28504180908203,
              18.414779663085938
            ],
            [
              -68.43283081054688,
              18.414779663085938
            ],
            [
              -68.55606079101562,
              18.2219181060791
            ],
            [
              -69.09786987304688,
              18.414779663085938
            ],
            [
              -69.83680725097656,
              18.414779663085938
            ],
            [
              -69.95960235595703,
              18.2219181060791
            ],
            [
              -70.5505599975586,
              18.2219181060791
            ],
            [
              -70.56732940673828,
              18.350492477416992
            ],
            [
              -70.71510314941406,
              18.350492477416992
            ],
            [
              -70.99378204345703,
              18.2219181060791
            ],
            [
              -71.27989196777344,
              17.57904052734375
            ],
            [
              -71.59156799316406,
              17.707616806030273
            ],
            [
              -71.69873046875,
              17.964767456054688
            ],
            [
              -71.7071304321289,
              18.029054641723633
            ],
            [
              -71.66710662841797,
              18.286205291748047
            ],
            [
              -71.93164825439453,
              18.607641220092773
            ],
            [
              -71.71852111816406,
              18.67193031311035
            ],
            [
              -71.67056274414062,
              18.864791870117188
            ],
            [
              -71.7445068359375,
              18.864791870117188
            ],
            [
              -71.76193237304688,
              18.993366241455078
            ],
            [
              -71.56623077392578,
              19.186227798461914
            ],
            [
              -71.71976470947266,
              19.764808654785156
            ],
            [
              -71.72867584228516,
              19.8290958404541
            ],
            [
              -71.67244720458984,
              19.95766830444336
            ],
            [
              -70.78340911865234,
              19.95766830444336
            ],
            [
              -70.22978973388672,
              19.700523376464844
            ],
            [
              -69.8595199584961,
              19.700523376464844
            ],
            [
              -69.74224853515625,
              19.379087448120117
            ],
            [
              -69.43762969970703,
              19.314802169799805
            ],
            [
              -69.44619750976562,
              19.379087448120117
            ]
          ]
        ]
      }
    }
  ]
}