{
  "type": "FeatureCollection",
  "name": "territory-837",
  "features": [
    {
      "type": "Feature",
      "properties": {
        "Name": "(Second French Empire)",
        "FromYear": 1870,
        "ToYear": 1870,
        "Area": 1300952.053930206,
        "Type": "POLITY",
        "Wikipedia": "Second French Empire",
        "Wikidata": "Q71092",
        "SeshatID": "fr_france_napoleonic",
        "Components": "Second French Empire;French Africa;French Indochina",
        "MemberOf": ""
      },
      "geometry": {
        "type": "MultiPolygon",
        "coordinates": [
          [
            [
              [
                43.341915130615234,
                -11.35038948059082
              ],
              [
                43.3608283996582,
                -11.928977012634277
              ],
              [
                43.21220397949219,
                -11.864689826965332
              ],
              [
                43.13896560668945,
                -11.864689826965332
              ],
              [
                43.05732345581055,
                -11.607540130615234
              ],
              [
                43.13053894042969,
                -11.607540130615234
              ],
              [
                43.122318267822266,
                -11.35038948059082
              ],
              [
                43.341915130615234,
                -11.35038948059082
              ]
            ]
          ],
          [
            [
              [
                9.662205696105957,
                -1.450100660324097
              ],
              [
                9.590631484985352,
                -1.900113701820374
              ],
              [
                9.663429260253906,
                -1.900113701820374
              ],
              [
                9.66424560546875,
                -2.221551656723022
              ],
              [
                9.519099235534668,
                -2.414414644241333
              ],
              [
                9.373335838317871,
                -2.350126981735229
              ],
              [
                9.226644515991211,
                -1.900113701820374
              ],
              [
                9.080726623535156,
                -1.771538615226746
              ],
              [
                9.153019905090332,
                -1.578675746917725
              ],
              [
                8.93447494506836,
                -1.514388203620911
              ],
              [
                8.933778762817383,
                -1.257237911224365
              ],
              [
                8.641728401184082,
                -0.935800075531006
              ],
              [
                8.713746070861816,
                -0.67864990234375
              ],
              [
                8.932085990905762,
                -0.67864990234375
              ],
              [
                9.149606704711914,
                -0.421499729156494
              ],
              [
                9.137816429138184,
                0.285663068294525
              ],
              [
                9.572155952453613,
                0.15708801150322
              ],
              [
                9.141240119934082,
                0.478525668382645
              ],
              [
                9.217402458190918,
                0.671388268470764
              ],
              [
                9.50852108001709,
                0.671388268470764
              ],
              [
                9.43348503112793,
                0.542813181877136
              ],
              [
                9.576764106750488,
                0.414238125085831
              ],
              [
                9.86787223815918,
                0.414238125085831
              ],
              [
                10.011122703552246,
                0.285663068294525
              ],
              [
                9.94881820678711,
                -0.035774555057287
              ],
              [
                9.439850807189941,
                -0.164349600672722
              ],
              [
                9.368354797363281,
                -0.550074815750122
              ],
              [
                9.295577049255371,
                -0.550074815750122
              ],
              [
                9.07823371887207,
                -0.871512532234192
              ],
              [
                9.078803062438965,
                -1.064375281333923
              ],
              [
                9.224372863769531,
                -1.064375281333923
              ],
              [
                9.662205696105957,
                -1.450100660324097
              ]
            ]
          ],
          [
            [
              [
                -51.70283889770508,
                4.142918586730957
              ],
              [
                -51.989261627197266,
                3.564330101013184
              ],
              [
                -52.35175323486328,
                3.30717945098877
              ],
              [
                -52.49507141113281,
                2.7928786277771
              ],
              [
                -52.858131408691406,
                2.27857780456543
              ],
              [
                -53.29490280151367,
                2.150002479553223
              ],
              [
                -53.513370513916016,
                2.27857780456543
              ],
              [
                -54.02300262451172,
                2.27857780456543
              ],
              [
                -54.31412124633789,
                2.085714817047119
              ],
              [
                -54.60551834106445,
                2.342865228652954
              ],
              [
                -54.46000671386719,
                2.407152891159058
              ],
              [
                -54.24263000488281,
                2.7928786277771
              ],
              [
                -54.244842529296875,
                3.242892026901245
              ],
              [
                -54.10001754760742,
                3.371467113494873
              ],
              [
                -54.10247039794922,
                3.692905426025391
              ],
              [
                -54.32212448120117,
                3.821480512619019
              ],
              [
                -54.47108840942383,
                4.142918586730957
              ],
              [
                -54.482295989990234,
                4.978658199310303
              ],
              [
                -54.41255569458008,
                5.171521186828613
              ],
              [
                -54.124351501464844,
                5.364383697509766
              ],
              [
                -54.058719635009766,
                5.750109672546387
              ],
              [
                -53.98582077026367,
                5.750109672546387
              ],
              [
                -52.88752365112305,
                5.492959022521973
              ],
              [
                -52.58853530883789,
                5.042945861816406
              ],
              [
                -52.14759063720703,
                4.785795211791992
              ],
              [
                -52.07472229003906,
                4.785795211791992
              ],
              [
                -52.000152587890625,
                4.657219886779785
              ],
              [
                -51.781558990478516,
                4.657219886779785
              ],
              [
                -51.703495025634766,
                4.207206249237061
              ],
              [
                -51.70283889770508,
                4.142918586730957
              ]
            ]
          ],
          [
            [
              [
                -3.614365339279175,
                5.235808849334717
              ],
              [
                -3.394870042800903,
                5.364383697509766
              ],
              [
                -3.321982860565186,
                5.364383697509766
              ],
              [
                -3.177960634231567,
                5.10723352432251
              ],
              [
                -3.542352914810181,
                5.10723352432251
              ],
              [
                -3.615231275558472,
                5.10723352432251
              ],
              [
                -3.614365339279175,
                5.235808849334717
              ]
            ]
          ],
          [
            [
              [
                -12.156365394592285,
                14.364645004272461
              ],
              [
                -12.1578369140625,
                14.428933143615723
              ],
              [
                -12.23128890991211,
                14.428933143615723
              ],
              [
                -12.234282493591309,
                14.55750846862793
              ],
              [
                -12.60628890991211,
                14.750371932983398
              ],
              [
                -12.60788394203695,
                14.81466007232666
              ],
              [
                -12.681366920471191,
                14.81466007232666
              ],
              [
                -12.682974815368652,
                14.878947257995605
              ],
              [
                -12.82996654510498,
                14.878947257995605
              ],
              [
                -12.833250045776367,
                15.007523536682129
              ],
              [
                -13.433609008789062,
                15.457538604736328
              ],
              [
                -13.66737174987793,
                15.907554626464844
              ],
              [
                -13.812651634216309,
                15.843266487121582
              ],
              [
                -14.415559768676758,
                16.293283462524414
              ],
              [
                -15.006848335266113,
                16.35757064819336
              ],
              [
                -15.29502010345459,
                16.16470718383789
              ],
              [
                -15.81043529510498,
                16.16470718383789
              ],
              [
                -16.10057830810547,
                16.036130905151367
              ],
              [
                -16.02480125427246,
                15.971842765808105
              ],
              [
                -16.0941162109375,
                15.843266487121582
              ],
              [
                -16.602807998657227,
                15.650403022766113
              ],
              [
                -16.420116424560547,
                16.743297576904297
              ],
              [
                -15.540326118469238,
                16.87187385559082
              ],
              [
                -15.178592681884766,
                17.06473731994629
              ],
              [
                -14.141988754272461,
                16.9361629486084
              ],
              [
                -13.916579246520996,
                16.807586669921875
              ],
              [
                -13.912371635437012,
                16.67901039123535
              ],
              [
                -13.016307830810547,
                16.293283462524414
              ],
              [
                -13.014383316040039,
                16.228994369506836
              ],
              [
                -13.088020324707031,
                16.228994369506836
              ],
              [
                -13.00309944152832,
                15.843266487121582
              ],
              [
                -11.872982025146484,
                14.81466007232666
              ],
              [
                -11.27782154083252,
                14.493220329284668
              ],
              [
                -11.198822021484375,
                14.236069679260254
              ],
              [
                -11.638036727905273,
                14.171781539916992
              ],
              [
                -11.937480926513672,
                14.428933143615723
              ],
              [
                -12.08438491821289,
                14.428933143615723
              ],
              [
                -12.08292007446289,
                14.364645004272461
              ],
              [
                -12.156365394592285,
                14.364645004272461
              ]
            ]
          ],
          [
            [
              [
                -17.386709213256836,
                14.878947257995605
              ],
              [
                -17.094730377197266,
                14.943235397338867
              ],
              [
                -17.015277862548828,
                14.750371932983398
              ],
              [
                -16.87026596069336,
                14.81466007232666
              ],
              [
                -16.70818519592285,
                14.300357818603516
              ],
              [
                -16.561304092407227,
                14.300357818603516
              ],
              [
                -16.624099731445312,
                13.914630889892578
              ],
              [
                -16.77090835571289,
                13.914630889892578
              ],
              [
                -16.930356979370117,
                14.364645004272461
              ],
              [
                -17.003803253173828,
                14.364645004272461
              ],
              [
                -17.007564544677734,
                14.493220329284668
              ],
              [
                -17.23375701904297,
                14.686083793640137
              ],
              [
                -17.454187393188477,
                14.686083793640137
              ],
              [
                -17.386709213256836,
                14.878947257995605
              ]
            ]
          ],
          [
            [
              [
                -60.78313446044922,
                14.428933143615723
              ],
              [
                -61.08251190185547,
                14.493220329284668
              ],
              [
                -61.08811950683594,
                14.55750846862793
              ],
              [
                -61.19023132324219,
                14.878947257995605
              ],
              [
                -60.96974182128906,
                14.878947257995605
              ],
              [
                -60.811241149902344,
                14.750371932983398
              ],
              [
                -60.78313446044922,
                14.428933143615723
              ]
            ]
          ],
          [
            [
              [
                -12.604713439941406,
                14.686083793640137
              ],
              [
                -12.678190231323242,
                14.686083793640137
              ],
              [
                -12.679771423339844,
                14.750371932983398
              ],
              [
                -12.60628890991211,
                14.750371932983398
              ],
              [
                -12.604713439941406,
                14.686083793640137
              ]
            ]
          ],
          [
            [
              [
                -61.769195556640625,
                16.293283462524414
              ],
              [
                -61.48125457763672,
                16.35757064819336
              ],
              [
                -61.494632720947266,
                16.486146926879883
              ],
              [
                -61.3473014831543,
                16.486146926879883
              ],
              [
                -61.18003463745117,
                16.293283462524414
              ],
              [
                -61.17345428466797,
                16.228994369506836
              ],
              [
                -61.461429595947266,
                16.16470718383789
              ],
              [
                -61.58265686035156,
                15.907554626464844
              ],
              [
                -61.73633575439453,
                15.971842765808105
              ],
              [
                -61.769195556640625,
                16.293283462524414
              ]
            ]
          ],
          [
            [
              [
                -62.94948959350586,
                18.286205291748047
              ],
              [
                -62.926856994628906,
                18.093341827392578
              ],
              [
                -63.08210372924805,
                18.157629013061523
              ],
              [
                -63.02336883544922,
                18.286205291748047
              ],
              [
                -62.94948959350586,
                18.286205291748047
              ]
            ]
          ],
          [
            [
              [
                7.782084465026855,
                33.45735549926758
              ],
              [
                7.784313678741455,
                33.26447677612305
              ],
              [
                7.401781558990479,
                33.20018768310547
              ],
              [
                7.174460887908936,
                33.00732421875
              ],
              [
                6.952919006347656,
                32.428794860839844
              ],
              [
                6.648149967193604,
                32.36451721191406
              ],
              [
                6.650086879730225,
                32.23596954345703
              ],
              [
                5.122443199157715,
                32.23596954345703
              ],
              [
                4.754369735717773,
                31.593257904052734
              ],
              [
                3.619258165359497,
                31.271915435791016
              ],
              [
                3.235279560089111,
                31.40045166015625
              ],
              [
                2.319497346878052,
                31.464719772338867
              ],
              [
                1.559811353683472,
                31.40045166015625
              ],
              [
                1.55568516254425,
                31.528987884521484
              ],
              [
                1.024529933929443,
                31.464719772338867
              ],
              [
                1.020151615142822,
                31.593257904052734
              ],
              [
                -0.285408675670624,
                31.8503360748291
              ],
              [
                -0.366779983043671,
                31.978878021240234
              ],
              [
                -0.98268449306488,
                32.107421875
              ],
              [
                -1.064512252807617,
                32.23596954345703
              ],
              [
                -1.290860772132874,
                32.171695709228516
              ],
              [
                -1.296466112136841,
                32.30024337768555
              ],
              [
                -1.072803139686584,
                32.428794860839844
              ],
              [
                -1.081177830696106,
                32.62162780761719
              ],
              [
                -1.472355008125305,
                32.81447219848633
              ],
              [
                -1.649446129798889,
                33.32876968383789
              ],
              [
                -1.652490973472595,
                33.393062591552734
              ],
              [
                -1.578816890716553,
                33.45735549926758
              ],
              [
                -1.683483719825745,
                34.03607940673828
              ],
              [
                -1.612862586975098,
                34.164703369140625
              ],
              [
                -1.689801573753357,
                34.164703369140625
              ],
              [
                -1.715473294258118,
                34.679283142089844
              ],
              [
                -2.114432096481323,
                34.93662643432617
              ],
              [
                -2.121232748031616,
                35.065311431884766
              ],
              [
                -2.044016122817993,
                35.065311431884766
              ],
              [
                -1.358735799789429,
                35.258358001708984
              ],
              [
                -1.136477708816528,
                35.45143127441406
              ],
              [
                -1.223541498184204,
                35.644527435302734
              ],
              [
                -1.065529465675354,
                35.58015823364258
              ],
              [
                -0.917115688323975,
                35.708900451660156
              ],
              [
                -0.530006587505341,
                35.708900451660156
              ],
              [
                -0.458719998598099,
                35.837650299072266
              ],
              [
                0.083524890244007,
                35.837650299072266
              ],
              [
                0.376142233610153,
                36.2239875793457
              ],
              [
                0.683685302734375,
                36.28839111328125
              ],
              [
                0.678023815155029,
                36.417205810546875
              ],
              [
                0.913757801055908,
                36.3527946472168
              ],
              [
                1.216211557388306,
                36.5460319519043
              ],
              [
                1.529616475105286,
                36.48161697387695
              ],
              [
                2.376901149749756,
                36.67487716674805
              ],
              [
                2.690169095993042,
                36.61045455932617
              ],
              [
                2.841080188751221,
                36.73930740356445
              ],
              [
                3.229894161224365,
                36.73930740356445
              ],
              [
                3.458978891372681,
                36.8681755065918
              ],
              [
                3.850007295608521,
                36.80373764038086
              ],
              [
                4.235154151916504,
                36.932613372802734
              ],
              [
                4.859498500823975,
                36.8681755065918
              ],
              [
                5.097836971282959,
                36.67487716674805
              ],
              [
                5.56428337097168,
                36.67487716674805
              ],
              [
                5.639055728912354,
                36.80373764038086
              ],
              [
                6.105763912200928,
                36.80373764038086
              ],
              [
                6.103042125701904,
                36.932613372802734
              ],
              [
                6.333924293518066,
                37.06150817871094
              ],
              [
                6.804664611816406,
                36.8681755065918
              ],
              [
                7.193697929382324,
                36.8681755065918
              ],
              [
                7.346271514892578,
                37.06150817871094
              ],
              [
                7.658689975738525,
                36.9970588684082
              ],
              [
                7.738344192504883,
                36.8681755065918
              ],
              [
                8.515729904174805,
                36.932613372802734
              ],
              [
                8.593559265136719,
                36.932613372802734
              ],
              [
                8.594874382019043,
                36.80373764038086
              ],
              [
                8.20899772644043,
                36.5460319519043
              ],
              [
                8.36652660369873,
                36.3527946472168
              ],
              [
                8.296080589294434,
                35.708900451660156
              ],
              [
                8.373502731323242,
                35.708900451660156
              ],
              [
                8.456167221069336,
                35.194007873535156
              ],
              [
                8.154257774353027,
                34.55062484741211
              ],
              [
                8.000144958496094,
                34.55062484741211
              ],
              [
                7.924595355987549,
                34.42197799682617
              ],
              [
                7.847578525543213,
                34.42197799682617
              ],
              [
                7.849113464355469,
                34.2933349609375
              ],
              [
                7.544547557830811,
                34.03607940673828
              ],
              [
                7.547844409942627,
                33.77885055541992
              ],
              [
                7.782084465026855,
                33.45735549926758
              ]
            ]
          ],
          [
            [
              [
                9.577608108520508,
                41.97637939453125
              ],
              [
                9.497812271118164,
                41.97637939453125
              ],
              [
                9.49889087677002,
                41.781593322753906
              ],
              [
                9.262411117553711,
                41.39224624633789
              ],
              [
                9.1038236618042,
                41.32738494873047
              ],
              [
                8.783942222595215,
                41.521995544433594
              ],
              [
                8.782108306884766,
                41.71668243408203
              ],
              [
                8.622743606567383,
                41.71668243408203
              ],
              [
                8.700496673583984,
                41.911441802978516
              ],
              [
                8.538846015930176,
                42.10627746582031
              ],
              [
                8.534564018249512,
                42.496177673339844
              ],
              [
                8.772740364074707,
                42.691246032714844
              ],
              [
                9.17282485961914,
                42.75628662109375
              ],
              [
                9.251097679138184,
                43.016544342041016
              ],
              [
                9.331360816955566,
                43.016544342041016
              ],
              [
                9.491888999938965,
                43.016544342041016
              ],
              [
                9.49340534210205,
                42.75628662109375
              ],
              [
                9.5735502243042,
                42.75628662109375
              ],
              [
                9.577608108520508,
                41.97637939453125
              ]
            ]
          ],
          [
            [
              [
                1.613808155059814,
                49.051273345947266
              ],
              [
                1.721130132675171,
                48.654239654541016
              ],
              [
                2.155388593673706,
                48.323814392089844
              ],
              [
                3.647621154785156,
                48.323814392089844
              ],
              [
                3.996844291687012,
                47.92780685424805
              ],
              [
                5.726752758026123,
                48.1257438659668
              ],
              [
                5.813844680786133,
                47.993770599365234
              ],
              [
                6.80824613571167,
                47.92780685424805
              ],
              [
                7.558016777038574,
                47.664100646972656
              ],
              [
                7.559404373168945,
                47.598209381103516
              ],
              [
                7.39728307723999,
                47.46647262573242
              ],
              [
                6.983439445495605,
                47.53233337402344
              ],
              [
                6.989914417266846,
                47.26897048950195
              ],
              [
                6.826910972595215,
                47.20316696166992
              ],
              [
                6.830254077911377,
                47.07159423828125
              ],
              [
                6.665778160095215,
                47.07159423828125
              ],
              [
                6.025728225708008,
                46.480194091796875
              ],
              [
                6.033519744873047,
                46.21768569946289
              ],
              [
                6.273390769958496,
                46.414546966552734
              ],
              [
                6.682901382446289,
                46.414546966552734
              ],
              [
                6.849938869476318,
                46.283294677734375
              ],
              [
                6.939604759216309,
                45.95537567138672
              ],
              [
                6.779487133026123,
                45.82429504394531
              ],
              [
                6.782690525054932,
                45.693260192871094
              ],
              [
                7.113230228424072,
                45.496795654296875
              ],
              [
                7.117553234100342,
                45.300437927246094
              ],
              [
                6.713985443115234,
                45.169586181640625
              ],
              [
                6.637507915496826,
                44.973392486572266
              ],
              [
                6.965181350708008,
                44.842647552490234
              ],
              [
                6.969513416290283,
                44.64661407470703
              ],
              [
                6.888483047485352,
                44.64661407470703
              ],
              [
                6.978019714355469,
                44.25482940673828
              ],
              [
                7.303933143615723,
                44.12431716918945
              ],
              [
                7.625912189483643,
                44.18956756591797
              ],
              [
                7.552080154418945,
                43.79821014404297
              ],
              [
                7.471453189849854,
                43.79821014404297
              ],
              [
                6.67255163192749,
                43.472347259521484
              ],
              [
                6.596527099609375,
                43.276947021484375
              ],
              [
                6.278174877166748,
                43.146724700927734
              ],
              [
                5.796233177185059,
                43.146724700927734
              ],
              [
                5.631923198699951,
                43.276947021484375
              ],
              [
                5.390771865844727,
                43.276947021484375
              ],
              [
                5.386905193328857,
                43.407203674316406
              ],
              [
                5.063065528869629,
                43.472347259521484
              ],
              [
                4.177847862243652,
                43.472347259521484
              ],
              [
                4.173032760620117,
                43.6026611328125
              ],
              [
                3.850892543792725,
                43.6026611328125
              ],
              [
                2.984907388687134,
                43.146724700927734
              ],
              [
                3.009923458099365,
                42.56119155883789
              ],
              [
                3.089980125427246,
                42.56119155883789
              ],
              [
                3.092691898345947,
                42.496177673339844
              ],
              [
                2.458339214324951,
                42.36617660522461
              ],
              [
                1.80907130241394,
                42.56119155883789
              ],
              [
                1.72901451587677,
                42.56119155883789
              ],
              [
                1.725796341896057,
                42.62621307373047
              ],
              [
                1.645710229873657,
                42.62621307373047
              ],
              [
                1.565624117851257,
                42.62621307373047
              ],
              [
                1.485537886619568,
                42.62621307373047
              ],
              [
                1.074691534042358,
                42.82133865356445
              ],
              [
                0.040142297744751,
                42.691246032714844
              ],
              [
                -0.208102732896805,
                42.82133865356445
              ],
              [
                -0.528801321983337,
                42.82133865356445
              ],
              [
                -1.026964664459229,
                43.08163070678711
              ],
              [
                -1.428432941436768,
                43.08163070678711
              ],
              [
                -1.441840410232544,
                43.276947021484375
              ],
              [
                -1.687574744224548,
                43.342071533203125
              ],
              [
                -1.692170143127441,
                43.407203674316406
              ],
              [
                -1.459883332252502,
                43.53750228881836
              ],
              [
                -1.402047991752625,
                43.86341094970703
              ],
              [
                -1.321390628814697,
                43.86341094970703
              ],
              [
                -1.348801136016846,
                44.25482940673828
              ],
              [
                -1.267958283424377,
                44.25482940673828
              ],
              [
                -1.286344885826111,
                44.5159797668457
              ],
              [
                -1.205376982688904,
                44.5159797668457
              ],
              [
                -1.251859068870544,
                45.169586181640625
              ],
              [
                -1.170574903488159,
                45.169586181640625
              ],
              [
                -1.189373373985291,
                45.431331634521484
              ],
              [
                -1.031213998794556,
                45.496795654296875
              ],
              [
                -1.045281529426575,
                45.693260192871094
              ],
              [
                -1.213142395019531,
                45.75876998901367
              ],
              [
                -1.141096234321594,
                45.889827728271484
              ],
              [
                -1.222735166549683,
                45.889827728271484
              ],
              [
                -1.251809358596802,
                46.283294677734375
              ],
              [
                -1.666043281555176,
                46.348915100097656
              ],
              [
                -2.014399528503418,
                46.61152267456055
              ],
              [
                -2.024919986724854,
                46.74290466308594
              ],
              [
                -2.194406032562256,
                46.808616638183594
              ],
              [
                -2.139080047607422,
                47.13737487792969
              ],
              [
                -2.232228517532349,
                47.26897048950195
              ],
              [
                -2.561590671539307,
                47.26897048950195
              ],
              [
                -2.578423976898193,
                47.46647262573242
              ],
              [
                -2.825755596160889,
                47.46647262573242
              ],
              [
                -2.837259292602539,
                47.598209381103516
              ],
              [
                -3.155531167984009,
                47.46647262573242
              ],
              [
                -3.344320774078369,
                47.730003356933594
              ],
              [
                -3.757235288619995,
                47.730003356933594
              ],
              [
                -3.934937715530396,
                47.86185836791992
              ],
              [
                -4.424368858337402,
                47.79592514038086
              ],
              [
                -4.692053318023682,
                47.993770599365234
              ],
              [
                -4.705362796783447,
                48.1257438659668
              ],
              [
                -4.546383857727051,
                48.191749572753906
              ],
              [
                -4.642560005187988,
                48.323814392089844
              ],
              [
                -4.891265392303467,
                48.323814392089844
              ],
              [
                -4.911745548248291,
                48.52202224731445
              ],
              [
                -4.599917888641357,
                48.72037124633789
              ],
              [
                -3.85184383392334,
                48.72037124633789
              ],
              [
                -3.455082654953003,
                48.91886520385742
              ],
              [
                -3.122164011001587,
                48.91886520385742
              ],
              [
                -2.759404182434082,
                48.5881233215332
              ],
              [
                -2.521934509277344,
                48.72037124633789
              ],
              [
                -1.602181315422058,
                48.654239654541016
              ],
              [
                -1.718345284461975,
                49.051273345947266
              ],
              [
                -1.635041356086731,
                49.051273345947266
              ],
              [
                -1.651668906211853,
                49.2500114440918
              ],
              [
                -1.913302421569824,
                49.38258361816406
              ],
              [
                -2.031550645828247,
                49.78071212768555
              ],
              [
                -1.361783027648926,
                49.78071212768555
              ],
              [
                -1.250783205032349,
                49.44889450073242
              ],
              [
                0.007001183927059,
                49.38258361816406
              ],
              [
                -0.012448177672923,
                49.64793395996094
              ],
              [
                0.224112883210182,
                49.84712600708008
              ],
              [
                1.052847385406494,
                49.98000717163086
              ],
              [
                1.454967975616455,
                50.2459831237793
              ],
              [
                1.424705147743225,
                50.71213912963867
              ],
              [
                1.656218767166138,
                51.04566955566406
              ],
              [
                2.408700704574585,
                51.17921447753906
              ],
              [
                2.493265151977539,
                51.17921447753906
              ],
              [
                2.600777626037598,
                50.77880859375
              ],
              [
                3.106679201126099,
                50.77880859375
              ],
              [
                3.548239946365356,
                50.37908172607422
              ],
              [
                3.464165449142456,
                50.37908172607422
              ],
              [
                2.890094518661499,
                50.11296081542969
              ],
              [
                2.893687963485718,
                50.04647445678711
              ],
              [
                2.809811353683472,
                50.04647445678711
              ],
              [
                2.740544080734253,
                49.78071212768555
              ],
              [
                2.08257269859314,
                49.58156967163086
              ],
              [
                1.613808155059814,
                49.051273345947266
              ]
            ]
          ],
          [
            [
              [
                -56.2186279296875,
                47.005828857421875
              ],
              [
                -56.30083465576172,
                47.005828857421875
              ],
              [
                -56.27314376831055,
                46.94007873535156
              ],
              [
                -56.43748474121094,
                46.94007873535156
              ],
              [
                -56.493072509765625,
                47.07159423828125
              ],
              [
                -56.2741584777832,
                47.13737487792969
              ],
              [
                -56.2186279296875,
                47.005828857421875
              ]
            ]
          ],
          [
            [
              [
                2.541092157363892,
                48.852684020996094
              ],
              [
                2.544722557067871,
                48.786521911621094
              ],
              [
                2.291513919830322,
                48.852684020996094
              ],
              [
                2.284006118774414,
                48.98506164550781
              ],
              [
                2.450539350509644,
                48.98506164550781
              ],
              [
                2.541092157363892,
                48.852684020996094
              ]
            ]
          ],
          [
            [
              [
                167.6221923828125,
                -21.379228591918945
              ],
              [
                167.6964569091797,
                -21.379228591918945
              ],
              [
                167.77072143554688,
                -21.379228591918945
              ],
              [
                168.01112365722656,
                -21.443513870239258
              ],
              [
                168.0076446533203,
                -21.700658798217773
              ],
              [
                167.6926727294922,
                -21.63637351989746
              ],
              [
                167.6221923828125,
                -21.379228591918945
              ]
            ]
          ],
          [
            [
              [
                166.8672332763672,
                -22.40781021118164
              ],
              [
                166.0869903564453,
                -22.279237747192383
              ],
              [
                165.84886169433594,
                -21.957805633544922
              ],
              [
                165.00042724609375,
                -21.572086334228516
              ],
              [
                164.0933074951172,
                -20.672080993652344
              ],
              [
                163.88504028320312,
                -20.15778923034668
              ],
              [
                164.4373779296875,
                -20.28636360168457
              ],
              [
                164.74398803710938,
                -20.6077938079834
              ],
              [
                165.1657257080078,
                -20.8006534576416
              ],
              [
                165.41668701171875,
                -21.186368942260742
              ],
              [
                165.7828369140625,
                -21.443513870239258
              ],
              [
                165.85711669921875,
                -21.443513870239258
              ],
              [
                166.39044189453125,
                -21.76494598388672
              ],
              [
                166.51795959472656,
                -21.957805633544922
              ],
              [
                166.85113525390625,
                -22.08637809753418
              ],
              [
                166.8672332763672,
                -22.40781021118164
              ]
            ]
          ],
          [
            [
              [
                55.0963249206543,
                -21.250656127929688
              ],
              [
                55.07707595825195,
                -20.993511199951172
              ],
              [
                55.21589660644531,
                -20.864938735961914
              ],
              [
                55.58690643310547,
                -20.864938735961914
              ],
              [
                55.59175109863281,
                -20.92922592163086
              ],
              [
                55.769493103027344,
                -21.31494140625
              ],
              [
                55.63078308105469,
                -21.443513870239258
              ],
              [
                55.40795135498047,
                -21.443513870239258
              ],
              [
                55.0963249206543,
                -21.250656127929688
              ]
            ]
          ],
          [
            [
              [
                167.2603759765625,
                -20.864938735961914
              ],
              [
                167.32962036132812,
                -21.12208366394043
              ],
              [
                167.12428283691406,
                -21.186368942260742
              ],
              [
                167.05003356933594,
                -21.186368942260742
              ],
              [
                166.90660095214844,
                -20.92922592163086
              ],
              [
                166.9120330810547,
                -20.672080993652344
              ],
              [
                167.0603790283203,
                -20.672080993652344
              ],
              [
                167.2603759765625,
                -20.864938735961914
              ]
            ]
          ],
          [
            [
              [
                45.086097717285156,
                -13.021865844726562
              ],
              [
                45.01277160644531,
                -13.021865844726562
              ],
              [
                44.9394416809082,
                -13.021865844726562
              ],
              [
                44.92706298828125,
                -12.700428009033203
              ],
              [
                45.1494255065918,
                -12.764715194702148
              ],
              [
                45.086097717285156,
                -13.021865844726562
              ]
            ]
          ],
          [
            [
              [
                43.7426643371582,
                -12.378990173339844
              ],
              [
                43.74495315551758,
                -12.443277359008789
              ],
              [
                43.5228385925293,
                -12.378990173339844
              ],
              [
                43.518333435058594,
                -12.250414848327637
              ],
              [
                43.738128662109375,
                -12.250414848327637
              ],
              [
                43.7426643371582,
                -12.378990173339844
              ]
            ]
          ],
          [
            [
              [
                44.40447235107422,
                -12.443277359008789
              ],
              [
                44.33119201660156,
                -12.443277359008789
              ],
              [
                44.175437927246094,
                -12.186127662658691
              ],
              [
                44.46847915649414,
                -12.186127662658691
              ],
              [
                44.477752685546875,
                -12.443277359008789
              ],
              [
                44.40447235107422,
                -12.443277359008789
              ]
            ]
          ],
          [
            [
              [
                103.81444549560547,
                10.250240325927734
              ],
              [
                103.90501403808594,
                10.443102836608887
              ],
              [
                103.9781494140625,
                10.443102836608887
              ],
              [
                104.12442779541016,
                10.443102836608887
              ],
              [
                104.0897445678711,
                10.057377815246582
              ],
              [
                103.94351959228516,
                10.057377815246582
              ],
              [
                103.81444549560547,
                10.250240325927734
              ]
            ]
          ],
          [
            [
              [
                79.88430786132812,
                11.021690368652344
              ],
              [
                79.87494659423828,
                10.893115997314453
              ],
              [
                79.72860717773438,
                10.893115997314453
              ],
              [
                79.8111343383789,
                11.021690368652344
              ],
              [
                79.88430786132812,
                11.021690368652344
              ]
            ]
          ],
          [
            [
              [
                75.5254135131836,
                11.47170352935791
              ],
              [
                75.530029296875,
                11.535990715026855
              ],
              [
                75.53466796875,
                11.6002779006958
              ],
              [
                75.60787963867188,
                11.6002779006958
              ],
              [
                75.68109893798828,
                11.6002779006958
              ],
              [
                75.67645263671875,
                11.535990715026855
              ],
              [
                75.60324096679688,
                11.535990715026855
              ],
              [
                75.59862518310547,
                11.47170352935791
              ],
              [
                75.5254135131836,
                11.47170352935791
              ]
            ]
          ],
          [
            [
              [
                107.54692840576172,
                12.436016082763672
              ],
              [
                107.62020874023438,
                12.436016082763672
              ],
              [
                107.61304473876953,
                12.37172794342041
              ],
              [
                107.5397720336914,
                12.37172794342041
              ],
              [
                107.31050872802734,
                11.6002779006958
              ],
              [
                107.6783218383789,
                10.893115997314453
              ],
              [
                107.366943359375,
                10.7002534866333
              ],
              [
                107.34245300292969,
                10.443102836608887
              ],
              [
                107.33641815185547,
                10.378815650939941
              ],
              [
                107.04991149902344,
                10.443102836608887
              ],
              [
                107.07432556152344,
                10.7002534866333
              ],
              [
                107.00117492675781,
                10.7002534866333
              ],
              [
                106.98281860351562,
                10.507390975952148
              ],
              [
                106.75736236572266,
                10.443102836608887
              ],
              [
                106.81851196289062,
                10.314528465270996
              ],
              [
                106.66631317138672,
                10.250240325927734
              ],
              [
                106.80664825439453,
                10.185953140258789
              ],
              [
                106.79491424560547,
                10.057377815246582
              ],
              [
                106.64287567138672,
                9.993090629577637
              ],
              [
                106.69871520996094,
                9.800228118896484
              ],
              [
                106.55252075195312,
                9.800228118896484
              ],
              [
                106.60304260253906,
                9.543078422546387
              ],
              [
                106.2320785522461,
                9.478790283203125
              ],
              [
                106.14253997802734,
                9.285927772521973
              ],
              [
                105.62030029296875,
                9.157352447509766
              ],
              [
                105.13510131835938,
                8.578764915466309
              ],
              [
                104.7649154663086,
                8.514476776123047
              ],
              [
                104.7020034790039,
                8.643052101135254
              ],
              [
                104.8582992553711,
                8.771627426147461
              ],
              [
                104.71222686767578,
                8.771627426147461
              ],
              [
                104.7926025390625,
                9.735940933227539
              ],
              [
                105.03448486328125,
                9.993090629577637
              ],
              [
                104.53990173339844,
                10.185953140258789
              ],
              [
                104.4169692993164,
                10.443102836608887
              ],
              [
                104.12442779541016,
                10.443102836608887
              ],
              [
                103.91679382324219,
                10.571678161621094
              ],
              [
                103.54518127441406,
                10.507390975952148
              ],
              [
                103.48978424072266,
                10.7002534866333
              ],
              [
                103.64208221435547,
                10.764540672302246
              ],
              [
                103.66635131835938,
                11.021690368652344
              ],
              [
                103.59317016601562,
                11.021690368652344
              ],
              [
                103.59931945800781,
                11.085978507995605
              ],
              [
                103.61795806884766,
                11.278841018676758
              ],
              [
                103.7769546508789,
                11.407415390014648
              ],
              [
                103.85558319091797,
                12.178865432739258
              ],
              [
                104.10974884033203,
                12.500303268432617
              ],
              [
                104.33551025390625,
                13.207467079162598
              ],
              [
                104.49713897705078,
                13.336042404174805
              ],
              [
                104.7905502319336,
                13.336042404174805
              ],
              [
                104.84146881103516,
                13.143178939819336
              ],
              [
                105.14227294921875,
                13.207467079162598
              ],
              [
                105.15731811523438,
                13.336042404174805
              ],
              [
                105.46598052978516,
                13.464617729187012
              ],
              [
                105.5048599243164,
                13.786055564880371
              ],
              [
                105.80635833740234,
                13.850343704223633
              ],
              [
                105.895751953125,
                13.97891902923584
              ],
              [
                106.11598205566406,
                13.97891902923584
              ],
              [
                106.09171295166016,
                14.364645004272461
              ],
              [
                106.48421478271484,
                14.55750846862793
              ],
              [
                106.63114166259766,
                14.55750846862793
              ],
              [
                106.89125061035156,
                14.300357818603516
              ],
              [
                107.5127182006836,
                14.55750846862793
              ],
              [
                107.38037109375,
                14.107494354248047
              ],
              [
                107.61723327636719,
                13.657480239868164
              ],
              [
                107.60929870605469,
                13.593193054199219
              ],
              [
                107.66691589355469,
                13.464617729187012
              ],
              [
                107.5248031616211,
                12.886029243469238
              ],
              [
                107.64191436767578,
                12.628878593444824
              ],
              [
                107.54692840576172,
                12.436016082763672
              ]
            ]
          ],
          [
            [
              [
                79.87935638427734,
                11.92171573638916
              ],
              [
                79.86930084228516,
                11.793140411376953
              ],
              [
                79.72283935546875,
                11.793140411376953
              ],
              [
                79.80611419677734,
                11.92171573638916
              ],
              [
                79.87935638427734,
                11.92171573638916
              ]
            ]
          ],
          [
            [
              [
                82.42052459716797,
                16.87187385559082
              ],
              [
                82.40552520751953,
                16.743297576904297
              ],
              [
                82.25813293457031,
                16.743297576904297
              ],
              [
                82.34681701660156,
                16.87187385559082
              ],
              [
                82.42052459716797,
                16.87187385559082
              ]
            ]
          ],
          [
            [
              [
                88.49099731445312,
                22.59341049194336
              ],
              [
                88.34213256835938,
                22.59341049194336
              ],
              [
                88.4442138671875,
                22.786272048950195
              ],
              [
                88.51866912841797,
                22.786272048950195
              ],
              [
                88.49099731445312,
                22.59341049194336
              ]
            ]
          ],
          [
            [
              [
                117.42859649658203,
                39.51427459716797
              ],
              [
                117.16919708251953,
                39.320335388183594
              ],
              [
                117.1922836303711,
                39.51427459716797
              ],
              [
                117.2264633178711,
                39.57893371582031
              ],
              [
                117.42859649658203,
                39.51427459716797
              ]
            ]
          ]
        ]
      }
    }
  ]
}