{
  "type": "FeatureCollection",
  "name": "territory-838",
  "features": [
    {
      "type": "Feature",
      "properties": {
        "Name": "Republic of Baja California",
        "FromYear": 1853,
        "ToYear": 1855,
        "Area": 160516.2078037415,
        "Type": "POLITY",
        "Wikipedia": "Republic of Baja California",
        "Wikidata": "Q7314427",
        "SeshatID": "",
        "Components": "",
        "MemberOf": ""
      },
      "geometry": {
        "type": "MultiPolygon",
        "coordinates": [
          [
            [
              [
                -114.53189086914062,
                30.564971923828125
              ],
              [
                -114.60783386230469,
                30.564971923828125
              ],
              [
                -114.5025863647461,
                30.307893753051758
              ],
              [
                -114.5784683227539,
                30.307893753051758
              ],
              [
                -114.4491958618164,
                29.986536026000977
              ],
              [
                -113.84330749511719,
                29.600887298583984
              ],
              [
                -113.59339141845703,
                29.34377670288086
              ],
              [
                -113.47262573242188,
                29.022375106811523
              ],
              [
                -113.22209930419922,
                28.958093643188477
              ],
              [
                -113.0060043334961,
                28.572391510009766
              ],
              [
                -112.83202362060547,
                28.508106231689453
              ],
              [
                -112.56362915039062,
                27.736658096313477
              ],
              [
                -112.39134979248047,
                27.6723690032959
              ],
              [
                -111.99602508544922,
                27.158044815063477
              ],
              [
                -111.84565734863281,
                27.158044815063477
              ],
              [
                -111.83857727050781,
                26.900876998901367
              ],
              [
                -111.6131820678711,
                26.900876998901367
              ],
              [
                -111.49761199951172,
                26.772293090820312
              ],
              [
                -111.20735168457031,
                26.06507110595703
              ],
              [
                -111.00144958496094,
                26.129364013671875
              ],
              [
                -110.94465637207031,
                25.936485290527344
              ],
              [
                -111.15074920654297,
                25.8721923828125
              ],
              [
                -111.07666015625,
                25.615020751953125
              ],
              [
                -110.90860748291016,
                25.55072784423828
              ],
              [
                -110.87239074707031,
                25.422143936157227
              ],
              [
                -110.94725799560547,
                25.422143936157227
              ],
              [
                -110.76608276367188,
                25.03639030456543
              ],
              [
                -110.6912841796875,
                25.03639030456543
              ],
              [
                -110.72631072998047,
                25.164974212646484
              ],
              [
                -110.57666778564453,
                25.164974212646484
              ],
              [
                -110.43231964111328,
                24.907808303833008
              ],
              [
                -110.56470489501953,
                24.843517303466797
              ],
              [
                -110.67391967773438,
                24.97209930419922
              ],
              [
                -110.58006286621094,
                24.329193115234375
              ],
              [
                -110.2649917602539,
                24.264904022216797
              ],
              [
                -110.29774475097656,
                24.393482208251953
              ],
              [
                -110.14836120605469,
                24.393482208251953
              ],
              [
                -109.93395233154297,
                24.136323928833008
              ],
              [
                -109.6939697265625,
                24.07203483581543
              ],
              [
                -109.59952545166016,
                23.68630027770996
              ],
              [
                -109.32964324951172,
                23.493436813354492
              ],
              [
                -109.26912689208984,
                23.236284255981445
              ],
              [
                -109.6418228149414,
                22.914846420288086
              ],
              [
                -110.02900695800781,
                22.97913360595703
              ],
              [
                -110.11918640136719,
                23.36486053466797
              ],
              [
                -110.659423828125,
                23.75058937072754
              ],
              [
                -110.6910171508789,
                23.879167556762695
              ],
              [
                -111.58423614501953,
                24.457773208618164
              ],
              [
                -111.8663330078125,
                24.393482208251953
              ],
              [
                -111.99148559570312,
                24.586353302001953
              ],
              [
                -111.85901641845703,
                24.650644302368164
              ],
              [
                -112.15795135498047,
                24.650644302368164
              ],
              [
                -112.26702880859375,
                24.779226303100586
              ],
              [
                -112.24446105957031,
                24.97209930419922
              ],
              [
                -112.09487915039062,
                24.97209930419922
              ],
              [
                -112.1657485961914,
                25.229267120361328
              ],
              [
                -112.07020568847656,
                25.422143936157227
              ],
              [
                -112.12521362304688,
                25.615020751953125
              ],
              [
                -112.0503158569336,
                25.615020751953125
              ],
              [
                -112.27625274658203,
                26.129364013671875
              ],
              [
                -112.70964813232422,
                26.32224464416504
              ],
              [
                -113.12965393066406,
                26.70800018310547
              ],
              [
                -113.5802230834961,
                26.70800018310547
              ],
              [
                -115.04851531982422,
                27.736658096313477
              ],
              [
                -115.09310150146484,
                27.865236282348633
              ],
              [
                -114.26451110839844,
                27.865236282348633
              ],
              [
                -114.06961822509766,
                27.736658096313477
              ],
              [
                -114.2035903930664,
                28.12238883972168
              ],
              [
                -114.0228500366211,
                28.25096321105957
              ],
              [
                -114.0394287109375,
                28.508106231689453
              ],
              [
                -114.65470886230469,
                29.150936126708984
              ],
              [
                -115.5089340209961,
                29.600887298583984
              ],
              [
                -115.7621078491211,
                29.857990264892578
              ],
              [
                -116.0829086303711,
                30.822044372558594
              ],
              [
                -116.26223754882812,
                30.886310577392578
              ],
              [
                -116.35221862792969,
                31.271915435791016
              ],
              [
                -116.56069946289062,
                31.40045166015625
              ],
              [
                -116.71347045898438,
                31.91460609436035
              ],
              [
                -117.10181427001953,
                32.428794860839844
              ],
              [
                -117.1317367553711,
                32.493072509765625
              ],
              [
                -115.033203125,
                32.75019073486328
              ],
              [
                -114.95668029785156,
                32.75019073486328
              ],
              [
                -114.88015747070312,
                32.75019073486328
              ],
              [
                -114.80362701416016,
                32.75019073486328
              ],
              [
                -114.77388000488281,
                32.685909271240234
              ],
              [
                -114.71468353271484,
                32.557350158691406
              ],
              [
                -114.88518524169922,
                32.428794860839844
              ],
              [
                -114.86349487304688,
                32.043148040771484
              ],
              [
                -114.98737335205078,
                31.978878021240234
              ],
              [
                -114.72077941894531,
                31.7217960357666
              ],
              [
                -114.69254302978516,
                31.65752601623535
              ],
              [
                -114.76876831054688,
                31.65752601623535
              ],
              [
                -114.68460845947266,
                31.464719772338867
              ],
              [
                -114.80907440185547,
                31.40045166015625
              ],
              [
                -114.80213928222656,
                31.20764923095703
              ],
              [
                -114.77465057373047,
                31.143381118774414
              ],
              [
                -114.53189086914062,
                30.564971923828125
              ]
            ]
          ],
          [
            [
              [
                -115.27562713623047,
                28.379535675048828
              ],
              [
                -115.124755859375,
                28.379535675048828
              ],
              [
                -115.07855224609375,
                28.25096321105957
              ],
              [
                -115.03276824951172,
                28.12238883972168
              ],
              [
                -115.1607666015625,
                28.058101654052734
              ],
              [
                -115.23612976074219,
                28.058101654052734
              ],
              [
                -115.27562713623047,
                28.379535675048828
              ]
            ]
          ],
          [
            [
              [
                -113.2697982788086,
                29.08665657043457
              ],
              [
                -113.61618041992188,
                29.600887298583984
              ],
              [
                -113.38904571533203,
                29.600887298583984
              ],
              [
                -113.04302215576172,
                29.08665657043457
              ],
              [
                -113.0191650390625,
                29.022375106811523
              ],
              [
                -113.2697982788086,
                29.08665657043457
              ]
            ]
          ]
        ]
      }
    }
  ]
}