{
  "type": "FeatureCollection",
  "name": "territory-839",
  "features": [
    {
      "type": "Feature",
      "properties": {
        "Name": "Taiping Heavenly Kingdom",
        "FromYear": 1861,
        "ToYear": 1861,
        "Area": 347846.402280718,
        "Type": "POLITY",
        "Wikipedia": "Taiping Heavenly Kingdom",
        "Wikidata": "Q3486676",
        "SeshatID": "",
        "Components": "",
        "MemberOf": ""
      },
      "geometry": {
        "type": "MultiPolygon",
        "coordinates": [
          [
            [
              [
                122.04503631591797,
                30.179353713989258
              ],
              [
                122.2725830078125,
                30.179353713989258
              ],
              [
                122.27982330322266,
                29.986536026000977
              ],
              [
                121.97661590576172,
                29.986536026000977
              ],
              [
                122.02213287353516,
                30.115081787109375
              ],
              [
                122.04503631591797,
                30.179353713989258
              ]
            ]
          ],
          [
            [
              [
                121.98702239990234,
                31.8503360748291
              ],
              [
                121.83556365966797,
                31.65752601623535
              ],
              [
                121.96309661865234,
                31.593257904052734
              ],
              [
                121.91353607177734,
                31.464719772338867
              ],
              [
                121.58425903320312,
                31.40045166015625
              ],
              [
                121.83988189697266,
                31.271915435791016
              ],
              [
                121.81551361083984,
                31.20764923095703
              ],
              [
                121.43872833251953,
                31.014846801757812
              ],
              [
                121.51921844482422,
                30.822044372558594
              ],
              [
                121.49552917480469,
                30.757776260375977
              ],
              [
                121.04530334472656,
                30.564971923828125
              ],
              [
                120.67976379394531,
                30.179353713989258
              ],
              [
                120.80880737304688,
                30.115081787109375
              ],
              [
                121.10469055175781,
                30.307893753051758
              ],
              [
                121.48409271240234,
                30.307893753051758
              ],
              [
                121.6202392578125,
                30.050809860229492
              ],
              [
                122.02978515625,
                29.922264099121094
              ],
              [
                121.864501953125,
                29.665164947509766
              ],
              [
                122.01595306396484,
                29.665164947509766
              ],
              [
                121.92787170410156,
                29.40805435180664
              ],
              [
                122.00353240966797,
                29.40805435180664
              ],
              [
                121.93843078613281,
                29.21521759033203
              ],
              [
                121.71156311035156,
                29.21521759033203
              ],
              [
                121.79838562011719,
                29.472333908081055
              ],
              [
                121.59324645996094,
                29.536611557006836
              ],
              [
                121.53888702392578,
                29.150936126708984
              ],
              [
                121.74431610107422,
                29.08665657043457
              ],
              [
                121.7143325805664,
                28.765243530273438
              ],
              [
                121.52177429199219,
                28.636676788330078
              ],
              [
                121.65211486816406,
                28.572391510009766
              ],
              [
                121.64590454101562,
                28.315250396728516
              ],
              [
                121.37944793701172,
                28.186676025390625
              ],
              [
                121.15326690673828,
                28.186676025390625
              ],
              [
                121.1933822631836,
                28.315250396728516
              ],
              [
                121.11795806884766,
                28.315250396728516
              ],
              [
                121.03816223144531,
                28.058101654052734
              ],
              [
                120.86773681640625,
                27.993812561035156
              ],
              [
                120.71461486816406,
                27.736658096313477
              ],
              [
                120.69471740722656,
                27.41520881652832
              ],
              [
                120.46985626220703,
                27.158044815063477
              ],
              [
                120.39466857910156,
                27.158044815063477
              ],
              [
                120.3564453125,
                27.2866268157959
              ],
              [
                119.81155395507812,
                27.222335815429688
              ],
              [
                118.56975555419922,
                27.35091781616211
              ],
              [
                118.21125793457031,
                27.92952537536621
              ],
              [
                118.33112335205078,
                28.572391510009766
              ],
              [
                118.16490936279297,
                28.765243530273438
              ],
              [
                117.46520233154297,
                28.700960159301758
              ],
              [
                116.45977783203125,
                28.12238883972168
              ],
              [
                115.46135711669922,
                28.315250396728516
              ],
              [
                115.34883880615234,
                28.44382095336914
              ],
              [
                115.12249755859375,
                28.44382095336914
              ],
              [
                114.4644546508789,
                28.765243530273438
              ],
              [
                114.52339172363281,
                28.958093643188477
              ],
              [
                114.90569305419922,
                29.21521759033203
              ],
              [
                114.7601318359375,
                29.472333908081055
              ],
              [
                114.82205200195312,
                29.665164947509766
              ],
              [
                114.56076049804688,
                29.79371452331543
              ],
              [
                114.60272216796875,
                29.922264099121094
              ],
              [
                114.19014739990234,
                30.050809860229492
              ],
              [
                114.29705810546875,
                30.372163772583008
              ],
              [
                114.18858337402344,
                30.500701904296875
              ],
              [
                113.87470245361328,
                30.243623733520508
              ],
              [
                113.72297668457031,
                30.243623733520508
              ],
              [
                113.75471496582031,
                30.564971923828125
              ],
              [
                113.54862213134766,
                30.629240036010742
              ],
              [
                113.68085479736328,
                31.014846801757812
              ],
              [
                114.19696807861328,
                31.40045166015625
              ],
              [
                116.72001647949219,
                32.043148040771484
              ],
              [
                116.9932632446289,
                32.557350158691406
              ],
              [
                116.91679382324219,
                32.557350158691406
              ],
              [
                117.09335327148438,
                33.00732421875
              ],
              [
                117.01675415039062,
                33.00732421875
              ],
              [
                117.0936050415039,
                33.20018768310547
              ],
              [
                117.01695251464844,
                33.20018768310547
              ],
              [
                117.19721221923828,
                33.45735549926758
              ],
              [
                118.70806121826172,
                33.5859489440918
              ],
              [
                118.96196746826172,
                33.45735549926758
              ],
              [
                119.31471252441406,
                33.00732421875
              ],
              [
                119.23695373535156,
                32.81447219848633
              ],
              [
                119.4913101196289,
                32.493072509765625
              ],
              [
                119.95003509521484,
                32.493072509765625
              ],
              [
                120.20510864257812,
                32.171695709228516
              ],
              [
                120.79051971435547,
                32.30024337768555
              ],
              [
                121.1214828491211,
                32.171695709228516
              ],
              [
                121.07079315185547,
                32.043148040771484
              ],
              [
                121.45243835449219,
                32.043148040771484
              ],
              [
                121.75819396972656,
                31.8503360748291
              ],
              [
                121.93598937988281,
                31.91460609436035
              ],
              [
                121.91075134277344,
                31.8503360748291
              ],
              [
                121.98702239990234,
                31.8503360748291
              ]
            ]
          ]
        ]
      }
    }
  ]
}