{
  "type": "FeatureCollection",
  "name": "territory-841",
  "features": [
    {
      "type": "Feature",
      "properties": {
        "Name": "Majeerteen Sultanate",
        "FromYear": 1856,
        "ToYear": 1879,
        "Area": 91652.76997211995,
        "Type": "POLITY",
        "Wikipedia": "Majeerteen Sultanate",
        "Wikidata": "Q2257830",
        "SeshatID": "",
        "Components": "",
        "MemberOf": ""
      },
      "geometry": {
        "type": "Polygon",
        "coordinates": [
          [
            [
              51.02119445800781,
              10.314528465270996
            ],
            [
              50.94806671142578,
              10.314528465270996
            ],
            [
              50.831058502197266,
              9.285927772521973
            ],
            [
              50.371917724609375,
              8.771627426147461
            ],
            [
              50.203346252441406,
              8.193038940429688
            ],
            [
              49.82863235473633,
              7.935888767242432
            ],
            [
              49.81439971923828,
              7.550163269042969
            ],
            [
              49.65917205810547,
              7.293012619018555
            ],
            [
              49.08928298950195,
              7.678738594055176
            ],
            [
              48.87033462524414,
              7.678738594055176
            ],
            [
              48.42329406738281,
              7.421587944030762
            ],
            [
              47.55438995361328,
              7.614450931549072
            ],
            [
              47.8554573059082,
              7.871601104736328
            ],
            [
              47.78709030151367,
              8.000176429748535
            ],
            [
              48.23688888549805,
              8.321614265441895
            ],
            [
              48.16865921020508,
              8.450189590454102
            ],
            [
              48.69700622558594,
              8.900202751159668
            ],
            [
              48.98918533325195,
              8.900202751159668
            ],
            [
              49.36972427368164,
              9.285927772521973
            ],
            [
              49.36724853515625,
              10.957403182983398
            ],
            [
              49.1650390625,
              11.343128204345703
            ],
            [
              49.686336517333984,
              11.535990715026855
            ],
            [
              50.275062561035156,
              11.6002779006958
            ],
            [
              50.58653259277344,
              11.986002922058105
            ],
            [
              51.242557525634766,
              11.92171573638916
            ],
            [
              51.30320358276367,
              11.664566040039062
            ],
            [
              51.135318756103516,
              11.214552879333496
            ],
            [
              51.176048278808594,
              10.507390975952148
            ],
            [
              51.02119445800781,
              10.314528465270996
            ]
          ]
        ]
      }
    }
  ]
}