{
  "type": "FeatureCollection",
  "name": "territory-844",
  "features": [
    {
      "type": "Feature",
      "properties": {
        "Name": "New Caledonia",
        "FromYear": 1859,
        "ToYear": 1859,
        "Area": 93457.09874434583,
        "Type": "POLITY",
        "Wikipedia": "New Caledonia",
        "Wikidata": "Q33788",
        "SeshatID": "",
        "Components": "",
        "MemberOf": ""
      },
      "geometry": {
        "type": "MultiPolygon",
        "coordinates": [
          [
            [
              [
                55.63078308105469,
                -21.443513870239258
              ],
              [
                55.40795135498047,
                -21.443513870239258
              ],
              [
                55.0963249206543,
                -21.250656127929688
              ],
              [
                55.07707595825195,
                -20.993511199951172
              ],
              [
                55.21589660644531,
                -20.864938735961914
              ],
              [
                55.58690643310547,
                -20.864938735961914
              ],
              [
                55.59175109863281,
                -20.92922592163086
              ],
              [
                55.769493103027344,
                -21.31494140625
              ],
              [
                55.63078308105469,
                -21.443513870239258
              ]
            ]
          ],
          [
            [
              [
                79.72860717773438,
                10.893115997314453
              ],
              [
                79.8111343383789,
                11.021690368652344
              ],
              [
                79.88430786132812,
                11.021690368652344
              ],
              [
                79.87494659423828,
                10.893115997314453
              ],
              [
                79.72860717773438,
                10.893115997314453
              ]
            ]
          ],
          [
            [
              [
                75.60324096679688,
                11.535990715026855
              ],
              [
                75.59862518310547,
                11.47170352935791
              ],
              [
                75.5254135131836,
                11.47170352935791
              ],
              [
                75.530029296875,
                11.535990715026855
              ],
              [
                75.53466796875,
                11.6002779006958
              ],
              [
                75.60787963867188,
                11.6002779006958
              ],
              [
                75.68109893798828,
                11.6002779006958
              ],
              [
                75.67645263671875,
                11.535990715026855
              ],
              [
                75.60324096679688,
                11.535990715026855
              ]
            ]
          ],
          [
            [
              [
                79.80611419677734,
                11.92171573638916
              ],
              [
                79.87935638427734,
                11.92171573638916
              ],
              [
                79.86930084228516,
                11.793140411376953
              ],
              [
                79.72283935546875,
                11.793140411376953
              ],
              [
                79.80611419677734,
                11.92171573638916
              ]
            ]
          ],
          [
            [
              [
                82.34681701660156,
                16.87187385559082
              ],
              [
                82.42052459716797,
                16.87187385559082
              ],
              [
                82.40552520751953,
                16.743297576904297
              ],
              [
                82.25813293457031,
                16.743297576904297
              ],
              [
                82.34681701660156,
                16.87187385559082
              ]
            ]
          ],
          [
            [
              [
                88.41656494140625,
                22.59341049194336
              ],
              [
                88.34213256835938,
                22.59341049194336
              ],
              [
                88.3697509765625,
                22.786272048950195
              ],
              [
                88.51866912841797,
                22.786272048950195
              ],
              [
                88.41656494140625,
                22.59341049194336
              ]
            ]
          ],
          [
            [
              [
                167.6926727294922,
                -21.63637351989746
              ],
              [
                167.6221923828125,
                -21.379228591918945
              ],
              [
                167.6964569091797,
                -21.379228591918945
              ],
              [
                167.77072143554688,
                -21.379228591918945
              ],
              [
                168.01112365722656,
                -21.443513870239258
              ],
              [
                168.0076446533203,
                -21.700658798217773
              ],
              [
                167.6926727294922,
                -21.63637351989746
              ]
            ]
          ],
          [
            [
              [
                166.85113525390625,
                -22.08637809753418
              ],
              [
                166.8672332763672,
                -22.40781021118164
              ],
              [
                166.0869903564453,
                -22.279237747192383
              ],
              [
                165.84886169433594,
                -21.957805633544922
              ],
              [
                165.00042724609375,
                -21.572086334228516
              ],
              [
                164.0933074951172,
                -20.672080993652344
              ],
              [
                163.88504028320312,
                -20.15778923034668
              ],
              [
                164.4373779296875,
                -20.28636360168457
              ],
              [
                164.74398803710938,
                -20.6077938079834
              ],
              [
                165.1657257080078,
                -20.8006534576416
              ],
              [
                165.41668701171875,
                -21.186368942260742
              ],
              [
                165.7828369140625,
                -21.443513870239258
              ],
              [
                165.85711669921875,
                -21.443513870239258
              ],
              [
                166.39044189453125,
                -21.76494598388672
              ],
              [
                166.51795959472656,
                -21.957805633544922
              ],
              [
                166.85113525390625,
                -22.08637809753418
              ]
            ]
          ],
          [
            [
              [
                166.9120330810547,
                -20.672080993652344
              ],
              [
                167.0603790283203,
                -20.672080993652344
              ],
              [
                167.2603759765625,
                -20.864938735961914
              ],
              [
                167.32962036132812,
                -21.12208366394043
              ],
              [
                167.12428283691406,
                -21.186368942260742
              ],
              [
                167.05003356933594,
                -21.186368942260742
              ],
              [
                166.90660095214844,
                -20.92922592163086
              ],
              [
                166.9120330810547,
                -20.672080993652344
              ]
            ]
          ],
          [
            [
              [
                107.00117492675781,
                10.7002534866333
              ],
              [
                106.98281860351562,
                10.507390975952148
              ],
              [
                106.75736236572266,
                10.443102836608887
              ],
              [
                106.81851196289062,
                10.314528465270996
              ],
              [
                106.66631317138672,
                10.250240325927734
              ],
              [
                106.80664825439453,
                10.185953140258789
              ],
              [
                106.79491424560547,
                10.057377815246582
              ],
              [
                106.64287567138672,
                9.993090629577637
              ],
              [
                106.69871520996094,
                9.800228118896484
              ],
              [
                106.55252075195312,
                9.800228118896484
              ],
              [
                106.60304260253906,
                9.543078422546387
              ],
              [
                106.2320785522461,
                9.478790283203125
              ],
              [
                106.14253997802734,
                9.285927772521973
              ],
              [
                105.62030029296875,
                9.157352447509766
              ],
              [
                105.36956787109375,
                8.771627426147461
              ],
              [
                104.9839859008789,
                8.514476776123047
              ],
              [
                104.69692993164062,
                8.578764915466309
              ],
              [
                104.8531723022461,
                8.707340240478516
              ],
              [
                104.71222686767578,
                8.771627426147461
              ],
              [
                104.7926025390625,
                9.735940933227539
              ],
              [
                105.03448486328125,
                9.993090629577637
              ],
              [
                104.53990173339844,
                10.185953140258789
              ],
              [
                104.41110229492188,
                10.378815650939941
              ],
              [
                104.4169692993164,
                10.443102836608887
              ],
              [
                104.94083404541016,
                10.571678161621094
              ],
              [
                105.11748504638672,
                10.893115997314453
              ],
              [
                105.78219604492188,
                10.957403182983398
              ],
              [
                105.91613006591797,
                10.828827857971191
              ],
              [
                106.1356201171875,
                10.828827857971191
              ],
              [
                106.22122192382812,
                10.957403182983398
              ],
              [
                105.88694763183594,
                11.278841018676758
              ],
              [
                105.84618377685547,
                11.6002779006958
              ],
              [
                106.005859375,
                11.728853225708008
              ],
              [
                106.37198638916016,
                11.728853225708008
              ],
              [
                106.54549407958984,
                11.986002922058105
              ],
              [
                106.76522827148438,
                11.986002922058105
              ],
              [
                107.08599853515625,
                12.24315357208252
              ],
              [
                107.5397720336914,
                12.37172794342041
              ],
              [
                107.31050872802734,
                11.6002779006958
              ],
              [
                107.6783218383789,
                10.893115997314453
              ],
              [
                107.36077117919922,
                10.635965347290039
              ],
              [
                107.35462951660156,
                10.571678161621094
              ],
              [
                107.33641815185547,
                10.378815650939941
              ],
              [
                107.11701965332031,
                10.378815650939941
              ],
              [
                107.00117492675781,
                10.7002534866333
              ]
            ]
          ],
          [
            [
              [
                107.62020874023438,
                12.436016082763672
              ],
              [
                107.61304473876953,
                12.37172794342041
              ],
              [
                107.5397720336914,
                12.37172794342041
              ],
              [
                107.54692840576172,
                12.436016082763672
              ],
              [
                107.62020874023438,
                12.436016082763672
              ]
            ]
          ]
        ]
      }
    }
  ]
}