{
  "type": "FeatureCollection",
  "name": "territory-850",
  "features": [
    {
      "type": "Feature",
      "properties": {
        "Name": "Confederate States of America",
        "FromYear": 1861,
        "ToYear": 1861,
        "Area": 1709918.4769557319,
        "Type": "POLITY",
        "Wikipedia": "Confederate States of America",
        "Wikidata": "Q81931",
        "SeshatID": "",
        "Components": "",
        "MemberOf": ""
      },
      "geometry": {
        "type": "MultiPolygon",
        "coordinates": [
          [
            [
              [
                -89.3072738647461,
                29.08665657043457
              ],
              [
                -89.28797912597656,
                29.022375106811523
              ],
              [
                -89.26876831054688,
                28.958093643188477
              ],
              [
                -89.3443374633789,
                28.958093643188477
              ],
              [
                -89.36355590820312,
                29.022375106811523
              ],
              [
                -89.38286590576172,
                29.08665657043457
              ],
              [
                -89.3072738647461,
                29.08665657043457
              ]
            ]
          ],
          [
            [
              [
                -106.1552734375,
                31.65752601623535
              ],
              [
                -106.23149871826172,
                31.65752601623535
              ],
              [
                -106.20525360107422,
                31.593257904052734
              ],
              [
                -106.61589813232422,
                31.8503360748291
              ],
              [
                -106.64258575439453,
                31.91460609436035
              ],
              [
                -106.05886840820312,
                31.978878021240234
              ],
              [
                -106.05548095703125,
                31.78606605529785
              ],
              [
                -106.13174438476562,
                31.78606605529785
              ],
              [
                -106.1053466796875,
                31.7217960357666
              ],
              [
                -106.18159484863281,
                31.7217960357666
              ],
              [
                -106.1552734375,
                31.65752601623535
              ]
            ]
          ],
          [
            [
              [
                -110.91508483886719,
                31.91460609436035
              ],
              [
                -111.06767272949219,
                31.91460609436035
              ],
              [
                -111.25578308105469,
                32.171695709228516
              ],
              [
                -111.0548324584961,
                32.23596954345703
              ],
              [
                -110.97845458984375,
                32.23596954345703
              ],
              [
                -110.79021453857422,
                31.978878021240234
              ],
              [
                -110.91508483886719,
                31.91460609436035
              ]
            ]
          ],
          [
            [
              [
                -106.72827911376953,
                32.30024337768555
              ],
              [
                -106.8810806274414,
                32.30024337768555
              ],
              [
                -107.06755828857422,
                32.557350158691406
              ],
              [
                -106.86583709716797,
                32.62162780761719
              ],
              [
                -106.78934478759766,
                32.62162780761719
              ],
              [
                -106.60277557373047,
                32.36451721191406
              ],
              [
                -106.72827911376953,
                32.30024337768555
              ]
            ]
          ],
          [
            [
              [
                -78.37577056884766,
                39.64360046386719
              ],
              [
                -77.94679260253906,
                39.38497543334961
              ],
              [
                -77.60382843017578,
                39.320335388183594
              ],
              [
                -77.5479736328125,
                39.19107437133789
              ],
              [
                -77.04466247558594,
                38.93262481689453
              ],
              [
                -77.0660171508789,
                38.60969924926758
              ],
              [
                -77.22073364257812,
                38.416015625
              ],
              [
                -76.48848724365234,
                38.157840728759766
              ],
              [
                -76.25395965576172,
                37.96426773071289
              ],
              [
                -76.17671966552734,
                37.7707405090332
              ],
              [
                -76.35987091064453,
                37.641746520996094
              ],
              [
                -76.18045043945312,
                37.38381576538086
              ],
              [
                -76.33642578125,
                37.38381576538086
              ],
              [
                -76.28614807128906,
                37.254878997802734
              ],
              [
                -76.36408996582031,
                37.254878997802734
              ],
              [
                -76.1865463256836,
                36.9970588684082
              ],
              [
                -75.92835998535156,
                36.932613372802734
              ],
              [
                -75.80631256103516,
                36.61045455932617
              ],
              [
                -75.9375228881836,
                36.5460319519043
              ],
              [
                -75.81749725341797,
                36.2239875793457
              ],
              [
                -76.28903198242188,
                36.03080368041992
              ],
              [
                -76.05645751953125,
                36.03080368041992
              ],
              [
                -76.00920867919922,
                35.902034759521484
              ],
              [
                -75.72277069091797,
                35.9664192199707
              ],
              [
                -75.6524658203125,
                35.77327346801758
              ],
              [
                -76.0318832397461,
                35.32271194458008
              ],
              [
                -76.51883697509766,
                35.38706970214844
              ],
              [
                -76.44954681396484,
                35.194007873535156
              ],
              [
                -76.55811309814453,
                35.065311431884766
              ],
              [
                -76.30364990234375,
                35.00096893310547
              ],
              [
                -76.25820922851562,
                34.87228775024414
              ],
              [
                -76.36725616455078,
                34.743614196777344
              ],
              [
                -77.19277954101562,
                34.679283142089844
              ],
              [
                -77.22452545166016,
                34.55062484741211
              ],
              [
                -77.56452178955078,
                34.42197799682617
              ],
              [
                -77.92404174804688,
                33.90746307373047
              ],
              [
                -78.59347534179688,
                33.84315490722656
              ],
              [
                -78.85625457763672,
                33.71455001831055
              ],
              [
                -79.0308837890625,
                33.32876968383789
              ],
              [
                -79.20623016357422,
                33.393062591552734
              ],
              [
                -79.14054107666016,
                33.20018768310547
              ],
              [
                -79.30528259277344,
                33.00732421875
              ],
              [
                -79.53507995605469,
                33.00732421875
              ],
              [
                -79.6784439086914,
                32.75019073486328
              ],
              [
                -79.83149719238281,
                32.75019073486328
              ],
              [
                -79.86512756347656,
                32.62162780761719
              ],
              [
                -80.12832641601562,
                32.493072509765625
              ],
              [
                -80.43414306640625,
                32.493072509765625
              ],
              [
                -80.37033081054688,
                32.30024337768555
              ],
              [
                -80.6759262084961,
                32.30024337768555
              ],
              [
                -80.63360595703125,
                32.171695709228516
              ],
              [
                -80.91046142578125,
                31.8503360748291
              ],
              [
                -81.06301879882812,
                31.8503360748291
              ],
              [
                -81.14739227294922,
                31.40045166015625
              ],
              [
                -81.42681884765625,
                31.079113006591797
              ],
              [
                -81.34451293945312,
                30.564971923828125
              ],
              [
                -81.42045593261719,
                30.564971923828125
              ],
              [
                -81.20995330810547,
                30.115081787109375
              ],
              [
                -81.2857894897461,
                30.115081787109375
              ],
              [
                -81.13652801513672,
                29.600887298583984
              ],
              [
                -80.6197509765625,
                28.829526901245117
              ],
              [
                -80.5508804321289,
                28.572391510009766
              ],
              [
                -80.70183563232422,
                28.572391510009766
              ],
              [
                -80.63406372070312,
                28.315250396728516
              ],
              [
                -80.05867767333984,
                27.222335815429688
              ],
              [
                -79.93730926513672,
                26.70800018310547
              ],
              [
                -80.01240539550781,
                26.70800018310547
              ],
              [
                -79.98892974853516,
                25.936485290527344
              ],
              [
                -80.11087799072266,
                25.807899475097656
              ],
              [
                -80.15161895751953,
                25.29355812072754
              ],
              [
                -80.30130004882812,
                25.29355812072754
              ],
              [
                -80.32319641113281,
                25.03639030456543
              ],
              [
                -80.47279357910156,
                25.03639030456543
              ],
              [
                -80.49916076660156,
                25.164974212646484
              ],
              [
                -81.00960540771484,
                25.100683212280273
              ],
              [
                -81.18592834472656,
                25.229267120361328
              ],
              [
                -81.07682037353516,
                25.422143936157227
              ],
              [
                -81.25399017333984,
                25.55072784423828
              ],
              [
                -81.29570770263672,
                25.743606567382812
              ],
              [
                -81.81658172607422,
                26.06507110595703
              ],
              [
                -81.81476593017578,
                26.386537551879883
              ],
              [
                -81.9797134399414,
                26.450830459594727
              ],
              [
                -82.0705795288086,
                26.836584091186523
              ],
              [
                -82.29593658447266,
                26.836584091186523
              ],
              [
                -82.49684143066406,
                27.35091781616211
              ],
              [
                -82.6795425415039,
                27.4794979095459
              ],
              [
                -82.38495635986328,
                27.800947189331055
              ],
              [
                -82.41815948486328,
                27.92952537536621
              ],
              [
                -82.56884002685547,
                27.92952537536621
              ],
              [
                -82.51907348632812,
                27.736658096313477
              ],
              [
                -82.7449722290039,
                27.736658096313477
              ],
              [
                -82.84542846679688,
                28.12238883972168
              ],
              [
                -82.60623931884766,
                28.636676788330078
              ],
              [
                -82.71278381347656,
                29.022375106811523
              ],
              [
                -83.25760650634766,
                29.34377670288086
              ],
              [
                -83.84465026855469,
                30.050809860229492
              ],
              [
                -84.2237319946289,
                30.050809860229492
              ],
              [
                -84.65744018554688,
                29.729440689086914
              ],
              [
                -85.3198013305664,
                29.665164947509766
              ],
              [
                -85.3974838256836,
                29.922264099121094
              ],
              [
                -85.60826110839844,
                30.115081787109375
              ],
              [
                -86.17919158935547,
                30.243623733520508
              ],
              [
                -86.33628845214844,
                30.500701904296875
              ],
              [
                -86.59909057617188,
                30.372163772583008
              ],
              [
                -87.0749740600586,
                30.436433792114258
              ],
              [
                -87.18579864501953,
                30.307893753051758
              ],
              [
                -87.84819793701172,
                30.243623733520508
              ],
              [
                -87.95161437988281,
                30.564971923828125
              ],
              [
                -88.04110717773438,
                30.372163772583008
              ],
              [
                -89.02775573730469,
                30.372163772583008
              ],
              [
                -89.34473419189453,
                30.179353713989258
              ],
              [
                -89.64813232421875,
                30.179353713989258
              ],
              [
                -89.60676574707031,
                30.050809860229492
              ],
              [
                -89.28299713134766,
                29.986536026000977
              ],
              [
                -89.24226379394531,
                29.857990264892578
              ],
              [
                -89.56041717529297,
                29.665164947509766
              ],
              [
                -89.50047302246094,
                29.472333908081055
              ],
              [
                -88.98748016357422,
                29.279497146606445
              ],
              [
                -88.98567199707031,
                29.022375106811523
              ],
              [
                -89.21240234375,
                29.022375106811523
              ],
              [
                -89.42173767089844,
                29.21521759033203
              ],
              [
                -89.74383544921875,
                29.279497146606445
              ],
              [
                -89.87887573242188,
                29.472333908081055
              ],
              [
                -90.03023529052734,
                29.472333908081055
              ],
              [
                -89.95108032226562,
                29.21521759033203
              ],
              [
                -90.06319427490234,
                29.08665657043457
              ],
              [
                -90.21437072753906,
                29.08665657043457
              ],
              [
                -90.34892272949219,
                29.279497146606445
              ],
              [
                -90.50019073486328,
                29.279497146606445
              ],
              [
                -90.59233093261719,
                29.08665657043457
              ],
              [
                -90.81910705566406,
                29.08665657043457
              ],
              [
                -91.79771423339844,
                29.79371452331543
              ],
              [
                -92.00425720214844,
                29.729440689086914
              ],
              [
                -91.68072509765625,
                29.665164947509766
              ],
              [
                -91.69519805908203,
                29.472333908081055
              ],
              [
                -92.62387084960938,
                29.536611557006836
              ],
              [
                -93.23706817626953,
                29.79371452331543
              ],
              [
                -93.82202911376953,
                29.729440689086914
              ],
              [
                -94.21347045898438,
                29.536611557006836
              ],
              [
                -94.74333190917969,
                29.536611557006836
              ],
              [
                -94.78546142578125,
                29.665164947509766
              ],
              [
                -94.9369125366211,
                29.665164947509766
              ],
              [
                -94.73577880859375,
                29.279497146606445
              ],
              [
                -94.94205474853516,
                29.21521759033203
              ],
              [
                -95.14240264892578,
                28.893810272216797
              ],
              [
                -95.7063217163086,
                28.765243530273438
              ],
              [
                -95.74169921875,
                28.636676788330078
              ],
              [
                -95.94819641113281,
                28.572391510009766
              ],
              [
                -96.49661254882812,
                28.636676788330078
              ],
              [
                -96.34140014648438,
                28.379535675048828
              ],
              [
                -96.71857452392578,
                28.379535675048828
              ],
              [
                -96.65951538085938,
                28.186676025390625
              ],
              [
                -96.9974136352539,
                28.058101654052734
              ],
              [
                -97.52497863769531,
                28.058101654052734
              ],
              [
                -97.63963317871094,
                28.186676025390625
              ],
              [
                -98.09199523925781,
                28.186676025390625
              ],
              [
                -98.45358276367188,
                28.379535675048828
              ],
              [
                -98.67232513427734,
                28.829526901245117
              ],
              [
                -98.9407730102539,
                28.958093643188477
              ],
              [
                -98.85302734375,
                29.150936126708984
              ],
              [
                -99.00424194335938,
                29.150936126708984
              ],
              [
                -99.01448059082031,
                29.40805435180664
              ],
              [
                -99.25325012207031,
                29.665164947509766
              ],
              [
                -99.72978210449219,
                29.729440689086914
              ],
              [
                -100.37281799316406,
                30.050809860229492
              ],
              [
                -101.0898666381836,
                30.564971923828125
              ],
              [
                -101.24175262451172,
                30.564971923828125
              ],
              [
                -102.42151641845703,
                31.271915435791016
              ],
              [
                -102.4966812133789,
                31.464719772338867
              ],
              [
                -102.19181823730469,
                31.8503360748291
              ],
              [
                -101.86170959472656,
                31.978878021240234
              ],
              [
                -101.78658294677734,
                32.171695709228516
              ],
              [
                -101.27967071533203,
                32.428794860839844
              ],
              [
                -101.2557373046875,
                32.557350158691406
              ],
              [
                -101.10279846191406,
                32.557350158691406
              ],
              [
                -101.02904510498047,
                32.75019073486328
              ],
              [
                -100.5230712890625,
                33.00732421875
              ],
              [
                -100.50006866455078,
                33.13589859008789
              ],
              [
                -100.3468017578125,
                33.13589859008789
              ],
              [
                -100.3239974975586,
                33.26447677612305
              ],
              [
                -100.17064666748047,
                33.26447677612305
              ],
              [
                -99.97219848632812,
                33.52165222167969
              ],
              [
                -99.8187026977539,
                33.52165222167969
              ],
              [
                -99.62084197998047,
                33.77885055541992
              ],
              [
                -99.46719360351562,
                33.77885055541992
              ],
              [
                -99.44532775878906,
                33.90746307373047
              ],
              [
                -99.2916030883789,
                33.90746307373047
              ],
              [
                -99.26991271972656,
                34.03607940673828
              ],
              [
                -99.1161117553711,
                34.03607940673828
              ],
              [
                -99.09459686279297,
                34.164703369140625
              ],
              [
                -98.32521057128906,
                34.164703369140625
              ],
              [
                -98.16595458984375,
                33.971771240234375
              ],
              [
                -97.88571166992188,
                34.03607940673828
              ],
              [
                -97.4198989868164,
                33.84315490722656
              ],
              [
                -97.32025909423828,
                33.971771240234375
              ],
              [
                -96.85897827148438,
                33.971771240234375
              ],
              [
                -96.54790496826172,
                33.77885055541992
              ],
              [
                -95.14106750488281,
                33.90746307373047
              ],
              [
                -94.8315658569336,
                33.71455001831055
              ],
              [
                -94.3447036743164,
                33.65024948120117
              ],
              [
                -94.44482421875,
                35.00096893310547
              ],
              [
                -94.36762237548828,
                35.00096893310547
              ],
              [
                -94.47825622558594,
                35.258358001708984
              ],
              [
                -94.4009780883789,
                35.258358001708984
              ],
              [
                -94.48472595214844,
                35.45143127441406
              ],
              [
                -94.40738677978516,
                35.45143127441406
              ],
              [
                -94.81804656982422,
                36.5460319519043
              ],
              [
                -90.67181396484375,
                36.48161697387695
              ],
              [
                -90.55964660644531,
                36.2239875793457
              ],
              [
                -90.7645263671875,
                36.15959167480469
              ],
              [
                -90.63146209716797,
                36.03080368041992
              ],
              [
                -90.24382781982422,
                36.03080368041992
              ],
              [
                -90.0784912109375,
                36.5460319519043
              ],
              [
                -89.04061889648438,
                36.48161697387695
              ],
              [
                -88.96880340576172,
                36.67487716674805
              ],
              [
                -83.86267852783203,
                36.5460319519043
              ],
              [
                -83.63118743896484,
                36.73930740356445
              ],
              [
                -83.39789581298828,
                36.73930740356445
              ],
              [
                -82.8817138671875,
                36.9970588684082
              ],
              [
                -82.8572769165039,
                37.12596130371094
              ],
              [
                -82.70148468017578,
                37.12596130371094
              ],
              [
                -82.67720794677734,
                37.254878997802734
              ],
              [
                -82.29023742675781,
                37.44829177856445
              ],
              [
                -82.75558471679688,
                38.351463317871094
              ],
              [
                -82.67725372314453,
                38.351463317871094
              ],
              [
                -82.70559692382812,
                38.416015625
              ],
              [
                -82.47747039794922,
                38.60969924926758
              ],
              [
                -82.5348129272461,
                38.738853454589844
              ],
              [
                -82.43550109863281,
                38.8680305480957
              ],
              [
                -82.09263610839844,
                38.80344009399414
              ],
              [
                -82.15027618408203,
                38.93262481689453
              ],
              [
                -82.02210235595703,
                38.997230529785156
              ],
              [
                -82.08024597167969,
                39.1264533996582
              ],
              [
                -81.93212127685547,
                39.320335388183594
              ],
              [
                -81.53863525390625,
                39.320335388183594
              ],
              [
                -81.39060974121094,
                39.51427459716797
              ],
              [
                -81.10498046875,
                39.57893371582031
              ],
              [
                -81.0362319946289,
                39.77294921875
              ],
              [
                -80.87848663330078,
                39.77294921875
              ],
              [
                -80.9381332397461,
                39.90232849121094
              ],
              [
                -80.81021881103516,
                39.9670295715332
              ],
              [
                -80.80331420898438,
                40.29063034057617
              ],
              [
                -80.67561340332031,
                40.355369567871094
              ],
              [
                -80.6709976196289,
                40.6791877746582
              ],
              [
                -80.51251983642578,
                40.6791877746582
              ],
              [
                -80.45088195800781,
                40.54964065551758
              ],
              [
                -80.54791259765625,
                40.42012023925781
              ],
              [
                -80.4566879272461,
                40.225894927978516
              ],
              [
                -80.5357437133789,
                40.225894927978516
              ],
              [
                -80.51376342773438,
                39.8376350402832
              ],
              [
                -79.53764343261719,
                39.77294921875
              ],
              [
                -79.50840759277344,
                39.70827102661133
              ],
              [
                -79.60784149169922,
                39.57893371582031
              ],
              [
                -79.47124481201172,
                39.449623107910156
              ],
              [
                -79.39249420166016,
                39.449623107910156
              ],
              [
                -78.74108123779297,
                39.57893371582031
              ],
              [
                -78.7698745727539,
                39.64360046386719
              ],
              [
                -78.37577056884766,
                39.64360046386719
              ]
            ]
          ],
          [
            [
              [
                -75.64539337158203,
                35.32271194458008
              ],
              [
                -75.43637084960938,
                35.38706970214844
              ],
              [
                -75.39068603515625,
                35.258358001708984
              ],
              [
                -75.46796417236328,
                35.258358001708984
              ],
              [
                -75.44519805908203,
                35.194007873535156
              ],
              [
                -75.59971618652344,
                35.194007873535156
              ],
              [
                -75.64539337158203,
                35.32271194458008
              ]
            ]
          ],
          [
            [
              [
                -75.86300659179688,
                37.96426773071289
              ],
              [
                -75.41952514648438,
                38.028785705566406
              ],
              [
                -75.3427963256836,
                37.835243225097656
              ],
              [
                -75.79052734375,
                37.38381576538086
              ],
              [
                -75.74057006835938,
                37.254878997802734
              ],
              [
                -75.84671783447266,
                37.12596130371094
              ],
              [
                -76.00250244140625,
                37.12596130371094
              ],
              [
                -76.07490539550781,
                37.51277160644531
              ],
              [
                -75.89141845703125,
                37.641746520996094
              ],
              [
                -75.9168472290039,
                37.706241607666016
              ],
              [
                -75.81166076660156,
                37.835243225097656
              ],
              [
                -75.86300659179688,
                37.96426773071289
              ]
            ]
          ]
        ]
      }
    }
  ]
}