{
  "type": "FeatureCollection",
  "name": "territory-854",
  "features": [
    {
      "type": "Feature",
      "properties": {
        "Name": "Khedivate of Egypt",
        "FromYear": 1877,
        "ToYear": 1879,
        "Area": 3002539.4388854024,
        "Type": "POLITY",
        "Wikipedia": "Khedivate of Egypt",
        "Wikidata": "Q127861",
        "SeshatID": "eg_egypt_modern_1",
        "Components": "",
        "MemberOf": ""
      },
      "geometry": {
        "type": "MultiPolygon",
        "coordinates": [
          [
            [
              [
                33.036468505859375,
                7.807313442230225
              ],
              [
                33.03813552856445,
                7.871601104736328
              ],
              [
                33.11112976074219,
                7.871601104736328
              ],
              [
                33.109458923339844,
                7.807313442230225
              ],
              [
                33.036468505859375,
                7.807313442230225
              ]
            ]
          ],
          [
            [
              [
                45.09775924682617,
                10.314528465270996
              ],
              [
                44.868465423583984,
                10.057377815246582
              ],
              [
                44.72223663330078,
                10.057377815246582
              ],
              [
                44.49321365356445,
                9.800228118896484
              ],
              [
                44.049888610839844,
                9.671652793884277
              ],
              [
                43.44676971435547,
                9.157352447509766
              ],
              [
                42.40860366821289,
                8.707340240478516
              ],
              [
                42.40428924560547,
                8.578764915466309
              ],
              [
                42.11217498779297,
                8.578764915466309
              ],
              [
                41.95976638793945,
                8.385902404785156
              ],
              [
                41.2337532043457,
                8.514476776123047
              ],
              [
                41.23794174194336,
                8.643052101135254
              ],
              [
                40.81025314331055,
                8.964489936828613
              ],
              [
                40.535099029541016,
                9.478790283203125
              ],
              [
                40.6103401184082,
                9.543078422546387
              ],
              [
                40.55927658081055,
                10.185953140258789
              ],
              [
                40.71229553222656,
                10.378815650939941
              ],
              [
                41.007118225097656,
                10.443102836608887
              ],
              [
                41.011722564697266,
                10.571678161621094
              ],
              [
                41.22883987426758,
                10.507390975952148
              ],
              [
                41.528438568115234,
                10.7002534866333
              ],
              [
                42.63550567626953,
                10.957403182983398
              ],
              [
                42.5672607421875,
                11.085978507995605
              ],
              [
                42.933162689208984,
                11.085978507995605
              ],
              [
                43.16281509399414,
                11.343128204345703
              ],
              [
                43.17050552368164,
                11.535990715026855
              ],
              [
                43.31692886352539,
                11.535990715026855
              ],
              [
                43.67005920410156,
                11.214552879333496
              ],
              [
                43.73307418823242,
                10.957403182983398
              ],
              [
                44.083831787109375,
                10.571678161621094
              ],
              [
                44.371421813964844,
                10.443102836608887
              ],
              [
                44.885902404785156,
                10.507390975952148
              ],
              [
                44.959041595458984,
                10.507390975952148
              ],
              [
                45.105323791503906,
                10.507390975952148
              ],
              [
                45.09775924682617,
                10.314528465270996
              ]
            ]
          ],
          [
            [
              [
                42.34282302856445,
                10.957403182983398
              ],
              [
                42.34526824951172,
                11.021690368652344
              ],
              [
                42.41844177246094,
                11.021690368652344
              ],
              [
                42.415992736816406,
                10.957403182983398
              ],
              [
                42.34282302856445,
                10.957403182983398
              ]
            ]
          ],
          [
            [
              [
                39.46445083618164,
                15.714691162109375
              ],
              [
                39.743446350097656,
                15.393251419067383
              ],
              [
                39.73439025878906,
                15.200387001037598
              ],
              [
                39.446250915527344,
                15.328963279724121
              ],
              [
                39.37270736694336,
                15.328963279724121
              ],
              [
                39.10568618774414,
                15.907554626464844
              ],
              [
                39.179290771484375,
                15.907554626464844
              ],
              [
                39.262168884277344,
                16.100418090820312
              ],
              [
                39.40629959106445,
                16.036130905151367
              ],
              [
                39.46445083618164,
                15.714691162109375
              ]
            ]
          ],
          [
            [
              [
                30.271244049072266,
                31.40045166015625
              ],
              [
                30.351730346679688,
                31.464719772338867
              ],
              [
                30.80877685546875,
                31.464719772338867
              ],
              [
                30.965608596801758,
                31.528987884521484
              ],
              [
                30.974620819091797,
                31.65752601623535
              ],
              [
                31.203296661376953,
                31.65752601623535
              ],
              [
                31.117990493774414,
                31.528987884521484
              ],
              [
                31.265825271606445,
                31.464719772338867
              ],
              [
                31.875221252441406,
                31.464719772338867
              ],
              [
                31.780553817749023,
                31.20764923095703
              ],
              [
                31.93739891052246,
                31.271915435791016
              ],
              [
                31.999635696411133,
                31.079113006591797
              ],
              [
                32.303932189941406,
                31.079113006591797
              ],
              [
                32.23719787597656,
                31.20764923095703
              ],
              [
                32.38941192626953,
                31.20764923095703
              ],
              [
                32.53215408325195,
                31.079113006591797
              ],
              [
                32.76515197753906,
                31.143381118774414
              ],
              [
                32.8316764831543,
                31.014846801757812
              ],
              [
                33.74934005737305,
                31.079113006591797
              ],
              [
                34.22111892700195,
                31.271915435791016
              ],
              [
                34.2972412109375,
                31.271915435791016
              ],
              [
                34.43400573730469,
                31.079113006591797
              ],
              [
                34.54050064086914,
                30.500701904296875
              ],
              [
                34.682376861572266,
                30.372163772583008
              ],
              [
                34.667564392089844,
                30.179353713989258
              ],
              [
                34.80942916870117,
                30.050809860229492
              ],
              [
                34.91290283203125,
                29.40805435180664
              ],
              [
                34.83723831176758,
                29.40805435180664
              ],
              [
                34.71140670776367,
                28.700960159301758
              ],
              [
                34.54724884033203,
                28.508106231689453
              ],
              [
                34.517303466796875,
                28.058101654052734
              ],
              [
                34.35825729370117,
                27.92952537536621
              ],
              [
                34.345943450927734,
                27.736658096313477
              ],
              [
                34.12004470825195,
                27.736658096313477
              ],
              [
                33.6169548034668,
                28.12238883972168
              ],
              [
                33.553810119628906,
                28.315250396728516
              ],
              [
                33.40296936035156,
                28.315250396728516
              ],
              [
                33.18891525268555,
                28.508106231689453
              ],
              [
                33.14677429199219,
                29.022375106811523
              ],
              [
                32.857112884521484,
                29.21521759033203
              ],
              [
                32.58876037597656,
                29.729440689086914
              ],
              [
                32.60188293457031,
                29.922264099121094
              ],
              [
                32.44160079956055,
                29.79371452331543
              ],
              [
                32.68916320800781,
                28.958093643188477
              ],
              [
                32.83612823486328,
                28.893810272216797
              ],
              [
                33.10531997680664,
                28.379535675048828
              ],
              [
                33.60887145996094,
                27.993812561035156
              ],
              [
                33.585105895996094,
                27.608078002929688
              ],
              [
                33.7991943359375,
                27.41520881652832
              ],
              [
                33.92659378051758,
                27.029460906982422
              ],
              [
                34.07311248779297,
                26.96516990661621
              ],
              [
                34.05074691772461,
                26.57941436767578
              ],
              [
                34.197208404541016,
                26.515121459960938
              ],
              [
                34.461280822753906,
                25.8721923828125
              ],
              [
                34.60763931274414,
                25.807899475097656
              ],
              [
                35.145530700683594,
                24.650644302368164
              ],
              [
                35.860408782958984,
                24.00774574279785
              ],
              [
                35.85411834716797,
                23.879167556762695
              ],
              [
                35.558753967285156,
                23.943456649780273
              ],
              [
                35.546443939208984,
                23.68630027770996
              ],
              [
                35.808685302734375,
                22.914846420288086
              ],
              [
                36.24660110473633,
                22.72198486328125
              ],
              [
                36.960968017578125,
                22.079116821289062
              ],
              [
                36.943214416503906,
                21.693397521972656
              ],
              [
                37.36817932128906,
                21.24339485168457
              ],
              [
                37.36223220825195,
                21.114822387695312
              ],
              [
                37.21376419067383,
                21.114822387695312
              ],
              [
                37.20489501953125,
                20.921964645385742
              ],
              [
                37.34142303466797,
                20.664819717407227
              ],
              [
                37.243438720703125,
                20.150527954101562
              ],
              [
                37.31755065917969,
                20.150527954101562
              ],
              [
                37.410865783691406,
                18.993366241455078
              ],
              [
                37.555702209472656,
                18.929079055786133
              ],
              [
                37.54951477050781,
                18.800504684448242
              ],
              [
                37.8421516418457,
                18.736217498779297
              ],
              [
                38.192813873291016,
                18.350492477416992
              ],
              [
                38.55583190917969,
                18.2219181060791
              ],
              [
                38.697139739990234,
                18.093341827392578
              ],
              [
                38.687503814697266,
                17.90047836303711
              ],
              [
                38.2255973815918,
                17.514753341674805
              ],
              [
                37.70293045043945,
                17.38617706298828
              ],
              [
                37.54926681518555,
                17.257600784301758
              ],
              [
                37.537078857421875,
                17.000450134277344
              ],
              [
                37.091739654541016,
                16.9361629486084
              ],
              [
                37.00614929199219,
                16.67901039123535
              ],
              [
                37.059268951416016,
                16.228994369506836
              ],
              [
                36.90621566772461,
                16.100418090820312
              ],
              [
                36.6489372253418,
                15.26467514038086
              ],
              [
                36.493751525878906,
                15.07181167602539
              ],
              [
                36.6041145324707,
                14.171781539916992
              ],
              [
                36.53068542480469,
                14.171781539916992
              ],
              [
                36.51321029663086,
                13.721768379211426
              ],
              [
                36.2785758972168,
                13.336042404174805
              ],
              [
                36.26213073730469,
                12.886029243469238
              ],
              [
                36.10862350463867,
                12.69316577911377
              ],
              [
                35.664344787597656,
                12.564591407775879
              ],
              [
                35.35163497924805,
                11.986002922058105
              ],
              [
                35.20302200317383,
                11.92171573638916
              ],
              [
                34.94458770751953,
                10.7002534866333
              ],
              [
                34.79631805419922,
                10.635965347290039
              ],
              [
                34.65589904785156,
                10.828827857971191
              ],
              [
                34.50957489013672,
                10.828827857971191
              ],
              [
                34.35548782348633,
                10.571678161621094
              ],
              [
                34.34023666381836,
                10.057377815246582
              ],
              [
                34.19026565551758,
                9.928803443908691
              ],
              [
                34.180999755859375,
                9.607365608215332
              ],
              [
                34.104248046875,
                9.478790283203125
              ],
              [
                33.885013580322266,
                9.478790283203125
              ],
              [
                33.79936218261719,
                9.028778076171875
              ],
              [
                33.421878814697266,
                8.578764915466309
              ],
              [
                33.49144744873047,
                8.450189590454102
              ],
              [
                33.19765090942383,
                8.385902404785156
              ],
              [
                33.03813552856445,
                7.871601104736328
              ],
              [
                32.663326263427734,
                7.485875606536865
              ],
              [
                32.04962158203125,
                6.264410972595215
              ],
              [
                31.82474136352539,
                6.007260322570801
              ],
              [
                31.678918838500977,
                6.007260322570801
              ],
              [
                31.747278213500977,
                5.81439733505249
              ],
              [
                31.601470947265625,
                5.81439733505249
              ],
              [
                31.52556037902832,
                5.685822010040283
              ],
              [
                31.443721771240234,
                5.300096035003662
              ],
              [
                31.50481414794922,
                4.785795211791992
              ],
              [
                31.784587860107422,
                4.271493911743164
              ],
              [
                32.00168991088867,
                4.207206249237061
              ],
              [
                31.92448616027832,
                4.01434326171875
              ],
              [
                32.06439208984375,
                3.757192850112915
              ],
              [
                31.987247467041016,
                3.564330101013184
              ],
              [
                32.132911682128906,
                3.564330101013184
              ],
              [
                32.04725646972656,
                2.985741376876831
              ],
              [
                31.818967819213867,
                2.535728216171265
              ],
              [
                31.887588500976562,
                2.342865228652954
              ],
              [
                31.37380027770996,
                2.150002479553223
              ],
              [
                31.077102661132812,
                1.892852187156677
              ],
              [
                30.644412994384766,
                2.085714817047119
              ],
              [
                30.64715003967285,
                2.214290142059326
              ],
              [
                30.288599014282227,
                2.471440553665161
              ],
              [
                30.083894729614258,
                3.114316701889038
              ],
              [
                29.869558334350586,
                3.30717945098877
              ],
              [
                29.723905563354492,
                3.30717945098877
              ],
              [
                29.36800765991211,
                3.692905426025391
              ],
              [
                29.222335815429688,
                3.692905426025391
              ],
              [
                28.720674514770508,
                4.078630924224854
              ],
              [
                28.43065071105957,
                4.142918586730957
              ],
              [
                28.28904151916504,
                4.335781574249268
              ],
              [
                27.711612701416016,
                4.592932224273682
              ],
              [
                27.6441707611084,
                4.850082874298096
              ],
              [
                27.143508911132812,
                5.300096035003662
              ],
              [
                27.151641845703125,
                5.685822010040283
              ],
              [
                26.57382583618164,
                5.942972660064697
              ],
              [
                26.288888931274414,
                6.264410972595215
              ],
              [
                26.221336364746094,
                6.521561145782471
              ],
              [
                26.296966552734375,
                6.650136470794678
              ],
              [
                26.009244918823242,
                6.842999458312988
              ],
              [
                25.86871910095215,
                7.100150108337402
              ],
              [
                25.433639526367188,
                7.228724956512451
              ],
              [
                25.147071838378906,
                7.485875606536865
              ],
              [
                25.226688385009766,
                7.807313442230225
              ],
              [
                24.65064239501953,
                8.193038940429688
              ],
              [
                24.140880584716797,
                8.25732707977295
              ],
              [
                24.07174301147461,
                8.450189590454102
              ],
              [
                24.148656845092773,
                8.643052101135254
              ],
              [
                23.493915557861328,
                8.771627426147461
              ],
              [
                23.427227020263672,
                9.09306526184082
              ],
              [
                23.65153694152832,
                9.350214958190918
              ],
              [
                23.66058349609375,
                9.800228118896484
              ],
              [
                23.379783630371094,
                10.378815650939941
              ],
              [
                22.876745223999023,
                10.828827857971191
              ],
              [
                22.878021240234375,
                10.893115997314453
              ],
              [
                22.958913803100586,
                11.278841018676758
              ],
              [
                22.598047256469727,
                11.535990715026855
              ],
              [
                22.680299758911133,
                11.986002922058105
              ],
              [
                22.53510093688965,
                12.050291061401367
              ],
              [
                22.465726852416992,
                12.24315357208252
              ],
              [
                22.47354507446289,
                12.628878593444824
              ],
              [
                22.1855525970459,
                12.886029243469238
              ],
              [
                22.280197143554688,
                13.914630889892578
              ],
              [
                22.2067928314209,
                13.914630889892578
              ],
              [
                22.213611602783203,
                14.236069679260254
              ],
              [
                22.287046432495117,
                14.236069679260254
              ],
              [
                22.45964813232422,
                15.393251419067383
              ],
              [
                22.5331974029541,
                15.393251419067383
              ],
              [
                22.53615379333496,
                15.52182674407959
              ],
              [
                22.758342742919922,
                15.586114883422852
              ],
              [
                22.985177993774414,
                15.843266487121582
              ],
              [
                23.293777465820312,
                16.421857833862305
              ],
              [
                23.593278884887695,
                16.614723205566406
              ],
              [
                23.59653091430664,
                16.743297576904297
              ],
              [
                23.822572708129883,
                16.9361629486084
              ],
              [
                23.970006942749023,
                16.9361629486084
              ],
              [
                23.97501564025879,
                17.129026412963867
              ],
              [
                24.12080955505371,
                17.06473731994629
              ],
              [
                24.798439025878906,
                17.57904052734375
              ],
              [
                26.367237091064453,
                18.2219181060791
              ],
              [
                26.588848114013672,
                18.2219181060791
              ],
              [
                27.03998565673828,
                18.479066848754883
              ],
              [
                27.26169204711914,
                18.479066848754883
              ],
              [
                27.711233139038086,
                18.67193031311035
              ],
              [
                27.71531105041504,
                18.800504684448242
              ],
              [
                27.935073852539062,
                18.736217498779297
              ],
              [
                28.319395065307617,
                19.186227798461914
              ],
              [
                29.144086837768555,
                19.507661819458008
              ],
              [
                29.457534790039062,
                20.021955490112305
              ],
              [
                29.546586990356445,
                20.471960067749023
              ],
              [
                28.909700393676758,
                21.43625259399414
              ],
              [
                28.777252197265625,
                21.950544357299805
              ],
              [
                28.628564834594727,
                21.950544357299805
              ],
              [
                28.71097755432129,
                22.20768928527832
              ],
              [
                28.572303771972656,
                22.529123306274414
              ],
              [
                28.582509994506836,
                22.85055923461914
              ],
              [
                28.508045196533203,
                22.85055923461914
              ],
              [
                28.39472007751465,
                23.943456649780273
              ],
              [
                28.32009506225586,
                23.943456649780273
              ],
              [
                28.30586814880371,
                25.615020751953125
              ],
              [
                28.230972290039062,
                25.615020751953125
              ],
              [
                28.34531593322754,
                26.57941436767578
              ],
              [
                28.270244598388672,
                26.57941436767578
              ],
              [
                28.29547691345215,
                27.158044815063477
              ],
              [
                28.220294952392578,
                27.158044815063477
              ],
              [
                28.312999725341797,
                27.54378890991211
              ],
              [
                28.24070167541504,
                27.608078002929688
              ],
              [
                28.472572326660156,
                27.736658096313477
              ],
              [
                28.602100372314453,
                28.829526901245117
              ],
              [
                28.464351654052734,
                29.08665657043457
              ],
              [
                28.364959716796875,
                30.050809860229492
              ],
              [
                27.631086349487305,
                30.500701904296875
              ],
              [
                26.12873077392578,
                30.822044372558594
              ],
              [
                25.384357452392578,
                31.143381118774414
              ],
              [
                25.314607620239258,
                31.271915435791016
              ],
              [
                25.32421112060547,
                31.464719772338867
              ],
              [
                25.47981834411621,
                31.528987884521484
              ],
              [
                26.39411735534668,
                31.528987884521484
              ],
              [
                27.148780822753906,
                31.40045166015625
              ],
              [
                27.514896392822266,
                31.143381118774414
              ],
              [
                28.496395111083984,
                31.014846801757812
              ],
              [
                28.865032196044922,
                30.822044372558594
              ],
              [
                29.3970890045166,
                30.822044372558594
              ],
              [
                29.485143661499023,
                31.014846801757812
              ],
              [
                29.78937339782715,
                31.014846801757812
              ],
              [
                29.877870559692383,
                31.20764923095703
              ],
              [
                29.882049560546875,
                31.271915435791016
              ],
              [
                30.33879280090332,
                31.271915435791016
              ],
              [
                30.271244049072266,
                31.40045166015625
              ]
            ]
          ]
        ]
      }
    }
  ]
}