{
  "type": "FeatureCollection",
  "name": "territory-856",
  "features": [
    {
      "type": "Feature",
      "properties": {
        "Name": "Austria-Hungary",
        "FromYear": 1918,
        "ToYear": 1918,
        "Area": 931571.7625681207,
        "Type": "POLITY",
        "Wikipedia": "Austria-Hungary",
        "Wikidata": "Q28513",
        "SeshatID": "at_habsburg_2",
        "Components": "",
        "MemberOf": ""
      },
      "geometry": {
        "type": "MultiPolygon",
        "coordinates": [
          [
            [
              [
                14.350428581237793,
                44.973392486572266
              ],
              [
                14.51131820678711,
                44.908016204833984
              ],
              [
                14.502378463745117,
                44.5159797668457
              ],
              [
                14.260871887207031,
                44.58129119873047
              ],
              [
                14.269240379333496,
                44.973392486572266
              ],
              [
                14.350428581237793,
                44.973392486572266
              ]
            ]
          ],
          [
            [
              [
                29.58445930480957,
                45.431331634521484
              ],
              [
                29.66587257385254,
                45.431331634521484
              ],
              [
                29.658414840698242,
                45.36587905883789
              ],
              [
                29.57703399658203,
                45.36587905883789
              ],
              [
                29.58445930480957,
                45.431331634521484
              ]
            ]
          ],
          [
            [
              [
                29.85890007019043,
                45.693260192871094
              ],
              [
                29.614274978637695,
                45.693260192871094
              ],
              [
                29.591896057128906,
                45.496795654296875
              ],
              [
                29.58445930480957,
                45.431331634521484
              ],
              [
                29.095985412597656,
                45.431331634521484
              ],
              [
                28.667741775512695,
                45.23500442504883
              ],
              [
                28.34939956665039,
                45.300437927246094
              ],
              [
                28.281864166259766,
                45.431331634521484
              ],
              [
                27.868051528930664,
                45.36587905883789
              ],
              [
                27.847858428955078,
                45.169586181640625
              ],
              [
                27.99687957763672,
                45.03877639770508
              ],
              [
                27.969886779785156,
                44.77729415893555
              ],
              [
                27.801036834716797,
                44.71194839477539
              ],
              [
                27.787734985351562,
                44.58129119873047
              ],
              [
                27.943035125732422,
                44.5159797668457
              ],
              [
                27.828874588012695,
                44.18956756591797
              ],
              [
                27.492671966552734,
                44.05907440185547
              ],
              [
                26.281423568725586,
                44.05907440185547
              ],
              [
                25.84855079650879,
                43.73301696777344
              ],
              [
                25.434297561645508,
                43.6026611328125
              ],
              [
                24.881397247314453,
                43.73301696777344
              ],
              [
                24.15087890625,
                43.6678352355957
              ],
              [
                23.601760864257812,
                43.86341094970703
              ],
              [
                22.951791763305664,
                43.79821014404297
              ],
              [
                22.894636154174805,
                44.12431716918945
              ],
              [
                22.65691566467285,
                44.18956756591797
              ],
              [
                22.400911331176758,
                43.99384307861328
              ],
              [
                22.28899574279785,
                43.53750228881836
              ],
              [
                21.636600494384766,
                43.407203674316406
              ],
              [
                21.759748458862305,
                42.82133865356445
              ],
              [
                21.911693572998047,
                42.691246032714844
              ],
              [
                21.810890197753906,
                42.36617660522461
              ],
              [
                21.73092269897461,
                42.36617660522461
              ],
              [
                21.726844787597656,
                42.30118942260742
              ],
              [
                21.487024307250977,
                42.30118942260742
              ],
              [
                21.235557556152344,
                42.10627746582031
              ],
              [
                20.919898986816406,
                42.17123794555664
              ],
              [
                20.840017318725586,
                42.17123794555664
              ],
              [
                20.83629035949707,
                42.10627746582031
              ],
              [
                20.596729278564453,
                42.10627746582031
              ],
              [
                20.57509994506836,
                41.71668243408203
              ],
              [
                20.495418548583984,
                41.71668243408203
              ],
              [
                20.54340934753418,
                41.132843017578125
              ],
              [
                20.69525146484375,
                41.00318908691406
              ],
              [
                19.425230026245117,
                41.00318908691406
              ],
              [
                19.428295135498047,
                41.06801223754883
              ],
              [
                19.51080322265625,
                41.132843017578125
              ],
              [
                19.456375122070312,
                41.65177917480469
              ],
              [
                19.54244041442871,
                41.781593322753906
              ],
              [
                18.85202980041504,
                42.36617660522461
              ],
              [
                18.143457412719727,
                42.62621307373047
              ],
              [
                17.991540908813477,
                42.82133865356445
              ],
              [
                17.593284606933594,
                42.88639831542969
              ],
              [
                17.50791358947754,
                42.75628662109375
              ],
              [
                17.515670776367188,
                42.95146560668945
              ],
              [
                17.35520362854004,
                42.95146560668945
              ],
              [
                17.36538314819336,
                43.211830139160156
              ],
              [
                17.12186050415039,
                43.146724700927734
              ],
              [
                17.05129051208496,
                43.407203674316406
              ],
              [
                16.727190017700195,
                43.342071533203125
              ],
              [
                16.734172821044922,
                43.53750228881836
              ],
              [
                16.575437545776367,
                43.6026611328125
              ],
              [
                15.927099227905273,
                43.472347259521484
              ],
              [
                16.01169204711914,
                43.6026611328125
              ],
              [
                15.856636047363281,
                43.79821014404297
              ],
              [
                15.695383071899414,
                43.79821014404297
              ],
              [
                15.618592262268066,
                43.92862319946289
              ],
              [
                15.374701499938965,
                43.86341094970703
              ],
              [
                15.459075927734375,
                43.99384307861328
              ],
              [
                15.218687057495117,
                44.05907440185547
              ],
              [
                15.146636962890625,
                44.38538360595703
              ],
              [
                14.908865928649902,
                44.58129119873047
              ],
              [
                14.91874885559082,
                44.973392486572266
              ],
              [
                14.515777587890625,
                45.10417556762695
              ],
              [
                14.603090286254883,
                45.36587905883789
              ],
              [
                14.196189880371094,
                45.36587905883789
              ],
              [
                14.189410209655762,
                45.03877639770508
              ],
              [
                13.945749282836914,
                45.03877639770508
              ],
              [
                13.943220138549805,
                44.908016204833984
              ],
              [
                13.780906677246094,
                44.908016204833984
              ],
              [
                13.705584526062012,
                45.23500442504883
              ],
              [
                13.544051170349121,
                45.300437927246094
              ],
              [
                13.547340393066406,
                45.496795654296875
              ],
              [
                13.710229873657227,
                45.496795654296875
              ],
              [
                13.714865684509277,
                45.75876998901367
              ],
              [
                13.144780158996582,
                45.82429504394531
              ],
              [
                13.060476303100586,
                45.62776184082031
              ],
              [
                12.816752433776855,
                45.693260192871094
              ],
              [
                12.652192115783691,
                45.56227111816406
              ],
              [
                12.57071590423584,
                45.56227111816406
              ],
              [
                12.328110694885254,
                45.75876998901367
              ],
              [
                11.59394645690918,
                45.75876998901367
              ],
              [
                11.023015975952148,
                45.82429504394531
              ],
              [
                10.941510200500488,
                45.95537567138672
              ],
              [
                10.451480865478516,
                45.95537567138672
              ],
              [
                10.532170295715332,
                46.480194091796875
              ],
              [
                10.367905616760254,
                46.61152267456055
              ],
              [
                10.44906997680664,
                46.94007873535156
              ],
              [
                10.366899490356445,
                46.94007873535156
              ],
              [
                10.36669635772705,
                47.005828857421875
              ],
              [
                10.202829360961914,
                46.87434005737305
              ],
              [
                9.9564208984375,
                46.87434005737305
              ],
              [
                9.625838279724121,
                47.13737487792969
              ],
              [
                9.625325202941895,
                47.20316696166992
              ],
              [
                9.54301929473877,
                47.20316696166992
              ],
              [
                9.542471885681152,
                47.26897048950195
              ],
              [
                9.541923522949219,
                47.33478927612305
              ],
              [
                9.541373252868652,
                47.4006233215332
              ],
              [
                9.623783111572266,
                47.4006233215332
              ],
              [
                9.62326717376709,
                47.46647262573242
              ],
              [
                9.622751235961914,
                47.53233337402344
              ],
              [
                9.952665328979492,
                47.53233337402344
              ],
              [
                10.118547439575195,
                47.33478927612305
              ],
              [
                10.36567211151123,
                47.33478927612305
              ],
              [
                10.447366714477539,
                47.598209381103516
              ],
              [
                10.859928131103516,
                47.53233337402344
              ],
              [
                11.024742126464844,
                47.4006233215332
              ],
              [
                11.933061599731445,
                47.664100646972656
              ],
              [
                12.75854206085205,
                47.664100646972656
              ],
              [
                12.839411735534668,
                47.53233337402344
              ],
              [
                13.004368782043457,
                47.53233337402344
              ],
              [
                13.088733673095703,
                47.664100646972656
              ],
              [
                12.924517631530762,
                47.730003356933594
              ],
              [
                12.927179336547852,
                47.92780685424805
              ],
              [
                12.762627601623535,
                47.993770599365234
              ],
              [
                12.765129089355469,
                48.191749572753906
              ],
              [
                13.26423168182373,
                48.323814392089844
              ],
              [
                13.434637069702148,
                48.5881233215332
              ],
              [
                13.768134117126465,
                48.654239654541016
              ],
              [
                13.770781517028809,
                48.786521911621094
              ],
              [
                12.532414436340332,
                49.51522445678711
              ],
              [
                12.534139633178711,
                49.64793395996094
              ],
              [
                12.36764907836914,
                49.71431350708008
              ],
              [
                12.370920181274414,
                49.98000717163086
              ],
              [
                12.204005241394043,
                50.04647445678711
              ],
              [
                12.20633602142334,
                50.2459831237793
              ],
              [
                12.376081466674805,
                50.37908172607422
              ],
              [
                12.796454429626465,
                50.37908172607422
              ],
              [
                13.391927719116211,
                50.71213912963867
              ],
              [
                14.153997421264648,
                50.84549331665039
              ],
              [
                14.328418731689453,
                51.04566955566406
              ],
              [
                14.497381210327148,
                51.04566955566406
              ],
              [
                14.577799797058105,
                50.912200927734375
              ],
              [
                15.255345344543457,
                50.97892379760742
              ],
              [
                15.416954040527344,
                50.77880859375
              ],
              [
                16.338764190673828,
                50.64549255371094
              ],
              [
                16.24351692199707,
                50.37908172607422
              ],
              [
                16.487279891967773,
                50.17946243286133
              ],
              [
                16.823102951049805,
                50.17946243286133
              ],
              [
                16.919164657592773,
                50.445655822753906
              ],
              [
                17.1715087890625,
                50.445655822753906
              ],
              [
                17.49802589416504,
                50.2459831237793
              ],
              [
                17.750011444091797,
                50.2459831237793
              ],
              [
                17.739870071411133,
                50.04647445678711
              ],
              [
                17.904199600219727,
                49.98000717163086
              ],
              [
                18.487384796142578,
                49.91355895996094
              ],
              [
                18.807432174682617,
                49.64793395996094
              ],
              [
                18.799970626831055,
                49.51522445678711
              ],
              [
                19.23357391357422,
                49.78071212768555
              ],
              [
                19.165773391723633,
                50.04647445678711
              ],
              [
                19.84113311767578,
                50.11296081542969
              ],
              [
                20.33548927307129,
                49.98000717163086
              ],
              [
                20.51714324951172,
                50.17946243286133
              ],
              [
                21.02581787109375,
                50.2459831237793
              ],
              [
                21.477136611938477,
                50.64549255371094
              ],
              [
                21.735273361206055,
                50.71213912963867
              ],
              [
                21.74620246887207,
                50.84549331665039
              ],
              [
                21.99927520751953,
                50.84549331665039
              ],
              [
                21.988101959228516,
                50.71213912963867
              ],
              [
                22.15102195739746,
                50.64549255371094
              ],
              [
                23.764331817626953,
                50.77880859375
              ],
              [
                24.00420570373535,
                50.64549255371094
              ],
              [
                24.341148376464844,
                50.64549255371094
              ],
              [
                24.566909790039062,
                50.37908172607422
              ],
              [
                25.07135772705078,
                50.37908172607422
              ],
              [
                25.29567527770996,
                50.11296081542969
              ],
              [
                25.722383499145508,
                50.17946243286133
              ],
              [
                25.701093673706055,
                49.98000717163086
              ],
              [
                25.854578018188477,
                49.84712600708008
              ],
              [
                25.785415649414062,
                49.18375015258789
              ],
              [
                25.868793487548828,
                49.18375015258789
              ],
              [
                25.841760635375977,
                48.91886520385742
              ],
              [
                25.924989700317383,
                48.91886520385742
              ],
              [
                25.981304168701172,
                48.654239654541016
              ],
              [
                27.39371109008789,
                48.654239654541016
              ],
              [
                27.537879943847656,
                48.455936431884766
              ],
              [
                28.4200382232666,
                48.191749572753906
              ],
              [
                28.570432662963867,
                48.059749603271484
              ],
              [
                28.555265426635742,
                47.92780685424805
              ],
              [
                29.028188705444336,
                47.730003356933594
              ],
              [
                28.915130615234375,
                47.46647262573242
              ],
              [
                29.2142276763916,
                47.20316696166992
              ],
              [
                29.340612411499023,
                46.87434005737305
              ],
              [
                29.564010620117188,
                46.677207946777344
              ],
              [
                29.88438606262207,
                46.61152267456055
              ],
              [
                29.943092346191406,
                46.414546966552734
              ],
              [
                30.262836456298828,
                46.348915100097656
              ],
              [
                30.40288543701172,
                46.1520881652832
              ],
              [
                30.395021438598633,
                46.08650588989258
              ],
              [
                29.85890007019043,
                45.693260192871094
              ]
            ]
          ]
        ]
      }
    }
  ]
}