{
  "type": "FeatureCollection",
  "name": "territory-86",
  "features": [
    {
      "type": "Feature",
      "properties": {
        "Name": "Kingdom of Cappadocia",
        "FromYear": -126,
        "ToYear": -111,
        "Area": 91786.98873207031,
        "Type": "POLITY",
        "Wikipedia": "Kingdom of Cappadocia",
        "Wikidata": "Q29654286",
        "SeshatID": "",
        "Components": "",
        "MemberOf": ""
      },
      "geometry": {
        "type": "Polygon",
        "coordinates": [
          [
            [
              38.752479553222656,
              39.06184005737305
            ],
            [
              39.380306243896484,
              38.48057174682617
            ],
            [
              39.18071365356445,
              38.157840728759766
            ],
            [
              38.86766815185547,
              38.157840728759766
            ],
            [
              38.65800094604492,
              38.351463317871094
            ],
            [
              38.42300796508789,
              38.351463317871094
            ],
            [
              38.31162643432617,
              38.09331130981445
            ],
            [
              38.147010803222656,
              38.028785705566406
            ],
            [
              37.76396560668945,
              38.09331130981445
            ],
            [
              37.13022994995117,
              38.028785705566406
            ],
            [
              37.1146354675293,
              37.89975357055664
            ],
            [
              36.34809112548828,
              38.028785705566406
            ],
            [
              35.998069763183594,
              37.706241607666016
            ],
            [
              35.67116928100586,
              37.5772590637207
            ],
            [
              35.05380630493164,
              37.641746520996094
            ],
            [
              34.87669372558594,
              37.44829177856445
            ],
            [
              34.56466293334961,
              37.44829177856445
            ],
            [
              34.30364990234375,
              37.1904182434082
            ],
            [
              33.433685302734375,
              37.06150817871094
            ],
            [
              33.09705352783203,
              36.80373764038086
            ],
            [
              32.86370086669922,
              36.80373764038086
            ],
            [
              32.79827117919922,
              36.932613372802734
            ],
            [
              32.75785827636719,
              37.3193473815918
            ],
            [
              33.09543228149414,
              37.5772590637207
            ],
            [
              33.12809753417969,
              37.89975357055664
            ],
            [
              33.304447174072266,
              38.09331130981445
            ],
            [
              33.266754150390625,
              38.48057174682617
            ],
            [
              33.67961502075195,
              38.67427444458008
            ],
            [
              34.47871780395508,
              38.80344009399414
            ],
            [
              34.766693115234375,
              39.25570297241211
            ],
            [
              34.726253509521484,
              39.57893371582031
            ],
            [
              34.82843017578125,
              39.77294921875
            ],
            [
              35.29369354248047,
              39.70827102661133
            ],
            [
              35.4354248046875,
              39.57893371582031
            ],
            [
              36.93256378173828,
              39.57893371582031
            ],
            [
              37.860721588134766,
              39.449623107910156
            ],
            [
              38.752479553222656,
              39.06184005737305
            ]
          ]
        ]
      }
    }
  ]
}