{
  "type": "FeatureCollection",
  "name": "territory-861",
  "features": [
    {
      "type": "Feature",
      "properties": {
        "Name": "German Empire",
        "FromYear": 1918,
        "ToYear": 1918,
        "Area": 1423979.3630822303,
        "Type": "POLITY",
        "Wikipedia": "German Empire",
        "Wikidata": "Q43287",
        "SeshatID": "de_hohenzollern_3",
        "Components": "",
        "MemberOf": ""
      },
      "geometry": {
        "type": "MultiPolygon",
        "coordinates": [
          [
            [
              [
                34.98639678955078,
                45.62776184082031
              ],
              [
                35.01994323730469,
                45.300437927246094
              ],
              [
                36.42308807373047,
                45.431331634521484
              ],
              [
                36.37263107299805,
                45.10417556762695
              ],
              [
                35.87525939941406,
                45.03877639770508
              ],
              [
                35.732418060302734,
                45.169586181640625
              ],
              [
                35.40727996826172,
                45.169586181640625
              ],
              [
                35.297096252441406,
                44.973392486572266
              ],
              [
                34.376285552978516,
                44.77729415893555
              ],
              [
                33.92564392089844,
                44.45067596435547
              ],
              [
                33.52096176147461,
                44.45067596435547
              ],
              [
                33.46652603149414,
                44.64661407470703
              ],
              [
                33.54755401611328,
                44.64661407470703
              ],
              [
                33.61005401611328,
                45.10417556762695
              ],
              [
                32.92236328125,
                45.431331634521484
              ],
              [
                32.59671401977539,
                45.431331634521484
              ],
              [
                33.03901290893555,
                45.693260192871094
              ],
              [
                33.70957565307617,
                45.82429504394531
              ],
              [
                33.73704528808594,
                46.02093505859375
              ],
              [
                34.15492630004883,
                46.08650588989258
              ],
              [
                34.544586181640625,
                45.95537567138672
              ],
              [
                34.74187088012695,
                45.62776184082031
              ],
              [
                34.82337951660156,
                45.62776184082031
              ],
              [
                34.98639678955078,
                45.62776184082031
              ]
            ]
          ],
          [
            [
              [
                27.382423400878906,
                58.66725540161133
              ],
              [
                27.54010581970215,
                58.528167724609375
              ],
              [
                27.484853744506836,
                58.180992126464844
              ],
              [
                27.664058685302734,
                58.180992126464844
              ],
              [
                27.641950607299805,
                58.042335510253906
              ],
              [
                27.977479934692383,
                57.903804779052734
              ],
              [
                27.765642166137695,
                57.696231842041016
              ],
              [
                27.71112632751465,
                57.35087585449219
              ],
              [
                27.800064086914062,
                57.35087585449219
              ],
              [
                27.646713256835938,
                56.937416076660156
              ],
              [
                27.735326766967773,
                56.937416076660156
              ],
              [
                27.671676635742188,
                56.524986267089844
              ],
              [
                27.759971618652344,
                56.524986267089844
              ],
              [
                27.686702728271484,
                56.04508590698242
              ],
              [
                27.77463150024414,
                56.04508590698242
              ],
              [
                27.775920867919922,
                54.88506317138672
              ],
              [
                27.86298942565918,
                54.88506317138672
              ],
              [
                27.956716537475586,
                54.341712951660156
              ],
              [
                28.110076904296875,
                54.20612335205078
              ],
              [
                28.17384910583496,
                52.85536575317383
              ],
              [
                28.25950050354004,
                52.85536575317383
              ],
              [
                28.29770851135254,
                52.51908493041992
              ],
              [
                28.459081649780273,
                52.4518928527832
              ],
              [
                28.46949005126953,
                51.91512680053711
              ],
              [
                28.847820281982422,
                51.580322265625
              ],
              [
                29.1116943359375,
                51.64724349975586
              ],
              [
                29.25299644470215,
                51.44654083251953
              ],
              [
                29.93085289001465,
                51.44654083251953
              ],
              [
                29.92111587524414,
                51.37968063354492
              ],
              [
                30.06125259399414,
                51.17921447753906
              ],
              [
                30.230382919311523,
                51.17921447753906
              ],
              [
                30.295391082763672,
                51.04566955566406
              ],
              [
                30.697980880737305,
                50.912200927734375
              ],
              [
                30.678321838378906,
                50.77880859375
              ],
              [
                31.238492965698242,
                50.578861236572266
              ],
              [
                31.831159591674805,
                50.04647445678711
              ],
              [
                32.2303466796875,
                49.91355895996094
              ],
              [
                32.735652923583984,
                49.38258361816406
              ],
              [
                32.90263748168945,
                49.38258361816406
              ],
              [
                32.965980529785156,
                49.2500114440918
              ],
              [
                33.279354095458984,
                49.11750411987305
              ],
              [
                34.05038833618164,
                49.2500114440918
              ],
              [
                34.165672302246094,
                49.44889450073242
              ],
              [
                34.33272933959961,
                49.44889450073242
              ],
              [
                34.71084213256836,
                49.71431350708008
              ],
              [
                34.94601821899414,
                50.11296081542969
              ],
              [
                35.76085662841797,
                50.445655822753906
              ],
              [
                36.18143081665039,
                50.445655822753906
              ],
              [
                36.396915435791016,
                50.2459831237793
              ],
              [
                36.64889907836914,
                50.2459831237793
              ],
              [
                36.84181213378906,
                50.37908172607422
              ],
              [
                37.44314956665039,
                50.445655822753906
              ],
              [
                37.65684127807617,
                50.2459831237793
              ],
              [
                37.63133239746094,
                50.11296081542969
              ],
              [
                37.94137954711914,
                49.98000717163086
              ],
              [
                37.92864990234375,
                49.91355895996094
              ],
              [
                37.91212463378906,
                49.38258361816406
              ],
              [
                37.816349029541016,
                49.316287994384766
              ],
              [
                38.01758575439453,
                49.051273345947266
              ],
              [
                37.969173431396484,
                48.786521911621094
              ],
              [
                38.1354866027832,
                48.786521911621094
              ],
              [
                38.170475006103516,
                48.52202224731445
              ],
              [
                38.45441818237305,
                48.257774353027344
              ],
              [
                38.7030143737793,
                48.257774353027344
              ],
              [
                38.98601150512695,
                47.993770599365234
              ],
              [
                38.867435455322266,
                47.79592514038086
              ],
              [
                39.02072525024414,
                47.730003356933594
              ],
              [
                38.98509216308594,
                47.53233337402344
              ],
              [
                39.220611572265625,
                47.46647262573242
              ],
              [
                39.1968879699707,
                47.33478927612305
              ],
              [
                39.1145133972168,
                47.33478927612305
              ],
              [
                38.6794548034668,
                47.20316696166992
              ],
              [
                37.51609802246094,
                47.13737487792969
              ],
              [
                37.16523361206055,
                47.005828857421875
              ],
              [
                37.2257080078125,
                46.87434005737305
              ],
              [
                36.90787887573242,
                46.94007873535156
              ],
              [
                36.80437088012695,
                46.808616638183594
              ],
              [
                35.634639739990234,
                46.677207946777344
              ],
              [
                35.24697494506836,
                46.283294677734375
              ],
              [
                34.75596237182617,
                46.283294677734375
              ],
              [
                34.736690521240234,
                46.1520881652832
              ],
              [
                34.0825309753418,
                46.1520881652832
              ],
              [
                34.019439697265625,
                46.283294677734375
              ],
              [
                33.610260009765625,
                46.283294677734375
              ],
              [
                33.59191131591797,
                46.1520881652832
              ],
              [
                32.946651458740234,
                46.21768569946289
              ],
              [
                32.84713363647461,
                46.08650588989258
              ],
              [
                32.683658599853516,
                46.08650588989258
              ],
              [
                32.0639533996582,
                46.348915100097656
              ],
              [
                31.81834602355957,
                46.348915100097656
              ],
              [
                31.835351943969727,
                46.480194091796875
              ],
              [
                32.16309356689453,
                46.480194091796875
              ],
              [
                32.18914794921875,
                46.677207946777344
              ],
              [
                31.787527084350586,
                46.74290466308594
              ],
              [
                31.606428146362305,
                46.61152267456055
              ],
              [
                30.87657928466797,
                46.677207946777344
              ],
              [
                30.484655380249023,
                46.1520881652832
              ],
              [
                30.40288543701172,
                46.1520881652832
              ],
              [
                30.262836456298828,
                46.348915100097656
              ],
              [
                29.943092346191406,
                46.414546966552734
              ],
              [
                29.88438606262207,
                46.61152267456055
              ],
              [
                29.564010620117188,
                46.677207946777344
              ],
              [
                29.340612411499023,
                46.87434005737305
              ],
              [
                29.2142276763916,
                47.20316696166992
              ],
              [
                28.915130615234375,
                47.46647262573242
              ],
              [
                29.028188705444336,
                47.730003356933594
              ],
              [
                28.555265426635742,
                47.92780685424805
              ],
              [
                28.570432662963867,
                48.059749603271484
              ],
              [
                28.4200382232666,
                48.191749572753906
              ],
              [
                27.537879943847656,
                48.455936431884766
              ],
              [
                27.39371109008789,
                48.654239654541016
              ],
              [
                25.981304168701172,
                48.654239654541016
              ],
              [
                25.924989700317383,
                48.91886520385742
              ],
              [
                25.841760635375977,
                48.91886520385742
              ],
              [
                25.868793487548828,
                49.18375015258789
              ],
              [
                25.785415649414062,
                49.18375015258789
              ],
              [
                25.854578018188477,
                49.84712600708008
              ],
              [
                25.701093673706055,
                49.98000717163086
              ],
              [
                25.722383499145508,
                50.17946243286133
              ],
              [
                25.29567527770996,
                50.11296081542969
              ],
              [
                25.07135772705078,
                50.37908172607422
              ],
              [
                24.566909790039062,
                50.37908172607422
              ],
              [
                24.341148376464844,
                50.64549255371094
              ],
              [
                24.00420570373535,
                50.64549255371094
              ],
              [
                23.764331817626953,
                50.77880859375
              ],
              [
                22.15102195739746,
                50.64549255371094
              ],
              [
                21.988101959228516,
                50.71213912963867
              ],
              [
                21.99927520751953,
                50.84549331665039
              ],
              [
                21.74620246887207,
                50.84549331665039
              ],
              [
                21.735273361206055,
                50.71213912963867
              ],
              [
                21.477136611938477,
                50.64549255371094
              ],
              [
                21.02581787109375,
                50.2459831237793
              ],
              [
                20.51714324951172,
                50.17946243286133
              ],
              [
                20.33548927307129,
                49.98000717163086
              ],
              [
                19.84113311767578,
                50.11296081542969
              ],
              [
                19.165773391723633,
                50.04647445678711
              ],
              [
                19.23357391357422,
                49.78071212768555
              ],
              [
                18.799970626831055,
                49.51522445678711
              ],
              [
                18.807432174682617,
                49.64793395996094
              ],
              [
                18.487384796142578,
                49.91355895996094
              ],
              [
                17.904199600219727,
                49.98000717163086
              ],
              [
                17.739870071411133,
                50.04647445678711
              ],
              [
                17.750011444091797,
                50.2459831237793
              ],
              [
                17.49802589416504,
                50.2459831237793
              ],
              [
                17.1715087890625,
                50.445655822753906
              ],
              [
                16.919164657592773,
                50.445655822753906
              ],
              [
                16.823102951049805,
                50.17946243286133
              ],
              [
                16.487279891967773,
                50.17946243286133
              ],
              [
                16.24351692199707,
                50.37908172607422
              ],
              [
                16.338764190673828,
                50.64549255371094
              ],
              [
                15.416954040527344,
                50.77880859375
              ],
              [
                15.255345344543457,
                50.97892379760742
              ],
              [
                14.577799797058105,
                50.912200927734375
              ],
              [
                14.497381210327148,
                51.04566955566406
              ],
              [
                14.328418731689453,
                51.04566955566406
              ],
              [
                14.153997421264648,
                50.84549331665039
              ],
              [
                13.391927719116211,
                50.71213912963867
              ],
              [
                12.796454429626465,
                50.37908172607422
              ],
              [
                12.376081466674805,
                50.37908172607422
              ],
              [
                12.20633602142334,
                50.2459831237793
              ],
              [
                12.204005241394043,
                50.04647445678711
              ],
              [
                12.370920181274414,
                49.98000717163086
              ],
              [
                12.36764907836914,
                49.71431350708008
              ],
              [
                12.534139633178711,
                49.64793395996094
              ],
              [
                12.532414436340332,
                49.51522445678711
              ],
              [
                13.770781517028809,
                48.786521911621094
              ],
              [
                13.768134117126465,
                48.654239654541016
              ],
              [
                13.434637069702148,
                48.5881233215332
              ],
              [
                13.26423168182373,
                48.323814392089844
              ],
              [
                12.765129089355469,
                48.191749572753906
              ],
              [
                12.762627601623535,
                47.993770599365234
              ],
              [
                12.927179336547852,
                47.92780685424805
              ],
              [
                12.924517631530762,
                47.730003356933594
              ],
              [
                13.088733673095703,
                47.664100646972656
              ],
              [
                13.004368782043457,
                47.53233337402344
              ],
              [
                12.839411735534668,
                47.53233337402344
              ],
              [
                12.75854206085205,
                47.664100646972656
              ],
              [
                11.933061599731445,
                47.664100646972656
              ],
              [
                11.024742126464844,
                47.4006233215332
              ],
              [
                10.859928131103516,
                47.53233337402344
              ],
              [
                10.447366714477539,
                47.598209381103516
              ],
              [
                10.36567211151123,
                47.33478927612305
              ],
              [
                10.118547439575195,
                47.33478927612305
              ],
              [
                9.952665328979492,
                47.53233337402344
              ],
              [
                9.622751235961914,
                47.53233337402344
              ],
              [
                9.374073028564453,
                47.664100646972656
              ],
              [
                8.547621726989746,
                47.730003356933594
              ],
              [
                8.467049598693848,
                47.598209381103516
              ],
              [
                7.973181247711182,
                47.53233337402344
              ],
              [
                6.983439445495605,
                47.53233337402344
              ],
              [
                6.877388000488281,
                48.455936431884766
              ],
              [
                6.706097602844238,
                48.654239654541016
              ],
              [
                6.203586101531982,
                48.786521911621094
              ],
              [
                6.201573848724365,
                48.852684020996094
              ],
              [
                6.199558734893799,
                48.91886520385742
              ],
              [
                6.116329193115234,
                48.91886520385742
              ],
              [
                6.114273548126221,
                48.98506164550781
              ],
              [
                6.031006813049316,
                48.98506164550781
              ],
              [
                5.94774055480957,
                48.98506164550781
              ],
              [
                5.531406879425049,
                48.98506164550781
              ],
              [
                5.607818126678467,
                49.18375015258789
              ],
              [
                5.36008358001709,
                49.11750411987305
              ],
              [
                5.27186107635498,
                49.2500114440918
              ],
              [
                4.935599327087402,
                49.316287994384766
              ],
              [
                3.85378885269165,
                49.2500114440918
              ],
              [
                3.430150985717773,
                49.38258361816406
              ],
              [
                2.929202318191528,
                49.38258361816406
              ],
              [
                2.922161102294922,
                49.51522445678711
              ],
              [
                2.413225412368774,
                49.64793395996094
              ],
              [
                2.474304437637329,
                50.04647445678711
              ],
              [
                2.638346433639526,
                50.11296081542969
              ],
              [
                2.535551309585571,
                50.445655822753906
              ],
              [
                2.61966609954834,
                50.445655822753906
              ],
              [
                2.612135887145996,
                50.578861236572266
              ],
              [
                2.938045263290405,
                50.77880859375
              ],
              [
                2.743186473846436,
                51.24601745605469
              ],
              [
                2.73940634727478,
                51.31283950805664
              ],
              [
                3.324945688247681,
                51.44654083251953
              ],
              [
                3.409677743911743,
                51.44654083251953
              ],
              [
                3.504641532897949,
                51.24601745605469
              ],
              [
                4.01227855682373,
                51.24601745605469
              ],
              [
                4.341732025146484,
                51.44654083251953
              ],
              [
                5.019589424133301,
                51.44654083251953
              ],
              [
                5.706711769104004,
                51.17921447753906
              ],
              [
                5.720504760742188,
                50.77880859375
              ],
              [
                5.891344547271729,
                50.71213912963867
              ],
              [
                5.973455429077148,
                50.77880859375
              ],
              [
                5.960404872894287,
                51.17921447753906
              ],
              [
                6.205840110778809,
                51.44654083251953
              ],
              [
                6.114758014678955,
                51.64724349975586
              ],
              [
                5.942830562591553,
                51.71418380737305
              ],
              [
                5.938404083251953,
                51.84812545776367
              ],
              [
                6.533320903778076,
                51.84812545776367
              ],
              [
                6.614560127258301,
                51.98215103149414
              ],
              [
                6.699635028839111,
                51.98215103149414
              ],
              [
                6.697800159454346,
                52.0491943359375
              ],
              [
                6.948029518127441,
                52.250450134277344
              ],
              [
                6.944602489471436,
                52.38472366333008
              ],
              [
                6.68488883972168,
                52.51908493041992
              ],
              [
                6.68117618560791,
                52.653533935546875
              ],
              [
                7.021557331085205,
                52.720787048339844
              ],
              [
                7.179872989654541,
                53.25962829589844
              ],
              [
                7.178262233734131,
                53.32708740234375
              ],
              [
                6.918599128723145,
                53.39456558227539
              ],
              [
                6.913325786590576,
                53.597137451171875
              ],
              [
                7.082295417785645,
                53.732303619384766
              ],
              [
                7.944795608520508,
                53.732303619384766
              ],
              [
                8.205669403076172,
                53.597137451171875
              ],
              [
                8.37701416015625,
                53.664710998535156
              ],
              [
                8.459527015686035,
                53.93522644042969
              ],
              [
                8.892172813415527,
                53.86756134033203
              ],
              [
                8.802155494689941,
                54.20612335205078
              ],
              [
                8.54152774810791,
                54.27390670776367
              ],
              [
                8.539765357971191,
                54.4095458984375
              ],
              [
                8.799209594726562,
                54.47740173339844
              ],
              [
                8.797733306884766,
                54.613189697265625
              ],
              [
                8.534452438354492,
                54.817054748535156
              ],
              [
                8.441773414611816,
                55.225467681884766
              ],
              [
                8.529091835021973,
                55.225467681884766
              ],
              [
                8.528193473815918,
                55.29362487792969
              ],
              [
                8.790297508239746,
                55.29362487792969
              ],
              [
                8.788798332214355,
                55.430015563964844
              ],
              [
                9.66373348236084,
                55.36180877685547
              ],
              [
                9.663980484008789,
                55.29362487792969
              ],
              [
                9.49028491973877,
                55.089229583740234
              ],
              [
                10.013643264770508,
                55.021148681640625
              ],
              [
                9.9271879196167,
                54.545284271240234
              ],
              [
                11.054854393005371,
                54.4095458984375
              ],
              [
                11.053302764892578,
                54.20612335205078
              ],
              [
                10.879310607910156,
                54.07062530517578
              ],
              [
                11.138218879699707,
                54.00291442871094
              ],
              [
                11.397537231445312,
                54.00291442871094
              ],
              [
                11.398930549621582,
                54.138362884521484
              ],
              [
                12.093385696411133,
                54.27390670776367
              ],
              [
                12.4437894821167,
                54.47740173339844
              ],
              [
                13.05121898651123,
                54.47740173339844
              ],
              [
                13.05451488494873,
                54.613189697265625
              ],
              [
                13.231775283813477,
                54.74907684326172
              ],
              [
                13.577702522277832,
                54.681121826171875
              ],
              [
                13.656671524047852,
                54.4095458984375
              ],
              [
                13.743398666381836,
                54.4095458984375
              ],
              [
                13.739368438720703,
                54.27390670776367
              ],
              [
                13.304450988769531,
                54.20612335205078
              ],
              [
                14.165812492370605,
                54.07062530517578
              ],
              [
                14.159177780151367,
                53.86756134033203
              ],
              [
                13.986488342285156,
                53.86756134033203
              ],
              [
                14.154796600341797,
                53.732303619384766
              ],
              [
                14.499796867370605,
                53.732303619384766
              ],
              [
                14.50934886932373,
                54.00291442871094
              ],
              [
                15.036103248596191,
                54.20612335205078
              ],
              [
                15.991765975952148,
                54.27390670776367
              ],
              [
                16.442564010620117,
                54.613189697265625
              ],
              [
                17.501720428466797,
                54.88506317138672
              ],
              [
                18.459484100341797,
                54.88506317138672
              ],
              [
                18.44533348083496,
                54.681121826171875
              ],
              [
                18.686851501464844,
                54.4095458984375
              ],
              [
                19.462186813354492,
                54.341712951660156
              ],
              [
                19.559396743774414,
                54.47740173339844
              ],
              [
                19.819725036621094,
                54.47740173339844
              ],
              [
                19.830615997314453,
                54.613189697265625
              ],
              [
                20.004362106323242,
                54.613189697265625
              ],
              [
                19.83608627319336,
                54.681121826171875
              ],
              [
                19.950855255126953,
                55.021148681640625
              ],
              [
                20.654220581054688,
                55.089229583740234
              ],
              [
                20.72932243347168,
                54.95309066772461
              ],
              [
                20.990678787231445,
                54.95309066772461
              ],
              [
                21.003093719482422,
                55.089229583740234
              ],
              [
                21.09031105041504,
                55.089229583740234
              ],
              [
                21.202974319458008,
                55.36180877685547
              ],
              [
                20.96585464477539,
                55.63479995727539
              ],
              [
                20.9976863861084,
                55.97663879394531
              ],
              [
                20.8409423828125,
                56.182064056396484
              ],
              [
                20.866546630859375,
                56.45634460449219
              ],
              [
                20.954788208007812,
                56.45634460449219
              ],
              [
                21.000686645507812,
                56.937416076660156
              ],
              [
                21.280134201049805,
                57.07511901855469
              ],
              [
                21.307584762573242,
                57.35087585449219
              ],
              [
                21.602821350097656,
                57.62710189819336
              ],
              [
                22.51758575439453,
                57.8345832824707
              ],
              [
                23.57867431640625,
                57.00625228881836
              ],
              [
                23.9417724609375,
                57.07511901855469
              ],
              [
                24.23385238647461,
                57.28189468383789
              ],
              [
                24.268098831176758,
                58.2503662109375
              ],
              [
                23.819801330566406,
                58.2503662109375
              ],
              [
                23.666316986083984,
                58.45867156982422
              ],
              [
                23.405317306518555,
                58.528167724609375
              ],
              [
                23.409774780273438,
                59.294734954833984
              ],
              [
                23.961997985839844,
                59.36461639404297
              ],
              [
                24.161630630493164,
                59.504478454589844
              ],
              [
                25.350799560546875,
                59.574459075927734
              ],
              [
                25.370975494384766,
                59.714515686035156
              ],
              [
                26.45072364807129,
                59.64447021484375
              ],
              [
                26.79198455810547,
                59.504478454589844
              ],
              [
                27.699003219604492,
                59.504478454589844
              ],
              [
                27.641536712646484,
                59.15507125854492
              ],
              [
                27.370315551757812,
                59.15507125854492
              ],
              [
                27.33674430847168,
                58.94581604003906
              ],
              [
                27.426977157592773,
                58.94581604003906
              ],
              [
                27.41579246520996,
                58.876129150390625
              ],
              [
                27.382423400878906,
                58.66725540161133
              ]
            ]
          ],
          [
            [
              [
                21.847291946411133,
                58.2503662109375
              ],
              [
                21.877241134643555,
                58.528167724609375
              ],
              [
                22.146902084350586,
                58.528167724609375
              ],
              [
                22.252349853515625,
                58.66725540161133
              ],
              [
                23.23394203186035,
                58.59769821166992
              ],
              [
                23.119043350219727,
                58.38920593261719
              ],
              [
                22.287872314453125,
                58.180992126464844
              ],
              [
                22.078466415405273,
                57.903804779052734
              ],
              [
                21.899707794189453,
                57.903804779052734
              ],
              [
                22.01906394958496,
                58.180992126464844
              ],
              [
                21.929460525512695,
                58.180992126464844
              ],
              [
                21.847291946411133,
                58.2503662109375
              ]
            ]
          ],
          [
            [
              [
                22.350223541259766,
                58.73685073852539
              ],
              [
                22.36603355407715,
                58.876129150390625
              ],
              [
                22.185684204101562,
                58.876129150390625
              ],
              [
                22.201353073120117,
                59.015533447265625
              ],
              [
                22.488330841064453,
                59.15507125854492
              ],
              [
                22.841659545898438,
                59.08528518676758
              ],
              [
                22.898815155029297,
                58.80647277832031
              ],
              [
                22.710458755493164,
                58.73685073852539
              ],
              [
                22.620399475097656,
                58.73685073852539
              ],
              [
                22.350223541259766,
                58.73685073852539
              ]
            ]
          ]
        ]
      }
    }
  ]
}