{
  "type": "FeatureCollection",
  "name": "territory-864",
  "features": [
    {
      "type": "Feature",
      "properties": {
        "Name": "Principality of Bulgaria",
        "FromYear": 1917,
        "ToYear": 1917,
        "Area": 171194.18309985855,
        "Type": "POLITY",
        "Wikipedia": "Principality of Bulgaria",
        "Wikidata": "Q815731",
        "SeshatID": "",
        "Components": "",
        "MemberOf": ""
      },
      "geometry": {
        "type": "Polygon",
        "coordinates": [
          [
            [
              29.112377166748047,
              44.842647552490234
            ],
            [
              29.10519790649414,
              44.77729415893555
            ],
            [
              29.024105072021484,
              44.77729415893555
            ],
            [
              29.04557228088379,
              44.973392486572266
            ],
            [
              28.802005767822266,
              44.973392486572266
            ],
            [
              28.84072494506836,
              44.58129119873047
            ],
            [
              28.576906204223633,
              44.38538360595703
            ],
            [
              28.53555679321289,
              43.99384307861328
            ],
            [
              28.616275787353516,
              43.99384307861328
            ],
            [
              28.48109245300293,
              43.472347259521484
            ],
            [
              28.159194946289062,
              43.472347259521484
            ],
            [
              28.22636604309082,
              43.342071533203125
            ],
            [
              27.89820098876953,
              43.276947021484375
            ],
            [
              27.80489730834961,
              43.146724700927734
            ],
            [
              27.84662628173828,
              42.75628662109375
            ],
            [
              27.513538360595703,
              42.62621307373047
            ],
            [
              27.494890213012695,
              42.43117141723633
            ],
            [
              27.936981201171875,
              42.041324615478516
            ],
            [
              27.93072509765625,
              41.97637939453125
            ],
            [
              27.451948165893555,
              41.97637939453125
            ],
            [
              27.384279251098633,
              42.10627746582031
            ],
            [
              27.064865112304688,
              42.10627746582031
            ],
            [
              26.574190139770508,
              41.97637939453125
            ],
            [
              26.312232971191406,
              41.71668243408203
            ],
            [
              26.613874435424805,
              41.521995544433594
            ],
            [
              26.596946716308594,
              41.32738494873047
            ],
            [
              26.341890335083008,
              41.132843017578125
            ],
            [
              26.235448837280273,
              40.80876541137695
            ],
            [
              26.076860427856445,
              40.80876541137695
            ],
            [
              26.082168579101562,
              40.873565673828125
            ],
            [
              25.37845802307129,
              41.00318908691406
            ],
            [
              24.34181785583496,
              40.93837356567383
            ],
            [
              24.262470245361328,
              40.93837356567383
            ],
            [
              24.02906036376953,
              41.00318908691406
            ],
            [
              23.958953857421875,
              41.132843017578125
            ],
            [
              23.248483657836914,
              41.19768524169922
            ],
            [
              23.02318000793457,
              41.39224624633789
            ],
            [
              22.86409568786621,
              41.39224624633789
            ],
            [
              22.529191970825195,
              41.132843017578125
            ],
            [
              22.052602767944336,
              41.132843017578125
            ],
            [
              21.643949508666992,
              40.93837356567383
            ],
            [
              21.333986282348633,
              41.06801223754883
            ],
            [
              20.85400390625,
              41.00318908691406
            ],
            [
              20.774627685546875,
              41.00318908691406
            ],
            [
              20.69525146484375,
              41.00318908691406
            ],
            [
              20.54340934753418,
              41.132843017578125
            ],
            [
              20.495418548583984,
              41.71668243408203
            ],
            [
              20.57509994506836,
              41.71668243408203
            ],
            [
              20.596729278564453,
              42.10627746582031
            ],
            [
              20.83629035949707,
              42.10627746582031
            ],
            [
              20.9161434173584,
              42.10627746582031
            ],
            [
              20.919898986816406,
              42.17123794555664
            ],
            [
              21.235557556152344,
              42.10627746582031
            ],
            [
              21.487024307250977,
              42.30118942260742
            ],
            [
              21.726844787597656,
              42.30118942260742
            ],
            [
              21.806785583496094,
              42.30118942260742
            ],
            [
              21.810890197753906,
              42.36617660522461
            ],
            [
              21.911693572998047,
              42.691246032714844
            ],
            [
              21.759748458862305,
              42.82133865356445
            ],
            [
              21.636600494384766,
              43.407203674316406
            ],
            [
              22.28899574279785,
              43.53750228881836
            ],
            [
              22.400911331176758,
              43.99384307861328
            ],
            [
              22.65691566467285,
              44.18956756591797
            ],
            [
              22.894636154174805,
              44.12431716918945
            ],
            [
              22.951791763305664,
              43.79821014404297
            ],
            [
              23.601760864257812,
              43.86341094970703
            ],
            [
              24.15087890625,
              43.6678352355957
            ],
            [
              24.881397247314453,
              43.73301696777344
            ],
            [
              25.353763580322266,
              43.6026611328125
            ],
            [
              25.84855079650879,
              43.73301696777344
            ],
            [
              26.281423568725586,
              44.05907440185547
            ],
            [
              27.492671966552734,
              44.05907440185547
            ],
            [
              27.916336059570312,
              44.25482940673828
            ],
            [
              27.943035125732422,
              44.5159797668457
            ],
            [
              27.787734985351562,
              44.58129119873047
            ],
            [
              27.801036834716797,
              44.71194839477539
            ],
            [
              27.969886779785156,
              44.77729415893555
            ],
            [
              27.99687957763672,
              45.03877639770508
            ],
            [
              27.847858428955078,
              45.169586181640625
            ],
            [
              27.868051528930664,
              45.36587905883789
            ],
            [
              28.11903953552246,
              45.431331634521484
            ],
            [
              28.281864166259766,
              45.431331634521484
            ],
            [
              28.505107879638672,
              45.23500442504883
            ],
            [
              29.095985412597656,
              45.431331634521484
            ],
            [
              29.58445930480957,
              45.431331634521484
            ],
            [
              29.57703399658203,
              45.36587905883789
            ],
            [
              29.658414840698242,
              45.36587905883789
            ],
            [
              29.525348663330078,
              44.908016204833984
            ],
            [
              29.112377166748047,
              44.842647552490234
            ]
          ]
        ]
      }
    }
  ]
}