{
  "type": "FeatureCollection",
  "name": "territory-869",
  "features": [
    {
      "type": "Feature",
      "properties": {
        "Name": "Mahdist State",
        "FromYear": 1890,
        "ToYear": 1894,
        "Area": 2327192.0283908383,
        "Type": "POLITY",
        "Wikipedia": "Mahdist State",
        "Wikidata": "Q3125368",
        "SeshatID": "",
        "Components": "",
        "MemberOf": ""
      },
      "geometry": {
        "type": "MultiPolygon",
        "coordinates": [
          [
            [
              [
                33.109458923339844,
                7.807313442230225
              ],
              [
                33.036468505859375,
                7.807313442230225
              ],
              [
                33.03813552856445,
                7.871601104736328
              ],
              [
                33.11112976074219,
                7.871601104736328
              ],
              [
                33.109458923339844,
                7.807313442230225
              ]
            ]
          ],
          [
            [
              [
                36.53068542480469,
                14.171781539916992
              ],
              [
                36.51321029663086,
                13.721768379211426
              ],
              [
                36.2785758972168,
                13.336042404174805
              ],
              [
                36.26213073730469,
                12.886029243469238
              ],
              [
                36.10862350463867,
                12.69316577911377
              ],
              [
                35.664344787597656,
                12.564591407775879
              ],
              [
                35.35163497924805,
                11.986002922058105
              ],
              [
                35.20302200317383,
                11.92171573638916
              ],
              [
                34.94458770751953,
                10.7002534866333
              ],
              [
                34.79631805419922,
                10.635965347290039
              ],
              [
                34.65589904785156,
                10.828827857971191
              ],
              [
                34.50957489013672,
                10.828827857971191
              ],
              [
                34.35548782348633,
                10.571678161621094
              ],
              [
                34.34023666381836,
                10.057377815246582
              ],
              [
                34.19026565551758,
                9.928803443908691
              ],
              [
                34.180999755859375,
                9.607365608215332
              ],
              [
                34.104248046875,
                9.478790283203125
              ],
              [
                33.885013580322266,
                9.478790283203125
              ],
              [
                33.79936218261719,
                9.028778076171875
              ],
              [
                33.421878814697266,
                8.578764915466309
              ],
              [
                33.49144744873047,
                8.450189590454102
              ],
              [
                33.19765090942383,
                8.385902404785156
              ],
              [
                33.03813552856445,
                7.871601104736328
              ],
              [
                32.663326263427734,
                7.485875606536865
              ],
              [
                32.04962158203125,
                6.264410972595215
              ],
              [
                31.82474136352539,
                6.007260322570801
              ],
              [
                31.678918838500977,
                6.007260322570801
              ],
              [
                31.747278213500977,
                5.81439733505249
              ],
              [
                31.601470947265625,
                5.81439733505249
              ],
              [
                31.52556037902832,
                5.685822010040283
              ],
              [
                31.443721771240234,
                5.300096035003662
              ],
              [
                31.50481414794922,
                4.785795211791992
              ],
              [
                31.784587860107422,
                4.271493911743164
              ],
              [
                32.00168991088867,
                4.207206249237061
              ],
              [
                31.92448616027832,
                4.01434326171875
              ],
              [
                32.06439208984375,
                3.757192850112915
              ],
              [
                31.987247467041016,
                3.564330101013184
              ],
              [
                32.13147735595703,
                3.50004243850708
              ],
              [
                32.05864715576172,
                3.50004243850708
              ],
              [
                32.04725646972656,
                2.985741376876831
              ],
              [
                31.818967819213867,
                2.535728216171265
              ],
              [
                31.887588500976562,
                2.342865228652954
              ],
              [
                31.37380027770996,
                2.150002479553223
              ],
              [
                31.077102661132812,
                1.892852187156677
              ],
              [
                31.004304885864258,
                1.892852187156677
              ],
              [
                30.934246063232422,
                2.021427392959595
              ],
              [
                30.644412994384766,
                2.085714817047119
              ],
              [
                30.64715003967285,
                2.214290142059326
              ],
              [
                30.288599014282227,
                2.471440553665161
              ],
              [
                30.083894729614258,
                3.114316701889038
              ],
              [
                29.869558334350586,
                3.30717945098877
              ],
              [
                29.723905563354492,
                3.30717945098877
              ],
              [
                29.36800765991211,
                3.692905426025391
              ],
              [
                29.222335815429688,
                3.692905426025391
              ],
              [
                28.720674514770508,
                4.078630924224854
              ],
              [
                28.43065071105957,
                4.142918586730957
              ],
              [
                28.361894607543945,
                4.335781574249268
              ],
              [
                27.855979919433594,
                4.528644561767578
              ],
              [
                27.215042114257812,
                5.235808849334717
              ],
              [
                27.216394424438477,
                5.300096035003662
              ],
              [
                27.143508911132812,
                5.300096035003662
              ],
              [
                27.151641845703125,
                5.685822010040283
              ],
              [
                26.57382583618164,
                5.942972660064697
              ],
              [
                26.288888931274414,
                6.264410972595215
              ],
              [
                26.221336364746094,
                6.521561145782471
              ],
              [
                26.296966552734375,
                6.650136470794678
              ],
              [
                26.009244918823242,
                6.842999458312988
              ],
              [
                26.01193618774414,
                6.971574783325195
              ],
              [
                25.433639526367188,
                7.228724956512451
              ],
              [
                25.147071838378906,
                7.485875606536865
              ],
              [
                25.226688385009766,
                7.807313442230225
              ],
              [
                24.65064239501953,
                8.193038940429688
              ],
              [
                24.140880584716797,
                8.25732707977295
              ],
              [
                24.07174301147461,
                8.450189590454102
              ],
              [
                24.148656845092773,
                8.643052101135254
              ],
              [
                23.493915557861328,
                8.771627426147461
              ],
              [
                23.427227020263672,
                9.09306526184082
              ],
              [
                23.65153694152832,
                9.350214958190918
              ],
              [
                23.66058349609375,
                9.800228118896484
              ],
              [
                23.379783630371094,
                10.378815650939941
              ],
              [
                22.876745223999023,
                10.828827857971191
              ],
              [
                22.878021240234375,
                10.893115997314453
              ],
              [
                22.958913803100586,
                11.278841018676758
              ],
              [
                22.598047256469727,
                11.535990715026855
              ],
              [
                22.680299758911133,
                11.986002922058105
              ],
              [
                22.53510093688965,
                12.050291061401367
              ],
              [
                22.465726852416992,
                12.24315357208252
              ],
              [
                22.47354507446289,
                12.628878593444824
              ],
              [
                22.1855525970459,
                12.886029243469238
              ],
              [
                22.280197143554688,
                13.914630889892578
              ],
              [
                22.2067928314209,
                13.914630889892578
              ],
              [
                22.213611602783203,
                14.236069679260254
              ],
              [
                22.287046432495117,
                14.236069679260254
              ],
              [
                22.288427352905273,
                14.300357818603516
              ],
              [
                22.45964813232422,
                15.393251419067383
              ],
              [
                22.5331974029541,
                15.393251419067383
              ],
              [
                22.53615379333496,
                15.52182674407959
              ],
              [
                22.758342742919922,
                15.586114883422852
              ],
              [
                22.985177993774414,
                15.843266487121582
              ],
              [
                23.293777465820312,
                16.421857833862305
              ],
              [
                23.74556541442871,
                16.807586669921875
              ],
              [
                23.82588005065918,
                17.06473731994629
              ],
              [
                23.97501564025879,
                17.129026412963867
              ],
              [
                23.981700897216797,
                17.38617706298828
              ],
              [
                24.127553939819336,
                17.321889877319336
              ],
              [
                24.83159828186035,
                18.800504684448242
              ],
              [
                25.005189895629883,
                19.764808654785156
              ],
              [
                25.079252243041992,
                19.764808654785156
              ],
              [
                24.984153747558594,
                21.88625717163086
              ],
              [
                24.985736846923828,
                21.950544357299805
              ],
              [
                30.78452491760254,
                21.950544357299805
              ],
              [
                30.845354080200195,
                21.5648250579834
              ],
              [
                31.135690689086914,
                21.371967315673828
              ],
              [
                32.32396697998047,
                21.371967315673828
              ],
              [
                32.467647552490234,
                21.24339485168457
              ],
              [
                32.910675048828125,
                21.179107666015625
              ],
              [
                34.546661376953125,
                21.24339485168457
              ],
              [
                35.0745735168457,
                21.43625259399414
              ],
              [
                36.408660888671875,
                21.371967315673828
              ],
              [
                36.54854202270508,
                21.179107666015625
              ],
              [
                36.72466278076172,
                20.150527954101562
              ],
              [
                36.79877471923828,
                20.150527954101562
              ],
              [
                36.78104782104492,
                19.764808654785156
              ],
              [
                36.855106353759766,
                19.764808654785156
              ],
              [
                36.84017562866211,
                19.443374633789062
              ],
              [
                36.9141960144043,
                19.443374633789062
              ],
              [
                36.89914321899414,
                19.12194061279297
              ],
              [
                37.041038513183594,
                18.993366241455078
              ],
              [
                37.031925201416016,
                18.800504684448242
              ],
              [
                37.5924186706543,
                18.157629013061523
              ],
              [
                37.810882568359375,
                18.093341827392578
              ],
              [
                37.70293045043945,
                17.38617706298828
              ],
              [
                37.54316329956055,
                17.129026412963867
              ],
              [
                37.38962936401367,
                17.000450134277344
              ],
              [
                37.168453216552734,
                17.000450134277344
              ],
              [
                37.0120735168457,
                16.807586669921875
              ],
              [
                37.06218719482422,
                16.293283462524414
              ],
              [
                36.90909957885742,
                16.16470718383789
              ],
              [
                36.651676177978516,
                15.328963279724121
              ],
              [
                36.49644470214844,
                15.136098861694336
              ],
              [
                36.606658935546875,
                14.236069679260254
              ],
              [
                36.6041145324707,
                14.171781539916992
              ],
              [
                36.53068542480469,
                14.171781539916992
              ]
            ]
          ]
        ]
      }
    }
  ]
}