{
  "type": "FeatureCollection",
  "name": "territory-870",
  "features": [
    {
      "type": "Feature",
      "properties": {
        "Name": "Cuban Nationalists",
        "FromYear": 1898,
        "ToYear": 1899,
        "Area": 56838.969669711994,
        "Type": "POLITY",
        "Wikipedia": "Fidel Castro",
        "Wikidata": "Q11256",
        "SeshatID": "",
        "Components": "",
        "MemberOf": ""
      },
      "geometry": {
        "type": "Polygon",
        "coordinates": [
          [
            [
              -76.0767593383789,
              21.179107666015625
            ],
            [
              -75.63130950927734,
              21.179107666015625
            ],
            [
              -75.4993896484375,
              20.793392181396484
            ],
            [
              -74.74800872802734,
              20.72910499572754
            ],
            [
              -74.32099914550781,
              20.343387603759766
            ],
            [
              -74.09859466552734,
              20.343387603759766
            ],
            [
              -74.07083892822266,
              20.150527954101562
            ],
            [
              -74.27468872070312,
              20.021955490112305
            ],
            [
              -74.6451644897461,
              20.021955490112305
            ],
            [
              -75.20996856689453,
              19.8290958404541
            ],
            [
              -75.367431640625,
              19.893383026123047
            ],
            [
              -75.4415054321289,
              19.893383026123047
            ],
            [
              -75.46956634521484,
              20.08624267578125
            ],
            [
              -75.6365737915039,
              20.214815139770508
            ],
            [
              -76.07183074951172,
              20.150527954101562
            ],
            [
              -76.11762237548828,
              19.95766830444336
            ],
            [
              -76.19171142578125,
              19.95766830444336
            ],
            [
              -77.65428161621094,
              19.8290958404541
            ],
            [
              -77.68303680419922,
              20.021955490112305
            ],
            [
              -77.55404663085938,
              20.150527954101562
            ],
            [
              -77.13813018798828,
              20.343387603759766
            ],
            [
              -77.18638610839844,
              20.664819717407227
            ],
            [
              -77.92814636230469,
              20.664819717407227
            ],
            [
              -78.2445068359375,
              20.793392181396484
            ],
            [
              -78.26425170898438,
              20.921964645385742
            ],
            [
              -78.42259216308594,
              20.986249923706055
            ],
            [
              -78.48265075683594,
              21.371967315673828
            ],
            [
              -78.65145111083984,
              21.500539779663086
            ],
            [
              -78.66162872314453,
              21.5648250579834
            ],
            [
              -78.52323150634766,
              21.629112243652344
            ],
            [
              -78.54370880126953,
              21.7576847076416
            ],
            [
              -78.34130096435547,
              21.88625717163086
            ],
            [
              -78.36199188232422,
              22.014829635620117
            ],
            [
              -78.17015075683594,
              22.20768928527832
            ],
            [
              -78.09577941894531,
              22.20768928527832
            ],
            [
              -77.83122253417969,
              21.950544357299805
            ],
            [
              -77.53385162353516,
              21.950544357299805
            ],
            [
              -77.43909454345703,
              21.821969985961914
            ],
            [
              -77.0573501586914,
              21.7576847076416
            ],
            [
              -77.02719116210938,
              21.5648250579834
            ],
            [
              -76.79434967041016,
              21.500539779663086
            ],
            [
              -76.77450561523438,
              21.371967315673828
            ],
            [
              -76.08650970458984,
              21.24339485168457
            ],
            [
              -76.0767593383789,
              21.179107666015625
            ]
          ]
        ]
      }
    }
  ]
}