{
  "type": "FeatureCollection",
  "name": "territory-884",
  "features": [
    {
      "type": "Feature",
      "properties": {
        "Name": "Asir",
        "FromYear": 1917,
        "ToYear": 1921,
        "Area": 95603.96176258444,
        "Type": "POLITY",
        "Wikipedia": "Asir Province",
        "Wikidata": "Q15728206",
        "SeshatID": "",
        "Components": "",
        "MemberOf": ""
      },
      "geometry": {
        "type": "MultiPolygon",
        "coordinates": [
          [
            [
              [
                43.83185577392578,
                20.021955490112305
              ],
              [
                43.980045318603516,
                20.021955490112305
              ],
              [
                43.97256088256836,
                19.893383026123047
              ],
              [
                44.1872444152832,
                19.764808654785156
              ],
              [
                44.10563278198242,
                19.6362361907959
              ],
              [
                44.24993133544922,
                19.571949005126953
              ],
              [
                44.31254196166992,
                19.379087448120117
              ],
              [
                44.464393615722656,
                19.443374633789062
              ],
              [
                44.378910064697266,
                19.25051498413086
              ],
              [
                44.45290756225586,
                19.25051498413086
              ],
              [
                44.449073791503906,
                19.186227798461914
              ],
              [
                44.35977554321289,
                18.929079055786133
              ],
              [
                43.50886917114258,
                18.286205291748047
              ],
              [
                43.552940368652344,
                17.77190399169922
              ],
              [
                43.464351654052734,
                17.514753341674805
              ],
              [
                43.235687255859375,
                17.38617706298828
              ],
              [
                43.27681350708008,
                16.807586669921875
              ],
              [
                43.03795623779297,
                16.486146926879883
              ],
              [
                42.81345748901367,
                16.421857833862305
              ],
              [
                42.816959381103516,
                16.486146926879883
              ],
              [
                42.48373794555664,
                17.129026412963867
              ],
              [
                42.33625793457031,
                17.129026412963867
              ],
              [
                42.28022766113281,
                17.450464248657227
              ],
              [
                41.784889221191406,
                17.836191177368164
              ],
              [
                41.45082092285156,
                18.479066848754883
              ],
              [
                41.23610305786133,
                18.607641220092773
              ],
              [
                41.25007629394531,
                18.864791870117188
              ],
              [
                41.04902648925781,
                19.25051498413086
              ],
              [
                41.052486419677734,
                19.314802169799805
              ],
              [
                41.133426666259766,
                19.443374633789062
              ],
              [
                41.433006286621094,
                19.507661819458008
              ],
              [
                41.52101516723633,
                19.764808654785156
              ],
              [
                41.82429122924805,
                19.893383026123047
              ],
              [
                42.10268783569336,
                20.921964645385742
              ],
              [
                42.325313568115234,
                20.921964645385742
              ],
              [
                42.466651916503906,
                20.793392181396484
              ],
              [
                42.69636154174805,
                20.921964645385742
              ],
              [
                43.1416130065918,
                20.921964645385742
              ],
              [
                43.27187728881836,
                20.60053253173828
              ],
              [
                43.694766998291016,
                20.214815139770508
              ],
              [
                43.691070556640625,
                20.150527954101562
              ],
              [
                43.68737030029297,
                20.08624267578125
              ],
              [
                43.761474609375,
                20.08624267578125
              ],
              [
                43.75776290893555,
                20.021955490112305
              ],
              [
                43.83185577392578,
                20.021955490112305
              ]
            ]
          ],
          [
            [
              [
                44.24993133544922,
                19.571949005126953
              ],
              [
                44.253726959228516,
                19.6362361907959
              ],
              [
                44.3277702331543,
                19.6362361907959
              ],
              [
                44.32396697998047,
                19.571949005126953
              ],
              [
                44.24993133544922,
                19.571949005126953
              ]
            ]
          ],
          [
            [
              [
                44.17967987060547,
                19.6362361907959
              ],
              [
                44.18346405029297,
                19.700523376464844
              ],
              [
                44.25751876831055,
                19.700523376464844
              ],
              [
                44.253726959228516,
                19.6362361907959
              ],
              [
                44.17967987060547,
                19.6362361907959
              ]
            ]
          ]
        ]
      }
    }
  ]
}