{
  "type": "FeatureCollection",
  "name": "territory-885",
  "features": [
    {
      "type": "Feature",
      "properties": {
        "Name": "Azerbaijan Democratic Republic",
        "FromYear": 1918,
        "ToYear": 1918,
        "Area": 87458.25612724242,
        "Type": "POLITY",
        "Wikipedia": "Azerbaijan",
        "Wikidata": "Q227",
        "SeshatID": "",
        "Components": "",
        "MemberOf": ""
      },
      "geometry": {
        "type": "Polygon",
        "coordinates": [
          [
            [
              48.47742462158203,
              41.781593322753906
            ],
            [
              48.55713653564453,
              41.781593322753906
            ],
            [
              49.08600997924805,
              41.26253128051758
            ],
            [
              49.059226989746094,
              41.132843017578125
            ],
            [
              49.270748138427734,
              41.00318908691406
            ],
            [
              49.2441520690918,
              40.873565673828125
            ],
            [
              49.50836181640625,
              40.614410400390625
            ],
            [
              50.04951477050781,
              40.54964065551758
            ],
            [
              50.2603759765625,
              40.42012023925781
            ],
            [
              49.6933479309082,
              40.355369567871094
            ],
            [
              49.40445327758789,
              40.0964469909668
            ],
            [
              49.26664352416992,
              39.38497543334961
            ],
            [
              49.151405334472656,
              39.19107437133789
            ],
            [
              48.91546630859375,
              39.19107437133789
            ],
            [
              48.77734375,
              38.8680305480957
            ],
            [
              48.78577423095703,
              38.48057174682617
            ],
            [
              48.7073974609375,
              38.48057174682617
            ],
            [
              48.6290168762207,
              38.48057174682617
            ],
            [
              48.326934814453125,
              38.54513168334961
            ],
            [
              48.059085845947266,
              38.80344009399414
            ],
            [
              48.082218170166016,
              38.93262481689453
            ],
            [
              48.25099563598633,
              38.997230529785156
            ],
            [
              48.21947479248047,
              39.25570297241211
            ],
            [
              48.333980560302734,
              39.449623107910156
            ],
            [
              48.13375473022461,
              39.64360046386719
            ],
            [
              47.491329193115234,
              39.57893371582031
            ],
            [
              46.668357849121094,
              38.93262481689453
            ],
            [
              45.871971130371094,
              38.8680305480957
            ],
            [
              45.072628021240234,
              39.25570297241211
            ],
            [
              44.869144439697266,
              39.449623107910156
            ],
            [
              44.834251403808594,
              39.70827102661133
            ],
            [
              44.9130973815918,
              39.70827102661133
            ],
            [
              44.991947174072266,
              39.70827102661133
            ],
            [
              45.07079315185547,
              39.70827102661133
            ],
            [
              45.14964294433594,
              39.70827102661133
            ],
            [
              45.16081237792969,
              39.77294921875
            ],
            [
              45.42006301879883,
              39.90232849121094
            ],
            [
              45.737979888916016,
              40.355369567871094
            ],
            [
              45.72996139526367,
              40.74397277832031
            ],
            [
              45.4606819152832,
              41.00318908691406
            ],
            [
              45.48482131958008,
              41.132843017578125
            ],
            [
              45.74757766723633,
              41.26253128051758
            ],
            [
              46.29153823852539,
              41.19768524169922
            ],
            [
              46.42557907104492,
              41.06801223754883
            ],
            [
              46.67628860473633,
              41.132843017578125
            ],
            [
              46.71403884887695,
              41.32738494873047
            ],
            [
              46.580265045166016,
              41.45711898803711
            ],
            [
              46.20754623413086,
              41.586883544921875
            ],
            [
              46.41773986816406,
              41.84651184082031
            ],
            [
              46.7366943359375,
              41.84651184082031
            ],
            [
              47.27063751220703,
              41.32738494873047
            ],
            [
              47.5628776550293,
              41.19768524169922
            ],
            [
              47.89371109008789,
              41.26253128051758
            ],
            [
              48.47742462158203,
              41.781593322753906
            ]
          ]
        ]
      }
    }
  ]
}