{
  "type": "FeatureCollection",
  "name": "territory-886",
  "features": [
    {
      "type": "Feature",
      "properties": {
        "Name": "Republic of Finland",
        "FromYear": 1942,
        "ToYear": 1943,
        "Area": 447725.8294195296,
        "Type": "POLITY",
        "Wikipedia": "Finland",
        "Wikidata": "Q33",
        "SeshatID": "su_finland_rep",
        "Components": "",
        "MemberOf": ""
      },
      "geometry": {
        "type": "MultiPolygon",
        "coordinates": [
          [
            [
              [
                19.703351974487305,
                60.34645080566406
              ],
              [
                19.71640968322754,
                60.48725891113281
              ],
              [
                20.167306900024414,
                60.416839599609375
              ],
              [
                20.146883010864258,
                60.20578384399414
              ],
              [
                19.951000213623047,
                60.065250396728516
              ],
              [
                19.683900833129883,
                60.135501861572266
              ],
              [
                19.696849822998047,
                60.276100158691406
              ],
              [
                19.703351974487305,
                60.34645080566406
              ]
            ]
          ],
          [
            [
              [
                31.059717178344727,
                69.8708724975586
              ],
              [
                31.545385360717773,
                69.79407501220703
              ],
              [
                31.565296173095703,
                69.8708724975586
              ],
              [
                31.666412353515625,
                69.8708724975586
              ],
              [
                31.90918731689453,
                69.64068603515625
              ],
              [
                31.5869140625,
                69.5640869140625
              ],
              [
                31.709548950195312,
                69.25833129882812
              ],
              [
                31.331863403320312,
                68.95359802246094
              ],
              [
                31.046754837036133,
                68.19611358642578
              ],
              [
                30.947574615478516,
                68.19611358642578
              ],
              [
                30.840456008911133,
                67.74452209472656
              ],
              [
                30.741775512695312,
                67.74452209472656
              ],
              [
                30.603282928466797,
                67.14566802978516
              ],
              [
                30.782142639160156,
                67.0710678100586
              ],
              [
                30.777719497680664,
                66.6246337890625
              ],
              [
                30.87518882751465,
                66.6246337890625
              ],
              [
                30.58042335510254,
                66.18017578125
              ],
              [
                30.483421325683594,
                66.18017578125
              ],
              [
                30.43447494506836,
                65.95866394042969
              ],
              [
                30.337705612182617,
                65.95866394042969
              ],
              [
                30.292173385620117,
                64.8580551147461
              ],
              [
                30.691255569458008,
                64.49365234375
              ],
              [
                30.88182830810547,
                64.49365234375
              ],
              [
                30.94533920288086,
                64.34822845458984
              ],
              [
                32.321937561035156,
                64.13044738769531
              ],
              [
                32.30519104003906,
                64.05794525146484
              ],
              [
                32.84013748168945,
                63.91307830810547
              ],
              [
                32.88371658325195,
                63.69612503051758
              ],
              [
                33.32169723510742,
                63.55171203613281
              ],
              [
                33.3815803527832,
                63.4074821472168
              ],
              [
                34.100006103515625,
                63.263427734375
              ],
              [
                34.08238983154297,
                63.191463470458984
              ],
              [
                34.047306060791016,
                63.047672271728516
              ],
              [
                34.76240158081055,
                62.904052734375
              ],
              [
                34.989463806152344,
                62.68894577026367
              ],
              [
                34.88248062133789,
                62.259857177734375
              ],
              [
                34.789337158203125,
                62.259857177734375
              ],
              [
                34.469024658203125,
                62.474212646484375
              ],
              [
                34.428192138671875,
                62.68894577026367
              ],
              [
                34.147560119628906,
                62.68894577026367
              ],
              [
                33.985164642333984,
                62.4027214050293
              ],
              [
                33.9593620300293,
                61.90340805053711
              ],
              [
                34.22079849243164,
                61.832237243652344
              ],
              [
                34.203834533691406,
                61.7611083984375
              ],
              [
                35.26313781738281,
                61.547950744628906
              ],
              [
                35.41282653808594,
                61.40604019165039
              ],
              [
                35.233394622802734,
                61.05192565917969
              ],
              [
                35.216129302978516,
                60.9812126159668
              ],
              [
                34.664222717285156,
                60.9812126159668
              ],
              [
                33.97126007080078,
                60.76930236816406
              ],
              [
                32.885257720947266,
                60.83990478515625
              ],
              [
                32.578975677490234,
                60.69873809814453
              ],
              [
                32.533241271972656,
                60.48725891113281
              ],
              [
                32.32011032104492,
                60.34645080566406
              ],
              [
                31.84833335876465,
                60.276100158691406
              ],
              [
                31.86298179626465,
                60.34645080566406
              ],
              [
                32.090389251708984,
                60.557716369628906
              ],
              [
                32.165489196777344,
                60.91054153442383
              ],
              [
                31.889724731445312,
                60.91054153442383
              ],
              [
                31.9196834564209,
                61.05192565917969
              ],
              [
                31.827634811401367,
                61.05192565917969
              ],
              [
                31.78046417236328,
                61.264278411865234
              ],
              [
                31.086288452148438,
                61.47697448730469
              ],
              [
                31.023086547851562,
                61.618961334228516
              ],
              [
                30.560298919677734,
                61.618961334228516
              ],
              [
                30.439285278320312,
                61.47697448730469
              ],
              [
                29.857181549072266,
                61.335140228271484
              ],
              [
                29.802587509155273,
                61.05192565917969
              ],
              [
                30.207590103149414,
                60.76930236816406
              ],
              [
                30.24452018737793,
                60.48725891113281
              ],
              [
                30.230899810791016,
                60.416839599609375
              ],
              [
                29.851613998413086,
                60.34645080566406
              ],
              [
                29.733747482299805,
                60.20578384399414
              ],
              [
                29.642444610595703,
                60.20578384399414
              ],
              [
                29.65558433532715,
                60.276100158691406
              ],
              [
                29.38149070739746,
                60.276100158691406
              ],
              [
                28.990642547607422,
                60.135501861572266
              ],
              [
                28.650575637817383,
                60.276100158691406
              ],
              [
                28.492643356323242,
                60.416839599609375
              ],
              [
                28.54265594482422,
                60.69873809814453
              ],
              [
                28.4509220123291,
                60.69873809814453
              ],
              [
                28.242748260498047,
                60.557716369628906
              ],
              [
                27.13186264038086,
                60.48725891113281
              ],
              [
                27.05181121826172,
                60.557716369628906
              ],
              [
                26.75438690185547,
                60.416839599609375
              ],
              [
                26.399471282958984,
                60.48725891113281
              ],
              [
                25.818273544311523,
                60.276100158691406
              ],
              [
                24.611000061035156,
                60.135501861572266
              ],
              [
                24.50045394897461,
                59.99503707885742
              ],
              [
                24.054182052612305,
                60.065250396728516
              ],
              [
                23.76235580444336,
                59.92485809326172
              ],
              [
                23.02524757385254,
                59.85470962524414
              ],
              [
                23.05118179321289,
                60.065250396728516
              ],
              [
                22.31354331970215,
                59.99503707885742
              ],
              [
                22.363000869750977,
                60.416839599609375
              ],
              [
                21.90556526184082,
                60.416839599609375
              ],
              [
                21.379648208618164,
                60.628211975097656
              ],
              [
                21.40285301208496,
                60.83990478515625
              ],
              [
                21.234464645385742,
                60.9812126159668
              ],
              [
                21.249881744384766,
                61.12267303466797
              ],
              [
                21.441972732543945,
                61.193458557128906
              ],
              [
                21.49768829345703,
                61.69001388549805
              ],
              [
                21.235559463500977,
                61.832237243652344
              ],
              [
                21.190174102783203,
                62.259857177734375
              ],
              [
                21.291358947753906,
                62.331268310546875
              ],
              [
                21.198148727416992,
                62.331268310546875
              ],
              [
                21.21416664123535,
                62.474212646484375
              ],
              [
                20.949846267700195,
                62.61732482910156
              ],
              [
                21.067264556884766,
                62.83230972290039
              ],
              [
                21.262784957885742,
                62.904052734375
              ],
              [
                21.27918243408203,
                63.047672271728516
              ],
              [
                21.475318908691406,
                63.11954879760742
              ],
              [
                21.500577926635742,
                63.33543014526367
              ],
              [
                21.962575912475586,
                63.263427734375
              ],
              [
                22.159679412841797,
                63.33543014526367
              ],
              [
                22.366201400756836,
                63.479576110839844
              ],
              [
                22.3845157623291,
                63.623897552490234
              ],
              [
                22.781234741210938,
                63.768394470214844
              ],
              [
                22.80032730102539,
                63.91307830810547
              ],
              [
                23.283843994140625,
                63.98548889160156
              ],
              [
                23.303813934326172,
                64.13044738769531
              ],
              [
                23.493669509887695,
                64.13044738769531
              ],
              [
                23.82017707824707,
                64.4209213256836
              ],
              [
                24.010604858398438,
                64.4209213256836
              ],
              [
                24.54205894470215,
                64.78507995605469
              ],
              [
                24.564443588256836,
                64.93107604980469
              ],
              [
                25.234498977661133,
                64.93107604980469
              ],
              [
                25.233224868774414,
                65.51705932617188
              ],
              [
                24.944276809692383,
                65.51705932617188
              ],
              [
                24.956022262573242,
                65.59053039550781
              ],
              [
                24.666847229003906,
                65.59053039550781
              ],
              [
                24.49690818786621,
                65.73763275146484
              ],
              [
                24.121912002563477,
                65.8112564086914
              ],
              [
                24.025293350219727,
                65.8112564086914
              ],
              [
                24.05880355834961,
                66.0324478149414
              ],
              [
                23.70433235168457,
                66.25411987304688
              ],
              [
                23.902938842773438,
                66.92203521728516
              ],
              [
                23.545406341552734,
                67.14566802978516
              ],
              [
                23.689157485961914,
                67.44463348388672
              ],
              [
                23.4054012298584,
                67.51952362060547
              ],
              [
                23.58470916748047,
                68.04534912109375
              ],
              [
                23.40987205505371,
                68.19611358642578
              ],
              [
                23.211511611938477,
                68.19611358642578
              ],
              [
                23.223005294799805,
                68.27159118652344
              ],
              [
                23.02447509765625,
                68.27159118652344
              ],
              [
                23.035846710205078,
                68.34712219238281
              ],
              [
                21.874967575073242,
                68.57408905029297
              ],
              [
                21.507225036621094,
                68.8016128540039
              ],
              [
                21.11773109436035,
                68.87757110595703
              ],
              [
                20.947467803955078,
                69.10584259033203
              ],
              [
                21.067846298217773,
                69.25833129882812
              ],
              [
                21.770601272583008,
                69.25833129882812
              ],
              [
                22.217212677001953,
                68.87757110595703
              ],
              [
                22.417118072509766,
                68.87757110595703
              ],
              [
                22.406017303466797,
                68.8016128540039
              ],
              [
                22.79408073425293,
                68.7257080078125
              ],
              [
                22.782730102539062,
                68.64987182617188
              ],
              [
                24.403335571289062,
                68.8016128540039
              ],
              [
                24.390546798706055,
                68.7257080078125
              ],
              [
                24.863161087036133,
                68.57408905029297
              ],
              [
                25.429479598999023,
                68.95359802246094
              ],
              [
                25.629560470581055,
                68.95359802246094
              ],
              [
                25.657630920410156,
                69.10584259033203
              ],
              [
                25.757848739624023,
                69.10584259033203
              ],
              [
                25.858652114868164,
                69.64068603515625
              ],
              [
                26.524911880493164,
                69.9477310180664
              ],
              [
                28.161184310913086,
                70.024658203125
              ],
              [
                28.144235610961914,
                69.9477310180664
              ],
              [
                28.531824111938477,
                69.8708724975586
              ],
              [
                28.514657974243164,
                69.79407501220703
              ],
              [
                29.204097747802734,
                69.71734619140625
              ],
              [
                29.269622802734375,
                69.5640869140625
              ],
              [
                28.798139572143555,
                69.25833129882812
              ],
              [
                28.76433563232422,
                69.10584259033203
              ],
              [
                29.165199279785156,
                69.10584259033203
              ],
              [
                29.317562103271484,
                69.33467864990234
              ],
              [
                29.938522338867188,
                69.41107940673828
              ],
              [
                30.194869995117188,
                69.64068603515625
              ],
              [
                30.68014907836914,
                69.5640869140625
              ],
              [
                30.919960021972656,
                69.71734619140625
              ],
              [
                30.958600997924805,
                69.8708724975586
              ],
              [
                31.059717178344727,
                69.8708724975586
              ]
            ]
          ]
        ]
      }
    }
  ]
}