{
  "type": "FeatureCollection",
  "name": "territory-887",
  "features": [
    {
      "type": "Feature",
      "properties": {
        "Name": "Polish Armed Forces",
        "FromYear": 1918,
        "ToYear": 1918,
        "Area": 50816.56953125644,
        "Type": "POLITY",
        "Wikipedia": "Polish Land Forces",
        "Wikidata": "Q248989",
        "SeshatID": "",
        "Components": "",
        "MemberOf": ""
      },
      "geometry": {
        "type": "Polygon",
        "coordinates": [
          [
            [
              29.8008975982666,
              55.021148681640625
            ],
            [
              29.444583892822266,
              53.32708740234375
            ],
            [
              29.530553817749023,
              53.32708740234375
            ],
            [
              29.513803482055664,
              52.653533935546875
            ],
            [
              29.59931755065918,
              52.653533935546875
            ],
            [
              29.56904411315918,
              52.4518928527832
            ],
            [
              29.784788131713867,
              52.18334197998047
            ],
            [
              29.75486183166504,
              51.98215103149414
            ],
            [
              29.839937210083008,
              51.98215103149414
            ],
            [
              29.81020736694336,
              51.78114318847656
            ],
            [
              29.895153045654297,
              51.78114318847656
            ],
            [
              29.940628051757812,
              51.51342010498047
            ],
            [
              29.93085289001465,
              51.44654083251953
            ],
            [
              29.25299644470215,
              51.44654083251953
            ],
            [
              29.1116943359375,
              51.64724349975586
            ],
            [
              28.847820281982422,
              51.580322265625
            ],
            [
              28.46949005126953,
              51.91512680053711
            ],
            [
              28.459081649780273,
              52.4518928527832
            ],
            [
              28.29770851135254,
              52.51908493041992
            ],
            [
              28.25950050354004,
              52.85536575317383
            ],
            [
              28.17384910583496,
              52.85536575317383
            ],
            [
              28.110076904296875,
              54.20612335205078
            ],
            [
              27.956716537475586,
              54.341712951660156
            ],
            [
              27.86298942565918,
              54.88506317138672
            ],
            [
              27.775920867919922,
              54.88506317138672
            ],
            [
              27.77463150024414,
              56.04508590698242
            ],
            [
              27.862560272216797,
              56.04508590698242
            ],
            [
              27.971586227416992,
              56.182064056396484
            ],
            [
              28.14765167236328,
              56.182064056396484
            ],
            [
              28.576887130737305,
              56.11355972290039
            ],
            [
              28.730878829956055,
              55.97663879394531
            ],
            [
              29.521774291992188,
              55.97663879394531
            ],
            [
              29.55270767211914,
              55.63479995727539
            ],
            [
              29.769987106323242,
              55.36180877685547
            ],
            [
              29.713729858398438,
              55.021148681640625
            ],
            [
              29.8008975982666,
              55.021148681640625
            ]
          ]
        ]
      }
    }
  ]
}