{
  "type": "FeatureCollection",
  "name": "territory-888",
  "features": [
    {
      "type": "Feature",
      "properties": {
        "Name": "Kingdom of Iceland",
        "FromYear": 1918,
        "ToYear": 1938,
        "Area": 112114.69138035986,
        "Type": "POLITY",
        "Wikipedia": "Kingdom of Iceland",
        "Wikidata": "Q62567",
        "SeshatID": "",
        "Components": "",
        "MemberOf": ""
      },
      "geometry": {
        "type": "Polygon",
        "coordinates": [
          [
            [
              -20.78151512145996,
              65.73763275146484
            ],
            [
              -20.757463455200195,
              65.66405487060547
            ],
            [
              -20.540699005126953,
              65.59053039550781
            ],
            [
              -20.39534568786621,
              65.73763275146484
            ],
            [
              -20.539321899414062,
              66.18017578125
            ],
            [
              -20.0543155670166,
              66.18017578125
            ],
            [
              -20.006807327270508,
              66.0324478149414
            ],
            [
              -19.549598693847656,
              65.8112564086914
            ],
            [
              -19.569307327270508,
              66.18017578125
            ],
            [
              -19.181303024291992,
              66.18017578125
            ],
            [
              -19.2044677734375,
              66.25411987304688
            ],
            [
              -18.719074249267578,
              66.25411987304688
            ],
            [
              -18.36039924621582,
              66.0324478149414
            ],
            [
              -18.427837371826172,
              66.25411987304688
            ],
            [
              -18.039522171020508,
              66.25411987304688
            ],
            [
              -17.58561897277832,
              66.0324478149414
            ],
            [
              -17.457050323486328,
              66.25411987304688
            ],
            [
              -16.659265518188477,
              66.18017578125
            ],
            [
              -16.668289184570312,
              66.55042266845703
            ],
            [
              -15.791775703430176,
              66.55042266845703
            ],
            [
              -15.612554550170898,
              66.25411987304688
            ],
            [
              -15.341450691223145,
              66.32811737060547
            ],
            [
              -15.36164379119873,
              66.40216064453125
            ],
            [
              -15.069941520690918,
              66.40216064453125
            ],
            [
              -14.990460395812988,
              66.10628509521484
            ],
            [
              -14.699687004089355,
              66.10628509521484
            ],
            [
              -14.641382217407227,
              65.88493347167969
            ],
            [
              -14.718679428100586,
              65.8112564086914
            ],
            [
              -14.332205772399902,
              65.8112564086914
            ],
            [
              -14.294187545776367,
              65.66405487060547
            ],
            [
              -13.696913719177246,
              65.59053039550781
            ],
            [
              -13.64181137084961,
              65.3702621459961
            ],
            [
              -13.719640731811523,
              65.29694366455078
            ],
            [
              -13.509321212768555,
              65.22367095947266
            ],
            [
              -13.4732027053833,
              65.07727813720703
            ],
            [
              -13.934198379516602,
              65.004150390625
            ],
            [
              -13.879453659057617,
              64.78507995605469
            ],
            [
              -14.070605278015137,
              64.78507995605469
            ],
            [
              -14.052313804626465,
              64.71215057373047
            ],
            [
              -14.434326171875,
              64.71215057373047
            ],
            [
              -14.474173545837402,
              64.49365234375
            ],
            [
              -14.741366386413574,
              64.4209213256836
            ],
            [
              -14.799264907836914,
              64.27558898925781
            ],
            [
              -15.274616241455078,
              64.27558898925781
            ],
            [
              -15.503076553344727,
              64.4209213256836
            ],
            [
              -15.464756965637207,
              64.27558898925781
            ],
            [
              -16.091144561767578,
              64.13044738769531
            ],
            [
              -16.071674346923828,
              64.05794525146484
            ],
            [
              -16.601186752319336,
              63.91307830810547
            ],
            [
              -16.581457138061523,
              63.84071350097656
            ],
            [
              -17.696674346923828,
              63.768394470214844
            ],
            [
              -18.160297393798828,
              63.4074821472168
            ],
            [
              -19.38524055480957,
              63.4074821472168
            ],
            [
              -19.80586051940918,
              63.55171203613281
            ],
            [
              -20.372051239013672,
              63.55171203613281
            ],
            [
              -20.533912658691406,
              63.768394470214844
            ],
            [
              -21.14751434326172,
              63.91307830810547
            ],
            [
              -22.803701400756836,
              63.768394470214844
            ],
            [
              -22.901348114013672,
              64.05794525146484
            ],
            [
              -22.831005096435547,
              64.13044738769531
            ],
            [
              -22.33220863342285,
              64.05794525146484
            ],
            [
              -22.356367111206055,
              64.13044738769531
            ],
            [
              -22.16651153564453,
              64.13044738769531
            ],
            [
              -22.02460289001465,
              64.27558898925781
            ],
            [
              -22.097030639648438,
              64.49365234375
            ],
            [
              -22.50274085998535,
              64.56643676757812
            ],
            [
              -22.576860427856445,
              64.78507995605469
            ],
            [
              -23.984630584716797,
              64.71215057373047
            ],
            [
              -24.158178329467773,
              64.93107604980469
            ],
            [
              -22.605852127075195,
              65.15044403076172
            ],
            [
              -22.585281372070312,
              65.3702621459961
            ],
            [
              -22.033103942871094,
              65.44363403320312
            ],
            [
              -22.05799674987793,
              65.51705932617188
            ],
            [
              -23.31010627746582,
              65.51705932617188
            ],
            [
              -23.284238815307617,
              65.44363403320312
            ],
            [
              -24.02777671813965,
              65.3702621459961
            ],
            [
              -24.369583129882812,
              65.51705932617188
            ],
            [
              -24.423202514648438,
              65.66405487060547
            ],
            [
              -24.13380241394043,
              65.66405487060547
            ],
            [
              -24.214139938354492,
              65.88493347167969
            ],
            [
              -23.80080795288086,
              65.8112564086914
            ],
            [
              -23.907499313354492,
              66.10628509521484
            ],
            [
              -23.61672592163086,
              66.10628509521484
            ],
            [
              -23.670089721679688,
              66.25411987304688
            ],
            [
              -23.281774520874023,
              66.25411987304688
            ],
            [
              -22.938255310058594,
              66.10628509521484
            ],
            [
              -23.1668701171875,
              66.47626495361328
            ],
            [
              -22.972246170043945,
              66.47626495361328
            ],
            [
              -22.998668670654297,
              66.55042266845703
            ],
            [
              -22.609107971191406,
              66.55042266845703
            ],
            [
              -21.484390258789062,
              66.10628509521484
            ],
            [
              -21.3837833404541,
              65.51705932617188
            ],
            [
              -21.26317596435547,
              65.44363403320312
            ],
            [
              -20.974599838256836,
              65.73763275146484
            ],
            [
              -20.78151512145996,
              65.73763275146484
            ]
          ]
        ]
      }
    }
  ]
}