{
  "type": "FeatureCollection",
  "name": "territory-889",
  "features": [
    {
      "type": "Feature",
      "properties": {
        "Name": "Czechoslovakia",
        "FromYear": 1922,
        "ToYear": 1935,
        "Area": 145015.80951167512,
        "Type": "POLITY",
        "Wikipedia": "Czechoslovakia",
        "Wikidata": "Q33946",
        "SeshatID": "cz_czechoslovakia",
        "Components": "",
        "MemberOf": ""
      },
      "geometry": {
        "type": "Polygon",
        "coordinates": [
          [
            [
              19.23756217956543,
              49.84712600708008
            ],
            [
              19.3969669342041,
              49.71431350708008
            ],
            [
              19.388931274414062,
              49.58156967163086
            ],
            [
              19.865541458129883,
              49.18375015258789
            ],
            [
              20.21193504333496,
              49.38258361816406
            ],
            [
              21.79827117919922,
              49.38258361816406
            ],
            [
              22.5230712890625,
              49.051273345947266
            ],
            [
              22.77837371826172,
              49.11750411987305
            ],
            [
              23.089706420898438,
              48.852684020996094
            ],
            [
              23.666343688964844,
              48.786521911621094
            ],
            [
              23.975753784179688,
              48.52202224731445
            ],
            [
              24.224782943725586,
              48.52202224731445
            ],
            [
              24.61580467224121,
              48.257774353027344
            ],
            [
              24.680757522583008,
              48.059749603271484
            ],
            [
              24.503538131713867,
              47.92780685424805
            ],
            [
              23.75934410095215,
              47.92780685424805
            ],
            [
              23.356613159179688,
              48.059749603271484
            ],
            [
              22.854907989501953,
              47.993770599365234
            ],
            [
              22.222579956054688,
              48.38986587524414
            ],
            [
              20.576623916625977,
              48.5881233215332
            ],
            [
              20.315011978149414,
              48.38986587524414
            ],
            [
              20.306774139404297,
              48.257774353027344
            ],
            [
              19.88462257385254,
              48.1257438659668
            ],
            [
              19.474376678466797,
              48.191749572753906
            ],
            [
              19.301420211791992,
              48.059749603271484
            ],
            [
              18.887624740600586,
              48.059749603271484
            ],
            [
              18.540157318115234,
              47.730003356933594
            ],
            [
              17.714326858520508,
              47.730003356933594
            ],
            [
              17.064254760742188,
              47.993770599365234
            ],
            [
              17.069608688354492,
              48.1257438659668
            ],
            [
              16.829010009765625,
              48.323814392089844
            ],
            [
              16.92527961730957,
              48.654239654541016
            ],
            [
              16.76439666748047,
              48.786521911621094
            ],
            [
              16.179914474487305,
              48.72037124633789
            ],
            [
              15.68774127960205,
              48.91886520385742
            ],
            [
              14.940543174743652,
              48.98506164550781
            ],
            [
              14.850005149841309,
              48.72037124633789
            ],
            [
              14.597285270690918,
              48.5881233215332
            ],
            [
              14.182053565979004,
              48.5881233215332
            ],
            [
              13.937092781066895,
              48.786521911621094
            ],
            [
              13.770781517028809,
              48.786521911621094
            ],
            [
              12.532414436340332,
              49.51522445678711
            ],
            [
              12.534139633178711,
              49.64793395996094
            ],
            [
              12.36764907836914,
              49.71431350708008
            ],
            [
              12.370920181274414,
              49.98000717163086
            ],
            [
              12.204005241394043,
              50.04647445678711
            ],
            [
              12.20633602142334,
              50.2459831237793
            ],
            [
              12.376081466674805,
              50.37908172607422
            ],
            [
              12.796454429626465,
              50.37908172607422
            ],
            [
              13.391927719116211,
              50.71213912963867
            ],
            [
              14.153997421264648,
              50.84549331665039
            ],
            [
              14.328418731689453,
              51.04566955566406
            ],
            [
              14.497381210327148,
              51.04566955566406
            ],
            [
              14.577799797058105,
              50.912200927734375
            ],
            [
              15.255345344543457,
              50.97892379760742
            ],
            [
              15.416954040527344,
              50.77880859375
            ],
            [
              16.338764190673828,
              50.64549255371094
            ],
            [
              16.24351692199707,
              50.37908172607422
            ],
            [
              16.487279891967773,
              50.17946243286133
            ],
            [
              16.823102951049805,
              50.17946243286133
            ],
            [
              16.919164657592773,
              50.445655822753906
            ],
            [
              17.25562286376953,
              50.445655822753906
            ],
            [
              17.333251953125,
              50.312522888183594
            ],
            [
              17.750011444091797,
              50.2459831237793
            ],
            [
              17.739870071411133,
              50.04647445678711
            ],
            [
              18.323387145996094,
              49.98000717163086
            ],
            [
              18.643827438354492,
              49.71431350708008
            ],
            [
              18.97855567932129,
              49.71431350708008
            ],
            [
              19.23756217956543,
              49.84712600708008
            ]
          ]
        ]
      }
    }
  ]
}