{
  "type": "FeatureCollection",
  "name": "territory-890",
  "features": [
    {
      "type": "Feature",
      "properties": {
        "Name": "Hungarian Republic",
        "FromYear": 1941,
        "ToYear": 1942,
        "Area": 174057.2431482691,
        "Type": "POLITY",
        "Wikipedia": "Hungary",
        "Wikidata": "Q28",
        "SeshatID": "",
        "Components": "",
        "MemberOf": ""
      },
      "geometry": {
        "type": "Polygon",
        "coordinates": [
          [
            [
              16.103771209716797,
              46.480194091796875
            ],
            [
              16.101640701293945,
              46.414546966552734
            ],
            [
              16.019739151000977,
              46.414546966552734
            ],
            [
              15.860001564025879,
              46.54585266113281
            ],
            [
              15.864084243774414,
              46.677207946777344
            ],
            [
              16.203187942504883,
              47.005828857421875
            ],
            [
              16.452110290527344,
              47.07159423828125
            ],
            [
              16.46375846862793,
              47.4006233215332
            ],
            [
              16.63099479675293,
              47.46647262573242
            ],
            [
              16.63585662841797,
              47.598209381103516
            ],
            [
              16.475584030151367,
              47.730003356933594
            ],
            [
              16.885942459106445,
              47.664100646972656
            ],
            [
              17.056297302246094,
              47.79592514038086
            ],
            [
              17.157867431640625,
              48.257774353027344
            ],
            [
              18.07569122314453,
              48.38986587524414
            ],
            [
              18.98445701599121,
              48.323814392089844
            ],
            [
              19.157520294189453,
              48.455936431884766
            ],
            [
              19.74224090576172,
              48.52202224731445
            ],
            [
              20.090635299682617,
              48.786521911621094
            ],
            [
              20.668357849121094,
              48.72037124633789
            ],
            [
              20.74271583557129,
              48.5881233215332
            ],
            [
              20.91771697998047,
              48.72037124633789
            ],
            [
              21.74890899658203,
              48.72037124633789
            ],
            [
              22.154504776000977,
              48.5881233215332
            ],
            [
              22.43976593017578,
              49.051273345947266
            ],
            [
              22.77837371826172,
              49.11750411987305
            ],
            [
              22.928722381591797,
              48.91886520385742
            ],
            [
              23.666343688964844,
              48.786521911621094
            ],
            [
              23.975753784179688,
              48.52202224731445
            ],
            [
              24.46190071105957,
              48.38986587524414
            ],
            [
              24.686708450317383,
              48.1257438659668
            ],
            [
              24.586227416992188,
              47.92780685424805
            ],
            [
              24.90500259399414,
              47.79592514038086
            ],
            [
              24.86365509033203,
              47.33478927612305
            ],
            [
              25.016605377197266,
              47.20316696166992
            ],
            [
              25.668907165527344,
              47.13737487792969
            ],
            [
              25.72661018371582,
              46.87434005737305
            ],
            [
              25.966814041137695,
              46.808616638183594
            ],
            [
              25.942142486572266,
              46.54585266113281
            ],
            [
              26.477930068969727,
              46.1520881652832
            ],
            [
              26.35262107849121,
              45.693260192871094
            ],
            [
              26.02040672302246,
              45.62776184082031
            ],
            [
              25.950939178466797,
              45.75876998901367
            ],
            [
              25.63054847717285,
              45.82429504394531
            ],
            [
              25.572534561157227,
              46.08650588989258
            ],
            [
              25.420791625976562,
              46.21768569946289
            ],
            [
              25.09358024597168,
              46.21768569946289
            ],
            [
              25.023225784301758,
              46.348915100097656
            ],
            [
              24.695749282836914,
              46.348915100097656
            ],
            [
              24.220800399780273,
              46.54585266113281
            ],
            [
              24.160554885864258,
              46.808616638183594
            ],
            [
              23.99635124206543,
              46.808616638183594
            ],
            [
              24.00715446472168,
              46.94007873535156
            ],
            [
              23.848169326782227,
              47.005828857421875
            ],
            [
              23.503734588623047,
              46.808616638183594
            ],
            [
              23.175323486328125,
              46.808616638183594
            ],
            [
              22.697311401367188,
              47.005828857421875
            ],
            [
              22.36849594116211,
              47.005828857421875
            ],
            [
              22.29574966430664,
              47.13737487792969
            ],
            [
              22.048933029174805,
              47.13737487792969
            ],
            [
              21.866199493408203,
              46.87434005737305
            ],
            [
              21.183761596679688,
              46.480194091796875
            ],
            [
              21.175386428833008,
              46.348915100097656
            ],
            [
              20.263416290283203,
              46.1520881652832
            ],
            [
              19.850940704345703,
              46.08650588989258
            ],
            [
              19.836498260498047,
              45.82429504394531
            ],
            [
              20.07762336730957,
              45.75876998901367
            ],
            [
              19.992393493652344,
              45.693260192871094
            ],
            [
              20.055559158325195,
              45.36587905883789
            ],
            [
              19.885604858398438,
              45.23500442504883
            ],
            [
              19.235076904296875,
              45.23500442504883
            ],
            [
              18.92267417907715,
              45.496795654296875
            ],
            [
              18.355560302734375,
              45.56227111816406
            ],
            [
              17.63585090637207,
              45.889827728271484
            ],
            [
              17.63857650756836,
              45.95537567138672
            ],
            [
              17.55690574645996,
              45.95537567138672
            ],
            [
              17.55421257019043,
              45.889827728271484
            ],
            [
              17.151081085205078,
              46.02093505859375
            ],
            [
              16.915746688842773,
              46.283294677734375
            ],
            [
              16.424732208251953,
              46.283294677734375
            ],
            [
              16.183542251586914,
              46.414546966552734
            ],
            [
              16.185707092285156,
              46.480194091796875
            ],
            [
              16.103771209716797,
              46.480194091796875
            ]
          ],
          [
            [
              16.515750885009766,
              46.54585266113281
            ],
            [
              16.436054229736328,
              46.61152267456055
            ],
            [
              16.354053497314453,
              46.61152267456055
            ],
            [
              16.26984405517578,
              46.54585266113281
            ],
            [
              16.515750885009766,
              46.54585266113281
            ]
          ]
        ]
      }
    }
  ]
}