{
  "type": "FeatureCollection",
  "name": "territory-893",
  "features": [
    {
      "type": "Feature",
      "properties": {
        "Name": "Kingdom of Lithuania",
        "FromYear": 1924,
        "ToYear": 1935,
        "Area": 62642.17400756989,
        "Type": "POLITY",
        "Wikipedia": "Kingdom of Lithuania",
        "Wikidata": "Q1656775",
        "SeshatID": "",
        "Components": "",
        "MemberOf": ""
      },
      "geometry": {
        "type": "Polygon",
        "coordinates": [
          [
            [
              26.4078426361084,
              55.70311737060547
            ],
            [
              25.869340896606445,
              54.95309066772461
            ],
            [
              25.607982635498047,
              54.95309066772461
            ],
            [
              25.233776092529297,
              54.74907684326172
            ],
            [
              25.104665756225586,
              54.4095458984375
            ],
            [
              24.733354568481445,
              54.20612335205078
            ],
            [
              24.709178924560547,
              54.00291442871094
            ],
            [
              24.536300659179688,
              54.00291442871094
            ],
            [
              24.42633819580078,
              53.799922943115234
            ],
            [
              24.25374412536621,
              53.799922943115234
            ],
            [
              23.871257781982422,
              53.462066650390625
            ],
            [
              23.613069534301758,
              53.462066650390625
            ],
            [
              23.556047439575195,
              53.732303619384766
            ],
            [
              23.469797134399414,
              53.732303619384766
            ],
            [
              23.4990291595459,
              54.00291442871094
            ],
            [
              23.18937873840332,
              54.341712951660156
            ],
            [
              22.67630386352539,
              54.4095458984375
            ],
            [
              22.71874237060547,
              54.817054748535156
            ],
            [
              22.812959671020508,
              54.88506317138672
            ],
            [
              22.573020935058594,
              55.089229583740234
            ],
            [
              21.788057327270508,
              55.089229583740234
            ],
            [
              21.458690643310547,
              55.29362487792969
            ],
            [
              21.196584701538086,
              55.29362487792969
            ],
            [
              21.202974319458008,
              55.36180877685547
            ],
            [
              20.96585464477539,
              55.63479995727539
            ],
            [
              20.9976863861084,
              55.97663879394531
            ],
            [
              20.909809112548828,
              55.97663879394531
            ],
            [
              20.916179656982422,
              56.04508590698242
            ],
            [
              21.18651008605957,
              56.11355972290039
            ],
            [
              21.382530212402344,
              56.319149017333984
            ],
            [
              21.74201202392578,
              56.387733459472656
            ],
            [
              23.41761016845703,
              56.387733459472656
            ],
            [
              24.1064510345459,
              56.25059127807617
            ],
            [
              24.82863998413086,
              56.387733459472656
            ],
            [
              25.066509246826172,
              56.182064056396484
            ],
            [
              25.761505126953125,
              56.11355972290039
            ],
            [
              25.8309326171875,
              55.97663879394531
            ],
            [
              26.339128494262695,
              55.83982467651367
            ],
            [
              26.4078426361084,
              55.70311737060547
            ]
          ]
        ]
      }
    }
  ]
}