{
  "type": "FeatureCollection",
  "name": "territory-894",
  "features": [
    {
      "type": "Feature",
      "properties": {
        "Name": "Ukrainian People's Republic",
        "FromYear": 1919,
        "ToYear": 1919,
        "Area": 522687.88443756406,
        "Type": "POLITY",
        "Wikipedia": "Ukrainian State",
        "Wikidata": "Q1508143",
        "SeshatID": "",
        "Components": "",
        "MemberOf": ""
      },
      "geometry": {
        "type": "Polygon",
        "coordinates": [
          [
            [
              34.62773132324219,
              51.17921447753906
            ],
            [
              34.71229553222656,
              51.17921447753906
            ],
            [
              35.13511657714844,
              51.17921447753906
            ],
            [
              35.472293853759766,
              50.71213912963867
            ],
            [
              35.42439651489258,
              50.445655822753906
            ],
            [
              35.580692291259766,
              50.37908172607422
            ],
            [
              36.18143081665039,
              50.445655822753906
            ],
            [
              36.396915435791016,
              50.2459831237793
            ],
            [
              36.64889907836914,
              50.2459831237793
            ],
            [
              36.84181213378906,
              50.37908172607422
            ],
            [
              37.44314956665039,
              50.445655822753906
            ],
            [
              37.65684127807617,
              50.2459831237793
            ],
            [
              37.63133239746094,
              50.11296081542969
            ],
            [
              37.8575439453125,
              49.98000717163086
            ],
            [
              38.457420349121094,
              50.04647445678711
            ],
            [
              38.6698112487793,
              49.84712600708008
            ],
            [
              39.242881774902344,
              49.78071212768555
            ],
            [
              39.326602935791016,
              49.78071212768555
            ],
            [
              40.096256256103516,
              49.44889450073242
            ],
            [
              40.04314041137695,
              49.18375015258789
            ],
            [
              39.766963958740234,
              49.051273345947266
            ],
            [
              39.7282600402832,
              48.852684020996094
            ],
            [
              39.81145095825195,
              48.852684020996094
            ],
            [
              39.67728805541992,
              48.5881233215332
            ],
            [
              39.90098571777344,
              48.455936431884766
            ],
            [
              39.9209098815918,
              48.1257438659668
            ],
            [
              39.52838134765625,
              47.79592514038086
            ],
            [
              38.796695709228516,
              47.86185836791992
            ],
            [
              38.690391540527344,
              47.730003356933594
            ],
            [
              38.52522659301758,
              47.730003356933594
            ],
            [
              38.2427864074707,
              47.53233337402344
            ],
            [
              38.18561553955078,
              47.20316696166992
            ],
            [
              38.103309631347656,
              47.20316696166992
            ],
            [
              37.16523361206055,
              47.005828857421875
            ],
            [
              37.2257080078125,
              46.87434005737305
            ],
            [
              36.90787887573242,
              46.94007873535156
            ],
            [
              36.80437088012695,
              46.808616638183594
            ],
            [
              35.634639739990234,
              46.677207946777344
            ],
            [
              35.24697494506836,
              46.283294677734375
            ],
            [
              34.75596237182617,
              46.283294677734375
            ],
            [
              34.736690521240234,
              46.1520881652832
            ],
            [
              34.0825309753418,
              46.1520881652832
            ],
            [
              34.019439697265625,
              46.283294677734375
            ],
            [
              33.610260009765625,
              46.283294677734375
            ],
            [
              33.59191131591797,
              46.1520881652832
            ],
            [
              32.946651458740234,
              46.21768569946289
            ],
            [
              32.84713363647461,
              46.08650588989258
            ],
            [
              32.683658599853516,
              46.08650588989258
            ],
            [
              32.0639533996582,
              46.348915100097656
            ],
            [
              31.81834602355957,
              46.348915100097656
            ],
            [
              31.835351943969727,
              46.480194091796875
            ],
            [
              32.16309356689453,
              46.480194091796875
            ],
            [
              32.18914794921875,
              46.677207946777344
            ],
            [
              31.787527084350586,
              46.74290466308594
            ],
            [
              31.606428146362305,
              46.61152267456055
            ],
            [
              30.87657928466797,
              46.677207946777344
            ],
            [
              30.484655380249023,
              46.1520881652832
            ],
            [
              30.40288543701172,
              46.1520881652832
            ],
            [
              30.262836456298828,
              46.348915100097656
            ],
            [
              29.943092346191406,
              46.414546966552734
            ],
            [
              29.88438606262207,
              46.61152267456055
            ],
            [
              29.564010620117188,
              46.677207946777344
            ],
            [
              29.340612411499023,
              46.87434005737305
            ],
            [
              29.2142276763916,
              47.20316696166992
            ],
            [
              28.915130615234375,
              47.46647262573242
            ],
            [
              29.028188705444336,
              47.730003356933594
            ],
            [
              28.87833023071289,
              47.86185836791992
            ],
            [
              28.555265426635742,
              47.92780685424805
            ],
            [
              28.570432662963867,
              48.059749603271484
            ],
            [
              28.4200382232666,
              48.191749572753906
            ],
            [
              27.537879943847656,
              48.455936431884766
            ],
            [
              27.39371109008789,
              48.654239654541016
            ],
            [
              26.472915649414062,
              48.5881233215332
            ],
            [
              25.419103622436523,
              48.852684020996094
            ],
            [
              24.984310150146484,
              48.654239654541016
            ],
            [
              24.61580467224121,
              48.257774353027344
            ],
            [
              24.224782943725586,
              48.52202224731445
            ],
            [
              23.975753784179688,
              48.52202224731445
            ],
            [
              23.666343688964844,
              48.786521911621094
            ],
            [
              22.928722381591797,
              48.91886520385742
            ],
            [
              22.77837371826172,
              49.11750411987305
            ],
            [
              22.700410842895508,
              49.18375015258789
            ],
            [
              22.7442626953125,
              49.71431350708008
            ],
            [
              24.354551315307617,
              50.77880859375
            ],
            [
              24.368066787719727,
              50.912200927734375
            ],
            [
              24.635141372680664,
              51.04566955566406
            ],
            [
              24.832534790039062,
              51.31283950805664
            ],
            [
              25.0018310546875,
              51.31283950805664
            ],
            [
              25.32332992553711,
              51.91512680053711
            ],
            [
              25.408361434936523,
              51.91512680053711
            ],
            [
              27.091962814331055,
              51.78114318847656
            ],
            [
              27.15992546081543,
              51.64724349975586
            ],
            [
              27.651716232299805,
              51.51342010498047
            ],
            [
              28.838560104370117,
              51.51342010498047
            ],
            [
              28.941974639892578,
              51.64724349975586
            ],
            [
              29.1116943359375,
              51.64724349975586
            ],
            [
              29.25299644470215,
              51.44654083251953
            ],
            [
              30.26978302001953,
              51.44654083251953
            ],
            [
              30.334653854370117,
              51.31283950805664
            ],
            [
              30.503950119018555,
              51.31283950805664
            ],
            [
              30.598634719848633,
              51.37968063354492
            ],
            [
              30.52397918701172,
              51.44654083251953
            ],
            [
              30.58497428894043,
              51.84812545776367
            ],
            [
              30.871335983276367,
              52.0491943359375
            ],
            [
              31.7445125579834,
              52.18334197998047
            ],
            [
              31.97787094116211,
              52.0491943359375
            ],
            [
              32.36371612548828,
              52.31757736206055
            ],
            [
              32.863807678222656,
              52.250450134277344
            ],
            [
              33.057857513427734,
              52.38472366333008
            ],
            [
              33.399208068847656,
              52.38472366333008
            ],
            [
              33.89899444580078,
              52.31757736206055
            ],
            [
              34.33665084838867,
              51.91512680053711
            ],
            [
              34.16746139526367,
              51.44654083251953
            ],
            [
              34.252193450927734,
              51.44654083251953
            ],
            [
              34.30126953125,
              51.24601745605469
            ],
            [
              34.62773132324219,
              51.17921447753906
            ]
          ]
        ]
      }
    }
  ]
}