{
  "type": "FeatureCollection",
  "name": "territory-897",
  "features": [
    {
      "type": "Feature",
      "properties": {
        "Name": "Republic of Austria",
        "FromYear": 1919,
        "ToYear": 1919,
        "Area": 87212.6445850849,
        "Type": "POLITY",
        "Wikipedia": "Austria",
        "Wikidata": "Q40",
        "SeshatID": "at_interwar_austria",
        "Components": "",
        "MemberOf": ""
      },
      "geometry": {
        "type": "Polygon",
        "coordinates": [
          [
            [
              16.829010009765625,
              48.323814392089844
            ],
            [
              17.066926956176758,
              48.059749603271484
            ],
            [
              16.48518943786621,
              47.993770599365234
            ],
            [
              16.3150634765625,
              47.86185836791992
            ],
            [
              16.303508758544922,
              47.53233337402344
            ],
            [
              16.138551712036133,
              47.53233337402344
            ],
            [
              16.032390594482422,
              46.808616638183594
            ],
            [
              15.864084243774414,
              46.677207946777344
            ],
            [
              14.878016471862793,
              46.61152267456055
            ],
            [
              14.625872611999512,
              46.348915100097656
            ],
            [
              13.237005233764648,
              46.54585266113281
            ],
            [
              11.844345092773438,
              46.677207946777344
            ],
            [
              11.105613708496094,
              46.414546966552734
            ],
            [
              11.187925338745117,
              46.61152267456055
            ],
            [
              10.367905616760254,
              46.61152267456055
            ],
            [
              10.44906997680664,
              46.94007873535156
            ],
            [
              10.36669635772705,
              47.005828857421875
            ],
            [
              10.202829360961914,
              46.87434005737305
            ],
            [
              9.9564208984375,
              46.87434005737305
            ],
            [
              9.625838279724121,
              47.13737487792969
            ],
            [
              9.625325202941895,
              47.20316696166992
            ],
            [
              9.54301929473877,
              47.20316696166992
            ],
            [
              9.542471885681152,
              47.26897048950195
            ],
            [
              9.541923522949219,
              47.33478927612305
            ],
            [
              9.541373252868652,
              47.4006233215332
            ],
            [
              9.623783111572266,
              47.4006233215332
            ],
            [
              9.62326717376709,
              47.46647262573242
            ],
            [
              9.622751235961914,
              47.53233337402344
            ],
            [
              9.952665328979492,
              47.53233337402344
            ],
            [
              10.118547439575195,
              47.33478927612305
            ],
            [
              10.36567211151123,
              47.33478927612305
            ],
            [
              10.447366714477539,
              47.598209381103516
            ],
            [
              10.859928131103516,
              47.53233337402344
            ],
            [
              11.024742126464844,
              47.4006233215332
            ],
            [
              11.933061599731445,
              47.664100646972656
            ],
            [
              12.75854206085205,
              47.664100646972656
            ],
            [
              12.839411735534668,
              47.53233337402344
            ],
            [
              13.004368782043457,
              47.53233337402344
            ],
            [
              13.088733673095703,
              47.664100646972656
            ],
            [
              12.924517631530762,
              47.730003356933594
            ],
            [
              12.927179336547852,
              47.92780685424805
            ],
            [
              12.762627601623535,
              47.993770599365234
            ],
            [
              12.765129089355469,
              48.191749572753906
            ],
            [
              13.26423168182373,
              48.323814392089844
            ],
            [
              13.434637069702148,
              48.5881233215332
            ],
            [
              13.768134117126465,
              48.654239654541016
            ],
            [
              13.770781517028809,
              48.786521911621094
            ],
            [
              13.937092781066895,
              48.786521911621094
            ],
            [
              14.182053565979004,
              48.5881233215332
            ],
            [
              14.597285270690918,
              48.5881233215332
            ],
            [
              14.850005149841309,
              48.72037124633789
            ],
            [
              14.940543174743652,
              48.98506164550781
            ],
            [
              15.68774127960205,
              48.91886520385742
            ],
            [
              16.179914474487305,
              48.72037124633789
            ],
            [
              16.76439666748047,
              48.786521911621094
            ],
            [
              16.92527961730957,
              48.654239654541016
            ],
            [
              16.829010009765625,
              48.323814392089844
            ]
          ]
        ]
      }
    }
  ]
}