{
  "type": "FeatureCollection",
  "name": "territory-899",
  "features": [
    {
      "type": "Feature",
      "properties": {
        "Name": "Republic of Latvia",
        "FromYear": 1936,
        "ToYear": 1938,
        "Area": 68177.3795578844,
        "Type": "POLITY",
        "Wikipedia": "Latvia",
        "Wikidata": "Q211",
        "SeshatID": "",
        "Components": "",
        "MemberOf": ""
      },
      "geometry": {
        "type": "Polygon",
        "coordinates": [
          [
            [
              27.77463150024414,
              56.04508590698242
            ],
            [
              27.557758331298828,
              55.77145767211914
            ],
            [
              26.865774154663086,
              55.83982467651367
            ],
            [
              26.4078426361084,
              55.70311737060547
            ],
            [
              26.339128494262695,
              55.83982467651367
            ],
            [
              25.8309326171875,
              55.97663879394531
            ],
            [
              25.761505126953125,
              56.11355972290039
            ],
            [
              25.066509246826172,
              56.182064056396484
            ],
            [
              24.82863998413086,
              56.387733459472656
            ],
            [
              24.458789825439453,
              56.25059127807617
            ],
            [
              23.41761016845703,
              56.387733459472656
            ],
            [
              21.470666885375977,
              56.319149017333984
            ],
            [
              21.382530212402344,
              56.319149017333984
            ],
            [
              21.375823974609375,
              56.25059127807617
            ],
            [
              20.916179656982422,
              56.04508590698242
            ],
            [
              20.92256736755371,
              56.11355972290039
            ],
            [
              20.866546630859375,
              56.45634460449219
            ],
            [
              20.954788208007812,
              56.45634460449219
            ],
            [
              21.000686645507812,
              56.937416076660156
            ],
            [
              21.280134201049805,
              57.07511901855469
            ],
            [
              21.307584762573242,
              57.35087585449219
            ],
            [
              21.602821350097656,
              57.62710189819336
            ],
            [
              22.51758575439453,
              57.8345832824707
            ],
            [
              23.40944480895996,
              57.07511901855469
            ],
            [
              23.667341232299805,
              57.00625228881836
            ],
            [
              24.23385238647461,
              57.28189468383789
            ],
            [
              24.205923080444336,
              57.7653923034668
            ],
            [
              24.214731216430664,
              57.8345832824707
            ],
            [
              24.77824592590332,
              58.042335510253906
            ],
            [
              25.404682159423828,
              58.042335510253906
            ],
            [
              26.09052085876465,
              57.8345832824707
            ],
            [
              26.407209396362305,
              57.55800247192383
            ],
            [
              27.30889129638672,
              57.62710189819336
            ],
            [
              27.800064086914062,
              57.35087585449219
            ],
            [
              27.646713256835938,
              56.937416076660156
            ],
            [
              28.19062614440918,
              56.45634460449219
            ],
            [
              28.14765167236328,
              56.182064056396484
            ],
            [
              27.77463150024414,
              56.04508590698242
            ]
          ]
        ]
      }
    }
  ]
}