{
  "type": "FeatureCollection",
  "name": "territory-9",
  "features": [
    {
      "type": "Feature",
      "properties": {
        "Name": "Middle Kingdom of Egypt",
        "FromYear": -1800,
        "ToYear": -1701,
        "Area": 433182.3059937801,
        "Type": "POLITY",
        "Wikipedia": "Middle Kingdom of Egypt",
        "Wikidata": "Q191324",
        "SeshatID": "eg_middle_k",
        "Components": "",
        "MemberOf": ""
      },
      "geometry": {
        "type": "Polygon",
        "coordinates": [
          [
            [
              31.100712813184785,
              31.601398909376332
            ],
            [
              31.103098511956162,
              31.601133686728325
            ],
            [
              31.55694512751292,
              31.44221803626223
            ],
            [
              31.87170017735304,
              31.534918030038103
            ],
            [
              31.9214823111845,
              31.529882183453562
            ],
            [
              32.20249114810904,
              31.290936083305773
            ],
            [
              32.0172182301798,
              31.380554051378187
            ],
            [
              31.909654105433173,
              31.527564250767764
            ],
            [
              31.777463277057542,
              31.27739109480343
            ],
            [
              32.02791823277353,
              31.21569106828189
            ],
            [
              32.07804519887338,
              31.082500110810475
            ],
            [
              32.27979123936085,
              31.124300158646317
            ],
            [
              32.2539252419132,
              31.281758246154396
            ],
            [
              32.68162639045118,
              31.04653444267623
            ],
            [
              32.68537449575814,
              31.04491985873768
            ],
            [
              32.98317848238166,
              30.403795187619494
            ],
            [
              33.24305778700193,
              30.1152052822329
            ],
            [
              34.771119545230206,
              29.499706703249092
            ],
            [
              34.83664109964674,
              29.500689444188595
            ],
            [
              34.40916328701436,
              28.3187450600817
            ],
            [
              34.4419361935448,
              27.996945021171264
            ],
            [
              34.25443620390742,
              27.728609118735015
            ],
            [
              33.763327085545264,
              28.021945053068723
            ],
            [
              33.24277317741233,
              28.554445015669284
            ],
            [
              33.17256333926328,
              28.99506423277664
            ],
            [
              32.741391196729566,
              29.45471808106277
            ],
            [
              32.575618106615394,
              30.002709143010616
            ],
            [
              32.47763617301253,
              29.936800058803303
            ],
            [
              32.3408270836643,
              29.594864173234686
            ],
            [
              32.59638225973872,
              29.340554044732716
            ],
            [
              32.6187451776996,
              28.984027110447915
            ],
            [
              33.55888224041913,
              27.88305406729066
            ],
            [
              33.49471810014205,
              27.643891044314046
            ],
            [
              33.828745156966214,
              27.255409109107436
            ],
            [
              33.938327142506765,
              26.655273221834076
            ],
            [
              34.191825939967266,
              26.27435569676798
            ],
            [
              34.01504197894072,
              26.13743369173029
            ],
            [
              33.03013148869665,
              25.88512834224023
            ],
            [
              32.82329835636685,
              25.3512484721135
            ],
            [
              33.076460891616534,
              25.118495074157384
            ],
            [
              33.36343970557533,
              24.395072350728956
            ],
            [
              33.22442622967705,
              22.350616829176673
            ],
            [
              32.26520029637555,
              22.382069990658092
            ],
            [
              31.472238260262273,
              21.771878650247054
            ],
            [
              31.190313455643214,
              21.419603237351627
            ],
            [
              30.65505142223217,
              21.571830506165032
            ],
            [
              31.375354152851486,
              22.778646198156807
            ],
            [
              31.431833218622767,
              23.190060638885157
            ],
            [
              31.047340674041656,
              23.670044153691734
            ],
            [
              30.45215652408429,
              24.09517240904862
            ],
            [
              28.677488855682665,
              24.534014479034028
            ],
            [
              28.146595894250883,
              24.945665015188467
            ],
            [
              27.673043477362757,
              25.66442308860826
            ],
            [
              27.82387497939445,
              26.329737797818424
            ],
            [
              28.701793580360647,
              27.904345273787722
            ],
            [
              29.16685721590751,
              28.080499992019416
            ],
            [
              29.557536690526018,
              28.56941920838324
            ],
            [
              29.663276489843405,
              28.964868573913108
            ],
            [
              29.67284988473266,
              29.266848089544563
            ],
            [
              29.527642955238036,
              29.313278898608317
            ],
            [
              29.119130880010847,
              29.82754694905033
            ],
            [
              28.49877565950512,
              31.054152901700505
            ],
            [
              29.18000015639838,
              30.830273220797732
            ],
            [
              30.064445171497525,
              31.32027307975135
            ],
            [
              30.289718207709452,
              31.23735409662011
            ],
            [
              30.35544506854661,
              31.50284501322864
            ],
            [
              30.95610918281863,
              31.575691127543095
            ],
            [
              30.54416328369458,
              31.393191110728825
            ],
            [
              30.90250020747968,
              31.420273208275432
            ],
            [
              31.126454099179075,
              31.496664196680797
            ],
            [
              30.97784513487638,
              31.583536085866363
            ],
            [
              31.100712813184785,
              31.601398909376332
            ]
          ]
        ]
      }
    }
  ]
}