{
  "type": "FeatureCollection",
  "name": "territory-905",
  "features": [
    {
      "type": "Feature",
      "properties": {
        "Name": "Provisional Priamurye Government",
        "FromYear": 1922,
        "ToYear": 1923,
        "Area": 344044.39704534155,
        "Type": "POLITY",
        "Wikipedia": "Provisional Priamurye Government",
        "Wikidata": "Q1381504",
        "SeshatID": "",
        "Components": "",
        "MemberOf": ""
      },
      "geometry": {
        "type": "MultiPolygon",
        "coordinates": [
          [
            [
              [
                140.42181396484375,
                50.37908172607422
              ],
              [
                140.50588989257812,
                50.37908172607422
              ],
              [
                140.48951721191406,
                50.17946243286133
              ],
              [
                140.74139404296875,
                50.17946243286133
              ],
              [
                140.43783569335938,
                49.84712600708008
              ],
              [
                140.5929718017578,
                49.64793395996094
              ],
              [
                140.38092041015625,
                49.316287994384766
              ],
              [
                140.46437072753906,
                49.316287994384766
              ],
              [
                140.2825469970703,
                48.91886520385742
              ],
              [
                140.36578369140625,
                48.91886520385742
              ],
              [
                140.19395446777344,
                48.72037124633789
              ],
              [
                140.27706909179688,
                48.72037124633789
              ],
              [
                140.16339111328125,
                48.5881233215332
              ],
              [
                140.24642944335938,
                48.5881233215332
              ],
              [
                140.02110290527344,
                48.323814392089844
              ],
              [
                139.35755920410156,
                47.92780685424805
              ],
              [
                138.8994903564453,
                47.26897048950195
              ],
              [
                138.62857055664062,
                47.13737487792969
              ],
              [
                138.41775512695312,
                46.87434005737305
              ],
              [
                138.49989318847656,
                46.87434005737305
              ],
              [
                138.34307861328125,
                46.677207946777344
              ],
              [
                138.42510986328125,
                46.677207946777344
              ],
              [
                137.8590850830078,
                45.95537567138672
              ],
              [
                136.71914672851562,
                45.10417556762695
              ],
              [
                136.1484375,
                44.45067596435547
              ],
              [
                135.986572265625,
                44.45067596435547
              ],
              [
                135.28416442871094,
                43.6026611328125
              ],
              [
                134.22183227539062,
                43.016544342041016
              ],
              [
                133.2723388671875,
                42.691246032714844
              ],
              [
                132.95187377929688,
                42.691246032714844
              ],
              [
                132.99696350097656,
                42.75628662109375
              ],
              [
                132.5611114501953,
                42.82133865356445
              ],
              [
                132.60623168945312,
                42.88639831542969
              ],
              [
                132.20521545410156,
                42.88639831542969
              ],
              [
                132.27102661132812,
                43.211830139160156
              ],
              [
                132.0999298095703,
                43.08163070678711
              ],
              [
                131.77874755859375,
                43.08163070678711
              ],
              [
                131.9146728515625,
                43.276947021484375
              ],
              [
                131.75390625,
                43.276947021484375
              ],
              [
                131.22511291503906,
                42.62621307373047
              ],
              [
                130.90475463867188,
                42.62621307373047
              ],
              [
                130.7727508544922,
                42.43117141723633
              ],
              [
                130.49652099609375,
                42.496177673339844
              ],
              [
                130.55673217773438,
                42.82133865356445
              ],
              [
                131.0021514892578,
                42.88639831542969
              ],
              [
                131.2716064453125,
                43.276947021484375
              ],
              [
                131.1560516357422,
                43.342071533203125
              ],
              [
                131.27944946289062,
                43.86341094970703
              ],
              [
                131.16409301757812,
                43.92862319946289
              ],
              [
                131.22174072265625,
                44.12431716918945
              ],
              [
                131.14096069335938,
                44.12431716918945
              ],
              [
                131.24566650390625,
                44.38538360595703
              ],
              [
                131.0616912841797,
                44.58129119873047
              ],
              [
                131.07415771484375,
                44.71194839477539
              ],
              [
                130.9120330810547,
                44.71194839477539
              ],
              [
                131.0526580810547,
                44.908016204833984
              ],
              [
                131.34326171875,
                44.973392486572266
              ],
              [
                131.69520568847656,
                45.23500442504883
              ],
              [
                132.73779296875,
                45.10417556762695
              ],
              [
                132.6899871826172,
                45.03877639770508
              ],
              [
                132.98153686523438,
                45.10417556762695
              ],
              [
                133.9088897705078,
                46.348915100097656
              ],
              [
                133.8270263671875,
                46.348915100097656
              ],
              [
                133.9267578125,
                46.480194091796875
              ],
              [
                133.84481811523438,
                46.480194091796875
              ],
              [
                134.04556274414062,
                46.74290466308594
              ],
              [
                133.96348571777344,
                46.74290466308594
              ],
              [
                134.0645294189453,
                46.87434005737305
              ],
              [
                133.98239135742188,
                46.87434005737305
              ],
              [
                134.18588256835938,
                47.13737487792969
              ],
              [
                134.10360717773438,
                47.13737487792969
              ],
              [
                134.36082458496094,
                47.46647262573242
              ],
              [
                134.6819610595703,
                47.664100646972656
              ],
              [
                134.50894165039062,
                47.86185836791992
              ],
              [
                134.6378936767578,
                48.1257438659668
              ],
              [
                134.49606323242188,
                48.257774353027344
              ],
              [
                134.54957580566406,
                48.323814392089844
              ],
              [
                135.18060302734375,
                48.5881233215332
              ],
              [
                136.151611328125,
                49.2500114440918
              ],
              [
                137.8451690673828,
                50.77880859375
              ],
              [
                139.23941040039062,
                51.71418380737305
              ],
              [
                140.1257781982422,
                52.18334197998047
              ],
              [
                140.9420623779297,
                52.31757736206055
              ],
              [
                141.1629638671875,
                52.4518928527832
              ],
              [
                141.24835205078125,
                52.4518928527832
              ],
              [
                141.19793701171875,
                52.31757736206055
              ],
              [
                141.53912353515625,
                52.31757736206055
              ],
              [
                141.3546142578125,
                52.0491943359375
              ],
              [
                141.45787048339844,
                51.98215103149414
              ],
              [
                140.82566833496094,
                51.51342010498047
              ],
              [
                140.93002319335938,
                51.44654083251953
              ],
              [
                140.65115356445312,
                51.24601745605469
              ],
              [
                140.77642822265625,
                51.112430572509766
              ],
              [
                140.58529663085938,
                50.912200927734375
              ],
              [
                140.66969299316406,
                50.912200927734375
              ],
              [
                140.60638427734375,
                50.84549331665039
              ],
              [
                140.42181396484375,
                50.37908172607422
              ]
            ]
          ],
          [
            [
              [
                138.0637969970703,
                56.387733459472656
              ],
              [
                137.4349822998047,
                55.97663879394531
              ],
              [
                136.37698364257812,
                55.56651306152344
              ],
              [
                136.3038787841797,
                55.498252868652344
              ],
              [
                136.11427307128906,
                55.56651306152344
              ],
              [
                136.18740844726562,
                55.63479995727539
              ],
              [
                135.17922973632812,
                55.83982467651367
              ],
              [
                136.16001892089844,
                56.662349700927734
              ],
              [
                137.46072387695312,
                57.35087585449219
              ],
              [
                139.66795349121094,
                58.180992126464844
              ],
              [
                140.5715789794922,
                58.11164855957031
              ],
              [
                140.6611328125,
                58.11164855957031
              ],
              [
                140.3434295654297,
                57.7653923034668
              ],
              [
                139.99501037597656,
                57.696231842041016
              ],
              [
                138.5133819580078,
                56.86860656738281
              ],
              [
                138.4359130859375,
                56.799827575683594
              ],
              [
                138.0637969970703,
                56.387733459472656
              ]
            ]
          ]
        ]
      }
    }
  ]
}