{
  "type": "FeatureCollection",
  "name": "territory-924",
  "features": [
    {
      "type": "Feature",
      "properties": {
        "Name": "Éire",
        "FromYear": 1973,
        "ToYear": 1975,
        "Area": 74990.29886781696,
        "Type": "POLITY",
        "Wikipedia": "Éire",
        "Wikidata": "Q5306909",
        "SeshatID": "",
        "Components": "",
        "MemberOf": ""
      },
      "geometry": {
        "type": "Polygon",
        "coordinates": [
          [
            [
              -6.241942882537842,
              53.39456558227539
            ],
            [
              -6.14714241027832,
              53.32708740234375
            ],
            [
              -6.086330413818359,
              52.85536575317383
            ],
            [
              -6.171980857849121,
              52.85536575317383
            ],
            [
              -6.14614200592041,
              52.653533935546875
            ],
            [
              -6.2316575050354,
              52.653533935546875
            ],
            [
              -6.427507877349854,
              52.18334197998047
            ],
            [
              -7.611197948455811,
              52.11625671386719
            ],
            [
              -8.075331687927246,
              51.78114318847656
            ],
            [
              -8.415112495422363,
              51.78114318847656
            ],
            [
              -8.481083869934082,
              51.64724349975586
            ],
            [
              -9.639079093933105,
              51.44654083251953
            ],
            [
              -9.808544158935547,
              51.44654083251953
            ],
            [
              -9.92369556427002,
              51.64724349975586
            ],
            [
              -10.167977333068848,
              51.580322265625
            ],
            [
              -10.188602447509766,
              51.71418380737305
            ],
            [
              -10.45379638671875,
              51.78114318847656
            ],
            [
              -10.485442161560059,
              51.98215103149414
            ],
            [
              -10.25121021270752,
              52.11625671386719
            ],
            [
              -10.506694793701172,
              52.11625671386719
            ],
            [
              -10.528071403503418,
              52.250450134277344
            ],
            [
              -9.941752433776855,
              52.31757736206055
            ],
            [
              -9.973213195800781,
              52.51908493041992
            ],
            [
              -9.727348327636719,
              52.586299896240234
            ],
            [
              -9.74826431274414,
              52.720787048339844
            ],
            [
              -9.437079429626465,
              52.92268753051758
            ],
            [
              -9.468400001525879,
              53.124786376953125
            ],
            [
              -9.382568359375,
              53.124786376953125
            ],
            [
              -10.209695816040039,
              53.462066650390625
            ],
            [
              -10.231764793395996,
              53.597137451171875
            ],
            [
              -9.984235763549805,
              53.664710998535156
            ],
            [
              -10.006207466125488,
              53.799922943115234
            ],
            [
              -9.833613395690918,
              53.799922943115234
            ],
            [
              -10.084067344665527,
              54.27390670776367
            ],
            [
              -9.672952651977539,
              54.4095458984375
            ],
            [
              -8.697977066040039,
              54.27390670776367
            ],
            [
              -8.642707824707031,
              54.47740173339844
            ],
            [
              -8.316265106201172,
              54.613189697265625
            ],
            [
              -8.837503433227539,
              54.613189697265625
            ],
            [
              -8.869585037231445,
              54.817054748535156
            ],
            [
              -8.532058715820312,
              54.88506317138672
            ],
            [
              -8.56389045715332,
              55.089229583740234
            ],
            [
              -8.41061782836914,
              55.225467681884766
            ],
            [
              -7.886708736419678,
              55.225467681884766
            ],
            [
              -7.819964408874512,
              55.36180877685547
            ],
            [
              -7.023349761962891,
              55.29362487792969
            ],
            [
              -7.013527870178223,
              55.225467681884766
            ],
            [
              -7.342834949493408,
              55.089229583740234
            ],
            [
              -7.497213840484619,
              54.95309066772461
            ],
            [
              -7.477262020111084,
              54.817054748535156
            ],
            [
              -7.815210342407227,
              54.74907684326172
            ],
            [
              -7.795026302337646,
              54.613189697265625
            ],
            [
              -8.132272720336914,
              54.545284271240234
            ],
            [
              -8.101698875427246,
              54.341712951660156
            ],
            [
              -7.638698101043701,
              54.138362884521484
            ],
            [
              -7.379094123840332,
              54.138362884521484
            ],
            [
              -7.225255489349365,
              54.27390670776367
            ],
            [
              -7.244589805603027,
              54.4095458984375
            ],
            [
              -7.071135520935059,
              54.4095458984375
            ],
            [
              -6.67752742767334,
              54.07062530517578
            ],
            [
              -6.331579685211182,
              54.07062530517578
            ],
            [
              -6.322505950927734,
              54.00291442871094
            ],
            [
              -6.286456108093262,
              53.732303619384766
            ],
            [
              -6.087455749511719,
              53.52959060668945
            ],
            [
              -6.241942882537842,
              53.39456558227539
            ]
          ]
        ]
      }
    }
  ]
}