{
  "type": "FeatureCollection",
  "name": "territory-926",
  "features": [
    {
      "type": "Feature",
      "properties": {
        "Name": "Free French",
        "FromYear": 1942,
        "ToYear": 1943,
        "Area": 2377812.519485628,
        "Type": "POLITY",
        "Wikipedia": "Free France",
        "Wikidata": "Q152582",
        "SeshatID": "",
        "Components": "",
        "MemberOf": ""
      },
      "geometry": {
        "type": "MultiPolygon",
        "coordinates": [
          [
            [
              [
                17.54012680053711,
                15.907554626464844
              ],
              [
                17.906015396118164,
                15.77897834777832
              ],
              [
                18.19386100769043,
                15.393251419067383
              ],
              [
                18.559375762939453,
                15.26467514038086
              ],
              [
                19.298263549804688,
                15.457538604736328
              ],
              [
                19.451379776000977,
                15.77897834777832
              ],
              [
                19.457427978515625,
                16.100418090820312
              ],
              [
                19.74696922302246,
                15.843266487121582
              ],
              [
                21.067623138427734,
                15.650403022766113
              ],
              [
                21.288349151611328,
                15.650403022766113
              ],
              [
                21.514667510986328,
                15.907554626464844
              ],
              [
                22.620216369628906,
                15.971842765808105
              ],
              [
                23.052614212036133,
                15.586114883422852
              ],
              [
                23.045000076293945,
                15.26467514038086
              ],
              [
                22.74348258972168,
                14.943235397338867
              ],
              [
                22.664186477661133,
                14.686083793640137
              ],
              [
                22.51580810546875,
                14.621796607971191
              ],
              [
                22.57798194885254,
                14.107494354248047
              ],
              [
                22.2054386138916,
                13.850343704223633
              ],
              [
                22.266767501831055,
                13.271754264831543
              ],
              [
                21.894859313964844,
                13.014603614807129
              ],
              [
                21.888460159301758,
                12.69316577911377
              ],
              [
                22.47354507446289,
                12.628878593444824
              ],
              [
                22.465726852416992,
                12.24315357208252
              ],
              [
                22.53510093688965,
                12.050291061401367
              ],
              [
                22.680299758911133,
                11.986002922058105
              ],
              [
                22.598047256469727,
                11.535990715026855
              ],
              [
                22.958913803100586,
                11.278841018676758
              ],
              [
                22.878021240234375,
                10.893115997314453
              ],
              [
                23.451618194580078,
                10.314528465270996
              ],
              [
                23.66318130493164,
                9.928803443908691
              ],
              [
                23.72589874267578,
                9.41450309753418
              ],
              [
                23.50156021118164,
                9.157352447509766
              ],
              [
                23.566953659057617,
                8.771627426147461
              ],
              [
                24.076921463012695,
                8.707340240478516
              ],
              [
                24.22038459777832,
                8.578764915466309
              ],
              [
                24.146059036254883,
                8.514476776123047
              ],
              [
                24.213891983032227,
                8.25732707977295
              ],
              [
                24.723649978637695,
                8.193038940429688
              ],
              [
                24.937376022338867,
                7.935888767242432
              ],
              [
                25.226688385009766,
                7.807313442230225
              ],
              [
                25.218721389770508,
                7.421587944030762
              ],
              [
                25.79710578918457,
                7.164437294006348
              ],
              [
                26.083538055419922,
                6.907287120819092
              ],
              [
                26.08084487915039,
                6.778711795806885
              ],
              [
                26.296966552734375,
                6.650136470794678
              ],
              [
                26.290231704711914,
                6.328698635101318
              ],
              [
                26.504953384399414,
                6.135835647583008
              ],
              [
                26.502262115478516,
                6.007260322570801
              ],
              [
                27.22317886352539,
                5.62153434753418
              ],
              [
                27.215042114257812,
                5.235808849334717
              ],
              [
                26.846609115600586,
                5.042945861816406
              ],
              [
                26.409351348876953,
                5.042945861816406
              ],
              [
                26.26624298095703,
                5.171521186828613
              ],
              [
                25.394269943237305,
                5.300096035003662
              ],
              [
                25.243330001831055,
                5.042945861816406
              ],
              [
                24.949260711669922,
                4.914370536804199
              ],
              [
                24.29593849182129,
                5.042945861816406
              ],
              [
                24.22054100036621,
                4.914370536804199
              ],
              [
                23.33989715576172,
                4.592932224273682
              ],
              [
                22.760662078857422,
                4.785795211791992
              ],
              [
                22.457063674926758,
                4.142918586730957
              ],
              [
                22.310155868530273,
                4.078630924224854
              ],
              [
                21.80381965637207,
                4.271493911743164
              ],
              [
                20.567659378051758,
                4.400069236755371
              ],
              [
                20.139705657958984,
                4.914370536804199
              ],
              [
                19.705862045288086,
                5.10723352432251
              ],
              [
                19.268592834472656,
                5.10723352432251
              ],
              [
                18.824682235717773,
                4.721507549285889
              ],
              [
                18.747371673583984,
                4.464356899261475
              ],
              [
                18.52657699584961,
                4.335781574249268
              ],
              [
                18.579145431518555,
                3.178604364395142
              ],
              [
                18.0556697845459,
                2.407152891159058
              ],
              [
                17.971233367919922,
                1.76427698135376
              ],
              [
                18.0428524017334,
                1.699989318847656
              ],
              [
                17.813817977905273,
                1.121401190757751
              ],
              [
                17.873321533203125,
                0.414238125085831
              ],
              [
                17.64887046813965,
                0.092800483107567
              ],
              [
                17.66450309753418,
                -0.421499729156494
              ],
              [
                17.520097732543945,
                -0.67864990234375
              ],
              [
                17.229829788208008,
                -0.871512532234192
              ],
              [
                17.230398178100586,
                -1.00008761882782
              ],
              [
                16.722021102905273,
                -1.257237911224365
              ],
              [
                16.433595657348633,
                -1.900113701820374
              ],
              [
                16.143207550048828,
                -2.092976570129395
              ],
              [
                16.072528839111328,
                -2.607277393341064
              ],
              [
                16.145339965820312,
                -2.607277393341064
              ],
              [
                16.147998809814453,
                -3.250153541564941
              ],
              [
                15.859294891357422,
                -3.893029928207397
              ],
              [
                15.641023635864258,
                -3.957317352294922
              ],
              [
                15.350887298583984,
                -4.278755664825439
              ],
              [
                15.205182075500488,
                -4.278755664825439
              ],
              [
                14.914715766906738,
                -4.535906314849854
              ],
              [
                14.915185928344727,
                -4.664481639862061
              ],
              [
                14.551765441894531,
                -4.921631813049316
              ],
              [
                14.332929611206055,
                -4.857344150543213
              ],
              [
                14.331172943115234,
                -4.343043327331543
              ],
              [
                13.748747825622559,
                -4.47161865234375
              ],
              [
                13.458487510681152,
                -4.857344150543213
              ],
              [
                13.239876747131348,
                -4.857344150543213
              ],
              [
                13.093583106994629,
                -4.664481639862061
              ],
              [
                12.947854042053223,
                -4.664481639862061
              ],
              [
                12.6556978225708,
                -4.407330989837646
              ],
              [
                11.928659439086914,
                -5.050207138061523
              ],
              [
                11.855782508850098,
                -5.050207138061523
              ],
              [
                11.709745407104492,
                -4.921631813049316
              ],
              [
                11.489850997924805,
                -4.343043327331543
              ],
              [
                10.83321762084961,
                -3.893029928207397
              ],
              [
                10.394654273986816,
                -3.185865879058838
              ],
              [
                9.373335838317871,
                -2.350126981735229
              ],
              [
                9.226644515991211,
                -1.900113701820374
              ],
              [
                9.080726623535156,
                -1.771538615226746
              ],
              [
                9.153019905090332,
                -1.578675746917725
              ],
              [
                8.93447494506836,
                -1.514388203620911
              ],
              [
                8.933778762817383,
                -1.257237911224365
              ],
              [
                8.641728401184082,
                -0.935800075531006
              ],
              [
                8.713746070861816,
                -0.67864990234375
              ],
              [
                8.932085990905762,
                -0.67864990234375
              ],
              [
                9.149606704711914,
                -0.421499729156494
              ],
              [
                9.137816429138184,
                0.285663068294525
              ],
              [
                9.572155952453613,
                0.15708801150322
              ],
              [
                9.141240119934082,
                0.478525668382645
              ],
              [
                9.217402458190918,
                0.671388268470764
              ],
              [
                9.435741424560547,
                0.671388268470764
              ],
              [
                9.440199851989746,
                0.928538501262665
              ],
              [
                9.441303253173828,
                0.992826044559479
              ],
              [
                11.115327835083008,
                0.992826044559479
              ],
              [
                11.263132095336914,
                1.121401190757751
              ],
              [
                11.20765209197998,
                2.150002479553223
              ],
              [
                9.67983341217041,
                2.214290142059326
              ],
              [
                9.680851936340332,
                2.27857780456543
              ],
              [
                9.687862396240234,
                2.728590965270996
              ],
              [
                9.839350700378418,
                3.114316701889038
              ],
              [
                9.624690055847168,
                3.371467113494873
              ],
              [
                9.6274995803833,
                3.564330101013184
              ],
              [
                9.482758522033691,
                3.628617763519287
              ],
              [
                9.485508918762207,
                3.821480512619019
              ],
              [
                9.632100105285645,
                3.885768175125122
              ],
              [
                9.561065673828125,
                4.01434326171875
              ],
              [
                9.48822021484375,
                4.01434326171875
              ],
              [
                9.421545028686523,
                4.464356899261475
              ],
              [
                9.571562767028809,
                4.785795211791992
              ],
              [
                9.71729850769043,
                4.785795211791992
              ],
              [
                9.865591049194336,
                4.978658199310303
              ],
              [
                9.796062469482422,
                5.235808849334717
              ],
              [
                9.942658424377441,
                5.300096035003662
              ],
              [
                10.093358039855957,
                5.685822010040283
              ],
              [
                10.385770797729492,
                5.750109672546387
              ],
              [
                11.269660949707031,
                6.457273483276367
              ],
              [
                11.415517807006836,
                6.457273483276367
              ],
              [
                11.566218376159668,
                6.842999458312988
              ],
              [
                11.712908744812012,
                6.907287120819092
              ],
              [
                11.866700172424316,
                7.550163269042969
              ],
              [
                12.237802505493164,
                8.06446361541748
              ],
              [
                12.241597175598145,
                8.385902404785156
              ],
              [
                12.610492706298828,
                8.707340240478516
              ],
              [
                12.756562232971191,
                8.707340240478516
              ],
              [
                12.906442642211914,
                9.028778076171875
              ],
              [
                12.91019058227539,
                9.350214958190918
              ],
              [
                13.278571128845215,
                9.607365608215332
              ],
              [
                13.28304386138916,
                9.993090629577637
              ],
              [
                13.579967498779297,
                10.378815650939941
              ],
              [
                13.582919120788574,
                10.635965347290039
              ],
              [
                13.8082857131958,
                11.15026569366455
              ],
              [
                14.617207527160645,
                11.47170352935791
              ],
              [
                14.69894027709961,
                12.178865432739258
              ],
              [
                14.189059257507324,
                12.436016082763672
              ],
              [
                14.123007774353027,
                13.07889175415039
              ],
              [
                13.616464614868164,
                13.721768379211426
              ],
              [
                13.551064491271973,
                14.493220329284668
              ],
              [
                13.772802352905273,
                14.621796607971191
              ],
              [
                14.150142669677734,
                15.52182674407959
              ],
              [
                15.490848541259766,
                16.807586669921875
              ],
              [
                16.663509368896484,
                16.35757064819336
              ],
              [
                16.735258102416992,
                16.228994369506836
              ],
              [
                17.466524124145508,
                15.907554626464844
              ],
              [
                17.54012680053711,
                15.907554626464844
              ]
            ]
          ],
          [
            [
              [
                42.85749435424805,
                11.021690368652344
              ],
              [
                42.34526824951172,
                11.021690368652344
              ],
              [
                42.0477180480957,
                10.893115997314453
              ],
              [
                41.830623626708984,
                10.957403182983398
              ],
              [
                41.8602294921875,
                11.728853225708008
              ],
              [
                42.4015998840332,
                12.436016082763672
              ],
              [
                42.76530075073242,
                12.37172794342041
              ],
              [
                42.99604415893555,
                12.628878593444824
              ],
              [
                43.21870422363281,
                12.69316577911377
              ],
              [
                43.2159309387207,
                12.628878593444824
              ],
              [
                43.49530792236328,
                12.307440757751465
              ],
              [
                43.48179626464844,
                11.986002922058105
              ],
              [
                42.81216049194336,
                11.728853225708008
              ],
              [
                42.73379135131836,
                11.6002779006958
              ],
              [
                43.24630355834961,
                11.6002779006958
              ],
              [
                43.24113845825195,
                11.47170352935791
              ],
              [
                43.23857116699219,
                11.407415390014648
              ],
              [
                42.85749435424805,
                11.021690368652344
              ]
            ]
          ],
          [
            [
              [
                -56.43748474121094,
                46.94007873535156
              ],
              [
                -56.493072509765625,
                47.07159423828125
              ],
              [
                -56.2741584777832,
                47.13737487792969
              ],
              [
                -56.2186279296875,
                47.005828857421875
              ],
              [
                -56.30083465576172,
                47.005828857421875
              ],
              [
                -56.27314376831055,
                46.94007873535156
              ],
              [
                -56.43748474121094,
                46.94007873535156
              ]
            ]
          ]
        ]
      }
    }
  ]
}