{
  "type": "FeatureCollection",
  "name": "territory-928",
  "features": [
    {
      "type": "Feature",
      "properties": {
        "Name": "Independent State of Croatia",
        "FromYear": 1941,
        "ToYear": 1943,
        "Area": 96173.98102267529,
        "Type": "POLITY",
        "Wikipedia": "Independent State of Croatia",
        "Wikidata": "Q153128",
        "SeshatID": "",
        "Components": "",
        "MemberOf": ""
      },
      "geometry": {
        "type": "MultiPolygon",
        "coordinates": [
          [
            [
              [
                17.748348236083984,
                42.75628662109375
              ],
              [
                17.745683670043945,
                42.691246032714844
              ],
              [
                17.665569305419922,
                42.691246032714844
              ],
              [
                17.668203353881836,
                42.75628662109375
              ],
              [
                17.748348236083984,
                42.75628662109375
              ]
            ]
          ],
          [
            [
              [
                18.907798767089844,
                43.53750228881836
              ],
              [
                18.98194694519043,
                43.407203674316406
              ],
              [
                18.89836311340332,
                43.342071533203125
              ],
              [
                18.817949295043945,
                43.342071533203125
              ],
              [
                18.481433868408203,
                43.016544342041016
              ],
              [
                18.469654083251953,
                42.75628662109375
              ],
              [
                18.466724395751953,
                42.691246032714844
              ],
              [
                18.460887908935547,
                42.56119155883789
              ],
              [
                18.30077362060547,
                42.56119155883789
              ],
              [
                17.83389663696289,
                42.88639831542969
              ],
              [
                17.510494232177734,
                42.82133865356445
              ],
              [
                17.515670776367188,
                42.95146560668945
              ],
              [
                17.35520362854004,
                42.95146560668945
              ],
              [
                17.36538314819336,
                43.211830139160156
              ],
              [
                17.12186050415039,
                43.146724700927734
              ],
              [
                17.05129051208496,
                43.407203674316406
              ],
              [
                16.729515075683594,
                43.407203674316406
              ],
              [
                16.734172821044922,
                43.53750228881836
              ],
              [
                16.575437545776367,
                43.6026611328125
              ],
              [
                16.17064094543457,
                43.53750228881836
              ],
              [
                16.17488670349121,
                43.6678352355957
              ],
              [
                16.177013397216797,
                43.73301696777344
              ],
              [
                16.18341064453125,
                43.92862319946289
              ],
              [
                15.868721008300781,
                44.18956756591797
              ],
              [
                15.707097053527832,
                44.18956756591797
              ],
              [
                15.551162719726562,
                44.38538360595703
              ],
              [
                15.146636962890625,
                44.38538360595703
              ],
              [
                15.148378372192383,
                44.45067596435547
              ],
              [
                14.908865928649902,
                44.58129119873047
              ],
              [
                14.91874885559082,
                44.973392486572266
              ],
              [
                14.75637149810791,
                44.973392486572266
              ],
              [
                14.757953643798828,
                45.03877639770508
              ],
              [
                14.681376457214355,
                45.23500442504883
              ],
              [
                14.845620155334473,
                45.300437927246094
              ],
              [
                14.850451469421387,
                45.496795654296875
              ],
              [
                15.340923309326172,
                45.56227111816406
              ],
              [
                15.422399520874023,
                45.56227111816406
              ],
              [
                15.424237251281738,
                45.62776184082031
              ],
              [
                15.342728614807129,
                45.62776184082031
              ],
              [
                15.261219024658203,
                45.62776184082031
              ],
              [
                15.262993812561035,
                45.693260192871094
              ],
              [
                15.264768600463867,
                45.75876998901367
              ],
              [
                15.678460121154785,
                45.95537567138672
              ],
              [
                15.604452133178711,
                46.21768569946289
              ],
              [
                15.933717727661133,
                46.283294677734375
              ],
              [
                16.019739151000977,
                46.414546966552734
              ],
              [
                16.101640701293945,
                46.414546966552734
              ],
              [
                16.183542251586914,
                46.414546966552734
              ],
              [
                16.424732208251953,
                46.283294677734375
              ],
              [
                16.915746688842773,
                46.283294677734375
              ],
              [
                17.151081085205078,
                46.02093505859375
              ],
              [
                17.55421257019043,
                45.889827728271484
              ],
              [
                17.63585090637207,
                45.889827728271484
              ],
              [
                18.355560302734375,
                45.56227111816406
              ],
              [
                18.92267417907715,
                45.496795654296875
              ],
              [
                19.235076904296875,
                45.23500442504883
              ],
              [
                19.885604858398438,
                45.23500442504883
              ],
              [
                20.055559158325195,
                45.36587905883789
              ],
              [
                20.292184829711914,
                45.23500442504883
              ],
              [
                20.019073486328125,
                44.71194839477539
              ],
              [
                19.856950759887695,
                44.71194839477539
              ],
              [
                19.624204635620117,
                44.908016204833984
              ],
              [
                19.380733489990234,
                44.908016204833984
              ],
              [
                19.117544174194336,
                44.5159797668457
              ],
              [
                19.107723236083984,
                44.32010269165039
              ],
              [
                19.498432159423828,
                44.05907440185547
              ],
              [
                19.410938262939453,
                43.92862319946289
              ],
              [
                19.47807502746582,
                43.6678352355957
              ],
              [
                19.31032371520996,
                43.53750228881836
              ],
              [
                19.068809509277344,
                43.53750228881836
              ],
              [
                19.072025299072266,
                43.6026611328125
              ],
              [
                18.907798767089844,
                43.53750228881836
              ]
            ]
          ]
        ]
      }
    }
  ]
}