{
  "type": "FeatureCollection",
  "name": "territory-935",
  "features": [
    {
      "type": "Feature",
      "properties": {
        "Name": "Second Republic of Austria",
        "FromYear": 1947,
        "ToYear": 1991,
        "Area": 85349.35394308029,
        "Type": "POLITY",
        "Wikipedia": "History of Austria",
        "Wikidata": "Q187830",
        "SeshatID": "at_austrian_rep_2",
        "Components": "",
        "MemberOf": ""
      },
      "geometry": {
        "type": "Polygon",
        "coordinates": [
          [
            [
              17.069608688354492,
              48.1257438659668
            ],
            [
              17.064254760742188,
              47.993770599365234
            ],
            [
              17.056297302246094,
              47.79592514038086
            ],
            [
              16.885942459106445,
              47.664100646972656
            ],
            [
              16.475584030151367,
              47.730003356933594
            ],
            [
              16.63585662841797,
              47.598209381103516
            ],
            [
              16.63099479675293,
              47.46647262573242
            ],
            [
              16.46375846862793,
              47.4006233215332
            ],
            [
              16.452110290527344,
              47.07159423828125
            ],
            [
              16.28315544128418,
              46.94007873535156
            ],
            [
              16.11881446838379,
              46.94007873535156
            ],
            [
              15.864084243774414,
              46.677207946777344
            ],
            [
              14.878016471862793,
              46.61152267456055
            ],
            [
              14.625872611999512,
              46.348915100097656
            ],
            [
              14.137324333190918,
              46.480194091796875
            ],
            [
              13.563776969909668,
              46.480194091796875
            ],
            [
              12.255094528198242,
              46.74290466308594
            ],
            [
              12.093491554260254,
              47.07159423828125
            ],
            [
              11.188736915588379,
              47.005828857421875
            ],
            [
              10.941988945007324,
              46.74290466308594
            ],
            [
              10.449238777160645,
              46.87434005737305
            ],
            [
              10.284491539001465,
              47.005828857421875
            ],
            [
              10.202829360961914,
              46.87434005737305
            ],
            [
              9.9564208984375,
              46.87434005737305
            ],
            [
              9.625838279724121,
              47.13737487792969
            ],
            [
              9.625325202941895,
              47.20316696166992
            ],
            [
              9.54301929473877,
              47.20316696166992
            ],
            [
              9.541373252868652,
              47.4006233215332
            ],
            [
              9.623783111572266,
              47.4006233215332
            ],
            [
              9.622751235961914,
              47.53233337402344
            ],
            [
              9.787708282470703,
              47.53233337402344
            ],
            [
              9.870186805725098,
              47.53233337402344
            ],
            [
              10.118547439575195,
              47.33478927612305
            ],
            [
              10.36567211151123,
              47.33478927612305
            ],
            [
              10.447366714477539,
              47.598209381103516
            ],
            [
              10.859928131103516,
              47.53233337402344
            ],
            [
              11.024742126464844,
              47.4006233215332
            ],
            [
              11.933061599731445,
              47.664100646972656
            ],
            [
              12.75854206085205,
              47.664100646972656
            ],
            [
              12.839411735534668,
              47.53233337402344
            ],
            [
              13.004368782043457,
              47.53233337402344
            ],
            [
              13.088733673095703,
              47.664100646972656
            ],
            [
              12.924517631530762,
              47.730003356933594
            ],
            [
              12.927179336547852,
              47.92780685424805
            ],
            [
              12.762627601623535,
              47.993770599365234
            ],
            [
              12.765129089355469,
              48.191749572753906
            ],
            [
              13.26423168182373,
              48.323814392089844
            ],
            [
              13.434637069702148,
              48.5881233215332
            ],
            [
              13.768134117126465,
              48.654239654541016
            ],
            [
              13.770781517028809,
              48.786521911621094
            ],
            [
              13.937092781066895,
              48.786521911621094
            ],
            [
              14.182053565979004,
              48.5881233215332
            ],
            [
              14.597285270690918,
              48.5881233215332
            ],
            [
              14.850005149841309,
              48.72037124633789
            ],
            [
              14.940543174743652,
              48.98506164550781
            ],
            [
              15.68774127960205,
              48.91886520385742
            ],
            [
              16.179914474487305,
              48.72037124633789
            ],
            [
              16.76439666748047,
              48.786521911621094
            ],
            [
              16.92527961730957,
              48.654239654541016
            ],
            [
              16.829010009765625,
              48.323814392089844
            ],
            [
              17.069608688354492,
              48.1257438659668
            ]
          ]
        ]
      }
    }
  ]
}