{
  "type": "FeatureCollection",
  "name": "territory-94",
  "features": [
    {
      "type": "Feature",
      "properties": {
        "Name": "Dai",
        "FromYear": -206,
        "ToYear": -204,
        "Area": 57015.65104232598,
        "Type": "POLITY",
        "Wikipedia": "Eighteen Kingdoms",
        "Wikidata": "Q5349053",
        "SeshatID": "",
        "Components": "",
        "MemberOf": "(Eighteen Kingdoms)"
      },
      "geometry": {
        "type": "Polygon",
        "coordinates": [
          [
            [
              116.1009292602539,
              39.38497543334961
            ],
            [
              116.09193420410156,
              39.06184005737305
            ],
            [
              115.361328125,
              38.54513168334961
            ],
            [
              114.52975463867188,
              38.28691864013672
            ],
            [
              114.25260162353516,
              37.706241607666016
            ],
            [
              113.91649627685547,
              37.3193473815918
            ],
            [
              113.63429260253906,
              37.38381576538086
            ],
            [
              113.68830871582031,
              37.835243225097656
            ],
            [
              113.17745971679688,
              37.5772590637207
            ],
            [
              113.02135467529297,
              37.5772590637207
            ],
            [
              113.08112335205078,
              37.706241607666016
            ],
            [
              113.0030288696289,
              37.706241607666016
            ],
            [
              113.03304290771484,
              37.7707405090332
            ],
            [
              113.22944641113281,
              38.351463317871094
            ],
            [
              114.10004425048828,
              39.320335388183594
            ],
            [
              113.77214050292969,
              39.449623107910156
            ],
            [
              113.80511474609375,
              39.51427459716797
            ],
            [
              113.36541748046875,
              39.57893371582031
            ],
            [
              113.39847564697266,
              39.64360046386719
            ],
            [
              113.08319091796875,
              39.64360046386719
            ],
            [
              113.11627197265625,
              39.70827102661133
            ],
            [
              112.01240539550781,
              39.70827102661133
            ],
            [
              112.19023132324219,
              39.90232849121094
            ],
            [
              112.1113052368164,
              39.90232849121094
            ],
            [
              112.14451599121094,
              39.9670295715332
            ],
            [
              112.30241394042969,
              39.9670295715332
            ],
            [
              112.6287612915039,
              40.29063034057617
            ],
            [
              112.9450912475586,
              40.29063034057617
            ],
            [
              113.024169921875,
              40.29063034057617
            ],
            [
              113.05835723876953,
              40.355369567871094
            ],
            [
              114.79872131347656,
              40.355369567871094
            ],
            [
              114.76395416259766,
              40.29063034057617
            ],
            [
              115.28268432617188,
              40.225894927978516
            ],
            [
              115.54975891113281,
              39.8376350402832
            ],
            [
              116.21537780761719,
              39.90232849121094
            ],
            [
              116.02220916748047,
              39.38497543334961
            ],
            [
              116.1009292602539,
              39.38497543334961
            ]
          ]
        ]
      }
    }
  ]
}