{
  "type": "FeatureCollection",
  "name": "territory-944",
  "features": [
    {
      "type": "Feature",
      "properties": {
        "Name": "State of Israel",
        "FromYear": 1967,
        "ToYear": 1972,
        "Area": 90410.95285256393,
        "Type": "POLITY",
        "Wikipedia": "Israel",
        "Wikidata": "Q801",
        "SeshatID": "",
        "Components": "",
        "MemberOf": ""
      },
      "geometry": {
        "type": "Polygon",
        "coordinates": [
          [
            [
              34.91290283203125,
              29.40805435180664
            ],
            [
              34.83723831176758,
              29.40805435180664
            ],
            [
              34.71140670776367,
              28.700960159301758
            ],
            [
              34.54724884033203,
              28.508106231689453
            ],
            [
              34.517303466796875,
              28.058101654052734
            ],
            [
              34.35825729370117,
              27.92952537536621
            ],
            [
              34.345943450927734,
              27.736658096313477
            ],
            [
              34.12004470825195,
              27.736658096313477
            ],
            [
              33.6169548034668,
              28.12238883972168
            ],
            [
              33.553810119628906,
              28.315250396728516
            ],
            [
              33.40296936035156,
              28.315250396728516
            ],
            [
              33.18891525268555,
              28.508106231689453
            ],
            [
              33.213871002197266,
              28.893810272216797
            ],
            [
              32.857112884521484,
              29.21521759033203
            ],
            [
              32.59748840332031,
              29.857990264892578
            ],
            [
              32.60188293457031,
              29.922264099121094
            ],
            [
              32.75790023803711,
              29.986536026000977
            ],
            [
              32.775875091552734,
              30.243623733520508
            ],
            [
              32.4190673828125,
              30.564971923828125
            ],
            [
              32.3800048828125,
              31.079113006591797
            ],
            [
              32.303932189941406,
              31.079113006591797
            ],
            [
              32.30860900878906,
              31.143381118774414
            ],
            [
              32.23719787597656,
              31.20764923095703
            ],
            [
              32.53215408325195,
              31.079113006591797
            ],
            [
              32.76515197753906,
              31.143381118774414
            ],
            [
              32.90773391723633,
              31.014846801757812
            ],
            [
              33.74934005737305,
              31.079113006591797
            ],
            [
              34.2972412109375,
              31.271915435791016
            ],
            [
              34.30759811401367,
              31.40045166015625
            ],
            [
              34.63344955444336,
              31.65752601623535
            ],
            [
              34.57329559326172,
              31.8503360748291
            ],
            [
              34.81304168701172,
              31.978878021240234
            ],
            [
              34.76983642578125,
              32.36451721191406
            ],
            [
              35.021759033203125,
              32.62162780761719
            ],
            [
              35.05632781982422,
              33.00732421875
            ],
            [
              35.21538543701172,
              33.07160949707031
            ],
            [
              35.22126770019531,
              33.13589859008789
            ],
            [
              35.44523620605469,
              33.07160949707031
            ],
            [
              35.53378677368164,
              33.20018768310547
            ],
            [
              35.61043930053711,
              33.20018768310547
            ],
            [
              35.616451263427734,
              33.26447677612305
            ],
            [
              35.6931266784668,
              33.26447677612305
            ],
            [
              35.69917678833008,
              33.32876968383789
            ],
            [
              35.7758674621582,
              33.32876968383789
            ],
            [
              36.07036590576172,
              33.20018768310547
            ],
            [
              35.95151138305664,
              32.75019073486328
            ],
            [
              35.7219352722168,
              32.75019073486328
            ],
            [
              35.54555892944336,
              32.493072509765625
            ],
            [
              35.52827072143555,
              32.30024337768555
            ],
            [
              35.66385269165039,
              32.107421875
            ],
            [
              35.63555908203125,
              31.78606605529785
            ],
            [
              35.466407775878906,
              31.593257904052734
            ],
            [
              35.493690490722656,
              31.014846801757812
            ],
            [
              35.22898483276367,
              30.564971923828125
            ],
            [
              35.07854461669922,
              29.600887298583984
            ],
            [
              34.92236328125,
              29.536611557006836
            ],
            [
              34.91290283203125,
              29.40805435180664
            ]
          ],
          [
            [
              34.84067153930664,
              32.30024337768555
            ],
            [
              34.91707229614258,
              32.30024337768555
            ],
            [
              34.922672271728516,
              32.36451721191406
            ],
            [
              34.846256256103516,
              32.36451721191406
            ],
            [
              34.84067153930664,
              32.30024337768555
            ]
          ]
        ]
      }
    }
  ]
}