{
  "type": "FeatureCollection",
  "name": "territory-945",
  "features": [
    {
      "type": "Feature",
      "properties": {
        "Name": "German Democratic Republic",
        "FromYear": 1973,
        "ToYear": 1975,
        "Area": 113166.61830802904,
        "Type": "POLITY",
        "Wikipedia": "East Germany",
        "Wikidata": "Q16957",
        "SeshatID": "",
        "Components": "",
        "MemberOf": ""
      },
      "geometry": {
        "type": "Polygon",
        "coordinates": [
          [
            [
              14.236605644226074,
              53.597137451171875
            ],
            [
              14.23439884185791,
              53.52959060668945
            ],
            [
              14.39750862121582,
              53.25962829589844
            ],
            [
              14.133414268493652,
              53.057395935058594
            ],
            [
              14.125114440917969,
              52.78806686401367
            ],
            [
              14.548598289489746,
              52.653533935546875
            ],
            [
              14.537419319152832,
              52.31757736206055
            ],
            [
              14.703431129455566,
              52.18334197998047
            ],
            [
              14.602863311767578,
              51.71418380737305
            ],
            [
              14.517960548400879,
              51.71418380737305
            ],
            [
              14.515852928161621,
              51.64724349975586
            ],
            [
              14.600712776184082,
              51.64724349975586
            ],
            [
              15.01336669921875,
              51.31283950805664
            ],
            [
              14.837479591369629,
              51.112430572509766
            ],
            [
              14.8309965133667,
              50.912200927734375
            ],
            [
              14.328418731689453,
              51.04566955566406
            ],
            [
              14.153997421264648,
              50.84549331665039
            ],
            [
              13.391927719116211,
              50.71213912963867
            ],
            [
              12.796454429626465,
              50.37908172607422
            ],
            [
              12.376081466674805,
              50.37908172607422
            ],
            [
              12.290331840515137,
              50.2459831237793
            ],
            [
              12.12234115600586,
              50.2459831237793
            ],
            [
              11.872282981872559,
              50.445655822753906
            ],
            [
              11.367594718933105,
              50.445655822753906
            ],
            [
              11.282390594482422,
              50.2459831237793
            ],
            [
              10.442440032958984,
              50.2459831237793
            ],
            [
              10.189842224121094,
              50.51224899291992
            ],
            [
              10.021533012390137,
              50.51224899291992
            ],
            [
              10.020668983459473,
              50.77880859375
            ],
            [
              9.852035522460938,
              50.77880859375
            ],
            [
              9.935389518737793,
              51.04566955566406
            ],
            [
              10.01987075805664,
              51.04566955566406
            ],
            [
              9.934056282043457,
              51.44654083251953
            ],
            [
              10.103520393371582,
              51.44654083251953
            ],
            [
              10.272875785827637,
              51.64724349975586
            ],
            [
              10.527454376220703,
              51.64724349975586
            ],
            [
              10.612753868103027,
              51.84812545776367
            ],
            [
              10.527765274047852,
              51.84812545776367
            ],
            [
              10.528498649597168,
              52.250450134277344
            ],
            [
              10.869808197021484,
              52.31757736206055
            ],
            [
              10.870445251464844,
              52.4518928527832
            ],
            [
              10.955827713012695,
              52.4518928527832
            ],
            [
              10.787421226501465,
              52.99003219604492
            ],
            [
              11.388239860534668,
              53.057395935058594
            ],
            [
              11.38951587677002,
              53.192195892333984
            ],
            [
              10.617313385009766,
              53.39456558227539
            ],
            [
              10.790016174316406,
              53.52959060668945
            ],
            [
              10.705403327941895,
              53.86756134033203
            ],
            [
              10.791748046875,
              53.86756134033203
            ],
            [
              10.792462348937988,
              54.00291442871094
            ],
            [
              10.878901481628418,
              54.00291442871094
            ],
            [
              11.397537231445312,
              54.00291442871094
            ],
            [
              11.398930549621582,
              54.138362884521484
            ],
            [
              12.093385696411133,
              54.27390670776367
            ],
            [
              12.4437894821167,
              54.47740173339844
            ],
            [
              13.05121898651123,
              54.47740173339844
            ],
            [
              13.14309310913086,
              54.681121826171875
            ],
            [
              13.405717849731445,
              54.74907684326172
            ],
            [
              13.662626266479492,
              54.613189697265625
            ],
            [
              13.739368438720703,
              54.27390670776367
            ],
            [
              13.304450988769531,
              54.20612335205078
            ],
            [
              14.165812492370605,
              54.07062530517578
            ],
            [
              14.159177780151367,
              53.86756134033203
            ],
            [
              13.98438835144043,
              53.799922943115234
            ],
            [
              14.156982421875,
              53.799922943115234
            ],
            [
              14.236605644226074,
              53.597137451171875
            ]
          ]
        ]
      }
    }
  ]
}