{
  "type": "FeatureCollection",
  "name": "territory-947",
  "features": [
    {
      "type": "Feature",
      "properties": {
        "Name": "Hungarian People's Republic",
        "FromYear": 1969,
        "ToYear": 1986,
        "Area": 92074.16957911823,
        "Type": "POLITY",
        "Wikipedia": "Hungarian People's Republic",
        "Wikidata": "Q16410",
        "SeshatID": "",
        "Components": "",
        "MemberOf": ""
      },
      "geometry": {
        "type": "Polygon",
        "coordinates": [
          [
            [
              22.679349899291992,
              47.86185836791992
            ],
            [
              22.596696853637695,
              47.86185836791992
            ],
            [
              21.994524002075195,
              47.53233337402344
            ],
            [
              21.175386428833008,
              46.348915100097656
            ],
            [
              20.263416290283203,
              46.1520881652832
            ],
            [
              19.445716857910156,
              46.1520881652832
            ],
            [
              18.446147918701172,
              45.75876998901367
            ],
            [
              17.87512969970703,
              45.75876998901367
            ],
            [
              17.151081085205078,
              46.02093505859375
            ],
            [
              16.836334228515625,
              46.348915100097656
            ],
            [
              16.672595977783203,
              46.348915100097656
            ],
            [
              16.597719192504883,
              46.54585266113281
            ],
            [
              16.436054229736328,
              46.61152267456055
            ],
            [
              16.440614700317383,
              46.74290466308594
            ],
            [
              16.278697967529297,
              46.808616638183594
            ],
            [
              16.28315544128418,
              46.94007873535156
            ],
            [
              16.452110290527344,
              47.07159423828125
            ],
            [
              16.46375846862793,
              47.4006233215332
            ],
            [
              16.63099479675293,
              47.46647262573242
            ],
            [
              16.63585662841797,
              47.598209381103516
            ],
            [
              16.475584030151367,
              47.730003356933594
            ],
            [
              16.885942459106445,
              47.664100646972656
            ],
            [
              17.056297302246094,
              47.79592514038086
            ],
            [
              17.064254760742188,
              47.993770599365234
            ],
            [
              17.714326858520508,
              47.730003356933594
            ],
            [
              18.540157318115234,
              47.730003356933594
            ],
            [
              18.887624740600586,
              48.059749603271484
            ],
            [
              19.301420211791992,
              48.059749603271484
            ],
            [
              19.474376678466797,
              48.191749572753906
            ],
            [
              19.88462257385254,
              48.1257438659668
            ],
            [
              20.306774139404297,
              48.257774353027344
            ],
            [
              20.315011978149414,
              48.38986587524414
            ],
            [
              20.576623916625977,
              48.5881233215332
            ],
            [
              22.222579956054688,
              48.38986587524414
            ],
            [
              22.854907989501953,
              47.993770599365234
            ],
            [
              22.849773406982422,
              47.92780685424805
            ],
            [
              22.7670841217041,
              47.92780685424805
            ],
            [
              22.76200294494629,
              47.86185836791992
            ],
            [
              22.679349899291992,
              47.86185836791992
            ]
          ]
        ]
      }
    }
  ]
}