{
  "type": "FeatureCollection",
  "name": "territory-955",
  "features": [
    {
      "type": "Feature",
      "properties": {
        "Name": "Democratic Republic of Vietnam",
        "FromYear": 1973,
        "ToYear": 1975,
        "Area": 186286.4448521961,
        "Type": "POLITY",
        "Wikipedia": "North Vietnam",
        "Wikidata": "Q172640",
        "SeshatID": "vt_vietnam_democratic_rep",
        "Components": "",
        "MemberOf": ""
      },
      "geometry": {
        "type": "Polygon",
        "coordinates": [
          [
            [
              108.09842681884766,
              21.500539779663086
            ],
            [
              108.08744049072266,
              21.43625259399414
            ],
            [
              107.79033660888672,
              21.43625259399414
            ],
            [
              107.41735076904297,
              20.986249923706055
            ],
            [
              106.87641143798828,
              20.857677459716797
            ],
            [
              106.8337173461914,
              20.60053253173828
            ],
            [
              106.68537902832031,
              20.60053253173828
            ],
            [
              106.53694915771484,
              20.150527954101562
            ],
            [
              106.0606460571289,
              19.95766830444336
            ],
            [
              105.84930419921875,
              19.571949005126953
            ],
            [
              105.91281127929688,
              19.507661819458008
            ],
            [
              105.73389434814453,
              18.864791870117188
            ],
            [
              106.05134582519531,
              18.543354034423828
            ],
            [
              106.030517578125,
              18.414779663085938
            ],
            [
              106.17830657958984,
              18.414779663085938
            ],
            [
              106.29487609863281,
              18.2219181060791
            ],
            [
              106.56956481933594,
              18.093341827392578
            ],
            [
              106.57118225097656,
              17.643327713012695
            ],
            [
              106.7720947265625,
              17.514753341674805
            ],
            [
              106.75170135498047,
              17.38617706298828
            ],
            [
              106.96282958984375,
              17.321889877319336
            ],
            [
              106.95267486572266,
              17.257600784301758
            ],
            [
              106.85870361328125,
              17.129026412963867
            ],
            [
              106.93244171142578,
              17.129026412963867
            ],
            [
              106.87242889404297,
              16.743297576904297
            ],
            [
              107.15728759765625,
              16.67901039123535
            ],
            [
              107.20137023925781,
              16.486146926879883
            ],
            [
              107.34870147705078,
              16.486146926879883
            ],
            [
              107.38330078125,
              16.228994369506836
            ],
            [
              107.53057098388672,
              16.228994369506836
            ],
            [
              107.72245788574219,
              16.036130905151367
            ],
            [
              107.75789642333984,
              15.77897834777832
            ],
            [
              107.6107177734375,
              15.77897834777832
            ],
            [
              107.58255004882812,
              15.586114883422852
            ],
            [
              107.86749267578125,
              15.52182674407959
            ],
            [
              107.92251586914062,
              15.393251419067383
            ],
            [
              107.60892486572266,
              14.171781539916992
            ],
            [
              107.74747467041016,
              14.107494354248047
            ],
            [
              107.78811645507812,
              13.850343704223633
            ],
            [
              107.54385375976562,
              13.657480239868164
            ],
            [
              107.25032806396484,
              13.657480239868164
            ],
            [
              107.05413055419922,
              13.850343704223633
            ],
            [
              107.0703125,
              13.97891902923584
            ],
            [
              106.931640625,
              14.043206214904785
            ],
            [
              106.96468353271484,
              14.300357818603516
            ],
            [
              106.97306060791016,
              14.364645004272461
            ],
            [
              106.99846649169922,
              14.55750846862793
            ],
            [
              106.76112365722656,
              14.428933143615723
            ],
            [
              106.6226577758789,
              14.493220329284668
            ],
            [
              106.63114166259766,
              14.55750846862793
            ],
            [
              107.0977783203125,
              14.750371932983398
            ],
            [
              107.26058197021484,
              15.393251419067383
            ],
            [
              106.9204330444336,
              15.586114883422852
            ],
            [
              106.91268157958984,
              16.036130905151367
            ],
            [
              106.40079498291016,
              16.550434112548828
            ],
            [
              106.43025207519531,
              16.743297576904297
            ],
            [
              106.30262756347656,
              16.87187385559082
            ],
            [
              106.416259765625,
              17.129026412963867
            ],
            [
              105.20738220214844,
              18.350492477416992
            ],
            [
              105.24868774414062,
              18.607641220092773
            ],
            [
              105.12155151367188,
              18.736217498779297
            ],
            [
              104.6246566772461,
              18.864791870117188
            ],
            [
              104.50773620605469,
              19.057653427124023
            ],
            [
              103.95710754394531,
              19.314802169799805
            ],
            [
              104.08272552490234,
              19.6362361907959
            ],
            [
              104.68548583984375,
              19.700523376464844
            ],
            [
              104.94934844970703,
              19.95766830444336
            ],
            [
              104.98062133789062,
              20.150527954101562
            ],
            [
              104.65162658691406,
              20.40767478942871
            ],
            [
              104.50334167480469,
              20.40767478942871
            ],
            [
              104.61909484863281,
              20.664819717407227
            ],
            [
              104.364013671875,
              20.921964645385742
            ],
            [
              103.99296569824219,
              20.921964645385742
            ],
            [
              103.81349182128906,
              20.72910499572754
            ],
            [
              103.59093475341797,
              20.72910499572754
            ],
            [
              103.03853607177734,
              20.986249923706055
            ],
            [
              102.9952392578125,
              21.179107666015625
            ],
            [
              103.00557708740234,
              21.24339485168457
            ],
            [
              102.93132781982422,
              21.24339485168457
            ],
            [
              103.0680160522461,
              21.629112243652344
            ],
            [
              102.70694732666016,
              21.693397521972656
            ],
            [
              102.45159149169922,
              21.950544357299805
            ],
            [
              102.47269439697266,
              22.079116821289062
            ],
            [
              102.20703125,
              22.271976470947266
            ],
            [
              102.22837829589844,
              22.400548934936523
            ],
            [
              102.58016967773438,
              22.72198486328125
            ],
            [
              102.86701202392578,
              22.657697677612305
            ],
            [
              102.91966247558594,
              22.529123306274414
            ],
            [
              103.21734619140625,
              22.529123306274414
            ],
            [
              103.32465362548828,
              22.72198486328125
            ],
            [
              103.77134704589844,
              22.72198486328125
            ],
            [
              103.88714599609375,
              22.529123306274414
            ],
            [
              104.0359878540039,
              22.529123306274414
            ],
            [
              104.15472412109375,
              22.786272048950195
            ],
            [
              104.51583099365234,
              22.72198486328125
            ],
            [
              104.83610534667969,
              22.85055923461914
            ],
            [
              104.95609283447266,
              23.107707977294922
            ],
            [
              105.21431732177734,
              23.30057144165039
            ],
            [
              105.43790435791016,
              23.30057144165039
            ],
            [
              105.75257110595703,
              22.97913360595703
            ],
            [
              106.19947814941406,
              22.97913360595703
            ],
            [
              106.32543182373047,
              22.85055923461914
            ],
            [
              106.70928955078125,
              22.914846420288086
            ],
            [
              106.77223205566406,
              22.85055923461914
            ],
            [
              106.60701751708984,
              22.33626365661621
            ],
            [
              106.71125030517578,
              22.079116821289062
            ],
            [
              107.23982238769531,
              21.693397521972656
            ],
            [
              107.4627456665039,
              21.693397521972656
            ],
            [
              107.58939361572266,
              21.5648250579834
            ],
            [
              107.97187042236328,
              21.629112243652344
            ],
            [
              108.09842681884766,
              21.500539779663086
            ]
          ]
        ]
      }
    }
  ]
}