{
  "type": "FeatureCollection",
  "name": "territory-958",
  "features": [
    {
      "type": "Feature",
      "properties": {
        "Name": "Arab Federation",
        "FromYear": 1958,
        "ToYear": 1959,
        "Area": 537795.7958785434,
        "Type": "POLITY",
        "Wikipedia": "Arab Federation",
        "Wikidata": "Q146713",
        "SeshatID": "",
        "Components": "",
        "MemberOf": ""
      },
      "geometry": {
        "type": "Polygon",
        "coordinates": [
          [
            [
              44.80312728881836,
              37.06150817871094
            ],
            [
              44.88100051879883,
              37.06150817871094
            ],
            [
              44.910770416259766,
              36.73930740356445
            ],
            [
              45.056724548339844,
              36.67487716674805
            ],
            [
              45.09638595581055,
              36.417205810546875
            ],
            [
              45.37849426269531,
              36.2239875793457
            ],
            [
              45.41838836669922,
              35.9664192199707
            ],
            [
              45.65090560913086,
              35.9664192199707
            ],
            [
              45.78702163696289,
              35.837650299072266
            ],
            [
              46.25180435180664,
              35.837650299072266
            ],
            [
              46.059085845947266,
              35.58015823364258
            ],
            [
              46.1484375,
              35.12965774536133
            ],
            [
              45.812076568603516,
              34.93662643432617
            ],
            [
              45.68980026245117,
              34.614952087402344
            ],
            [
              45.535648345947266,
              34.614952087402344
            ],
            [
              45.50016784667969,
              34.3576545715332
            ],
            [
              45.64531326293945,
              34.2933349609375
            ],
            [
              45.43903350830078,
              33.90746307373047
            ],
            [
              45.59275817871094,
              33.90746307373047
            ],
            [
              46.137794494628906,
              33.393062591552734
            ],
            [
              46.231224060058594,
              32.94303894042969
            ],
            [
              46.682132720947266,
              32.878753662109375
            ],
            [
              46.945579528808594,
              32.557350158691406
            ],
            [
              47.31937026977539,
              32.493072509765625
            ],
            [
              47.599449157714844,
              32.30024337768555
            ],
            [
              47.58243942260742,
              32.171695709228516
            ],
            [
              47.98128890991211,
              31.7217960357666
            ],
            [
              47.79570007324219,
              31.464719772338867
            ],
            [
              47.738956451416016,
              31.014846801757812
            ],
            [
              48.103145599365234,
              30.886310577392578
            ],
            [
              48.04780960083008,
              30.436433792114258
            ],
            [
              48.27554702758789,
              30.436433792114258
            ],
            [
              48.41168975830078,
              30.307893753051758
            ],
            [
              48.38842010498047,
              30.115081787109375
            ],
            [
              48.6004753112793,
              29.986536026000977
            ],
            [
              48.592803955078125,
              29.922264099121094
            ],
            [
              48.14566421508789,
              29.986536026000977
            ],
            [
              48.069862365722656,
              29.986536026000977
            ],
            [
              47.24346923828125,
              30.050809860229492
            ],
            [
              46.688804626464844,
              29.150936126708984
            ],
            [
              46.613197326660156,
              29.150936126708984
            ],
            [
              46.45513916015625,
              29.08665657043457
            ],
            [
              46.39323806762695,
              29.21521759033203
            ],
            [
              45.67106628417969,
              29.536611557006836
            ],
            [
              45.4439811706543,
              29.536611557006836
            ],
            [
              44.96305847167969,
              29.279497146606445
            ],
            [
              44.956443786621094,
              29.21521759033203
            ],
            [
              44.50924301147461,
              29.279497146606445
            ],
            [
              43.95646667480469,
              29.79371452331543
            ],
            [
              43.52175521850586,
              29.986536026000977
            ],
            [
              43.32099914550781,
              30.243623733520508
            ],
            [
              43.16926956176758,
              30.243623733520508
            ],
            [
              42.968467712402344,
              30.500701904296875
            ],
            [
              42.816612243652344,
              30.500701904296875
            ],
            [
              41.97893524169922,
              31.20764923095703
            ],
            [
              41.168514251708984,
              31.464719772338867
            ],
            [
              40.82123565673828,
              31.78606605529785
            ],
            [
              40.38381576538086,
              31.978878021240234
            ],
            [
              39.55095291137695,
              32.043148040771484
            ],
            [
              39.33506774902344,
              32.171695709228516
            ],
            [
              38.85118865966797,
              31.91460609436035
            ],
            [
              37.13711929321289,
              31.528987884521484
            ],
            [
              37.125431060791016,
              31.40045166015625
            ],
            [
              37.61750793457031,
              30.950578689575195
            ],
            [
              37.60599136352539,
              30.822044372558594
            ],
            [
              38.38414001464844,
              30.179353713989258
            ],
            [
              38.29143142700195,
              29.986536026000977
            ],
            [
              36.02833557128906,
              29.150936126708984
            ],
            [
              34.908206939697266,
              29.34377670288086
            ],
            [
              34.91290283203125,
              29.40805435180664
            ],
            [
              34.91762161254883,
              29.472333908081055
            ],
            [
              34.92236328125,
              29.536611557006836
            ],
            [
              35.07854461669922,
              29.600887298583984
            ],
            [
              35.22898483276367,
              30.564971923828125
            ],
            [
              35.493690490722656,
              31.014846801757812
            ],
            [
              35.45542526245117,
              31.464719772338867
            ],
            [
              35.13996124267578,
              31.336183547973633
            ],
            [
              34.993019104003906,
              31.40045166015625
            ],
            [
              35.009159088134766,
              31.593257904052734
            ],
            [
              35.17250442504883,
              31.7217960357666
            ],
            [
              35.17799758911133,
              31.78606605529785
            ],
            [
              35.03096008300781,
              31.8503360748291
            ],
            [
              35.1406364440918,
              32.23596954345703
            ],
            [
              35.06425476074219,
              32.23596954345703
            ],
            [
              35.08116149902344,
              32.428794860839844
            ],
            [
              35.53977584838867,
              32.428794860839844
            ],
            [
              35.7219352722168,
              32.75019073486328
            ],
            [
              36.098575592041016,
              32.685909271240234
            ],
            [
              36.30413055419922,
              32.428794860839844
            ],
            [
              36.82706832885742,
              32.30024337768555
            ],
            [
              37.399200439453125,
              32.685909271240234
            ],
            [
              37.79452896118164,
              32.81447219848633
            ],
            [
              37.967071533203125,
              33.00732421875
            ],
            [
              38.43995666503906,
              33.13589859008789
            ],
            [
              39.017581939697266,
              33.52165222167969
            ],
            [
              40.95730972290039,
              34.3576545715332
            ],
            [
              41.235023498535156,
              34.743614196777344
            ],
            [
              41.44083023071289,
              35.77327346801758
            ],
            [
              41.37160110473633,
              35.837650299072266
            ],
            [
              41.37983703613281,
              35.902034759521484
            ],
            [
              41.33546447753906,
              36.15959167480469
            ],
            [
              41.25789260864258,
              36.15959167480469
            ],
            [
              41.291316986083984,
              36.417205810546875
            ],
            [
              42.11130905151367,
              36.73930740356445
            ],
            [
              42.398048400878906,
              37.12596130371094
            ],
            [
              42.553836822509766,
              37.12596130371094
            ],
            [
              42.73701858520508,
              37.3193473815918
            ],
            [
              43.43867492675781,
              37.3193473815918
            ],
            [
              43.65373611450195,
              37.1904182434082
            ],
            [
              44.218299865722656,
              37.3193473815918
            ],
            [
              44.24853515625,
              36.9970588684082
            ],
            [
              44.482086181640625,
              36.9970588684082
            ],
            [
              44.74457931518555,
              37.1904182434082
            ],
            [
              44.8224983215332,
              37.1904182434082
            ],
            [
              44.81279754638672,
              37.12596130371094
            ],
            [
              44.80312728881836,
              37.06150817871094
            ]
          ]
        ]
      }
    }
  ]
}