{
  "type": "FeatureCollection",
  "name": "territory-96",
  "features": [
    {
      "type": "Feature",
      "properties": {
        "Name": "Jiujiang",
        "FromYear": -206,
        "ToYear": -204,
        "Area": 86995.15565204069,
        "Type": "POLITY",
        "Wikipedia": "Eighteen Kingdoms",
        "Wikidata": "Q5349053",
        "SeshatID": "",
        "Components": "",
        "MemberOf": "(Eighteen Kingdoms)"
      },
      "geometry": {
        "type": "Polygon",
        "coordinates": [
          [
            [
              119.16963958740234,
              30.629240036010742
            ],
            [
              118.78355407714844,
              30.179353713989258
            ],
            [
              117.78575134277344,
              29.922264099121094
            ],
            [
              117.75355529785156,
              30.050809860229492
            ],
            [
              117.32049560546875,
              30.115081787109375
            ],
            [
              117.35517120361328,
              30.436433792114258
            ],
            [
              117.07383728027344,
              30.500701904296875
            ],
            [
              116.91338348388672,
              30.69350814819336
            ],
            [
              116.04265594482422,
              30.372163772583008
            ],
            [
              115.63121032714844,
              30.500701904296875
            ],
            [
              115.60504913330078,
              31.079113006591797
            ],
            [
              115.34638977050781,
              31.20764923095703
            ],
            [
              115.63778686523438,
              31.593257904052734
            ],
            [
              115.56157684326172,
              31.593257904052734
            ],
            [
              115.59911346435547,
              32.107421875
            ],
            [
              116.02389526367188,
              32.62162780761719
            ],
            [
              115.69103240966797,
              32.75019073486328
            ],
            [
              115.96965026855469,
              33.07160949707031
            ],
            [
              116.42935180664062,
              33.07160949707031
            ],
            [
              116.53182220458984,
              32.94303894042969
            ],
            [
              116.48138427734375,
              32.81447219848633
            ],
            [
              118.80323028564453,
              32.493072509765625
            ],
            [
              118.57664489746094,
              32.107421875
            ],
            [
              118.90884399414062,
              31.978878021240234
            ],
            [
              119.06398010253906,
              31.78606605529785
            ],
            [
              118.91874694824219,
              31.40045166015625
            ],
            [
              119.32360076904297,
              31.464719772338867
            ],
            [
              119.4278335571289,
              31.336183547973633
            ],
            [
              119.2330551147461,
              31.014846801757812
            ],
            [
              119.16963958740234,
              30.629240036010742
            ]
          ]
        ]
      }
    }
  ]
}