{
  "type": "FeatureCollection",
  "name": "territory-961",
  "features": [
    {
      "type": "Feature",
      "properties": {
        "Name": "Mali Federation",
        "FromYear": 1960,
        "ToYear": 1960,
        "Area": 1446277.4097194725,
        "Type": "POLITY",
        "Wikipedia": "Mali Federation",
        "Wikidata": "Q216632",
        "SeshatID": "",
        "Components": "",
        "MemberOf": ""
      },
      "geometry": {
        "type": "Polygon",
        "coordinates": [
          [
            [
              -7.773953914642334,
              10.250240325927734
            ],
            [
              -7.92020320892334,
              10.250240325927734
            ],
            [
              -8.288301467895508,
              10.571678161621094
            ],
            [
              -8.21786117553711,
              10.893115997314453
            ],
            [
              -8.365365028381348,
              11.021690368652344
            ],
            [
              -8.584891319274902,
              11.021690368652344
            ],
            [
              -8.369122505187988,
              11.407415390014648
            ],
            [
              -8.737937927246094,
              11.664566040039062
            ],
            [
              -8.741681098937988,
              11.986002922058105
            ],
            [
              -9.114648818969727,
              12.500303268432617
            ],
            [
              -9.26121711730957,
              12.500303268432617
            ],
            [
              -9.330982208251953,
              12.24315357208252
            ],
            [
              -9.623167037963867,
              12.178865432739258
            ],
            [
              -9.694705963134766,
              12.050291061401367
            ],
            [
              -10.282502174377441,
              12.178865432739258
            ],
            [
              -10.426309585571289,
              11.986002922058105
            ],
            [
              -10.71928882598877,
              11.986002922058105
            ],
            [
              -10.795317649841309,
              12.178865432739258
            ],
            [
              -11.379446029663086,
              12.050291061401367
            ],
            [
              -11.457674026489258,
              12.37172794342041
            ],
            [
              -12.40915584564209,
              12.307440757751465
            ],
            [
              -13.074355125427246,
              12.628878593444824
            ],
            [
              -13.587417602539062,
              12.628878593444824
            ],
            [
              -15.346488952636719,
              12.628878593444824
            ],
            [
              -15.562348365783691,
              12.436016082763672
            ],
            [
              -16.22186279296875,
              12.436016082763672
            ],
            [
              -16.65877342224121,
              12.307440757751465
            ],
            [
              -16.73204231262207,
              12.307440757751465
            ],
            [
              -16.821340560913086,
              13.014603614807129
            ],
            [
              -16.748014450073242,
              13.014603614807129
            ],
            [
              -16.749553680419922,
              13.07889175415039
            ],
            [
              -15.871064186096191,
              13.143178939819336
            ],
            [
              -15.725882530212402,
              13.207467079162598
            ],
            [
              -15.728910446166992,
              13.336042404174805
            ],
            [
              -15.362143516540527,
              13.336042404174805
            ],
            [
              -15.146598815917969,
              13.528904914855957
            ],
            [
              -14.926488876342773,
              13.528904914855957
            ],
            [
              -14.480477333068848,
              13.271754264831543
            ],
            [
              -14.407129287719727,
              13.271754264831543
            ],
            [
              -14.039009094238281,
              13.207467079162598
            ],
            [
              -13.7511568069458,
              13.464617729187012
            ],
            [
              -14.264707565307617,
              13.464617729187012
            ],
            [
              -14.782773971557617,
              13.657480239868164
            ],
            [
              -14.859247207641602,
              13.786055564880371
            ],
            [
              -15.226210594177246,
              13.786055564880371
            ],
            [
              -15.515010833740234,
              13.593193054199219
            ],
            [
              -15.88029956817627,
              13.528904914855957
            ],
            [
              -16.542268753051758,
              13.593193054199219
            ],
            [
              -16.54392433166504,
              13.657480239868164
            ],
            [
              -16.62067222595215,
              13.786055564880371
            ],
            [
              -16.767457962036133,
              13.786055564880371
            ],
            [
              -16.7744197845459,
              14.043206214904785
            ],
            [
              -17.007564544677734,
              14.493220329284668
            ],
            [
              -17.23375701904297,
              14.686083793640137
            ],
            [
              -17.454187393188477,
              14.686083793640137
            ],
            [
              -17.45818328857422,
              14.81466007232666
            ],
            [
              -17.094730377197266,
              14.943235397338867
            ],
            [
              -17.02732276916504,
              15.136098861694336
            ],
            [
              -16.81085968017578,
              15.26467514038086
            ],
            [
              -16.542278289794922,
              16.036130905151367
            ],
            [
              -16.54450225830078,
              16.100418090820312
            ],
            [
              -16.328081130981445,
              16.228994369506836
            ],
            [
              -16.189809799194336,
              16.486146926879883
            ],
            [
              -15.379480361938477,
              16.486146926879883
            ],
            [
              -15.017694473266602,
              16.67901039123535
            ],
            [
              -14.278690338134766,
              16.614723205566406
            ],
            [
              -13.898036003112793,
              16.228994369506836
            ],
            [
              -13.301247596740723,
              15.971842765808105
            ],
            [
              -13.218356132507324,
              15.650403022766113
            ],
            [
              -12.843427658081055,
              15.393251419067383
            ],
            [
              -12.763066291809082,
              15.136098861694336
            ],
            [
              -12.616023063659668,
              15.136098861694336
            ],
            [
              -12.238872528076172,
              14.750371932983398
            ],
            [
              -11.944940567016602,
              14.750371932983398
            ],
            [
              -11.801024436950684,
              14.878947257995605
            ],
            [
              -11.73857593536377,
              15.328963279724121
            ],
            [
              -11.524468421936035,
              15.586114883422852
            ],
            [
              -11.228574752807617,
              15.52182674407959
            ],
            [
              -10.92502498626709,
              15.136098861694336
            ],
            [
              -10.638527870178223,
              15.457538604736328
            ],
            [
              -9.67941665649414,
              15.328963279724121
            ],
            [
              -9.390989303588867,
              15.586114883422852
            ],
            [
              -9.093877792358398,
              15.457538604736328
            ],
            [
              -5.563248634338379,
              15.457538604736328
            ],
            [
              -5.346923351287842,
              15.714691162109375
            ],
            [
              -5.283598899841309,
              16.293283462524414
            ],
            [
              -5.506958961486816,
              16.421857833862305
            ],
            [
              -5.511920928955078,
              16.67901039123535
            ],
            [
              -5.585608959197998,
              16.67901039123535
            ],
            [
              -5.9978928565979,
              21.371967315673828
            ],
            [
              -6.072159767150879,
              21.371967315673828
            ],
            [
              -6.099956035614014,
              22.271976470947266
            ],
            [
              -6.174342632293701,
              22.271976470947266
            ],
            [
              -6.201989650726318,
              23.107707977294922
            ],
            [
              -6.276492118835449,
              23.107707977294922
            ],
            [
              -6.494752407073975,
              24.97209930419922
            ],
            [
              -4.776963233947754,
              25.03639030456543
            ],
            [
              -3.932567834854126,
              24.393482208251953
            ],
            [
              -3.478299856185913,
              24.200613021850586
            ],
            [
              -3.246429204940796,
              23.943456649780273
            ],
            [
              -2.793044328689575,
              23.75058937072754
            ],
            [
              -2.56198787689209,
              23.493436813354492
            ],
            [
              -2.10944938659668,
              23.30057144165039
            ],
            [
              -1.879172086715698,
              23.043420791625977
            ],
            [
              -1.73018491268158,
              23.043420791625977
            ],
            [
              -1.500333666801453,
              22.786272048950195
            ],
            [
              -1.351418852806091,
              22.786272048950195
            ],
            [
              -1.121984720230103,
              22.529123306274414
            ],
            [
              -0.671149015426636,
              22.33626365661621
            ],
            [
              -0.442434728145599,
              22.079116821289062
            ],
            [
              -0.293713450431824,
              22.079116821289062
            ],
            [
              -0.065396092832088,
              21.821969985961914
            ],
            [
              1.059707164764404,
              21.24339485168457
            ],
            [
              1.286711573600769,
              20.986249923706055
            ],
            [
              1.29085111618042,
              20.72910499572754
            ],
            [
              1.588572382926941,
              20.664819717407227
            ],
            [
              1.890836477279663,
              20.279102325439453
            ],
            [
              2.335598468780518,
              20.279102325439453
            ],
            [
              2.412238359451294,
              20.08624267578125
            ],
            [
              3.155469417572021,
              19.893383026123047
            ],
            [
              3.381116390228271,
              19.571949005126953
            ],
            [
              3.23570990562439,
              19.314802169799805
            ],
            [
              3.238268852233887,
              19.057653427124023
            ],
            [
              3.83061408996582,
              18.993366241455078
            ],
            [
              4.347359180450439,
              19.12194061279297
            ],
            [
              4.289169311523438,
              16.550434112548828
            ],
            [
              4.06956958770752,
              16.228994369506836
            ],
            [
              3.997740268707275,
              15.77897834777832
            ],
            [
              3.557793378829956,
              15.393251419067383
            ],
            [
              1.425769448280334,
              15.26467514038086
            ],
            [
              0.913317382335663,
              14.943235397338867
            ],
            [
              -0.77842766046524,
              15.07181167602539
            ],
            [
              -0.923640251159668,
              14.878947257995605
            ],
            [
              -1.655406475067139,
              14.55750846862793
            ],
            [
              -2.018977165222168,
              14.171781539916992
            ],
            [
              -2.607053518295288,
              14.236069679260254
            ],
            [
              -2.752600193023682,
              14.107494354248047
            ],
            [
              -2.822225093841553,
              13.721768379211426
            ],
            [
              -3.188528060913086,
              13.657480239868164
            ],
            [
              -3.186086177825928,
              13.40032958984375
            ],
            [
              -3.331029176712036,
              13.207467079162598
            ],
            [
              -3.624398469924927,
              13.207467079162598
            ],
            [
              -3.92032790184021,
              13.464617729187012
            ],
            [
              -4.066391944885254,
              13.40032958984375
            ],
            [
              -4.065090179443359,
              13.271754264831543
            ],
            [
              -4.211137294769287,
              13.207467079162598
            ],
            [
              -4.20684814453125,
              12.757453918457031
            ],
            [
              -4.426170825958252,
              12.69316577911377
            ],
            [
              -4.350610733032227,
              12.436016082763672
            ],
            [
              -4.495012283325195,
              12.178865432739258
            ],
            [
              -4.7864670753479,
              11.986002922058105
            ],
            [
              -5.079445838928223,
              11.986002922058105
            ],
            [
              -5.298102378845215,
              11.857428550720215
            ],
            [
              -5.148216724395752,
              11.407415390014648
            ],
            [
              -5.43876838684082,
              11.085978507995605
            ],
            [
              -5.508072376251221,
              10.443102836608887
            ],
            [
              -5.727483749389648,
              10.443102836608887
            ],
            [
              -5.87270975112915,
              10.250240325927734
            ],
            [
              -6.091740608215332,
              10.185953140258789
            ],
            [
              -6.167486667633057,
              10.635965347290039
            ],
            [
              -6.314206600189209,
              10.7002534866333
            ],
            [
              -6.386520385742188,
              10.571678161621094
            ],
            [
              -6.606384754180908,
              10.635965347290039
            ],
            [
              -6.605128765106201,
              10.443102836608887
            ],
            [
              -6.969189167022705,
              10.185953140258789
            ],
            [
              -7.188551425933838,
              10.185953140258789
            ],
            [
              -7.409191608428955,
              10.378815650939941
            ],
            [
              -7.701723098754883,
              10.378815650939941
            ],
            [
              -7.773953914642334,
              10.250240325927734
            ]
          ]
        ]
      }
    }
  ]
}