{
  "type": "FeatureCollection",
  "name": "territory-963",
  "features": [
    {
      "type": "Feature",
      "properties": {
        "Name": "Iraqi Republic",
        "FromYear": 1990,
        "ToYear": 1990,
        "Area": 456521.14934817783,
        "Type": "POLITY",
        "Wikipedia": "Iraq",
        "Wikidata": "Q796",
        "SeshatID": "iq_iraq_rep",
        "Components": "",
        "MemberOf": ""
      },
      "geometry": {
        "type": "Polygon",
        "coordinates": [
          [
            [
              44.80312728881836,
              37.06150817871094
            ],
            [
              44.88100051879883,
              37.06150817871094
            ],
            [
              44.910770416259766,
              36.73930740356445
            ],
            [
              45.056724548339844,
              36.67487716674805
            ],
            [
              45.09638595581055,
              36.417205810546875
            ],
            [
              45.37849426269531,
              36.2239875793457
            ],
            [
              45.41838836669922,
              35.9664192199707
            ],
            [
              45.65090560913086,
              35.9664192199707
            ],
            [
              45.78702163696289,
              35.837650299072266
            ],
            [
              46.25180435180664,
              35.837650299072266
            ],
            [
              46.059085845947266,
              35.58015823364258
            ],
            [
              46.1484375,
              35.12965774536133
            ],
            [
              45.812076568603516,
              34.93662643432617
            ],
            [
              45.68980026245117,
              34.614952087402344
            ],
            [
              45.535648345947266,
              34.614952087402344
            ],
            [
              45.50016784667969,
              34.3576545715332
            ],
            [
              45.64531326293945,
              34.2933349609375
            ],
            [
              45.43903350830078,
              33.90746307373047
            ],
            [
              45.59275817871094,
              33.90746307373047
            ],
            [
              46.137794494628906,
              33.393062591552734
            ],
            [
              46.231224060058594,
              32.94303894042969
            ],
            [
              46.682132720947266,
              32.878753662109375
            ],
            [
              46.945579528808594,
              32.557350158691406
            ],
            [
              47.31937026977539,
              32.493072509765625
            ],
            [
              47.599449157714844,
              32.30024337768555
            ],
            [
              47.58243942260742,
              32.171695709228516
            ],
            [
              47.98128890991211,
              31.7217960357666
            ],
            [
              47.79570007324219,
              31.464719772338867
            ],
            [
              47.738956451416016,
              31.014846801757812
            ],
            [
              48.103145599365234,
              30.886310577392578
            ],
            [
              48.04780960083008,
              30.436433792114258
            ],
            [
              48.27554702758789,
              30.436433792114258
            ],
            [
              48.41168975830078,
              30.307893753051758
            ],
            [
              48.38842010498047,
              30.115081787109375
            ],
            [
              48.6004753112793,
              29.986536026000977
            ],
            [
              48.592803955078125,
              29.922264099121094
            ],
            [
              48.36544418334961,
              29.922264099121094
            ],
            [
              48.40353012084961,
              29.600887298583984
            ],
            [
              47.8662223815918,
              29.536611557006836
            ],
            [
              47.85165023803711,
              29.40805435180664
            ],
            [
              48.078643798828125,
              29.40805435180664
            ],
            [
              48.21538543701172,
              29.279497146606445
            ],
            [
              48.19374465942383,
              29.08665657043457
            ],
            [
              48.460411071777344,
              28.765243530273438
            ],
            [
              48.44636154174805,
              28.636676788330078
            ],
            [
              48.43938446044922,
              28.572391510009766
            ],
            [
              47.828739166259766,
              28.508106231689453
            ],
            [
              47.61595916748047,
              28.636676788330078
            ],
            [
              47.574981689453125,
              28.958093643188477
            ],
            [
              46.764408111572266,
              29.150936126708984
            ],
            [
              46.29717254638672,
              29.022375106811523
            ],
            [
              44.653961181640625,
              29.21521759033203
            ],
            [
              44.37763595581055,
              29.472333908081055
            ],
            [
              44.22627639770508,
              29.472333908081055
            ],
            [
              43.95646667480469,
              29.79371452331543
            ],
            [
              43.52175521850586,
              29.986536026000977
            ],
            [
              43.32099914550781,
              30.243623733520508
            ],
            [
              43.16926956176758,
              30.243623733520508
            ],
            [
              42.968467712402344,
              30.500701904296875
            ],
            [
              42.816612243652344,
              30.500701904296875
            ],
            [
              42.615745544433594,
              30.757776260375977
            ],
            [
              42.46376037597656,
              30.757776260375977
            ],
            [
              42.262813568115234,
              31.014846801757812
            ],
            [
              42.11069869995117,
              31.014846801757812
            ],
            [
              41.97893524169922,
              31.20764923095703
            ],
            [
              41.168514251708984,
              31.464719772338867
            ],
            [
              40.82123565673828,
              31.78606605529785
            ],
            [
              40.38381576538086,
              31.978878021240234
            ],
            [
              39.55095291137695,
              32.043148040771484
            ],
            [
              39.258705139160156,
              32.171695709228516
            ],
            [
              39.2718620300293,
              32.30024337768555
            ],
            [
              39.049224853515625,
              32.36451721191406
            ],
            [
              39.089054107666016,
              32.75019073486328
            ],
            [
              38.886253356933594,
              33.00732421875
            ],
            [
              38.84351348876953,
              33.32876968383789
            ],
            [
              39.017581939697266,
              33.52165222167969
            ],
            [
              39.4921875,
              33.65024948120117
            ],
            [
              39.583213806152344,
              33.77885055541992
            ],
            [
              41.04199981689453,
              34.42197799682617
            ],
            [
              41.235023498535156,
              34.743614196777344
            ],
            [
              41.44083023071289,
              35.77327346801758
            ],
            [
              41.37160110473633,
              35.837650299072266
            ],
            [
              41.37983703613281,
              35.902034759521484
            ],
            [
              41.33546447753906,
              36.15959167480469
            ],
            [
              41.25789260864258,
              36.15959167480469
            ],
            [
              41.291316986083984,
              36.417205810546875
            ],
            [
              42.11130905151367,
              36.73930740356445
            ],
            [
              42.398048400878906,
              37.12596130371094
            ],
            [
              42.553836822509766,
              37.12596130371094
            ],
            [
              42.73701858520508,
              37.3193473815918
            ],
            [
              43.43867492675781,
              37.3193473815918
            ],
            [
              43.65373611450195,
              37.1904182434082
            ],
            [
              44.218299865722656,
              37.3193473815918
            ],
            [
              44.24853515625,
              36.9970588684082
            ],
            [
              44.482086181640625,
              36.9970588684082
            ],
            [
              44.74457931518555,
              37.1904182434082
            ],
            [
              44.8224983215332,
              37.1904182434082
            ],
            [
              44.81279754638672,
              37.12596130371094
            ],
            [
              44.80312728881836,
              37.06150817871094
            ]
          ]
        ]
      }
    }
  ]
}