{
  "type": "FeatureCollection",
  "name": "territory-97",
  "features": [
    {
      "type": "Feature",
      "properties": {
        "Name": "Hán",
        "FromYear": -206,
        "ToYear": -204,
        "Area": 86827.23431902632,
        "Type": "POLITY",
        "Wikipedia": "Eighteen Kingdoms",
        "Wikidata": "Q5349053",
        "SeshatID": "",
        "Components": "",
        "MemberOf": "(Eighteen Kingdoms)"
      },
      "geometry": {
        "type": "Polygon",
        "coordinates": [
          [
            [
              113.79702758789062,
              34.3576545715332
            ],
            [
              114.1023941040039,
              33.971771240234375
            ],
            [
              114.0251235961914,
              33.77885055541992
            ],
            [
              114.10194396972656,
              33.77885055541992
            ],
            [
              114.1020736694336,
              33.5859489440918
            ],
            [
              114.69064331054688,
              33.52165222167969
            ],
            [
              114.79317474365234,
              33.393062591552734
            ],
            [
              115.15127563476562,
              33.32876968383789
            ],
            [
              115.30529022216797,
              33.13589859008789
            ],
            [
              115.28366088867188,
              32.685909271240234
            ],
            [
              114.08735656738281,
              32.557350158691406
            ],
            [
              113.98303985595703,
              32.685909271240234
            ],
            [
              113.70499420166016,
              32.557350158691406
            ],
            [
              113.62484741210938,
              32.75019073486328
            ],
            [
              112.98844146728516,
              32.685909271240234
            ],
            [
              111.88876342773438,
              32.81447219848633
            ],
            [
              111.78385162353516,
              32.94303894042969
            ],
            [
              110.96128845214844,
              33.20018768310547
            ],
            [
              110.88097381591797,
              33.393062591552734
            ],
            [
              110.6230239868164,
              33.52165222167969
            ],
            [
              110.64488983154297,
              33.77885055541992
            ],
            [
              110.51604461669922,
              33.84315490722656
            ],
            [
              110.61475372314453,
              34.2933349609375
            ],
            [
              110.53777313232422,
              34.2933349609375
            ],
            [
              110.74234008789062,
              34.614952087402344
            ],
            [
              110.5883560180664,
              34.80794906616211
            ],
            [
              110.6662368774414,
              35.00096893310547
            ],
            [
              112.03749084472656,
              35.51579284667969
            ],
            [
              112.13835906982422,
              35.38706970214844
            ],
            [
              112.98522186279297,
              35.194007873535156
            ],
            [
              112.90493774414062,
              35.00096893310547
            ],
            [
              113.00608825683594,
              34.87228775024414
            ],
            [
              113.160400390625,
              34.87228775024414
            ],
            [
              113.46441650390625,
              34.48630142211914
            ],
            [
              113.79702758789062,
              34.3576545715332
            ]
          ]
        ]
      }
    }
  ]
}