{
  "type": "FeatureCollection",
  "name": "territory-985",
  "features": [
    {
      "type": "Feature",
      "properties": {
        "Name": "Republic of Lithuania",
        "FromYear": 1990,
        "ToYear": 1991,
        "Area": 65346.095772746856,
        "Type": "POLITY",
        "Wikipedia": "Lithuania",
        "Wikidata": "Q37",
        "SeshatID": "",
        "Components": "",
        "MemberOf": ""
      },
      "geometry": {
        "type": "Polygon",
        "coordinates": [
          [
            [
              24.261465072631836,
              53.86756134033203
            ],
            [
              23.49168586730957,
              53.93522644042969
            ],
            [
              23.18937873840332,
              54.341712951660156
            ],
            [
              22.67630386352539,
              54.4095458984375
            ],
            [
              22.71874237060547,
              54.817054748535156
            ],
            [
              22.812959671020508,
              54.88506317138672
            ],
            [
              22.573020935058594,
              55.089229583740234
            ],
            [
              21.788057327270508,
              55.089229583740234
            ],
            [
              21.458690643310547,
              55.29362487792969
            ],
            [
              21.196584701538086,
              55.29362487792969
            ],
            [
              21.202974319458008,
              55.36180877685547
            ],
            [
              20.96585464477539,
              55.63479995727539
            ],
            [
              20.9976863861084,
              55.97663879394531
            ],
            [
              20.909809112548828,
              55.97663879394531
            ],
            [
              20.916179656982422,
              56.04508590698242
            ],
            [
              21.18651008605957,
              56.11355972290039
            ],
            [
              21.382530212402344,
              56.319149017333984
            ],
            [
              21.74201202392578,
              56.387733459472656
            ],
            [
              23.41761016845703,
              56.387733459472656
            ],
            [
              24.1064510345459,
              56.25059127807617
            ],
            [
              24.82863998413086,
              56.387733459472656
            ],
            [
              25.066509246826172,
              56.182064056396484
            ],
            [
              25.761505126953125,
              56.11355972290039
            ],
            [
              25.8309326171875,
              55.97663879394531
            ],
            [
              26.505083084106445,
              55.77145767211914
            ],
            [
              26.457515716552734,
              55.430015563964844
            ],
            [
              26.710338592529297,
              55.36180877685547
            ],
            [
              26.691253662109375,
              55.225467681884766
            ],
            [
              26.245412826538086,
              55.15733337402344
            ],
            [
              25.77332305908203,
              54.88506317138672
            ],
            [
              25.746780395507812,
              54.681121826171875
            ],
            [
              25.65985870361328,
              54.681121826171875
            ],
            [
              25.68576431274414,
              54.20612335205078
            ],
            [
              25.174617767333984,
              54.27390670776367
            ],
            [
              24.890186309814453,
              54.07062530517578
            ],
            [
              24.261465072631836,
              53.86756134033203
            ]
          ]
        ]
      }
    }
  ]
}