{
  "type": "FeatureCollection",
  "name": "territory-987",
  "features": [
    {
      "type": "Feature",
      "properties": {
        "Name": "Republic of Azerbaijan",
        "FromYear": 1992,
        "ToYear": 1995,
        "Area": 78525.77721854034,
        "Type": "POLITY",
        "Wikipedia": "Azerbaijan",
        "Wikidata": "Q227",
        "SeshatID": "",
        "Components": "",
        "MemberOf": ""
      },
      "geometry": {
        "type": "MultiPolygon",
        "coordinates": [
          [
            [
              [
                45.579532623291016,
                38.997230529785156
              ],
              [
                44.869144439697266,
                39.449623107910156
              ],
              [
                44.834251403808594,
                39.70827102661133
              ],
              [
                45.14964294433594,
                39.70827102661133
              ],
              [
                45.43146896362305,
                39.51427459716797
              ],
              [
                45.7578010559082,
                39.57893371582031
              ],
              [
                45.892845153808594,
                39.449623107910156
              ],
              [
                45.87046432495117,
                39.320335388183594
              ],
              [
                46.08419418334961,
                39.19107437133789
              ],
              [
                46.1185188293457,
                38.93262481689453
              ],
              [
                45.871971130371094,
                38.8680305480957
              ],
              [
                45.658103942871094,
                38.997230529785156
              ],
              [
                45.579532623291016,
                38.997230529785156
              ]
            ]
          ],
          [
            [
              [
                48.55713653564453,
                41.781593322753906
              ],
              [
                49.08600997924805,
                41.26253128051758
              ],
              [
                49.059226989746094,
                41.132843017578125
              ],
              [
                49.270748138427734,
                41.00318908691406
              ],
              [
                49.2441520690918,
                40.873565673828125
              ],
              [
                49.50836181640625,
                40.614410400390625
              ],
              [
                50.04951477050781,
                40.54964065551758
              ],
              [
                50.2603759765625,
                40.42012023925781
              ],
              [
                49.6933479309082,
                40.355369567871094
              ],
              [
                49.40445327758789,
                40.0964469909668
              ],
              [
                49.26664352416992,
                39.38497543334961
              ],
              [
                49.151405334472656,
                39.19107437133789
              ],
              [
                48.91546630859375,
                39.19107437133789
              ],
              [
                48.801002502441406,
                38.997230529785156
              ],
              [
                48.7973518371582,
                38.54513168334961
              ],
              [
                48.78577423095703,
                38.48057174682617
              ],
              [
                48.326934814453125,
                38.54513168334961
              ],
              [
                48.059085845947266,
                38.80344009399414
              ],
              [
                48.082218170166016,
                38.93262481689453
              ],
              [
                48.25099563598633,
                38.997230529785156
              ],
              [
                48.21947479248047,
                39.25570297241211
              ],
              [
                48.333980560302734,
                39.449623107910156
              ],
              [
                48.13375473022461,
                39.64360046386719
              ],
              [
                47.491329193115234,
                39.57893371582031
              ],
              [
                46.668357849121094,
                38.93262481689453
              ],
              [
                46.511260986328125,
                38.93262481689453
              ],
              [
                46.578731536865234,
                39.320335388183594
              ],
              [
                46.432682037353516,
                39.38497543334961
              ],
              [
                46.45549774169922,
                39.51427459716797
              ],
              [
                45.93811798095703,
                39.70827102661133
              ],
              [
                45.66829299926758,
                39.9670295715332
              ],
              [
                45.75877380371094,
                40.031734466552734
              ],
              [
                45.83774948120117,
                40.031734466552734
              ],
              [
                46.030792236328125,
                40.225894927978516
              ],
              [
                45.456661224365234,
                40.54964065551758
              ],
              [
                45.5953483581543,
                40.873565673828125
              ],
              [
                45.30192947387695,
                41.00318908691406
              ],
              [
                45.11168670654297,
                41.26253128051758
              ],
              [
                45.21540451049805,
                41.39224624633789
              ],
              [
                45.69265365600586,
                41.39224624633789
              ],
              [
                45.89424514770508,
                41.19768524169922
              ],
              [
                46.29153823852539,
                41.19768524169922
              ],
              [
                46.42557907104492,
                41.06801223754883
              ],
              [
                46.67628860473633,
                41.132843017578125
              ],
              [
                46.71403884887695,
                41.32738494873047
              ],
              [
                46.580265045166016,
                41.45711898803711
              ],
              [
                46.20754623413086,
                41.586883544921875
              ],
              [
                46.41773986816406,
                41.84651184082031
              ],
              [
                46.7366943359375,
                41.84651184082031
              ],
              [
                47.27063751220703,
                41.32738494873047
              ],
              [
                47.5628776550293,
                41.19768524169922
              ],
              [
                47.89371109008789,
                41.26253128051758
              ],
              [
                48.47742462158203,
                41.781593322753906
              ],
              [
                48.55713653564453,
                41.781593322753906
              ]
            ],
            [
              [
                46.63613510131836,
                39.64360046386719
              ],
              [
                46.79377746582031,
                39.64360046386719
              ],
              [
                46.8493537902832,
                39.51427459716797
              ],
              [
                47.085670471191406,
                39.51427459716797
              ],
              [
                47.31425094604492,
                39.90232849121094
              ],
              [
                46.99855422973633,
                39.90232849121094
              ],
              [
                46.79737854003906,
                40.0964469909668
              ],
              [
                46.9367561340332,
                40.42012023925781
              ],
              [
                46.86980438232422,
                40.4848747253418
              ],
              [
                46.35890197753906,
                40.29063034057617
              ],
              [
                46.33516311645508,
                40.16116714477539
              ],
              [
                46.48136901855469,
                40.0964469909668
              ],
              [
                46.52500534057617,
                39.90232849121094
              ],
              [
                46.60393142700195,
                39.90232849121094
              ],
              [
                46.63613510131836,
                39.64360046386719
              ]
            ]
          ]
        ]
      }
    }
  ]
}