{
  "type": "FeatureCollection",
  "name": "territory-988",
  "features": [
    {
      "type": "Feature",
      "properties": {
        "Name": "Czech Republic",
        "FromYear": 1992,
        "ToYear": 1995,
        "Area": 80271.72668287605,
        "Type": "POLITY",
        "Wikipedia": "Czech Republic",
        "Wikidata": "Q213",
        "SeshatID": "",
        "Components": "",
        "MemberOf": ""
      },
      "geometry": {
        "type": "Polygon",
        "coordinates": [
          [
            [
              18.807432174682617,
              49.64793395996094
            ],
            [
              18.799970626831055,
              49.51522445678711
            ],
            [
              18.378620147705078,
              49.44889450073242
            ],
            [
              17.938142776489258,
              48.98506164550781
            ],
            [
              16.927988052368164,
              48.72037124633789
            ],
            [
              16.179914474487305,
              48.72037124633789
            ],
            [
              15.273609161376953,
              48.98506164550781
            ],
            [
              14.940543174743652,
              48.98506164550781
            ],
            [
              14.850005149841309,
              48.72037124633789
            ],
            [
              14.597285270690918,
              48.5881233215332
            ],
            [
              14.182053565979004,
              48.5881233215332
            ],
            [
              13.937092781066895,
              48.786521911621094
            ],
            [
              13.770781517028809,
              48.786521911621094
            ],
            [
              12.532414436340332,
              49.51522445678711
            ],
            [
              12.534139633178711,
              49.64793395996094
            ],
            [
              12.36764907836914,
              49.71431350708008
            ],
            [
              12.370920181274414,
              49.98000717163086
            ],
            [
              12.204005241394043,
              50.04647445678711
            ],
            [
              12.20633602142334,
              50.2459831237793
            ],
            [
              12.376081466674805,
              50.37908172607422
            ],
            [
              12.796454429626465,
              50.37908172607422
            ],
            [
              13.391927719116211,
              50.71213912963867
            ],
            [
              14.153997421264648,
              50.84549331665039
            ],
            [
              14.328418731689453,
              51.04566955566406
            ],
            [
              14.8309965133667,
              50.912200927734375
            ],
            [
              15.255345344543457,
              50.97892379760742
            ],
            [
              15.416954040527344,
              50.77880859375
            ],
            [
              16.338764190673828,
              50.64549255371094
            ],
            [
              16.24351692199707,
              50.37908172607422
            ],
            [
              16.487279891967773,
              50.17946243286133
            ],
            [
              16.823102951049805,
              50.17946243286133
            ],
            [
              16.919164657592773,
              50.445655822753906
            ],
            [
              17.750011444091797,
              50.2459831237793
            ],
            [
              17.739870071411133,
              50.04647445678711
            ],
            [
              18.487384796142578,
              49.91355895996094
            ],
            [
              18.807432174682617,
              49.64793395996094
            ]
          ]
        ]
      }
    }
  ]
}